"Longitude (x)","Latitude (y)","Station Name","Climate ID","Date/Time (LST)","Year","Month","Day","Time (LST)","Temp (°C)","Temp Flag","Dew Point Temp (°C)","Dew Point Temp Flag","Rel Hum (%)","Rel Hum Flag","Precip. Amount (mm)","Precip. Amount Flag","Wind Dir (10s deg)","Wind Dir Flag","Wind Spd (km/h)","Wind Spd Flag","Visibility (km)","Visibility Flag","Stn Press (kPa)","Stn Press Flag","Hmdx","Hmdx Flag","Wind Chill","Wind Chill Flag","Weather"
"-131.66","54.16","ROSE SPIT (AUT)","1056869","2012-02-01 00:00","2012","02","01","00:00"
"-131.66","54.16","ROSE SPIT (AUT)","1056869","2012-02-01 01:00","2012","02","01","01:00"
"-131.66","54.16","ROSE SPIT (AUT)","1056869","2012-02-01 02:00","2012","02","01","02:00"
"-131.66","54.16","ROSE SPIT (AUT)","1056869","2012-02-01 03:00","2012","02","01","03:00"
"-131.66","54.16","ROSE SPIT (AUT)","1056869","2012-02-01 04:00","2012","02","01","04:00"
"-131.66","54.16","ROSE SPIT (AUT)","1056869","2012-02-01 05:00","2012","02","01","05:00"
"-131.66","54.16","ROSE SPIT (AUT)","1056869","2012-02-01 06:00","2012","02","01","06:00"
"-131.66","54.16","ROSE SPIT (AUT)","1056869","2012-02-01 07:00","2012","02","01","07:00"
"-131.66","54.16","ROSE SPIT (AUT)","1056869","2012-02-01 08:00","2012","02","01","08:00"
"-131.66","54.16","ROSE SPIT (AUT)","1056869","2012-02-01 09:00","2012","02","01","09:00"
"-131.66","54.16","ROSE SPIT (AUT)","1056869","2012-02-01 10:00","2012","02","01","10:00"
"-131.66","54.16","ROSE SPIT (AUT)","1056869","2012-02-01 11:00","2012","02","01","11:00","4.1","","2.2","","87","","","","15","","33","","","","","M","","","","","NA"
"-131.66","54.16","ROSE SPIT (AUT)","1056869","2012-02-01 12:00","2012","02","01","12:00","4.3","","1.7","","83","","","","15","","43","","","","","M","","","","","NA"
"-131.66","54.16","ROSE SPIT (AUT)","1056869","2012-02-01 13:00","2012","02","01","13:00","4.7","","1.7","","81","","","","15","","52","","","","","M","","","","","NA"
"-131.66","54.16","ROSE SPIT (AUT)","1056869","2012-02-01 14:00","2012","02","01","14:00"
"-131.66","54.16","ROSE SPIT (AUT)","1056869","2012-02-01 15:00","2012","02","01","15:00"
"-131.66","54.16","ROSE SPIT (AUT)","1056869","2012-02-01 16:00","2012","02","01","16:00"
"-131.66","54.16","ROSE SPIT (AUT)","1056869","2012-02-01 17:00","2012","02","01","17:00"
"-131.66","54.16","ROSE SPIT (AUT)","1056869","2012-02-01 18:00","2012","02","01","18:00"
"-131.66","54.16","ROSE SPIT (AUT)","1056869","2012-02-01 19:00","2012","02","01","19:00"
"-131.66","54.16","ROSE SPIT (AUT)","1056869","2012-02-01 20:00","2012","02","01","20:00"
"-131.66","54.16","ROSE SPIT (AUT)","1056869","2012-02-01 21:00","2012","02","01","21:00"
"-131.66","54.16","ROSE SPIT (AUT)","1056869","2012-02-01 22:00","2012","02","01","22:00"
"-131.66","54.16","ROSE SPIT (AUT)","1056869","2012-02-01 23:00","2012","02","01","23:00"
"-131.66","54.16","ROSE SPIT (AUT)","1056869","2012-02-02 00:00","2012","02","02","00:00"
"-131.66","54.16","ROSE SPIT (AUT)","1056869","2012-02-02 01:00","2012","02","02","01:00"
"-131.66","54.16","ROSE SPIT (AUT)","1056869","2012-02-02 02:00","2012","02","02","02:00"
"-131.66","54.16","ROSE SPIT (AUT)","1056869","2012-02-02 03:00","2012","02","02","03:00"
"-131.66","54.16","ROSE SPIT (AUT)","1056869","2012-02-02 04:00","2012","02","02","04:00"
"-131.66","54.16","ROSE SPIT (AUT)","1056869","2012-02-02 05:00","2012","02","02","05:00"
"-131.66","54.16","ROSE SPIT (AUT)","1056869","2012-02-02 06:00","2012","02","02","06:00"
"-131.66","54.16","ROSE SPIT (AUT)","1056869","2012-02-02 07:00","2012","02","02","07:00"
"-131.66","54.16","ROSE SPIT (AUT)","1056869","2012-02-02 08:00","2012","02","02","08:00"
"-131.66","54.16","ROSE SPIT (AUT)","1056869","2012-02-02 09:00","2012","02","02","09:00"
"-131.66","54.16","ROSE SPIT (AUT)","1056869","2012-02-02 10:00","2012","02","02","10:00"
"-131.66","54.16","ROSE SPIT (AUT)","1056869","2012-02-02 11:00","2012","02","02","11:00"
"-131.66","54.16","ROSE SPIT (AUT)","1056869","2012-02-02 12:00","2012","02","02","12:00"
"-131.66","54.16","ROSE SPIT (AUT)","1056869","2012-02-02 13:00","2012","02","02","13:00"
"-131.66","54.16","ROSE SPIT (AUT)","1056869","2012-02-02 14:00","2012","02","02","14:00"
"-131.66","54.16","ROSE SPIT (AUT)","1056869","2012-02-02 15:00","2012","02","02","15:00"
"-131.66","54.16","ROSE SPIT (AUT)","1056869","2012-02-02 16:00","2012","02","02","16:00"
"-131.66","54.16","ROSE SPIT (AUT)","1056869","2012-02-02 17:00","2012","02","02","17:00"
"-131.66","54.16","ROSE SPIT (AUT)","1056869","2012-02-02 18:00","2012","02","02","18:00"
"-131.66","54.16","ROSE SPIT (AUT)","1056869","2012-02-02 19:00","2012","02","02","19:00"
"-131.66","54.16","ROSE SPIT (AUT)","1056869","2012-02-02 20:00","2012","02","02","20:00"
"-131.66","54.16","ROSE SPIT (AUT)","1056869","2012-02-02 21:00","2012","02","02","21:00"
"-131.66","54.16","ROSE SPIT (AUT)","1056869","2012-02-02 22:00","2012","02","02","22:00"
"-131.66","54.16","ROSE SPIT (AUT)","1056869","2012-02-02 23:00","2012","02","02","23:00"
"-131.66","54.16","ROSE SPIT (AUT)","1056869","2012-02-03 00:00","2012","02","03","00:00"
"-131.66","54.16","ROSE SPIT (AUT)","1056869","2012-02-03 01:00","2012","02","03","01:00"
"-131.66","54.16","ROSE SPIT (AUT)","1056869","2012-02-03 02:00","2012","02","03","02:00"
"-131.66","54.16","ROSE SPIT (AUT)","1056869","2012-02-03 03:00","2012","02","03","03:00"
"-131.66","54.16","ROSE SPIT (AUT)","1056869","2012-02-03 04:00","2012","02","03","04:00"
"-131.66","54.16","ROSE SPIT (AUT)","1056869","2012-02-03 05:00","2012","02","03","05:00"
"-131.66","54.16","ROSE SPIT (AUT)","1056869","2012-02-03 06:00","2012","02","03","06:00"
"-131.66","54.16","ROSE SPIT (AUT)","1056869","2012-02-03 07:00","2012","02","03","07:00"
"-131.66","54.16","ROSE SPIT (AUT)","1056869","2012-02-03 08:00","2012","02","03","08:00"
"-131.66","54.16","ROSE SPIT (AUT)","1056869","2012-02-03 09:00","2012","02","03","09:00"
"-131.66","54.16","ROSE SPIT (AUT)","1056869","2012-02-03 10:00","2012","02","03","10:00"
"-131.66","54.16","ROSE SPIT (AUT)","1056869","2012-02-03 11:00","2012","02","03","11:00"
"-131.66","54.16","ROSE SPIT (AUT)","1056869","2012-02-03 12:00","2012","02","03","12:00"
"-131.66","54.16","ROSE SPIT (AUT)","1056869","2012-02-03 13:00","2012","02","03","13:00","6.1","","4.5","","89","","","","15","","32","","","","","M","","","","","NA"
"-131.66","54.16","ROSE SPIT (AUT)","1056869","2012-02-03 14:00","2012","02","03","14:00","6.3","","4.5","","88","","","","15","","24","","","","","M","","","","","NA"
"-131.66","54.16","ROSE SPIT (AUT)","1056869","2012-02-03 15:00","2012","02","03","15:00","6.2","","4.5","","89","","","","15","","20","","","","","M","","","","","NA"
"-131.66","54.16","ROSE SPIT (AUT)","1056869","2012-02-03 16:00","2012","02","03","16:00","6.0","","4.3","","89","","","","15","","15","","","","","M","","","","","NA"
"-131.66","54.16","ROSE SPIT (AUT)","1056869","2012-02-03 17:00","2012","02","03","17:00","5.3","","3.8","","90","","","","13","","17","","","","","M","","","","","NA"
"-131.66","54.16","ROSE SPIT (AUT)","1056869","2012-02-03 18:00","2012","02","03","18:00","4.4","","3.2","","92","","","","11","","11","","","","","M","","","","","NA"
"-131.66","54.16","ROSE SPIT (AUT)","1056869","2012-02-03 19:00","2012","02","03","19:00","2.9","","1.6","","91","","","","10","","4","","","","","M","","","","","NA"
"-131.66","54.16","ROSE SPIT (AUT)","1056869","2012-02-03 20:00","2012","02","03","20:00","3.3","","2.4","","94","","","","5","","9","","","","","M","","","","","NA"
"-131.66","54.16","ROSE SPIT (AUT)","1056869","2012-02-03 21:00","2012","02","03","21:00","3.3","","2.4","","94","","","","5","","7","","","","","M","","","","","NA"
"-131.66","54.16","ROSE SPIT (AUT)","1056869","2012-02-03 22:00","2012","02","03","22:00","2.6","","1.9","","95","","","","3","","7","","","","","M","","","","","NA"
"-131.66","54.16","ROSE SPIT (AUT)","1056869","2012-02-03 23:00","2012","02","03","23:00","3.1","","2.4","","95","","","","5","","9","","","","","M","","","","","NA"
"-131.66","54.16","ROSE SPIT (AUT)","1056869","2012-02-04 00:00","2012","02","04","00:00","3.0","","2.3","","95","","","","4","","9","","","","","M","","","","","NA"
"-131.66","54.16","ROSE SPIT (AUT)","1056869","2012-02-04 01:00","2012","02","04","01:00","3.0","","2.3","","95","","","","3","","15","","","","","M","","","","","NA"
"-131.66","54.16","ROSE SPIT (AUT)","1056869","2012-02-04 02:00","2012","02","04","02:00","3.0","","2.2","","94","","","","3","","11","","","","","M","","","","","NA"
"-131.66","54.16","ROSE SPIT (AUT)","1056869","2012-02-04 03:00","2012","02","04","03:00","3.4","","2.7","","95","","","","5","","17","","","","","M","","","","","NA"
"-131.66","54.16","ROSE SPIT (AUT)","1056869","2012-02-04 04:00","2012","02","04","04:00","4.4","","3.7","","95","","","","11","","13","","","","","M","","","","","NA"
"-131.66","54.16","ROSE SPIT (AUT)","1056869","2012-02-04 05:00","2012","02","04","05:00","4.9","","4.2","","95","","","","11","","19","","","","","M","","","","","NA"
"-131.66","54.16","ROSE SPIT (AUT)","1056869","2012-02-04 06:00","2012","02","04","06:00","4.8","","4.2","","96","","","","11","","19","","","","","M","","","","","NA"
"-131.66","54.16","ROSE SPIT (AUT)","1056869","2012-02-04 07:00","2012","02","04","07:00"
"-131.66","54.16","ROSE SPIT (AUT)","1056869","2012-02-04 08:00","2012","02","04","08:00"
"-131.66","54.16","ROSE SPIT (AUT)","1056869","2012-02-04 09:00","2012","02","04","09:00"
"-131.66","54.16","ROSE SPIT (AUT)","1056869","2012-02-04 10:00","2012","02","04","10:00"
"-131.66","54.16","ROSE SPIT (AUT)","1056869","2012-02-04 11:00","2012","02","04","11:00"
"-131.66","54.16","ROSE SPIT (AUT)","1056869","2012-02-04 12:00","2012","02","04","12:00","4.9","","3.8","","93","","","","6","","22","","","","","M","","","","","NA"
"-131.66","54.16","ROSE SPIT (AUT)","1056869","2012-02-04 13:00","2012","02","04","13:00","5.2","","3.8","","91","","","","7","","22","","","","","M","","","","","NA"
"-131.66","54.16","ROSE SPIT (AUT)","1056869","2012-02-04 14:00","2012","02","04","14:00","5.4","","3.7","","89","","","","7","","24","","","","","M","","","","","NA"
"-131.66","54.16","ROSE SPIT (AUT)","1056869","2012-02-04 15:00","2012","02","04","15:00","5.4","","3.7","","89","","","","7","","22","","","","","M","","","","","NA"
"-131.66","54.16","ROSE SPIT (AUT)","1056869","2012-02-04 16:00","2012","02","04","16:00","5.5","","3.7","","88","","","","7","","20","","","","","M","","","","","NA"
"-131.66","54.16","ROSE SPIT (AUT)","1056869","2012-02-04 17:00","2012","02","04","17:00","5.2","","3.4","","88","","","","7","","24","","","","","M","","","","","NA"
"-131.66","54.16","ROSE SPIT (AUT)","1056869","2012-02-04 18:00","2012","02","04","18:00","5.1","","3.2","","88","","","","7","","22","","","","","M","","","","","NA"
"-131.66","54.16","ROSE SPIT (AUT)","1056869","2012-02-04 19:00","2012","02","04","19:00","5.1","","3.1","","87","","","","6","","24","","","","","M","","","","","NA"
"-131.66","54.16","ROSE SPIT (AUT)","1056869","2012-02-04 20:00","2012","02","04","20:00","5.3","","3.2","","86","","","","6","","30","","","","","M","","","","","NA"
"-131.66","54.16","ROSE SPIT (AUT)","1056869","2012-02-04 21:00","2012","02","04","21:00","5.3","","3.3","","87","","","","6","","30","","","","","M","","","","","NA"
"-131.66","54.16","ROSE SPIT (AUT)","1056869","2012-02-04 22:00","2012","02","04","22:00","5.3","","3.3","","87","","","","6","","32","","","","","M","","","","","NA"
"-131.66","54.16","ROSE SPIT (AUT)","1056869","2012-02-04 23:00","2012","02","04","23:00","5.2","","3.3","","88","","","","7","","30","","","","","M","","","","","NA"
"-131.66","54.16","ROSE SPIT (AUT)","1056869","2012-02-05 00:00","2012","02","05","00:00","5.2","","3.1","","86","","","","7","","33","","","","","M","","","","","NA"
"-131.66","54.16","ROSE SPIT (AUT)","1056869","2012-02-05 01:00","2012","02","05","01:00","5.1","","3.1","","87","","","","8","","32","","","","","M","","","","","NA"
"-131.66","54.16","ROSE SPIT (AUT)","1056869","2012-02-05 02:00","2012","02","05","02:00","5.1","","3.1","","87","","","","7","","32","","","","","M","","","","","NA"
"-131.66","54.16","ROSE SPIT (AUT)","1056869","2012-02-05 03:00","2012","02","05","03:00","5.2","","3.2","","87","","","","8","","32","","","","","M","","","","","NA"
"-131.66","54.16","ROSE SPIT (AUT)","1056869","2012-02-05 04:00","2012","02","05","04:00","5.2","","3.3","","88","","","","8","","28","","","","","M","","","","","NA"
"-131.66","54.16","ROSE SPIT (AUT)","1056869","2012-02-05 05:00","2012","02","05","05:00","5.7","","3.3","","85","","","","9","","33","","","","","M","","","","","NA"
"-131.66","54.16","ROSE SPIT (AUT)","1056869","2012-02-05 06:00","2012","02","05","06:00","6.6","","2.8","","77","","","","11","","35","","","","","M","","","","","NA"
"-131.66","54.16","ROSE SPIT (AUT)","1056869","2012-02-05 07:00","2012","02","05","07:00","7.2","","2.3","","71","","","","15","","44","","","","","M","","","","","NA"
"-131.66","54.16","ROSE SPIT (AUT)","1056869","2012-02-05 08:00","2012","02","05","08:00","7.2","","3.2","","76","","","","14","","54","","","","","M","","","","","NA"
"-131.66","54.16","ROSE SPIT (AUT)","1056869","2012-02-05 09:00","2012","02","05","09:00"
"-131.66","54.16","ROSE SPIT (AUT)","1056869","2012-02-05 10:00","2012","02","05","10:00"
"-131.66","54.16","ROSE SPIT (AUT)","1056869","2012-02-05 11:00","2012","02","05","11:00"
"-131.66","54.16","ROSE SPIT (AUT)","1056869","2012-02-05 12:00","2012","02","05","12:00","6.0","","4.0","","87","","","","13","","57","","","","","M","","","","","NA"
"-131.66","54.16","ROSE SPIT (AUT)","1056869","2012-02-05 13:00","2012","02","05","13:00","6.3","","4.0","","85","","","","13","","50","","","","","M","","","","","NA"
"-131.66","54.16","ROSE SPIT (AUT)","1056869","2012-02-05 14:00","2012","02","05","14:00","6.2","","3.8","","85","","","","14","","50","","","","","M","","","","","NA"
"-131.66","54.16","ROSE SPIT (AUT)","1056869","2012-02-05 15:00","2012","02","05","15:00","6.4","","4.4","","87","","","","13","","48","","","","","M","","","","","NA"
"-131.66","54.16","ROSE SPIT (AUT)","1056869","2012-02-05 16:00","2012","02","05","16:00","6.0","","4.1","","88","","","","13","","50","","","","","M","","","","","NA"
"-131.66","54.16","ROSE SPIT (AUT)","1056869","2012-02-05 17:00","2012","02","05","17:00","5.7","","3.9","","88","","","","13","","44","","","","","M","","","","","NA"
"-131.66","54.16","ROSE SPIT (AUT)","1056869","2012-02-05 18:00","2012","02","05","18:00","5.5","","3.3","","86","","","","13","","43","","","","","M","","","","","NA"
"-131.66","54.16","ROSE SPIT (AUT)","1056869","2012-02-05 19:00","2012","02","05","19:00","5.7","","3.8","","88","","","","13","","41","","","","","M","","","","","NA"
"-131.66","54.16","ROSE SPIT (AUT)","1056869","2012-02-05 20:00","2012","02","05","20:00","5.4","","3.4","","87","","","","13","","39","","","","","M","","","","","NA"
"-131.66","54.16","ROSE SPIT (AUT)","1056869","2012-02-05 21:00","2012","02","05","21:00","5.3","","3.7","","89","","","","13","","35","","","","","M","","","","","NA"
"-131.66","54.16","ROSE SPIT (AUT)","1056869","2012-02-05 22:00","2012","02","05","22:00","5.5","","3.9","","89","","","","14","","35","","","","","M","","","","","NA"
"-131.66","54.16","ROSE SPIT (AUT)","1056869","2012-02-05 23:00","2012","02","05","23:00","5.1","","3.8","","91","","","","13","","30","","","","","M","","","","","NA"
"-131.66","54.16","ROSE SPIT (AUT)","1056869","2012-02-06 00:00","2012","02","06","00:00","4.7","","3.0","","89","","","","13","","32","","","","","M","","","","","NA"
"-131.66","54.16","ROSE SPIT (AUT)","1056869","2012-02-06 01:00","2012","02","06","01:00","4.9","","3.2","","89","","","","13","","26","","","","","M","","","","","NA"
"-131.66","54.16","ROSE SPIT (AUT)","1056869","2012-02-06 02:00","2012","02","06","02:00","4.9","","3.5","","91","","","","13","","24","","","","","M","","","","","NA"
"-131.66","54.16","ROSE SPIT (AUT)","1056869","2012-02-06 03:00","2012","02","06","03:00","4.8","","3.3","","90","","","","13","","22","","","","","M","","","","","NA"
"-131.66","54.16","ROSE SPIT (AUT)","1056869","2012-02-06 04:00","2012","02","06","04:00","4.4","","3.1","","91","","","","13","","19","","","","","M","","","","","NA"
"-131.66","54.16","ROSE SPIT (AUT)","1056869","2012-02-06 05:00","2012","02","06","05:00","4.3","","3.1","","92","","","","12","","20","","","","","M","","","","","NA"
"-131.66","54.16","ROSE SPIT (AUT)","1056869","2012-02-06 06:00","2012","02","06","06:00","4.2","","3.1","","93","","","","10","","17","","","","","M","","","","","NA"
"-131.66","54.16","ROSE SPIT (AUT)","1056869","2012-02-06 07:00","2012","02","06","07:00"
"-131.66","54.16","ROSE SPIT (AUT)","1056869","2012-02-06 08:00","2012","02","06","08:00"
"-131.66","54.16","ROSE SPIT (AUT)","1056869","2012-02-06 09:00","2012","02","06","09:00"
"-131.66","54.16","ROSE SPIT (AUT)","1056869","2012-02-06 10:00","2012","02","06","10:00","5.0","","3.5","","90","","","","7","","17","","","","","M","","","","","NA"
"-131.66","54.16","ROSE SPIT (AUT)","1056869","2012-02-06 11:00","2012","02","06","11:00","5.5","","3.5","","87","","","","6","","17","","","","","M","","","","","NA"
"-131.66","54.16","ROSE SPIT (AUT)","1056869","2012-02-06 12:00","2012","02","06","12:00","5.9","","3.5","","85","","","","7","","15","","","","","M","","","","","NA"
"-131.66","54.16","ROSE SPIT (AUT)","1056869","2012-02-06 13:00","2012","02","06","13:00","6.2","","3.4","","82","","","","7","","19","","","","","M","","","","","NA"
"-131.66","54.16","ROSE SPIT (AUT)","1056869","2012-02-06 14:00","2012","02","06","14:00","6.4","","3.3","","81","","","","7","","17","","","","","M","","","","","NA"
"-131.66","54.16","ROSE SPIT (AUT)","1056869","2012-02-06 15:00","2012","02","06","15:00","6.5","","3.2","","79","","","","7","","17","","","","","M","","","","","NA"
"-131.66","54.16","ROSE SPIT (AUT)","1056869","2012-02-06 16:00","2012","02","06","16:00","5.8","","3.0","","82","","","","7","","13","","","","","M","","","","","NA"
"-131.66","54.16","ROSE SPIT (AUT)","1056869","2012-02-06 17:00","2012","02","06","17:00","5.5","","3.1","","85","","","","5","","20","","","","","M","","","","","NA"
"-131.66","54.16","ROSE SPIT (AUT)","1056869","2012-02-06 18:00","2012","02","06","18:00","5.7","","2.6","","80","","","","6","","22","","","","","M","","","","","NA"
"-131.66","54.16","ROSE SPIT (AUT)","1056869","2012-02-06 19:00","2012","02","06","19:00","5.8","","2.6","","80","","","","6","","22","","","","","M","","","","","NA"
"-131.66","54.16","ROSE SPIT (AUT)","1056869","2012-02-06 20:00","2012","02","06","20:00","5.9","","2.5","","79","","","","6","","24","","","","","M","","","","","NA"
"-131.66","54.16","ROSE SPIT (AUT)","1056869","2012-02-06 21:00","2012","02","06","21:00","6.0","","2.4","","78","","","","6","","30","","","","","M","","","","","NA"
"-131.66","54.16","ROSE SPIT (AUT)","1056869","2012-02-06 22:00","2012","02","06","22:00","6.0","","2.5","","78","","","","6","","28","","","","","M","","","","","NA"
"-131.66","54.16","ROSE SPIT (AUT)","1056869","2012-02-06 23:00","2012","02","06","23:00","6.0","","2.6","","79","","","","6","","26","","","","","M","","","","","NA"
"-131.66","54.16","ROSE SPIT (AUT)","1056869","2012-02-07 00:00","2012","02","07","00:00","5.8","","2.5","","79","","","","6","","26","","","","","M","","","","","NA"
"-131.66","54.16","ROSE SPIT (AUT)","1056869","2012-02-07 01:00","2012","02","07","01:00","5.7","","2.8","","82","","","","6","","20","","","","","M","","","","","NA"
"-131.66","54.16","ROSE SPIT (AUT)","1056869","2012-02-07 02:00","2012","02","07","02:00","5.5","","2.6","","82","","","","7","","22","","","","","M","","","","","NA"
"-131.66","54.16","ROSE SPIT (AUT)","1056869","2012-02-07 03:00","2012","02","07","03:00","5.6","","2.8","","82","","","","7","","24","","","","","M","","","","","NA"
"-131.66","54.16","ROSE SPIT (AUT)","1056869","2012-02-07 04:00","2012","02","07","04:00","5.7","","2.5","","80","","","","7","","24","","","","","M","","","","","NA"
"-131.66","54.16","ROSE SPIT (AUT)","1056869","2012-02-07 05:00","2012","02","07","05:00","5.6","","2.4","","80","","","","7","","26","","","","","M","","","","","NA"
"-131.66","54.16","ROSE SPIT (AUT)","1056869","2012-02-07 06:00","2012","02","07","06:00","5.4","","2.4","","81","","","","7","","24","","","","","M","","","","","NA"
"-131.66","54.16","ROSE SPIT (AUT)","1056869","2012-02-07 07:00","2012","02","07","07:00","5.2","","2.4","","82","","","","7","","20","","","","","M","","","","","NA"
"-131.66","54.16","ROSE SPIT (AUT)","1056869","2012-02-07 08:00","2012","02","07","08:00","5.0","","2.4","","83","","","","6","","19","","","","","M","","","","","NA"
"-131.66","54.16","ROSE SPIT (AUT)","1056869","2012-02-07 09:00","2012","02","07","09:00","5.4","","2.4","","81","","","","7","","26","","","","","M","","","","","NA"
"-131.66","54.16","ROSE SPIT (AUT)","1056869","2012-02-07 10:00","2012","02","07","10:00","5.9","","2.5","","79","","","","7","","28","","","","","M","","","","","NA"
"-131.66","54.16","ROSE SPIT (AUT)","1056869","2012-02-07 11:00","2012","02","07","11:00","6.1","","2.5","","78","","","","7","","28","","","","","M","","","","","NA"
"-131.66","54.16","ROSE SPIT (AUT)","1056869","2012-02-07 12:00","2012","02","07","12:00","6.3","","2.5","","77","","","","8","","33","","","","","M","","","","","NA"
"-131.66","54.16","ROSE SPIT (AUT)","1056869","2012-02-07 13:00","2012","02","07","13:00","6.5","","2.7","","77","","","","7","","28","","","","","M","","","","","NA"
"-131.66","54.16","ROSE SPIT (AUT)","1056869","2012-02-07 14:00","2012","02","07","14:00","6.9","","2.8","","75","","","","9","","24","","","","","M","","","","","NA"
"-131.66","54.16","ROSE SPIT (AUT)","1056869","2012-02-07 15:00","2012","02","07","15:00","7.0","","2.8","","75","","","","8","","28","","","","","M","","","","","NA"
"-131.66","54.16","ROSE SPIT (AUT)","1056869","2012-02-07 16:00","2012","02","07","16:00","6.3","","2.9","","79","","","","8","","30","","","","","M","","","","","NA"
"-131.66","54.16","ROSE SPIT (AUT)","1056869","2012-02-07 17:00","2012","02","07","17:00","6.1","","3.0","","80","","","","8","","32","","","","","M","","","","","NA"
"-131.66","54.16","ROSE SPIT (AUT)","1056869","2012-02-07 18:00","2012","02","07","18:00","5.8","","3.3","","84","","","","8","","26","","","","","M","","","","","NA"
"-131.66","54.16","ROSE SPIT (AUT)","1056869","2012-02-07 19:00","2012","02","07","19:00","6.2","","3.1","","81","","","","9","","30","","","","","M","","","","","NA"
"-131.66","54.16","ROSE SPIT (AUT)","1056869","2012-02-07 20:00","2012","02","07","20:00","6.3","","2.9","","79","","","","8","","32","","","","","M","","","","","NA"
"-131.66","54.16","ROSE SPIT (AUT)","1056869","2012-02-07 21:00","2012","02","07","21:00","6.3","","2.9","","79","","","","7","","32","","","","","M","","","","","NA"
"-131.66","54.16","ROSE SPIT (AUT)","1056869","2012-02-07 22:00","2012","02","07","22:00","6.4","","2.6","","77","","","","7","","35","","","","","M","","","","","NA"
"-131.66","54.16","ROSE SPIT (AUT)","1056869","2012-02-07 23:00","2012","02","07","23:00","6.2","","2.7","","78","","","","8","","35","","","","","M","","","","","NA"
"-131.66","54.16","ROSE SPIT (AUT)","1056869","2012-02-08 00:00","2012","02","08","00:00","6.2","","2.8","","79","","","","8","","32","","","","","M","","","","","NA"
"-131.66","54.16","ROSE SPIT (AUT)","1056869","2012-02-08 01:00","2012","02","08","01:00","7.1","","2.3","","71","","","","13","","30","","","","","M","","","","","NA"
"-131.66","54.16","ROSE SPIT (AUT)","1056869","2012-02-08 02:00","2012","02","08","02:00","6.4","","3.4","","81","","","","14","","30","","","","","M","","","","","NA"
"-131.66","54.16","ROSE SPIT (AUT)","1056869","2012-02-08 03:00","2012","02","08","03:00","7.5","","3.1","","74","","","","12","","52","","","","","M","","","","","NA"
"-131.66","54.16","ROSE SPIT (AUT)","1056869","2012-02-08 04:00","2012","02","08","04:00","7.1","","2.9","","75","","","","12","","48","","","","","M","","","","","NA"
"-131.66","54.16","ROSE SPIT (AUT)","1056869","2012-02-08 05:00","2012","02","08","05:00","6.9","","3.1","","77","","","","11","","46","","","","","M","","","","","NA"
"-131.66","54.16","ROSE SPIT (AUT)","1056869","2012-02-08 06:00","2012","02","08","06:00","6.9","","3.0","","76","","","","11","","43","","","","","M","","","","","NA"
"-131.66","54.16","ROSE SPIT (AUT)","1056869","2012-02-08 07:00","2012","02","08","07:00","6.6","","3.1","","78","","","","10","","37","","","","","M","","","","","NA"
"-131.66","54.16","ROSE SPIT (AUT)","1056869","2012-02-08 08:00","2012","02","08","08:00","6.8","","2.8","","76","","","","10","","37","","","","","M","","","","","NA"
"-131.66","54.16","ROSE SPIT (AUT)","1056869","2012-02-08 09:00","2012","02","08","09:00","7.2","","3.0","","75","","","","11","","43","","","","","M","","","","","NA"
"-131.66","54.16","ROSE SPIT (AUT)","1056869","2012-02-08 10:00","2012","02","08","10:00","6.7","","3.6","","81","","","","12","","37","","","","","M","","","","","NA"
"-131.66","54.16","ROSE SPIT (AUT)","1056869","2012-02-08 11:00","2012","02","08","11:00","6.6","","4.2","","85","","","","12","","37","","","","","M","","","","","NA"
"-131.66","54.16","ROSE SPIT (AUT)","1056869","2012-02-08 12:00","2012","02","08","12:00","6.7","","4.4","","85","","","","12","","48","","","","","M","","","","","NA"
"-131.66","54.16","ROSE SPIT (AUT)","1056869","2012-02-08 13:00","2012","02","08","13:00","6.3","","4.4","","88","","","","12","","52","","","","","M","","","","","NA"
"-131.66","54.16","ROSE SPIT (AUT)","1056869","2012-02-08 14:00","2012","02","08","14:00","5.8","","4.6","","92","","","","12","","50","","","","","M","","","","","NA"
"-131.66","54.16","ROSE SPIT (AUT)","1056869","2012-02-08 15:00","2012","02","08","15:00","5.7","","4.9","","95","","","","12","","50","","","","","M","","","","","NA"
"-131.66","54.16","ROSE SPIT (AUT)","1056869","2012-02-08 16:00","2012","02","08","16:00","5.9","","5.1","","95","","","","13","","48","","","","","M","","","","","NA"
"-131.66","54.16","ROSE SPIT (AUT)","1056869","2012-02-08 17:00","2012","02","08","17:00","6.0","","5.3","","95","","","","14","","44","","","","","M","","","","","NA"
"-131.66","54.16","ROSE SPIT (AUT)","1056869","2012-02-08 18:00","2012","02","08","18:00","6.0","","5.3","","95","","","","15","","41","","","","","M","","","","","NA"
"-131.66","54.16","ROSE SPIT (AUT)","1056869","2012-02-08 19:00","2012","02","08","19:00","5.9","","5.3","","96","","","","14","","37","","","","","M","","","","","NA"
"-131.66","54.16","ROSE SPIT (AUT)","1056869","2012-02-08 20:00","2012","02","08","20:00","5.8","","5.2","","96","","","","14","","35","","","","","M","","","","","NA"
"-131.66","54.16","ROSE SPIT (AUT)","1056869","2012-02-08 21:00","2012","02","08","21:00","5.9","","5.3","","96","","","","13","","33","","","","","M","","","","","NA"
"-131.66","54.16","ROSE SPIT (AUT)","1056869","2012-02-08 22:00","2012","02","08","22:00","5.8","","5.2","","96","","","","13","","32","","","","","M","","","","","NA"
"-131.66","54.16","ROSE SPIT (AUT)","1056869","2012-02-08 23:00","2012","02","08","23:00","5.7","","5.1","","96","","","","13","","30","","","","","M","","","","","NA"
"-131.66","54.16","ROSE SPIT (AUT)","1056869","2012-02-09 00:00","2012","02","09","00:00","5.7","","5.2","","97","","","","12","","35","","","","","M","","","","","NA"
"-131.66","54.16","ROSE SPIT (AUT)","1056869","2012-02-09 01:00","2012","02","09","01:00","5.6","","5.1","","97","","","","12","","39","","","","","M","","","","","NA"
"-131.66","54.16","ROSE SPIT (AUT)","1056869","2012-02-09 02:00","2012","02","09","02:00","5.6","","5.0","","96","","","","11","","30","","","","","M","","","","","NA"
"-131.66","54.16","ROSE SPIT (AUT)","1056869","2012-02-09 03:00","2012","02","09","03:00","5.7","","4.9","","95","","","","10","","26","","","","","M","","","","","NA"
"-131.66","54.16","ROSE SPIT (AUT)","1056869","2012-02-09 04:00","2012","02","09","04:00","5.7","","4.6","","93","","","","9","","32","","","","","M","","","","","NA"
"-131.66","54.16","ROSE SPIT (AUT)","1056869","2012-02-09 05:00","2012","02","09","05:00","5.6","","4.2","","91","","","","8","","37","","","","","M","","","","","NA"
"-131.66","54.16","ROSE SPIT (AUT)","1056869","2012-02-09 06:00","2012","02","09","06:00","5.3","","3.6","","89","","","","7","","39","","","","","M","","","","","NA"
"-131.66","54.16","ROSE SPIT (AUT)","1056869","2012-02-09 07:00","2012","02","09","07:00","5.3","","3.1","","86","","","","7","","39","","","","","M","","","","","NA"
"-131.66","54.16","ROSE SPIT (AUT)","1056869","2012-02-09 08:00","2012","02","09","08:00","5.4","","3.1","","85","","","","7","","43","","","","","M","","","","","NA"
"-131.66","54.16","ROSE SPIT (AUT)","1056869","2012-02-09 09:00","2012","02","09","09:00","5.6","","3.1","","84","","","","8","","41","","","","","M","","","","","NA"
"-131.66","54.16","ROSE SPIT (AUT)","1056869","2012-02-09 10:00","2012","02","09","10:00"
"-131.66","54.16","ROSE SPIT (AUT)","1056869","2012-02-09 11:00","2012","02","09","11:00"
"-131.66","54.16","ROSE SPIT (AUT)","1056869","2012-02-09 12:00","2012","02","09","12:00"
"-131.66","54.16","ROSE SPIT (AUT)","1056869","2012-02-09 13:00","2012","02","09","13:00"
"-131.66","54.16","ROSE SPIT (AUT)","1056869","2012-02-09 14:00","2012","02","09","14:00"
"-131.66","54.16","ROSE SPIT (AUT)","1056869","2012-02-09 15:00","2012","02","09","15:00"
"-131.66","54.16","ROSE SPIT (AUT)","1056869","2012-02-09 16:00","2012","02","09","16:00"
"-131.66","54.16","ROSE SPIT (AUT)","1056869","2012-02-09 17:00","2012","02","09","17:00"
"-131.66","54.16","ROSE SPIT (AUT)","1056869","2012-02-09 18:00","2012","02","09","18:00","5.7","","4.0","","89","","","","17","","22","","","","","M","","","","","NA"
"-131.66","54.16","ROSE SPIT (AUT)","1056869","2012-02-09 19:00","2012","02","09","19:00","5.6","","4.2","","91","","","","18","","20","","","","","M","","","","","NA"
"-131.66","54.16","ROSE SPIT (AUT)","1056869","2012-02-09 20:00","2012","02","09","20:00","5.4","","3.9","","90","","","","16","","26","","","","101.21","","","","","","NA"
"-131.66","54.16","ROSE SPIT (AUT)","1056869","2012-02-09 21:00","2012","02","09","21:00","5.0","","3.8","","92","","","","16","","26","","","","101.32","","","","","","NA"
"-131.66","54.16","ROSE SPIT (AUT)","1056869","2012-02-09 22:00","2012","02","09","22:00","4.6","","3.5","","93","","","","18","","20","","","","101.41","","","","","","NA"
"-131.66","54.16","ROSE SPIT (AUT)","1056869","2012-02-09 23:00","2012","02","09","23:00","3.7","","2.6","","93","","","","16","","7","","","","101.52","","","","","","NA"
"-131.66","54.16","ROSE SPIT (AUT)","1056869","2012-02-10 00:00","2012","02","10","00:00","2.5","","1.5","","93","","","","18","","13","","","","101.60","","","","","","NA"
"-131.66","54.16","ROSE SPIT (AUT)","1056869","2012-02-10 01:00","2012","02","10","01:00","2.4","","0.8","","89","","","","18","","11","","","","101.64","","","","","","NA"
"-131.66","54.16","ROSE SPIT (AUT)","1056869","2012-02-10 02:00","2012","02","10","02:00","2.9","","1.6","","91","","","","17","","11","","","","101.67","","","","","","NA"
"-131.66","54.16","ROSE SPIT (AUT)","1056869","2012-02-10 03:00","2012","02","10","03:00","2.1","","1.3","","94","","","","16","","6","","","","101.74","","","","","","NA"
"-131.66","54.16","ROSE SPIT (AUT)","1056869","2012-02-10 04:00","2012","02","10","04:00","3.9","","3.0","","94","","","","13","","9","","","","101.75","","","","","","NA"
"-131.66","54.16","ROSE SPIT (AUT)","1056869","2012-02-10 05:00","2012","02","10","05:00","3.7","","2.9","","94","","","","14","","9","","","","101.79","","","","","","NA"
"-131.66","54.16","ROSE SPIT (AUT)","1056869","2012-02-10 06:00","2012","02","10","06:00","2.2","","1.3","","94","","","","16","","7","","","","101.75","","","","","","NA"
"-131.66","54.16","ROSE SPIT (AUT)","1056869","2012-02-10 07:00","2012","02","10","07:00","2.9","","2.4","","97","","","","14","","4","","","","101.73","","","","","","NA"
"-131.66","54.16","ROSE SPIT (AUT)","1056869","2012-02-10 08:00","2012","02","10","08:00","1.4","","0.6","","94","","","","9","","2","","","","101.76","","","","","","NA"
"-131.66","54.16","ROSE SPIT (AUT)","1056869","2012-02-10 09:00","2012","02","10","09:00","-1.1","","-1.6","","96","","","","8","","2","","","","101.77","","","","-2","","NA"
"-131.66","54.16","ROSE SPIT (AUT)","1056869","2012-02-10 10:00","2012","02","10","10:00","-1.4","","-1.8","","97","","","","","","0","","","","101.76","","","","","","NA"
"-131.66","54.16","ROSE SPIT (AUT)","1056869","2012-02-10 11:00","2012","02","10","11:00","4.2","","3.8","","97","","","","25","","4","","","","101.73","","","","","","NA"
"-131.66","54.16","ROSE SPIT (AUT)","1056869","2012-02-10 12:00","2012","02","10","12:00","5.8","","5.2","","96","","","","26","","30","","","","101.78","","","","","","NA"
"-131.66","54.16","ROSE SPIT (AUT)","1056869","2012-02-10 13:00","2012","02","10","13:00","5.5","","4.5","","93","","","","1","","11","","","","101.75","","","","","","NA"
"-131.66","54.16","ROSE SPIT (AUT)","1056869","2012-02-10 14:00","2012","02","10","14:00","5.0","","3.9","","93","","","","2","","19","","","","101.68","","","","","","NA"
"-131.66","54.16","ROSE SPIT (AUT)","1056869","2012-02-10 15:00","2012","02","10","15:00","5.4","","4.6","","95","","","","36","","17","","","","101.62","","","","","","NA"
"-131.66","54.16","ROSE SPIT (AUT)","1056869","2012-02-10 16:00","2012","02","10","16:00","5.3","","4.2","","93","","","","35","","13","","","","101.60","","","","","","NA"
"-131.66","54.16","ROSE SPIT (AUT)","1056869","2012-02-10 17:00","2012","02","10","17:00","4.8","","3.6","","92","","","","36","","7","","","","101.57","","","","","","NA"
"-131.66","54.16","ROSE SPIT (AUT)","1056869","2012-02-10 18:00","2012","02","10","18:00","3.2","","2.2","","93","","","","31","","7","","","","101.56","","","","","","NA"
"-131.66","54.16","ROSE SPIT (AUT)","1056869","2012-02-10 19:00","2012","02","10","19:00","2.9","","2.1","","94","","","","31","","7","","","","101.56","","","","","","NA"
"-131.66","54.16","ROSE SPIT (AUT)","1056869","2012-02-10 20:00","2012","02","10","20:00","2.8","","2.0","","94","","","","32","","6","","","","101.52","","","","","","NA"
"-131.66","54.16","ROSE SPIT (AUT)","1056869","2012-02-10 21:00","2012","02","10","21:00","2.4","","1.7","","95","","","","31","","4","","","","101.48","","","","","","NA"
"-131.66","54.16","ROSE SPIT (AUT)","1056869","2012-02-10 22:00","2012","02","10","22:00","1.6","","1.1","","96","","","","24","","11","","","","101.50","","","","","","NA"
"-131.66","54.16","ROSE SPIT (AUT)","1056869","2012-02-10 23:00","2012","02","10","23:00","1.1","","0.6","","96","","","","24","","6","","","","101.47","","","","","","NA"
"-131.66","54.16","ROSE SPIT (AUT)","1056869","2012-02-11 00:00","2012","02","11","00:00","0.3","","-0.2","","96","","","","24","","9","","","","101.45","","","","","","NA"
"-131.66","54.16","ROSE SPIT (AUT)","1056869","2012-02-11 01:00","2012","02","11","01:00","0.6","","0.2","","97","","","","24","","4","","","","101.43","","","","","","NA"
"-131.66","54.16","ROSE SPIT (AUT)","1056869","2012-02-11 02:00","2012","02","11","02:00","0.2","","-0.2","","97","","","","24","","7","","","","101.45","","","","","","NA"
"-131.66","54.16","ROSE SPIT (AUT)","1056869","2012-02-11 03:00","2012","02","11","03:00","2.5","","2.1","","97","","","","15","","4","","","","101.46","","","","","","NA"
"-131.66","54.16","ROSE SPIT (AUT)","1056869","2012-02-11 04:00","2012","02","11","04:00","3.3","","2.8","","97","","","","13","","15","","","","101.41","","","","","","NA"
"-131.66","54.16","ROSE SPIT (AUT)","1056869","2012-02-11 05:00","2012","02","11","05:00","2.6","","2.2","","97","","","","15","","17","","","","101.44","","","","","","NA"
"-131.66","54.16","ROSE SPIT (AUT)","1056869","2012-02-11 06:00","2012","02","11","06:00","3.4","","3.0","","97","","","","16","","19","","","","101.45","","","","","","NA"
"-131.66","54.16","ROSE SPIT (AUT)","1056869","2012-02-11 07:00","2012","02","11","07:00","4.0","","3.6","","97","","","","15","","20","","","","101.42","","","","","","NA"
"-131.66","54.16","ROSE SPIT (AUT)","1056869","2012-02-11 08:00","2012","02","11","08:00","3.7","","3.3","","97","","","","16","","26","","","","101.41","","","","","","NA"
"-131.66","54.16","ROSE SPIT (AUT)","1056869","2012-02-11 09:00","2012","02","11","09:00","4.1","","3.6","","97","","","","15","","32","","","","101.37","","","","","","NA"
"-131.66","54.16","ROSE SPIT (AUT)","1056869","2012-02-11 10:00","2012","02","11","10:00","4.0","","3.5","","97","","","","14","","41","","","","101.32","","","","","","NA"
"-131.66","54.16","ROSE SPIT (AUT)","1056869","2012-02-11 11:00","2012","02","11","11:00","4.7","","4.2","","97","","","","15","","43","","","","101.34","","","","","","NA"
"-131.66","54.16","ROSE SPIT (AUT)","1056869","2012-02-11 12:00","2012","02","11","12:00","4.6","","3.7","","94","","","","16","","43","","","","101.31","","","","","","NA"
"-131.66","54.16","ROSE SPIT (AUT)","1056869","2012-02-11 13:00","2012","02","11","13:00","4.5","","3.2","","91","","","","15","","44","","","","101.24","","","","","","NA"
"-131.66","54.16","ROSE SPIT (AUT)","1056869","2012-02-11 14:00","2012","02","11","14:00","4.7","","3.6","","93","","","","15","","46","","","","101.16","","","","","","NA"
"-131.66","54.16","ROSE SPIT (AUT)","1056869","2012-02-11 15:00","2012","02","11","15:00","5.3","","4.1","","92","","","","15","","48","","","","101.06","","","","","","NA"
"-131.66","54.16","ROSE SPIT (AUT)","1056869","2012-02-11 16:00","2012","02","11","16:00","5.2","","4.1","","93","","","","15","","52","","","","101.03","","","","","","NA"
"-131.66","54.16","ROSE SPIT (AUT)","1056869","2012-02-11 17:00","2012","02","11","17:00","5.3","","4.0","","91","","","","15","","52","","","","100.95","","","","","","NA"
"-131.66","54.16","ROSE SPIT (AUT)","1056869","2012-02-11 18:00","2012","02","11","18:00","5.0","","3.7","","91","","","","15","","50","","","","100.89","","","","","","NA"
"-131.66","54.16","ROSE SPIT (AUT)","1056869","2012-02-11 19:00","2012","02","11","19:00","5.0","","4.0","","93","","","","15","","56","","","","100.84","","","","","","NA"
"-131.66","54.16","ROSE SPIT (AUT)","1056869","2012-02-11 20:00","2012","02","11","20:00","5.2","","4.4","","95","","","","15","","54","","","","100.80","","","","","","NA"
"-131.66","54.16","ROSE SPIT (AUT)","1056869","2012-02-11 21:00","2012","02","11","21:00","5.4","","4.7","","95","","","","15","","52","","","","100.79","","","","","","NA"
"-131.66","54.16","ROSE SPIT (AUT)","1056869","2012-02-11 22:00","2012","02","11","22:00","5.6","","5.0","","96","","","","15","","48","","","","100.79","","","","","","NA"
"-131.66","54.16","ROSE SPIT (AUT)","1056869","2012-02-11 23:00","2012","02","11","23:00","5.7","","5.1","","96","","","","16","","44","","","","100.80","","","","","","NA"
"-131.66","54.16","ROSE SPIT (AUT)","1056869","2012-02-12 00:00","2012","02","12","00:00","5.7","","5.1","","96","","","","16","","33","","","","100.85","","","","","","NA"
"-131.66","54.16","ROSE SPIT (AUT)","1056869","2012-02-12 01:00","2012","02","12","01:00","5.8","","5.1","","95","","","","19","","17","","","","100.90","","","","","","NA"
"-131.66","54.16","ROSE SPIT (AUT)","1056869","2012-02-12 02:00","2012","02","12","02:00","5.4","","4.7","","95","","","","24","","13","","","","100.96","","","","","","NA"
"-131.66","54.16","ROSE SPIT (AUT)","1056869","2012-02-12 03:00","2012","02","12","03:00","5.0","","4.3","","95","","","","24","","15","","","","101.02","","","","","","NA"
"-131.66","54.16","ROSE SPIT (AUT)","1056869","2012-02-12 04:00","2012","02","12","04:00","4.6","","3.8","","95","","","","26","","20","","","","101.06","","","","","","NA"
"-131.66","54.16","ROSE SPIT (AUT)","1056869","2012-02-12 05:00","2012","02","12","05:00","4.7","","3.6","","93","","","","28","","19","","","","101.10","","","","","","NA"
"-131.66","54.16","ROSE SPIT (AUT)","1056869","2012-02-12 06:00","2012","02","12","06:00","4.6","","3.4","","92","","","","28","","22","","","","101.14","","","","","","NA"
"-131.66","54.16","ROSE SPIT (AUT)","1056869","2012-02-12 07:00","2012","02","12","07:00","4.8","","3.2","","89","","","","28","","20","","","","101.20","","","","","","NA"
"-131.66","54.16","ROSE SPIT (AUT)","1056869","2012-02-12 08:00","2012","02","12","08:00","4.5","","2.1","","84","","","","29","","32","","","","101.27","","","","","","NA"
"-131.66","54.16","ROSE SPIT (AUT)","1056869","2012-02-12 09:00","2012","02","12","09:00","4.3","","1.0","","79","","","","29","","30","","","","101.35","","","","","","NA"
"-131.66","54.16","ROSE SPIT (AUT)","1056869","2012-02-12 10:00","2012","02","12","10:00","4.3","","1.3","","81","","","","28","","24","","","","101.44","","","","","","NA"
"-131.66","54.16","ROSE SPIT (AUT)","1056869","2012-02-12 11:00","2012","02","12","11:00","5.3","","2.2","","80","","","","27","","22","","","","101.50","","","","","","NA"
"-131.66","54.16","ROSE SPIT (AUT)","1056869","2012-02-12 12:00","2012","02","12","12:00","5.1","","2.5","","83","","","","27","","28","","","","101.60","","","","","","NA"
"-131.66","54.16","ROSE SPIT (AUT)","1056869","2012-02-12 13:00","2012","02","12","13:00","5.5","","2.6","","82","","","","28","","28","","","","101.59","","","","","","NA"
"-131.66","54.16","ROSE SPIT (AUT)","1056869","2012-02-12 14:00","2012","02","12","14:00","5.2","","1.8","","79","","","","28","","28","","","","101.64","","","","","","NA"
"-131.66","54.16","ROSE SPIT (AUT)","1056869","2012-02-12 15:00","2012","02","12","15:00","4.9","","1.6","","79","","","","28","","28","","","","101.69","","","","","","NA"
"-131.66","54.16","ROSE SPIT (AUT)","1056869","2012-02-12 16:00","2012","02","12","16:00","4.9","","1.5","","79","","","","29","","28","","","","101.75","","","","","","NA"
"-131.66","54.16","ROSE SPIT (AUT)","1056869","2012-02-12 17:00","2012","02","12","17:00","4.5","","1.3","","80","","","","29","","26","","","","101.78","","","","","","NA"
"-131.66","54.16","ROSE SPIT (AUT)","1056869","2012-02-12 18:00","2012","02","12","18:00","4.1","","1.3","","82","","","","28","","28","","","","101.80","","","","","","NA"
"-131.66","54.16","ROSE SPIT (AUT)","1056869","2012-02-12 19:00","2012","02","12","19:00","4.0","","0.7","","79","","","","29","","26","","","","101.85","","","","","","NA"
"-131.66","54.16","ROSE SPIT (AUT)","1056869","2012-02-12 20:00","2012","02","12","20:00","4.2","","0.7","","78","","","","29","","28","","","","101.92","","","","","","NA"
"-131.66","54.16","ROSE SPIT (AUT)","1056869","2012-02-12 21:00","2012","02","12","21:00","4.1","","0.7","","78","","","","29","","24","","","","101.96","","","","","","NA"
"-131.66","54.16","ROSE SPIT (AUT)","1056869","2012-02-12 22:00","2012","02","12","22:00","3.8","","0.7","","80","","","","28","","22","","","","102.04","","","","","","NA"
"-131.66","54.16","ROSE SPIT (AUT)","1056869","2012-02-12 23:00","2012","02","12","23:00","3.4","","1.3","","86","","","","26","","20","","","","102.09","","","","","","NA"
"-131.66","54.16","ROSE SPIT (AUT)","1056869","2012-02-13 00:00","2012","02","13","00:00","3.1","","1.2","","87","","","","26","","19","","","","102.11","","","","","","NA"
"-131.66","54.16","ROSE SPIT (AUT)","1056869","2012-02-13 01:00","2012","02","13","01:00","3.3","","1.3","","87","","","","26","","19","","","","102.18","","","","","","NA"
"-131.66","54.16","ROSE SPIT (AUT)","1056869","2012-02-13 02:00","2012","02","13","02:00","1.2","","-0.6","","88","","","","22","","11","","","","102.19","","","","","","NA"
"-131.66","54.16","ROSE SPIT (AUT)","1056869","2012-02-13 03:00","2012","02","13","03:00","0.3","","-1.1","","90","","","","22","","11","","","","102.18","","","","","","NA"
"-131.66","54.16","ROSE SPIT (AUT)","1056869","2012-02-13 04:00","2012","02","13","04:00","1.3","","0.0","","91","","","","24","","15","","","","102.18","","","","","","NA"
"-131.66","54.16","ROSE SPIT (AUT)","1056869","2012-02-13 05:00","2012","02","13","05:00","0.8","","-0.5","","91","","","","23","","9","","","","102.14","","","","","","NA"
"-131.66","54.16","ROSE SPIT (AUT)","1056869","2012-02-13 06:00","2012","02","13","06:00","0.0","","-1.1","","92","","","","24","","7","","","","102.11","","","","-2","","NA"
"-131.66","54.16","ROSE SPIT (AUT)","1056869","2012-02-13 07:00","2012","02","13","07:00","-0.6","","-1.9","","91","","","","17","","4","","","","102.04","","","","-2","","NA"
"-131.66","54.16","ROSE SPIT (AUT)","1056869","2012-02-13 08:00","2012","02","13","08:00","-3.0","","-4.1","","92","","","","18","","6","","","","102.03","","","","-5","","NA"
"-131.66","54.16","ROSE SPIT (AUT)","1056869","2012-02-13 09:00","2012","02","13","09:00","-0.3","","-1.2","","94","","","","16","","11","","","","101.97","","","","-4","","NA"
"-131.66","54.16","ROSE SPIT (AUT)","1056869","2012-02-13 10:00","2012","02","13","10:00","1.7","","0.7","","93","","","","18","","7","","","","101.91","","","","","","NA"
"-131.66","54.16","ROSE SPIT (AUT)","1056869","2012-02-13 11:00","2012","02","13","11:00","4.3","","1.9","","84","","","","14","","19","","","","101.86","","","","","","NA"
"-131.66","54.16","ROSE SPIT (AUT)","1056869","2012-02-13 12:00","2012","02","13","12:00","4.7","","1.6","","80","","","","14","","22","","","","101.79","","","","","","NA"
"-131.66","54.16","ROSE SPIT (AUT)","1056869","2012-02-13 13:00","2012","02","13","13:00","4.9","","1.3","","77","","","","14","","24","","","","101.71","","","","","","NA"
"-131.66","54.16","ROSE SPIT (AUT)","1056869","2012-02-13 14:00","2012","02","13","14:00","5.1","","1.3","","76","","","","15","","22","","","","101.67","","","","","","NA"
"-131.66","54.16","ROSE SPIT (AUT)","1056869","2012-02-13 15:00","2012","02","13","15:00","4.8","","1.2","","77","","","","14","","20","","","","101.61","","","","","","NA"
"-131.66","54.16","ROSE SPIT (AUT)","1056869","2012-02-13 16:00","2012","02","13","16:00","4.4","","1.1","","79","","","","13","","22","","","","101.49","","","","","","NA"
"-131.66","54.16","ROSE SPIT (AUT)","1056869","2012-02-13 17:00","2012","02","13","17:00","4.2","","1.7","","84","","","","10","","26","","","","101.36","","","","","","NA"
"-131.66","54.16","ROSE SPIT (AUT)","1056869","2012-02-13 18:00","2012","02","13","18:00","3.8","","1.2","","83","","","","10","","22","","","","101.30","","","","","","NA"
"-131.66","54.16","ROSE SPIT (AUT)","1056869","2012-02-13 19:00","2012","02","13","19:00","3.8","","0.6","","80","","","","11","","24","","","","101.16","","","","","","NA"
"-131.66","54.16","ROSE SPIT (AUT)","1056869","2012-02-13 20:00","2012","02","13","20:00","3.9","","0.5","","78","","","","9","","30","","","","101.03","","","","","","NA"
"-131.66","54.16","ROSE SPIT (AUT)","1056869","2012-02-13 21:00","2012","02","13","21:00","3.8","","0.2","","77","","","","11","","24","","","","101.03","","","","","","NA"
"-131.66","54.16","ROSE SPIT (AUT)","1056869","2012-02-13 22:00","2012","02","13","22:00","3.8","","1.0","","82","","","","13","","22","","","","101.01","","","","","","NA"
"-131.66","54.16","ROSE SPIT (AUT)","1056869","2012-02-13 23:00","2012","02","13","23:00","4.1","","1.0","","80","","","","12","","26","","","","100.96","","","","","","NA"
"-131.66","54.16","ROSE SPIT (AUT)","1056869","2012-02-14 00:00","2012","02","14","00:00","4.1","","0.0","","75","","","","12","","28","","","","100.97","","","","","","NA"
"-131.66","54.16","ROSE SPIT (AUT)","1056869","2012-02-14 01:00","2012","02","14","01:00","3.9","","-0.3","","74","","","","13","","24","","","","100.99","","","","","","NA"
"-131.66","54.16","ROSE SPIT (AUT)","1056869","2012-02-14 02:00","2012","02","14","02:00","3.9","","-0.8","","71","","","","12","","26","","","","101.03","","","","","","NA"
"-131.66","54.16","ROSE SPIT (AUT)","1056869","2012-02-14 03:00","2012","02","14","03:00","4.1","","-0.3","","73","","","","13","","26","","","","101.10","","","","","","NA"
"-131.66","54.16","ROSE SPIT (AUT)","1056869","2012-02-14 04:00","2012","02","14","04:00","4.2","","-0.1","","74","","","","13","","24","","","","101.14","","","","","","NA"
"-131.66","54.16","ROSE SPIT (AUT)","1056869","2012-02-14 05:00","2012","02","14","05:00","3.9","","-0.3","","74","","","","10","","22","","","","101.18","","","","","","NA"
"-131.66","54.16","ROSE SPIT (AUT)","1056869","2012-02-14 06:00","2012","02","14","06:00","4.1","","0.2","","76","","","","12","","22","","","","101.25","","","","","","NA"
"-131.66","54.16","ROSE SPIT (AUT)","1056869","2012-02-14 07:00","2012","02","14","07:00","3.9","","0.0","","76","","","","10","","15","","","","101.34","","","","","","NA"
"-131.66","54.16","ROSE SPIT (AUT)","1056869","2012-02-14 08:00","2012","02","14","08:00","4.1","","0.6","","78","","","","11","","20","","","","101.36","","","","","","NA"
"-131.66","54.16","ROSE SPIT (AUT)","1056869","2012-02-14 09:00","2012","02","14","09:00","4.3","","0.7","","77","","","","11","","13","","","","101.48","","","","","","NA"
"-131.66","54.16","ROSE SPIT (AUT)","1056869","2012-02-14 10:00","2012","02","14","10:00","5.1","","1.1","","75","","","","6","","11","","","","101.57","","","","","","NA"
"-131.66","54.16","ROSE SPIT (AUT)","1056869","2012-02-14 11:00","2012","02","14","11:00","5.1","","1.4","","77","","","","7","","19","","","","101.65","","","","","","NA"
"-131.66","54.16","ROSE SPIT (AUT)","1056869","2012-02-14 12:00","2012","02","14","12:00","5.4","","0.8","","72","","","","8","","19","","","","101.73","","","","","","NA"
"-131.66","54.16","ROSE SPIT (AUT)","1056869","2012-02-14 13:00","2012","02","14","13:00","5.6","","0.7","","71","","","","8","","20","","","","101.67","","","","","","NA"
"-131.66","54.16","ROSE SPIT (AUT)","1056869","2012-02-14 14:00","2012","02","14","14:00","5.9","","1.1","","71","","","","10","","19","","","","101.65","","","","","","NA"
"-131.66","54.16","ROSE SPIT (AUT)","1056869","2012-02-14 15:00","2012","02","14","15:00","6.5","","1.4","","70","","","","12","","9","","","","101.71","","","","","","NA"
"-131.66","54.16","ROSE SPIT (AUT)","1056869","2012-02-14 16:00","2012","02","14","16:00","6.3","","1.0","","69","","","","9","","7","","","","101.75","","","","","","NA"
"-131.66","54.16","ROSE SPIT (AUT)","1056869","2012-02-14 17:00","2012","02","14","17:00","5.0","","1.0","","75","","","","11","","11","","","","101.72","","","","","","NA"
"-131.66","54.16","ROSE SPIT (AUT)","1056869","2012-02-14 18:00","2012","02","14","18:00","3.9","","0.6","","79","","","","11","","7","","","","101.79","","","","","","NA"
"-131.66","54.16","ROSE SPIT (AUT)","1056869","2012-02-14 19:00","2012","02","14","19:00","1.8","","-0.6","","84","","","","14","","7","","","","101.81","","","","","","NA"
"-131.66","54.16","ROSE SPIT (AUT)","1056869","2012-02-14 20:00","2012","02","14","20:00","2.1","","-0.8","","81","","","","14","","9","","","","101.84","","","","","","NA"
"-131.66","54.16","ROSE SPIT (AUT)","1056869","2012-02-14 21:00","2012","02","14","21:00","-1.3","","-3.2","","87","","","","17","","6","","","","101.83","","","","-4","","NA"
"-131.66","54.16","ROSE SPIT (AUT)","1056869","2012-02-14 22:00","2012","02","14","22:00","-2.2","","-3.6","","90","","","","15","","6","","","","101.87","","","","-5","","NA"
"-131.66","54.16","ROSE SPIT (AUT)","1056869","2012-02-14 23:00","2012","02","14","23:00","-1.7","","-3.0","","91","","","","19","","2","","","","101.93","","","","-2","","NA"
"-131.66","54.16","ROSE SPIT (AUT)","1056869","2012-02-15 00:00","2012","02","15","00:00","-2.6","","-3.6","","93","","","","14","","4","","","","101.94","","","","-4","","NA"
"-131.66","54.16","ROSE SPIT (AUT)","1056869","2012-02-15 01:00","2012","02","15","01:00","2.8","","1.9","","94","","","","11","","11","","","","101.89","","","","","","NA"
"-131.66","54.16","ROSE SPIT (AUT)","1056869","2012-02-15 02:00","2012","02","15","02:00","3.1","","1.8","","91","","","","13","","11","","","","101.94","","","","","","NA"
"-131.66","54.16","ROSE SPIT (AUT)","1056869","2012-02-15 03:00","2012","02","15","03:00","3.7","","1.9","","88","","","","11","","17","","","","101.98","","","","","","NA"
"-131.66","54.16","ROSE SPIT (AUT)","1056869","2012-02-15 04:00","2012","02","15","04:00","4.5","","2.9","","89","","","","12","","22","","","","102.01","","","","","","NA"
"-131.66","54.16","ROSE SPIT (AUT)","1056869","2012-02-15 05:00","2012","02","15","05:00","4.4","","3.1","","91","","","","12","","32","","","","101.94","","","","","","NA"
"-131.66","54.16","ROSE SPIT (AUT)","1056869","2012-02-15 06:00","2012","02","15","06:00","4.4","","3.0","","91","","","","12","","33","","","","101.94","","","","","","NA"
"-131.66","54.16","ROSE SPIT (AUT)","1056869","2012-02-15 07:00","2012","02","15","07:00","4.2","","2.9","","91","","","","13","","37","","","","101.88","","","","","","NA"
"-131.66","54.16","ROSE SPIT (AUT)","1056869","2012-02-15 08:00","2012","02","15","08:00","3.9","","2.7","","92","","","","13","","41","","","","101.82","","","","","","NA"
"-131.66","54.16","ROSE SPIT (AUT)","1056869","2012-02-15 09:00","2012","02","15","09:00","4.3","","3.3","","93","","","","14","","44","","","","101.80","","","","","","NA"
"-131.66","54.16","ROSE SPIT (AUT)","1056869","2012-02-15 10:00","2012","02","15","10:00","4.5","","3.7","","95","","","","15","","41","","","","101.75","","","","","","NA"
"-131.66","54.16","ROSE SPIT (AUT)","1056869","2012-02-15 11:00","2012","02","15","11:00","4.8","","3.4","","91","","","","15","","43","","","","101.78","","","","","","NA"
"-131.66","54.16","ROSE SPIT (AUT)","1056869","2012-02-15 12:00","2012","02","15","12:00","4.8","","3.3","","90","","","","15","","44","","","","101.76","","","","","","NA"
"-131.66","54.16","ROSE SPIT (AUT)","1056869","2012-02-15 13:00","2012","02","15","13:00","5.1","","3.0","","86","","","","15","","44","","","","101.73","","","","","","NA"
"-131.66","54.16","ROSE SPIT (AUT)","1056869","2012-02-15 14:00","2012","02","15","14:00","5.1","","3.2","","88","","","","15","","50","","","","101.69","","","","","","NA"
"-131.66","54.16","ROSE SPIT (AUT)","1056869","2012-02-15 15:00","2012","02","15","15:00","5.1","","3.1","","87","","","","15","","41","","","","101.71","","","","","","NA"
"-131.66","54.16","ROSE SPIT (AUT)","1056869","2012-02-15 16:00","2012","02","15","16:00","5.0","","2.8","","86","","","","15","","46","","","","101.64","","","","","","NA"
"-131.66","54.16","ROSE SPIT (AUT)","1056869","2012-02-15 17:00","2012","02","15","17:00","4.8","","3.2","","89","","","","14","","46","","","","101.50","","","","","","NA"
"-131.66","54.16","ROSE SPIT (AUT)","1056869","2012-02-15 18:00","2012","02","15","18:00","4.6","","3.5","","93","","","","14","","46","","","","101.41","","","","","","NA"
"-131.66","54.16","ROSE SPIT (AUT)","1056869","2012-02-15 19:00","2012","02","15","19:00","4.1","","2.8","","91","","","","15","","50","","","","101.37","","","","","","NA"
"-131.66","54.16","ROSE SPIT (AUT)","1056869","2012-02-15 20:00","2012","02","15","20:00","3.7","","2.5","","92","","","","16","","48","","","","101.42","","","","","","NA"
"-131.66","54.16","ROSE SPIT (AUT)","1056869","2012-02-15 21:00","2012","02","15","21:00","3.7","","2.7","","93","","","","16","","44","","","","101.41","","","","","","NA"
"-131.66","54.16","ROSE SPIT (AUT)","1056869","2012-02-15 22:00","2012","02","15","22:00","3.9","","3.0","","94","","","","16","","41","","","","101.37","","","","","","NA"
"-131.66","54.16","ROSE SPIT (AUT)","1056869","2012-02-15 23:00","2012","02","15","23:00","4.1","","3.2","","94","","","","16","","41","","","","101.34","","","","","","NA"
"-131.66","54.16","ROSE SPIT (AUT)","1056869","2012-02-16 00:00","2012","02","16","00:00","4.1","","3.2","","94","","","","17","","37","","","","101.40","","","","","","NA"
"-131.66","54.16","ROSE SPIT (AUT)","1056869","2012-02-16 01:00","2012","02","16","01:00","3.8","","2.8","","93","","","","17","","37","","","","101.42","","","","","","NA"
"-131.66","54.16","ROSE SPIT (AUT)","1056869","2012-02-16 02:00","2012","02","16","02:00","3.8","","2.8","","93","","","","17","","32","","","","101.46","","","","","","NA"
"-131.66","54.16","ROSE SPIT (AUT)","1056869","2012-02-16 03:00","2012","02","16","03:00","3.7","","2.9","","94","","","","16","","30","","","","101.52","","","","","","NA"
"-131.66","54.16","ROSE SPIT (AUT)","1056869","2012-02-16 04:00","2012","02","16","04:00","3.7","","3.0","","95","","","","17","","26","","","","101.57","","","","","","NA"
"-131.66","54.16","ROSE SPIT (AUT)","1056869","2012-02-16 05:00","2012","02","16","05:00","3.9","","3.3","","96","","","","18","","17","","","","101.61","","","","","","NA"
"-131.66","54.16","ROSE SPIT (AUT)","1056869","2012-02-16 06:00","2012","02","16","06:00","3.7","","3.1","","96","","","","17","","9","","","","101.60","","","","","","NA"
"-131.66","54.16","ROSE SPIT (AUT)","1056869","2012-02-16 07:00","2012","02","16","07:00","3.9","","3.4","","97","","","","15","","30","","","","101.64","","","","","","NA"
"-131.66","54.16","ROSE SPIT (AUT)","1056869","2012-02-16 08:00","2012","02","16","08:00","3.9","","3.4","","97","","","","17","","30","","","","101.74","","","","","","NA"
"-131.66","54.16","ROSE SPIT (AUT)","1056869","2012-02-16 09:00","2012","02","16","09:00","3.9","","3.4","","97","","","","17","","26","","","","101.77","","","","","","NA"
"-131.66","54.16","ROSE SPIT (AUT)","1056869","2012-02-16 10:00","2012","02","16","10:00","4.3","","3.8","","97","","","","17","","24","","","","101.83","","","","","","NA"
"-131.66","54.16","ROSE SPIT (AUT)","1056869","2012-02-16 11:00","2012","02","16","11:00","4.9","","4.4","","97","","","","15","","22","","","","101.85","","","","","","NA"
"-131.66","54.16","ROSE SPIT (AUT)","1056869","2012-02-16 12:00","2012","02","16","12:00","5.1","","4.4","","95","","","","15","","26","","","","101.91","","","","","","NA"
"-131.66","54.16","ROSE SPIT (AUT)","1056869","2012-02-16 13:00","2012","02","16","13:00","5.2","","4.4","","95","","","","14","","32","","","","101.84","","","","","","NA"
"-131.66","54.16","ROSE SPIT (AUT)","1056869","2012-02-16 14:00","2012","02","16","14:00","5.0","","4.2","","95","","","","15","","28","","","","101.92","","","","","","NA"
"-131.66","54.16","ROSE SPIT (AUT)","1056869","2012-02-16 15:00","2012","02","16","15:00","5.0","","4.3","","95","","","","15","","30","","","","101.87","","","","","","NA"
"-131.66","54.16","ROSE SPIT (AUT)","1056869","2012-02-16 16:00","2012","02","16","16:00","4.9","","4.4","","97","","","","15","","28","","","","101.85","","","","","","NA"
"-131.66","54.16","ROSE SPIT (AUT)","1056869","2012-02-16 17:00","2012","02","16","17:00","4.8","","4.3","","97","","","","15","","33","","","","101.81","","","","","","NA"
"-131.66","54.16","ROSE SPIT (AUT)","1056869","2012-02-16 18:00","2012","02","16","18:00","4.6","","4.0","","96","","","","15","","33","","","","101.76","","","","","","NA"
"-131.66","54.16","ROSE SPIT (AUT)","1056869","2012-02-16 19:00","2012","02","16","19:00","4.5","","3.8","","95","","","","15","","43","","","","101.72","","","","","","NA"
"-131.66","54.16","ROSE SPIT (AUT)","1056869","2012-02-16 20:00","2012","02","16","20:00","4.9","","4.2","","95","","","","15","","32","","","","101.72","","","","","","NA"
"-131.66","54.16","ROSE SPIT (AUT)","1056869","2012-02-16 21:00","2012","02","16","21:00","5.0","","4.2","","95","","","","15","","30","","","","101.69","","","","","","NA"
"-131.66","54.16","ROSE SPIT (AUT)","1056869","2012-02-16 22:00","2012","02","16","22:00","4.8","","4.0","","95","","","","15","","41","","","","101.64","","","","","","NA"
"-131.66","54.16","ROSE SPIT (AUT)","1056869","2012-02-16 23:00","2012","02","16","23:00","4.9","","4.3","","96","","","","14","","41","","","","101.58","","","","","","NA"
"-131.66","54.16","ROSE SPIT (AUT)","1056869","2012-02-17 00:00","2012","02","17","00:00","5.1","","4.5","","96","","","","15","","37","","","","101.56","","","","","","NA"
"-131.66","54.16","ROSE SPIT (AUT)","1056869","2012-02-17 01:00","2012","02","17","01:00","5.2","","4.6","","96","","","","14","","39","","","","101.50","","","","","","NA"
"-131.66","54.16","ROSE SPIT (AUT)","1056869","2012-02-17 02:00","2012","02","17","02:00","5.1","","4.5","","96","","","","15","","41","","","","101.43","","","","","","NA"
"-131.66","54.16","ROSE SPIT (AUT)","1056869","2012-02-17 03:00","2012","02","17","03:00","5.1","","4.4","","95","","","","14","","39","","","","101.36","","","","","","NA"
"-131.66","54.16","ROSE SPIT (AUT)","1056869","2012-02-17 04:00","2012","02","17","04:00","5.2","","4.4","","95","","","","14","","39","","","","101.29","","","","","","NA"
"-131.66","54.16","ROSE SPIT (AUT)","1056869","2012-02-17 05:00","2012","02","17","05:00","5.2","","4.3","","94","","","","14","","41","","","","101.20","","","","","","NA"
"-131.66","54.16","ROSE SPIT (AUT)","1056869","2012-02-17 06:00","2012","02","17","06:00","5.2","","4.5","","95","","","","13","","32","","","","101.12","","","","","","NA"
"-131.66","54.16","ROSE SPIT (AUT)","1056869","2012-02-17 07:00","2012","02","17","07:00","4.9","","4.2","","95","","","","16","","28","","","","101.09","","","","","","NA"
"-131.66","54.16","ROSE SPIT (AUT)","1056869","2012-02-17 08:00","2012","02","17","08:00","5.0","","4.3","","95","","","","12","","26","","","","101.03","","","","","","NA"
"-131.66","54.16","ROSE SPIT (AUT)","1056869","2012-02-17 09:00","2012","02","17","09:00","4.8","","4.1","","95","","","","10","","28","","","","100.95","","","","","","NA"
"-131.66","54.16","ROSE SPIT (AUT)","1056869","2012-02-17 10:00","2012","02","17","10:00","4.7","","4.0","","95","","","","9","","26","","","","100.89","","","","","","NA"
"-131.66","54.16","ROSE SPIT (AUT)","1056869","2012-02-17 11:00","2012","02","17","11:00","4.2","","3.4","","95","","","","6","","26","","","","100.82","","","","","","NA"
"-131.66","54.16","ROSE SPIT (AUT)","1056869","2012-02-17 12:00","2012","02","17","12:00","4.5","","3.5","","93","","","","6","","28","","","","100.72","","","","","","NA"
"-131.66","54.16","ROSE SPIT (AUT)","1056869","2012-02-17 13:00","2012","02","17","13:00","4.4","","3.2","","92","","","","5","","26","","","","100.62","","","","","","NA"
"-131.66","54.16","ROSE SPIT (AUT)","1056869","2012-02-17 14:00","2012","02","17","14:00","4.4","","2.9","","90","","","","5","","30","","","","100.56","","","","","","NA"
"-131.66","54.16","ROSE SPIT (AUT)","1056869","2012-02-17 15:00","2012","02","17","15:00","4.7","","3.3","","91","","","","3","","20","","","","100.52","","","","","","NA"
"-131.66","54.16","ROSE SPIT (AUT)","1056869","2012-02-17 16:00","2012","02","17","16:00","4.5","","3.2","","91","","","","3","","32","","","","100.43","","","","","","NA"
"-131.66","54.16","ROSE SPIT (AUT)","1056869","2012-02-17 17:00","2012","02","17","17:00","4.6","","3.5","","93","","","","3","","22","","","","100.42","","","","","","NA"
"-131.66","54.16","ROSE SPIT (AUT)","1056869","2012-02-17 18:00","2012","02","17","18:00","4.1","","3.1","","93","","","","1","","28","","","","100.36","","","","","","NA"
"-131.66","54.16","ROSE SPIT (AUT)","1056869","2012-02-17 19:00","2012","02","17","19:00","4.1","","3.1","","93","","","","36","","32","","","","100.34","","","","","","NA"
"-131.66","54.16","ROSE SPIT (AUT)","1056869","2012-02-17 20:00","2012","02","17","20:00","4.1","","3.1","","93","","","","35","","30","","","","100.35","","","","","","NA"
"-131.66","54.16","ROSE SPIT (AUT)","1056869","2012-02-17 21:00","2012","02","17","21:00","4.2","","3.1","","93","","","","36","","32","","","","100.34","","","","","","NA"
"-131.66","54.16","ROSE SPIT (AUT)","1056869","2012-02-17 22:00","2012","02","17","22:00","4.1","","3.0","","93","","","","36","","30","","","","100.40","","","","","","NA"
"-131.66","54.16","ROSE SPIT (AUT)","1056869","2012-02-17 23:00","2012","02","17","23:00","3.7","","2.6","","93","","","","36","","20","","","","100.46","","","","","","NA"
"-131.66","54.16","ROSE SPIT (AUT)","1056869","2012-02-18 00:00","2012","02","18","00:00","4.0","","2.9","","93","","","","33","","26","","","","100.48","","","","","","NA"
"-131.66","54.16","ROSE SPIT (AUT)","1056869","2012-02-18 01:00","2012","02","18","01:00","3.8","","2.6","","92","","","","32","","28","","","","100.54","","","","","","NA"
"-131.66","54.16","ROSE SPIT (AUT)","1056869","2012-02-18 02:00","2012","02","18","02:00","3.6","","2.4","","92","","","","33","","24","","","","100.58","","","","","","NA"
"-131.66","54.16","ROSE SPIT (AUT)","1056869","2012-02-18 03:00","2012","02","18","03:00","3.9","","2.8","","93","","","","33","","35","","","","100.64","","","","","","NA"
"-131.66","54.16","ROSE SPIT (AUT)","1056869","2012-02-18 04:00","2012","02","18","04:00","4.1","","3.0","","93","","","","31","","32","","","","100.68","","","","","","NA"
"-131.66","54.16","ROSE SPIT (AUT)","1056869","2012-02-18 05:00","2012","02","18","05:00","4.3","","3.0","","91","","","","30","","39","","","","100.72","","","","","","NA"
"-131.66","54.16","ROSE SPIT (AUT)","1056869","2012-02-18 06:00","2012","02","18","06:00","4.1","","2.5","","89","","","","30","","44","","","","100.80","","","","","","NA"
"-131.66","54.16","ROSE SPIT (AUT)","1056869","2012-02-18 07:00","2012","02","18","07:00","4.1","","2.3","","88","","","","30","","44","","","","100.87","","","","","","NA"
"-131.66","54.16","ROSE SPIT (AUT)","1056869","2012-02-18 08:00","2012","02","18","08:00","4.0","","1.8","","86","","","","30","","44","","","","100.92","","","","","","NA"
"-131.66","54.16","ROSE SPIT (AUT)","1056869","2012-02-18 09:00","2012","02","18","09:00","3.8","","1.5","","85","","","","30","","50","","","","101.00","","","","","","NA"
"-131.66","54.16","ROSE SPIT (AUT)","1056869","2012-02-18 10:00","2012","02","18","10:00","3.8","","1.4","","84","","","","29","","44","","","","101.09","","","","","","NA"
"-131.66","54.16","ROSE SPIT (AUT)","1056869","2012-02-18 11:00","2012","02","18","11:00","3.9","","1.6","","85","","","","29","","44","","","","101.17","","","","","","NA"
"-131.66","54.16","ROSE SPIT (AUT)","1056869","2012-02-18 12:00","2012","02","18","12:00","4.7","","1.6","","80","","","","29","","41","","","","101.25","","","","","","NA"
"-131.66","54.16","ROSE SPIT (AUT)","1056869","2012-02-18 13:00","2012","02","18","13:00","4.6","","0.3","","74","","","","29","","35","","","","101.29","","","","","","NA"
"-131.66","54.16","ROSE SPIT (AUT)","1056869","2012-02-18 14:00","2012","02","18","14:00","4.4","","-0.4","","71","","","","29","","39","","","","101.30","","","","","","NA"
"-131.66","54.16","ROSE SPIT (AUT)","1056869","2012-02-18 15:00","2012","02","18","15:00","4.4","","-0.2","","72","","","","29","","32","","","","101.32","","","","","","NA"
"-131.66","54.16","ROSE SPIT (AUT)","1056869","2012-02-18 16:00","2012","02","18","16:00","4.0","","0.4","","77","","","","27","","26","","","","101.33","","","","","","NA"
"-131.66","54.16","ROSE SPIT (AUT)","1056869","2012-02-18 17:00","2012","02","18","17:00","3.7","","0.0","","77","","","","28","","20","","","","101.32","","","","","","NA"
"-131.66","54.16","ROSE SPIT (AUT)","1056869","2012-02-18 18:00","2012","02","18","18:00","3.0","","0.1","","81","","","","26","","15","","","","101.31","","","","","","NA"
"-131.66","54.16","ROSE SPIT (AUT)","1056869","2012-02-18 19:00","2012","02","18","19:00","2.8","","0.2","","83","","","","24","","20","","","","101.32","","","","","","NA"
"-131.66","54.16","ROSE SPIT (AUT)","1056869","2012-02-18 20:00","2012","02","18","20:00","2.1","","0.3","","88","","","","19","","9","","","","101.28","","","","","","NA"
"-131.66","54.16","ROSE SPIT (AUT)","1056869","2012-02-18 21:00","2012","02","18","21:00","1.7","","0.2","","90","","","","20","","9","","","","101.26","","","","","","NA"
"-131.66","54.16","ROSE SPIT (AUT)","1056869","2012-02-18 22:00","2012","02","18","22:00","1.6","","-0.1","","88","","","","20","","7","","","","101.27","","","","","","NA"
"-131.66","54.16","ROSE SPIT (AUT)","1056869","2012-02-18 23:00","2012","02","18","23:00","1.3","","-0.6","","87","","","","20","","11","","","","101.23","","","","","","NA"
"-131.66","54.16","ROSE SPIT (AUT)","1056869","2012-02-19 00:00","2012","02","19","00:00","0.8","","-0.3","","92","","","","20","","11","","","","101.21","","","","","","NA"
"-131.66","54.16","ROSE SPIT (AUT)","1056869","2012-02-19 01:00","2012","02","19","01:00","1.4","","0.5","","94","","","","17","","19","","","","101.15","","","","","","NA"
"-131.66","54.16","ROSE SPIT (AUT)","1056869","2012-02-19 02:00","2012","02","19","02:00","1.8","","0.7","","92","","","","17","","28","","","","101.05","","","","","","NA"
"-131.66","54.16","ROSE SPIT (AUT)","1056869","2012-02-19 03:00","2012","02","19","03:00","2.7","","1.1","","89","","","","15","","33","","","","100.92","","","","","","NA"
"-131.66","54.16","ROSE SPIT (AUT)","1056869","2012-02-19 04:00","2012","02","19","04:00","3.0","","1.1","","87","","","","16","","37","","","","100.86","","","","","","NA"
"-131.66","54.16","ROSE SPIT (AUT)","1056869","2012-02-19 05:00","2012","02","19","05:00","3.1","","1.0","","86","","","","17","","33","","","","100.80","","","","","","NA"
"-131.66","54.16","ROSE SPIT (AUT)","1056869","2012-02-19 06:00","2012","02","19","06:00","3.3","","1.5","","88","","","","16","","37","","","","100.76","","","","","","NA"
"-131.66","54.16","ROSE SPIT (AUT)","1056869","2012-02-19 07:00","2012","02","19","07:00","3.5","","1.5","","87","","","","16","","37","","","","100.68","","","","","","NA"
"-131.66","54.16","ROSE SPIT (AUT)","1056869","2012-02-19 08:00","2012","02","19","08:00","3.5","","1.7","","88","","","","17","","39","","","","100.63","","","","","","NA"
"-131.66","54.16","ROSE SPIT (AUT)","1056869","2012-02-19 09:00","2012","02","19","09:00","3.8","","1.9","","87","","","","17","","41","","","","100.60","","","","","","NA"
"-131.66","54.16","ROSE SPIT (AUT)","1056869","2012-02-19 10:00","2012","02","19","10:00","4.3","","2.5","","88","","","","17","","39","","","","100.56","","","","","","NA"
"-131.66","54.16","ROSE SPIT (AUT)","1056869","2012-02-19 11:00","2012","02","19","11:00","4.6","","2.4","","86","","","","17","","44","","","","100.54","","","","","","NA"
"-131.66","54.16","ROSE SPIT (AUT)","1056869","2012-02-19 12:00","2012","02","19","12:00","5.0","","3.0","","87","","","","16","","39","","","","100.50","","","","","","NA"
"-131.66","54.16","ROSE SPIT (AUT)","1056869","2012-02-19 13:00","2012","02","19","13:00","4.8","","2.9","","87","","","","16","","46","","","","100.46","","","","","","NA"
"-131.66","54.16","ROSE SPIT (AUT)","1056869","2012-02-19 14:00","2012","02","19","14:00","4.3","","2.8","","90","","","","14","","48","","","","100.40","","","","","","NA"
"-131.66","54.16","ROSE SPIT (AUT)","1056869","2012-02-19 15:00","2012","02","19","15:00","4.1","","2.9","","92","","","","14","","52","","","","100.34","","","","","","NA"
"-131.66","54.16","ROSE SPIT (AUT)","1056869","2012-02-19 16:00","2012","02","19","16:00","4.0","","2.8","","92","","","","13","","56","","","","100.28","","","","","","NA"
"-131.66","54.16","ROSE SPIT (AUT)","1056869","2012-02-19 17:00","2012","02","19","17:00","3.7","","2.5","","92","","","","13","","59","","","","100.21","","","","","","NA"
"-131.66","54.16","ROSE SPIT (AUT)","1056869","2012-02-19 18:00","2012","02","19","18:00","3.6","","2.6","","93","","","","13","","57","","","","100.20","","","","","","NA"
"-131.66","54.16","ROSE SPIT (AUT)","1056869","2012-02-19 19:00","2012","02","19","19:00","3.6","","2.4","","92","","","","13","","57","","","","100.23","","","","","","NA"
"-131.66","54.16","ROSE SPIT (AUT)","1056869","2012-02-19 20:00","2012","02","19","20:00","3.3","","2.1","","92","","","","12","","52","","","","100.25","","","","","","NA"
"-131.66","54.16","ROSE SPIT (AUT)","1056869","2012-02-19 21:00","2012","02","19","21:00","3.0","","1.8","","92","","","","12","","50","","","","100.28","","","","","","NA"
"-131.66","54.16","ROSE SPIT (AUT)","1056869","2012-02-19 22:00","2012","02","19","22:00","2.9","","1.8","","92","","","","12","","50","","","","100.13","","","","","","NA"
"-131.66","54.16","ROSE SPIT (AUT)","1056869","2012-02-19 23:00","2012","02","19","23:00","3.1","","2.0","","92","","","","11","","50","","","","100.10","","","","","","NA"
"-131.66","54.16","ROSE SPIT (AUT)","1056869","2012-02-20 00:00","2012","02","20","00:00","3.4","","2.0","","91","","","","12","","48","","","","100.00","","","","","","NA"
"-131.66","54.16","ROSE SPIT (AUT)","1056869","2012-02-20 01:00","2012","02","20","01:00","3.8","","2.1","","89","","","","13","","50","","","","99.99","","","","","","NA"
"-131.66","54.16","ROSE SPIT (AUT)","1056869","2012-02-20 02:00","2012","02","20","02:00","4.0","","2.1","","87","","","","13","","56","","","","99.98","","","","","","NA"
"-131.66","54.16","ROSE SPIT (AUT)","1056869","2012-02-20 03:00","2012","02","20","03:00","3.6","","2.5","","93","","","","13","","52","","","","100.01","","","","","","NA"
"-131.66","54.16","ROSE SPIT (AUT)","1056869","2012-02-20 04:00","2012","02","20","04:00","3.6","","2.7","","94","","","","13","","48","","","","99.95","","","","","","NA"
"-131.66","54.16","ROSE SPIT (AUT)","1056869","2012-02-20 05:00","2012","02","20","05:00","3.7","","3.0","","95","","","","13","","52","","","","99.88","","","","","","NA"
"-131.66","54.16","ROSE SPIT (AUT)","1056869","2012-02-20 06:00","2012","02","20","06:00","4.2","","3.4","","95","","","","14","","52","","","","99.87","","","","","","NA"
"-131.66","54.16","ROSE SPIT (AUT)","1056869","2012-02-20 07:00","2012","02","20","07:00","4.6","","3.9","","95","","","","14","","52","","","","99.86","","","","","","NA"
"-131.66","54.16","ROSE SPIT (AUT)","1056869","2012-02-20 08:00","2012","02","20","08:00","4.8","","4.1","","95","","","","14","","54","","","","99.80","","","","","","NA"
"-131.66","54.16","ROSE SPIT (AUT)","1056869","2012-02-20 09:00","2012","02","20","09:00","5.2","","4.6","","96","","","","15","","37","","","","99.81","","","","","","NA"
"-131.66","54.16","ROSE SPIT (AUT)","1056869","2012-02-20 10:00","2012","02","20","10:00","5.2","","4.5","","95","","","","16","","37","","","","99.85","","","","","","NA"
"-131.66","54.16","ROSE SPIT (AUT)","1056869","2012-02-20 11:00","2012","02","20","11:00","5.2","","4.5","","95","","","","16","","37","","","","99.80","","","","","","NA"
"-131.66","54.16","ROSE SPIT (AUT)","1056869","2012-02-20 12:00","2012","02","20","12:00","5.4","","4.7","","95","","","","17","","35","","","","99.85","","","","","","NA"
"-131.66","54.16","ROSE SPIT (AUT)","1056869","2012-02-20 13:00","2012","02","20","13:00","5.3","","4.7","","96","","","","17","","33","","","","99.86","","","","","","NA"
"-131.66","54.16","ROSE SPIT (AUT)","1056869","2012-02-20 14:00","2012","02","20","14:00","5.4","","4.8","","96","","","","15","","39","","","","99.77","","","","","","NA"
"-131.66","54.16","ROSE SPIT (AUT)","1056869","2012-02-20 15:00","2012","02","20","15:00","5.5","","4.9","","96","","","","16","","43","","","","99.74","","","","","","NA"
"-131.66","54.16","ROSE SPIT (AUT)","1056869","2012-02-20 16:00","2012","02","20","16:00","5.6","","5.0","","96","","","","17","","37","","","","99.78","","","","","","NA"
"-131.66","54.16","ROSE SPIT (AUT)","1056869","2012-02-20 17:00","2012","02","20","17:00","5.9","","5.3","","96","","","","18","","28","","","","99.81","","","","","","NA"
"-131.66","54.16","ROSE SPIT (AUT)","1056869","2012-02-20 18:00","2012","02","20","18:00","5.7","","5.1","","96","","","","18","","17","","","","99.86","","","","","","NA"
"-131.66","54.16","ROSE SPIT (AUT)","1056869","2012-02-20 19:00","2012","02","20","19:00","5.5","","4.8","","95","","","","24","","17","","","","99.95","","","","","","NA"
"-131.66","54.16","ROSE SPIT (AUT)","1056869","2012-02-20 20:00","2012","02","20","20:00","4.9","","3.4","","90","","","","26","","26","","","","100.04","","","","","","NA"
"-131.66","54.16","ROSE SPIT (AUT)","1056869","2012-02-20 21:00","2012","02","20","21:00","4.3","","2.6","","89","","","","26","","37","","","","100.17","","","","","","NA"
"-131.66","54.16","ROSE SPIT (AUT)","1056869","2012-02-20 22:00","2012","02","20","22:00","4.6","","2.6","","87","","","","23","","32","","","","100.23","","","","","","NA"
"-131.66","54.16","ROSE SPIT (AUT)","1056869","2012-02-20 23:00","2012","02","20","23:00","4.1","","2.5","","89","","","","21","","20","","","","100.34","","","","","","NA"
"-131.66","54.16","ROSE SPIT (AUT)","1056869","2012-02-21 00:00","2012","02","21","00:00","3.8","","2.2","","89","","","","23","","28","","","","100.42","","","","","","NA"
"-131.66","54.16","ROSE SPIT (AUT)","1056869","2012-02-21 01:00","2012","02","21","01:00","3.7","","2.0","","89","","","","23","","26","","","","100.49","","","","","","NA"
"-131.66","54.16","ROSE SPIT (AUT)","1056869","2012-02-21 02:00","2012","02","21","02:00","3.4","","1.8","","89","","","","22","","26","","","","100.54","","","","","","NA"
"-131.66","54.16","ROSE SPIT (AUT)","1056869","2012-02-21 03:00","2012","02","21","03:00","2.8","","0.9","","87","","","","21","","17","","","","100.57","","","","","","NA"
"-131.66","54.16","ROSE SPIT (AUT)","1056869","2012-02-21 04:00","2012","02","21","04:00","2.6","","1.2","","90","","","","19","","17","","","","100.59","","","","","","NA"
"-131.66","54.16","ROSE SPIT (AUT)","1056869","2012-02-21 05:00","2012","02","21","05:00","2.9","","1.3","","89","","","","20","","11","","","","100.63","","","","","","NA"
"-131.66","54.16","ROSE SPIT (AUT)","1056869","2012-02-21 06:00","2012","02","21","06:00","2.8","","1.4","","90","","","","20","","7","","","","100.62","","","","","","NA"
"-131.66","54.16","ROSE SPIT (AUT)","1056869","2012-02-21 07:00","2012","02","21","07:00","3.4","","2.1","","91","","","","10","","13","","","","100.57","","","","","","NA"
"-131.66","54.16","ROSE SPIT (AUT)","1056869","2012-02-21 08:00","2012","02","21","08:00","3.5","","1.9","","89","","","","19","","13","","","","100.54","","","","","","NA"
"-131.66","54.16","ROSE SPIT (AUT)","1056869","2012-02-21 09:00","2012","02","21","09:00","3.6","","2.0","","89","","","","19","","17","","","","100.54","","","","","","NA"
"-131.66","54.16","ROSE SPIT (AUT)","1056869","2012-02-21 10:00","2012","02","21","10:00","3.3","","2.1","","92","","","","19","","15","","","","100.56","","","","","","NA"
"-131.66","54.16","ROSE SPIT (AUT)","1056869","2012-02-21 11:00","2012","02","21","11:00","3.7","","2.5","","92","","","","18","","22","","","","100.44","","","","","","NA"
"-131.66","54.16","ROSE SPIT (AUT)","1056869","2012-02-21 12:00","2012","02","21","12:00","3.8","","2.4","","91","","","","17","","24","","","","100.38","","","","","","NA"
"-131.66","54.16","ROSE SPIT (AUT)","1056869","2012-02-21 13:00","2012","02","21","13:00","3.9","","2.6","","91","","","","16","","24","","","","100.30","","","","","","NA"
"-131.66","54.16","ROSE SPIT (AUT)","1056869","2012-02-21 14:00","2012","02","21","14:00","4.0","","3.1","","94","","","","16","","32","","","","100.17","","","","","","NA"
"-131.66","54.16","ROSE SPIT (AUT)","1056869","2012-02-21 15:00","2012","02","21","15:00","4.4","","3.4","","93","","","","18","","28","","","","100.09","","","","","","NA"
"-131.66","54.16","ROSE SPIT (AUT)","1056869","2012-02-21 16:00","2012","02","21","16:00","4.6","","3.6","","93","","","","19","","24","","","","100.02","","","","","","NA"
"-131.66","54.16","ROSE SPIT (AUT)","1056869","2012-02-21 17:00","2012","02","21","17:00","4.5","","3.4","","93","","","","22","","20","","","","100.04","","","","","","NA"
"-131.66","54.16","ROSE SPIT (AUT)","1056869","2012-02-21 18:00","2012","02","21","18:00","4.4","","2.5","","87","","","","24","","32","","","","100.08","","","","","","NA"
"-131.66","54.16","ROSE SPIT (AUT)","1056869","2012-02-21 19:00","2012","02","21","19:00","3.4","","1.5","","87","","","","23","","26","","","","100.10","","","","","","NA"
"-131.66","54.16","ROSE SPIT (AUT)","1056869","2012-02-21 20:00","2012","02","21","20:00","2.7","","0.9","","88","","","","20","","20","","","","100.01","","","","","","NA"
"-131.66","54.16","ROSE SPIT (AUT)","1056869","2012-02-21 21:00","2012","02","21","21:00","3.0","","1.3","","89","","","","19","","20","","","","100.07","","","","","","NA"
"-131.66","54.16","ROSE SPIT (AUT)","1056869","2012-02-21 22:00","2012","02","21","22:00","1.9","","0.6","","91","","","","18","","17","","","","100.02","","","","","","NA"
"-131.66","54.16","ROSE SPIT (AUT)","1056869","2012-02-21 23:00","2012","02","21","23:00","2.3","","1.0","","91","","","","18","","19","","","","100.05","","","","","","NA"
"-131.66","54.16","ROSE SPIT (AUT)","1056869","2012-02-22 00:00","2012","02","22","00:00","2.3","","1.0","","91","","","","19","","17","","","","100.05","","","","","","NA"
"-131.66","54.16","ROSE SPIT (AUT)","1056869","2012-02-22 01:00","2012","02","22","01:00","2.1","","1.0","","92","","","","18","","19","","","","100.04","","","","","","NA"
"-131.66","54.16","ROSE SPIT (AUT)","1056869","2012-02-22 02:00","2012","02","22","02:00","2.1","","1.2","","94","","","","19","","19","","","","100.09","","","","","","NA"
"-131.66","54.16","ROSE SPIT (AUT)","1056869","2012-02-22 03:00","2012","02","22","03:00","1.7","","0.9","","94","","","","18","","17","","","","100.09","","","","","","NA"
"-131.66","54.16","ROSE SPIT (AUT)","1056869","2012-02-22 04:00","2012","02","22","04:00","2.3","","1.4","","94","","","","20","","17","","","","100.12","","","","","","NA"
"-131.66","54.16","ROSE SPIT (AUT)","1056869","2012-02-22 05:00","2012","02","22","05:00","1.9","","1.0","","94","","","","19","","15","","","","100.18","","","","","","NA"
"-131.66","54.16","ROSE SPIT (AUT)","1056869","2012-02-22 06:00","2012","02","22","06:00","1.3","","0.5","","94","","","","20","","11","","","","100.27","","","","","","NA"
"-131.66","54.16","ROSE SPIT (AUT)","1056869","2012-02-22 07:00","2012","02","22","07:00","2.9","","2.1","","94","","","","24","","24","","","","100.49","","","","","","NA"
"-131.66","54.16","ROSE SPIT (AUT)","1056869","2012-02-22 08:00","2012","02","22","08:00","4.0","","2.8","","92","","","","30","","33","","","","100.70","","","","","","NA"
"-131.66","54.16","ROSE SPIT (AUT)","1056869","2012-02-22 09:00","2012","02","22","09:00","4.6","","2.7","","87","","","","30","","39","","","","100.92","","","","","","NA"
"-131.66","54.16","ROSE SPIT (AUT)","1056869","2012-02-22 10:00","2012","02","22","10:00","4.7","","2.3","","84","","","","29","","52","","","","101.10","","","","","","NA"
"-131.66","54.16","ROSE SPIT (AUT)","1056869","2012-02-22 11:00","2012","02","22","11:00","5.0","","2.0","","81","","","","29","","50","","","","101.35","","","","","","NA"
"-131.66","54.16","ROSE SPIT (AUT)","1056869","2012-02-22 12:00","2012","02","22","12:00","4.8","","2.1","","83","","","","30","","48","","","","101.56","","","","","","NA"
"-131.66","54.16","ROSE SPIT (AUT)","1056869","2012-02-22 13:00","2012","02","22","13:00","5.1","","2.2","","82","","","","29","","39","","","","101.72","","","","","","NA"
"-131.66","54.16","ROSE SPIT (AUT)","1056869","2012-02-22 14:00","2012","02","22","14:00","4.8","","1.9","","81","","","","29","","43","","","","101.85","","","","","","NA"
"-131.66","54.16","ROSE SPIT (AUT)","1056869","2012-02-22 15:00","2012","02","22","15:00","4.7","","0.6","","75","","","","29","","48","","","","101.92","","","","","","NA"
"-131.66","54.16","ROSE SPIT (AUT)","1056869","2012-02-22 16:00","2012","02","22","16:00","4.5","","0.3","","74","","","","29","","44","","","","102.04","","","","","","NA"
"-131.66","54.16","ROSE SPIT (AUT)","1056869","2012-02-22 17:00","2012","02","22","17:00","4.1","","0.3","","76","","","","28","","39","","","","102.14","","","","","","NA"
"-131.66","54.16","ROSE SPIT (AUT)","1056869","2012-02-22 18:00","2012","02","22","18:00","3.8","","-0.2","","75","","","","28","","35","","","","102.20","","","","","","NA"
"-131.66","54.16","ROSE SPIT (AUT)","1056869","2012-02-22 19:00","2012","02","22","19:00","4.1","","0.2","","76","","","","29","","41","","","","102.22","","","","","","NA"
"-131.66","54.16","ROSE SPIT (AUT)","1056869","2012-02-22 20:00","2012","02","22","20:00","3.3","","0.6","","82","","","","28","","32","","","","102.30","","","","","","NA"
"-131.66","54.16","ROSE SPIT (AUT)","1056869","2012-02-22 21:00","2012","02","22","21:00","3.5","","1.4","","86","","","","27","","26","","","","102.40","","","","","","NA"
"-131.66","54.16","ROSE SPIT (AUT)","1056869","2012-02-22 22:00","2012","02","22","22:00","3.2","","1.3","","87","","","","28","","26","","","","102.45","","","","","","NA"
"-131.66","54.16","ROSE SPIT (AUT)","1056869","2012-02-22 23:00","2012","02","22","23:00","2.8","","0.9","","87","","","","28","","22","","","","102.50","","","","","","NA"
"-131.66","54.16","ROSE SPIT (AUT)","1056869","2012-02-23 00:00","2012","02","23","00:00","1.8","","0.2","","89","","","","23","","22","","","","102.59","","","","","","NA"
"-131.66","54.16","ROSE SPIT (AUT)","1056869","2012-02-23 01:00","2012","02","23","01:00","2.1","","0.5","","89","","","","24","","26","","","","102.62","","","","","","NA"
"-131.66","54.16","ROSE SPIT (AUT)","1056869","2012-02-23 02:00","2012","02","23","02:00","0.9","","-0.4","","91","","","","20","","13","","","","102.65","","","","","","NA"
"-131.66","54.16","ROSE SPIT (AUT)","1056869","2012-02-23 03:00","2012","02","23","03:00","1.5","","0.4","","92","","","","25","","9","","","","102.67","","","","","","NA"
"-131.66","54.16","ROSE SPIT (AUT)","1056869","2012-02-23 04:00","2012","02","23","04:00","1.3","","0.1","","92","","","","24","","20","","","","102.67","","","","","","NA"
"-131.66","54.16","ROSE SPIT (AUT)","1056869","2012-02-23 05:00","2012","02","23","05:00","1.0","","0.0","","93","","","","23","","17","","","","102.62","","","","","","NA"
"-131.66","54.16","ROSE SPIT (AUT)","1056869","2012-02-23 06:00","2012","02","23","06:00","1.1","","0.0","","92","","","","32","","11","","","","102.61","","","","","","NA"
"-131.66","54.16","ROSE SPIT (AUT)","1056869","2012-02-23 07:00","2012","02","23","07:00","0.3","","-0.6","","94","","","","18","","9","","","","102.59","","","","","","NA"
"-131.66","54.16","ROSE SPIT (AUT)","1056869","2012-02-23 08:00","2012","02","23","08:00","0.3","","-0.5","","94","","","","22","","13","","","","102.59","","","","","","NA"
"-131.66","54.16","ROSE SPIT (AUT)","1056869","2012-02-23 09:00","2012","02","23","09:00","0.6","","-0.3","","94","","","","22","","9","","","","102.58","","","","","","NA"
"-131.66","54.16","ROSE SPIT (AUT)","1056869","2012-02-23 10:00","2012","02","23","10:00","1.4","","0.4","","93","","","","23","","7","","","","102.57","","","","","","NA"
"-131.66","54.16","ROSE SPIT (AUT)","1056869","2012-02-23 11:00","2012","02","23","11:00","2.8","","1.4","","90","","","","21","","6","","","","102.55","","","","","","NA"
"-131.66","54.16","ROSE SPIT (AUT)","1056869","2012-02-23 12:00","2012","02","23","12:00","3.6","","1.5","","86","","","","23","","7","","","","102.56","","","","","","NA"
"-131.66","54.16","ROSE SPIT (AUT)","1056869","2012-02-23 13:00","2012","02","23","13:00","3.8","","1.2","","83","","","","15","","7","","","","102.51","","","","","","NA"
"-131.66","54.16","ROSE SPIT (AUT)","1056869","2012-02-23 14:00","2012","02","23","14:00","3.9","","0.5","","78","","","","14","","9","","","","102.42","","","","","","NA"
"-131.66","54.16","ROSE SPIT (AUT)","1056869","2012-02-23 15:00","2012","02","23","15:00","3.8","","0.3","","78","","","","14","","11","","","","102.37","","","","","","NA"
"-131.66","54.16","ROSE SPIT (AUT)","1056869","2012-02-23 16:00","2012","02","23","16:00","3.4","","0.0","","78","","","","12","","13","","","","102.28","","","","","","NA"
"-131.66","54.16","ROSE SPIT (AUT)","1056869","2012-02-23 17:00","2012","02","23","17:00","3.4","","-0.2","","77","","","","11","","19","","","","102.16","","","","","","NA"
"-131.66","54.16","ROSE SPIT (AUT)","1056869","2012-02-23 18:00","2012","02","23","18:00","3.5","","0.5","","81","","","","12","","22","","","","102.09","","","","","","NA"
"-131.66","54.16","ROSE SPIT (AUT)","1056869","2012-02-23 19:00","2012","02","23","19:00","3.4","","0.4","","81","","","","11","","24","","","","102.03","","","","","","NA"
"-131.66","54.16","ROSE SPIT (AUT)","1056869","2012-02-23 20:00","2012","02","23","20:00","3.3","","0.5","","82","","","","11","","30","","","","101.90","","","","","","NA"
"-131.66","54.16","ROSE SPIT (AUT)","1056869","2012-02-23 21:00","2012","02","23","21:00","3.3","","0.7","","83","","","","12","","30","","","","101.78","","","","","","NA"
"-131.66","54.16","ROSE SPIT (AUT)","1056869","2012-02-23 22:00","2012","02","23","22:00","3.4","","0.2","","80","","","","11","","30","","","","101.66","","","","","","NA"
"-131.66","54.16","ROSE SPIT (AUT)","1056869","2012-02-23 23:00","2012","02","23","23:00","3.5","","0.2","","79","","","","9","","32","","","","101.52","","","","","","NA"
"-131.66","54.16","ROSE SPIT (AUT)","1056869","2012-02-24 00:00","2012","02","24","00:00","3.4","","0.2","","80","","","","9","","32","","","","101.39","","","","","","NA"
"-131.66","54.16","ROSE SPIT (AUT)","1056869","2012-02-24 01:00","2012","02","24","01:00","2.8","","-0.6","","78","","","","10","","30","","","","101.28","","","","","","NA"
"-131.66","54.16","ROSE SPIT (AUT)","1056869","2012-02-24 02:00","2012","02","24","02:00","1.9","","0.1","","88","","","","10","","32","","","","101.13","","","","","","NA"
"-131.66","54.16","ROSE SPIT (AUT)","1056869","2012-02-24 03:00","2012","02","24","03:00","1.5","","0.2","","91","","","","7","","32","","","","100.93","","","","","","NA"
"-131.66","54.16","ROSE SPIT (AUT)","1056869","2012-02-24 04:00","2012","02","24","04:00","1.7","","0.0","","88","","","","6","","33","","","","100.68","","","","","","NA"
"-131.66","54.16","ROSE SPIT (AUT)","1056869","2012-02-24 05:00","2012","02","24","05:00","1.1","","-0.8","","87","","","","5","","39","","","","100.56","","","","","","NA"
"-131.66","54.16","ROSE SPIT (AUT)","1056869","2012-02-24 06:00","2012","02","24","06:00","0.5","","-0.4","","94","","","","4","","43","","","","100.37","","","","","","NA"
"-131.66","54.16","ROSE SPIT (AUT)","1056869","2012-02-24 07:00","2012","02","24","07:00","0.3","","-0.5","","94","","","","4","","44","","","","100.23","","","","","","NA"
"-131.66","54.16","ROSE SPIT (AUT)","1056869","2012-02-24 08:00","2012","02","24","08:00","0.2","","-0.5","","95","","","","3","","39","","","","100.09","","","","","","NA"
"-131.66","54.16","ROSE SPIT (AUT)","1056869","2012-02-24 09:00","2012","02","24","09:00","0.4","","-0.5","","94","","","","3","","48","","","","100.01","","","","","","NA"
"-131.66","54.16","ROSE SPIT (AUT)","1056869","2012-02-24 10:00","2012","02","24","10:00","0.0","","-0.6","","96","","","","1","","33","","","","100.02","","","","-7","","NA"
"-131.66","54.16","ROSE SPIT (AUT)","1056869","2012-02-24 11:00","2012","02","24","11:00","0.0","","-0.5","","96","","","","35","","37","","","","99.99","","","","-7","","NA"
"-131.66","54.16","ROSE SPIT (AUT)","1056869","2012-02-24 12:00","2012","02","24","12:00","0.2","","-0.2","","97","","","","35","","43","","","","99.99","","","","","","NA"
"-131.66","54.16","ROSE SPIT (AUT)","1056869","2012-02-24 13:00","2012","02","24","13:00","0.2","","-0.2","","97","","","","34","","43","","","","100.01","","","","","","NA"
"-131.66","54.16","ROSE SPIT (AUT)","1056869","2012-02-24 14:00","2012","02","24","14:00","0.6","","0.1","","96","","","","34","","41","","","","100.04","","","","","","NA"
"-131.66","54.16","ROSE SPIT (AUT)","1056869","2012-02-24 15:00","2012","02","24","15:00","0.4","","-0.2","","96","","","","33","","44","","","","100.09","","","","","","NA"
"-131.66","54.16","ROSE SPIT (AUT)","1056869","2012-02-24 16:00","2012","02","24","16:00","0.7","","-0.3","","93","","","","34","","37","","","","100.12","","","","","","NA"
"-131.66","54.16","ROSE SPIT (AUT)","1056869","2012-02-24 17:00","2012","02","24","17:00","1.1","","-1.6","","82","","","","34","","41","","","","100.14","","","","","","NA"
"-131.66","54.16","ROSE SPIT (AUT)","1056869","2012-02-24 18:00","2012","02","24","18:00","1.5","","-2.1","","77","","","","33","","37","","","","100.20","","","","","","NA"
"-131.66","54.16","ROSE SPIT (AUT)","1056869","2012-02-24 19:00","2012","02","24","19:00","1.7","","-2.0","","76","","","","34","","37","","","","100.27","","","","","","NA"
"-131.66","54.16","ROSE SPIT (AUT)","1056869","2012-02-24 20:00","2012","02","24","20:00","1.8","","-2.7","","72","","","","32","","39","","","","100.35","","","","","","NA"
"-131.66","54.16","ROSE SPIT (AUT)","1056869","2012-02-24 21:00","2012","02","24","21:00","1.8","","-4.0","","65","","","","32","","48","","","","100.42","","","","","","NA"
"-131.66","54.16","ROSE SPIT (AUT)","1056869","2012-02-24 22:00","2012","02","24","22:00","2.1","","-2.9","","69","","","","32","","48","","","","100.49","","","","","","NA"
"-131.66","54.16","ROSE SPIT (AUT)","1056869","2012-02-24 23:00","2012","02","24","23:00","2.0","","-4.0","","64","","","","32","","48","","","","100.60","","","","","","NA"
"-131.66","54.16","ROSE SPIT (AUT)","1056869","2012-02-25 00:00","2012","02","25","00:00","2.0","","-3.9","","65","","","","33","","50","","","","100.70","","","","","","NA"
"-131.66","54.16","ROSE SPIT (AUT)","1056869","2012-02-25 01:00","2012","02","25","01:00","2.0","","-3.1","","69","","","","32","","48","","","","100.82","","","","","","NA"
"-131.66","54.16","ROSE SPIT (AUT)","1056869","2012-02-25 02:00","2012","02","25","02:00","2.0","","-3.0","","69","","","","32","","48","","","","100.96","","","","","","NA"
"-131.66","54.16","ROSE SPIT (AUT)","1056869","2012-02-25 03:00","2012","02","25","03:00","2.0","","-3.2","","68","","","","32","","46","","","","101.07","","","","","","NA"
"-131.66","54.16","ROSE SPIT (AUT)","1056869","2012-02-25 04:00","2012","02","25","04:00","2.0","","-3.7","","66","","","","31","","50","","","","101.18","","","","","","NA"
"-131.66","54.16","ROSE SPIT (AUT)","1056869","2012-02-25 05:00","2012","02","25","05:00","2.0","","-3.4","","67","","","","32","","48","","","","101.26","","","","","","NA"
"-131.66","54.16","ROSE SPIT (AUT)","1056869","2012-02-25 06:00","2012","02","25","06:00","1.9","","-4.3","","63","","","","32","","46","","","","101.39","","","","","","NA"
"-131.66","54.16","ROSE SPIT (AUT)","1056869","2012-02-25 07:00","2012","02","25","07:00","2.0","","-4.5","","62","","","","31","","44","","","","101.49","","","","","","NA"
"-131.66","54.16","ROSE SPIT (AUT)","1056869","2012-02-25 08:00","2012","02","25","08:00","1.8","","-5.1","","60","","","","32","","39","","","","101.55","","","","","","NA"
"-131.66","54.16","ROSE SPIT (AUT)","1056869","2012-02-25 09:00","2012","02","25","09:00","2.0","","-4.8","","61","","","","32","","41","","","","101.63","","","","","","NA"
"-131.66","54.16","ROSE SPIT (AUT)","1056869","2012-02-25 10:00","2012","02","25","10:00","2.3","","-5.0","","58","","","","32","","43","","","","101.73","","","","","","NA"
"-131.66","54.16","ROSE SPIT (AUT)","1056869","2012-02-25 11:00","2012","02","25","11:00","2.7","","-5.0","","57","","","","32","","41","","","","101.83","","","","","","NA"
"-131.66","54.16","ROSE SPIT (AUT)","1056869","2012-02-25 12:00","2012","02","25","12:00","3.0","","-4.8","","56","","","","31","","39","","","","101.89","","","","","","NA"
"-131.66","54.16","ROSE SPIT (AUT)","1056869","2012-02-25 13:00","2012","02","25","13:00","3.3","","-5.4","","53","","","","32","","37","","","","101.93","","","","","","NA"
"-131.66","54.16","ROSE SPIT (AUT)","1056869","2012-02-25 14:00","2012","02","25","14:00","3.7","","-5.0","","53","","","","33","","32","","","","101.98","","","","","","NA"
"-131.66","54.16","ROSE SPIT (AUT)","1056869","2012-02-25 15:00","2012","02","25","15:00","3.7","","-5.8","","50","","","","32","","28","","","","102.04","","","","","","NA"
"-131.66","54.16","ROSE SPIT (AUT)","1056869","2012-02-25 16:00","2012","02","25","16:00","3.4","","-5.7","","51","","","","31","","28","","","","102.09","","","","","","NA"
"-131.66","54.16","ROSE SPIT (AUT)","1056869","2012-02-25 17:00","2012","02","25","17:00","3.0","","-5.2","","55","","","","32","","28","","","","102.14","","","","","","NA"
"-131.66","54.16","ROSE SPIT (AUT)","1056869","2012-02-25 18:00","2012","02","25","18:00","1.5","","-5.6","","59","","","","36","","17","","","","102.20","","","","","","NA"
"-131.66","54.16","ROSE SPIT (AUT)","1056869","2012-02-25 19:00","2012","02","25","19:00","1.2","","-5.6","","60","","","","35","","19","","","","102.26","","","","","","NA"
"-131.66","54.16","ROSE SPIT (AUT)","1056869","2012-02-25 20:00","2012","02","25","20:00","1.6","","-4.8","","62","","","","35","","24","","","","102.34","","","","","","NA"
"-131.66","54.16","ROSE SPIT (AUT)","1056869","2012-02-25 21:00","2012","02","25","21:00","1.4","","-5.6","","60","","","","36","","26","","","","102.39","","","","","","NA"
"-131.66","54.16","ROSE SPIT (AUT)","1056869","2012-02-25 22:00","2012","02","25","22:00","1.1","","-6.2","","58","","","","36","","24","","","","102.48","","","","","","NA"
"-131.66","54.16","ROSE SPIT (AUT)","1056869","2012-02-25 23:00","2012","02","25","23:00","1.0","","-6.3","","58","","","","36","","24","","","","102.53","","","","","","NA"
"-131.66","54.16","ROSE SPIT (AUT)","1056869","2012-02-26 00:00","2012","02","26","00:00","0.8","","-5.5","","63","","","","35","","22","","","","102.59","","","","","","NA"
"-131.66","54.16","ROSE SPIT (AUT)","1056869","2012-02-26 01:00","2012","02","26","01:00","0.7","","-5.4","","64","","","","35","","20","","","","102.65","","","","","","NA"
"-131.66","54.16","ROSE SPIT (AUT)","1056869","2012-02-26 02:00","2012","02","26","02:00","0.7","","-5.2","","65","","","","34","","20","","","","102.71","","","","","","NA"
"-131.66","54.16","ROSE SPIT (AUT)","1056869","2012-02-26 03:00","2012","02","26","03:00","0.7","","-5.4","","64","","","","34","","20","","","","102.77","","","","","","NA"
"-131.66","54.16","ROSE SPIT (AUT)","1056869","2012-02-26 04:00","2012","02","26","04:00","0.5","","-5.6","","64","","","","34","","20","","","","102.81","","","","","","NA"
"-131.66","54.16","ROSE SPIT (AUT)","1056869","2012-02-26 05:00","2012","02","26","05:00","0.0","","-5.7","","65","","","","35","","20","","","","102.80","","","","-5","","NA"
"-131.66","54.16","ROSE SPIT (AUT)","1056869","2012-02-26 06:00","2012","02","26","06:00","-0.1","","-5.6","","66","","","","35","","19","","","","102.84","","","","-5","","NA"
"-131.66","54.16","ROSE SPIT (AUT)","1056869","2012-02-26 07:00","2012","02","26","07:00","-0.4","","-5.5","","68","","","","35","","17","","","","102.85","","","","-5","","NA"
"-131.66","54.16","ROSE SPIT (AUT)","1056869","2012-02-26 08:00","2012","02","26","08:00","-0.4","","-5.3","","69","","","","35","","15","","","","102.87","","","","-5","","NA"
"-131.66","54.16","ROSE SPIT (AUT)","1056869","2012-02-26 09:00","2012","02","26","09:00","0.6","","-4.5","","69","","","","34","","15","","","","102.92","","","","","","NA"
"-131.66","54.16","ROSE SPIT (AUT)","1056869","2012-02-26 10:00","2012","02","26","10:00","1.1","","-5.3","","62","","","","33","","19","","","","102.96","","","","","","NA"
"-131.66","54.16","ROSE SPIT (AUT)","1056869","2012-02-26 11:00","2012","02","26","11:00","2.2","","-5.4","","57","","","","33","","15","","","","102.94","","","","","","NA"
"-131.66","54.16","ROSE SPIT (AUT)","1056869","2012-02-26 12:00","2012","02","26","12:00","2.4","","-5.5","","56","","","","35","","13","","","","102.92","","","","","","NA"
"-131.66","54.16","ROSE SPIT (AUT)","1056869","2012-02-26 13:00","2012","02","26","13:00","2.2","","-5.4","","57","","","","36","","11","","","","102.91","","","","","","NA"
"-131.66","54.16","ROSE SPIT (AUT)","1056869","2012-02-26 14:00","2012","02","26","14:00","2.5","","-6.2","","53","","","","34","","11","","","","102.88","","","","","","NA"
"-131.66","54.16","ROSE SPIT (AUT)","1056869","2012-02-26 15:00","2012","02","26","15:00","2.5","","-5.2","","57","","","","29","","9","","","","102.85","","","","","","NA"
"-131.66","54.16","ROSE SPIT (AUT)","1056869","2012-02-26 16:00","2012","02","26","16:00","2.2","","-5.8","","55","","","","30","","15","","","","102.82","","","","","","NA"
"-131.66","54.16","ROSE SPIT (AUT)","1056869","2012-02-26 17:00","2012","02","26","17:00","2.1","","-6.9","","51","","","","31","","6","","","","102.72","","","","","","NA"
"-131.66","54.16","ROSE SPIT (AUT)","1056869","2012-02-26 18:00","2012","02","26","18:00","0.8","","-7.2","","55","","","","","","0","","","","102.67","","","","","","NA"
"-131.66","54.16","ROSE SPIT (AUT)","1056869","2012-02-26 19:00","2012","02","26","19:00","-2.5","","-6.5","","74","","","","19","","6","","","","102.60","","","","-5","","NA"
"-131.66","54.16","ROSE SPIT (AUT)","1056869","2012-02-26 20:00","2012","02","26","20:00","-2.0","","-5.7","","76","","","","21","","6","","","","102.55","","","","-4","","NA"
"-131.66","54.16","ROSE SPIT (AUT)","1056869","2012-02-26 21:00","2012","02","26","21:00","-0.6","","-5.7","","68","","","","18","","11","","","","102.48","","","","-4","","NA"
"-131.66","54.16","ROSE SPIT (AUT)","1056869","2012-02-26 22:00","2012","02","26","22:00","-0.1","","-5.3","","68","","","","18","","13","","","","102.41","","","","-4","","NA"
"-131.66","54.16","ROSE SPIT (AUT)","1056869","2012-02-26 23:00","2012","02","26","23:00","0.9","","-3.7","","71","","","","17","","13","","","","102.32","","","","","","NA"
"-131.66","54.16","ROSE SPIT (AUT)","1056869","2012-02-27 00:00","2012","02","27","00:00","1.4","","-4.0","","67","","","","18","","15","","","","102.22","","","","","","NA"
"-131.66","54.16","ROSE SPIT (AUT)","1056869","2012-02-27 01:00","2012","02","27","01:00","1.9","","-3.7","","66","","","","17","","22","","","","102.10","","","","","","NA"
"-131.66","54.16","ROSE SPIT (AUT)","1056869","2012-02-27 02:00","2012","02","27","02:00","2.2","","-2.9","","69","","","","17","","28","","","","102.01","","","","","","NA"
"-131.66","54.16","ROSE SPIT (AUT)","1056869","2012-02-27 03:00","2012","02","27","03:00","2.2","","-2.7","","70","","","","18","","24","","","","101.90","","","","","","NA"
"-131.66","54.16","ROSE SPIT (AUT)","1056869","2012-02-27 04:00","2012","02","27","04:00","2.5","","-2.3","","71","","","","17","","32","","","","101.76","","","","","","NA"
"-131.66","54.16","ROSE SPIT (AUT)","1056869","2012-02-27 05:00","2012","02","27","05:00","2.8","","-1.3","","74","","","","16","","37","","","","101.61","","","","","","NA"
"-131.66","54.16","ROSE SPIT (AUT)","1056869","2012-02-27 06:00","2012","02","27","06:00","2.5","","-1.0","","78","","","","16","","43","","","","101.47","","","","","","NA"
"-131.66","54.16","ROSE SPIT (AUT)","1056869","2012-02-27 07:00","2012","02","27","07:00","2.9","","-0.7","","77","","","","16","","46","","","","101.30","","","","","","NA"
"-131.66","54.16","ROSE SPIT (AUT)","1056869","2012-02-27 08:00","2012","02","27","08:00","2.6","","0.0","","83","","","","15","","50","","","","101.14","","","","","","NA"
"-131.66","54.16","ROSE SPIT (AUT)","1056869","2012-02-27 09:00","2012","02","27","09:00","2.5","","0.4","","86","","","","16","","56","","","","100.99","","","","","","NA"
"-131.66","54.16","ROSE SPIT (AUT)","1056869","2012-02-27 10:00","2012","02","27","10:00","2.7","","0.8","","87","","","","15","","57","","","","100.85","","","","","","NA"
"-131.66","54.16","ROSE SPIT (AUT)","1056869","2012-02-27 11:00","2012","02","27","11:00","2.8","","0.9","","87","","","","15","","59","","","","100.72","","","","","","NA"
"-131.66","54.16","ROSE SPIT (AUT)","1056869","2012-02-27 12:00","2012","02","27","12:00","2.8","","1.4","","90","","","","15","","61","","","","100.58","","","","","","NA"
"-131.66","54.16","ROSE SPIT (AUT)","1056869","2012-02-27 13:00","2012","02","27","13:00","3.3","","1.7","","89","","","","15","","61","","","","100.44","","","","","","NA"
"-131.66","54.16","ROSE SPIT (AUT)","1056869","2012-02-27 14:00","2012","02","27","14:00","3.7","","1.7","","87","","","","16","","67","","","","100.26","","","","","","NA"
"-131.66","54.16","ROSE SPIT (AUT)","1056869","2012-02-27 15:00","2012","02","27","15:00","3.3","","1.9","","91","","","","16","","67","","","","100.12","","","","","","NA"
"-131.66","54.16","ROSE SPIT (AUT)","1056869","2012-02-27 16:00","2012","02","27","16:00","3.5","","2.3","","92","","","","17","","65","","","","100.05","","","","","","NA"
"-131.66","54.16","ROSE SPIT (AUT)","1056869","2012-02-27 17:00","2012","02","27","17:00","3.0","","2.1","","94","","","","19","","35","","","","100.01","","","","","","NA"
"-131.66","54.16","ROSE SPIT (AUT)","1056869","2012-02-27 18:00","2012","02","27","18:00","1.3","","0.3","","93","","","","18","","15","","","","99.98","","","","","","NA"
"-131.66","54.16","ROSE SPIT (AUT)","1056869","2012-02-27 19:00","2012","02","27","19:00","1.0","","0.0","","93","","","","19","","19","","","","99.94","","","","","","NA"
"-131.66","54.16","ROSE SPIT (AUT)","1056869","2012-02-27 20:00","2012","02","27","20:00","1.2","","0.3","","94","","","","17","","13","","","","99.92","","","","","","NA"
"-131.66","54.16","ROSE SPIT (AUT)","1056869","2012-02-27 21:00","2012","02","27","21:00","2.2","","0.8","","90","","","","16","","24","","","","99.87","","","","","","NA"
"-131.66","54.16","ROSE SPIT (AUT)","1056869","2012-02-27 22:00","2012","02","27","22:00","2.0","","0.5","","90","","","","17","","22","","","","99.82","","","","","","NA"
"-131.66","54.16","ROSE SPIT (AUT)","1056869","2012-02-27 23:00","2012","02","27","23:00","2.5","","0.7","","88","","","","16","","28","","","","99.80","","","","","","NA"
"-131.66","54.16","ROSE SPIT (AUT)","1056869","2012-02-28 00:00","2012","02","28","00:00","2.9","","0.8","","86","","","","16","","28","","","","99.77","","","","","","NA"
"-131.66","54.16","ROSE SPIT (AUT)","1056869","2012-02-28 01:00","2012","02","28","01:00","3.0","","0.6","","84","","","","15","","37","","","","99.73","","","","","","NA"
"-131.66","54.16","ROSE SPIT (AUT)","1056869","2012-02-28 02:00","2012","02","28","02:00","3.1","","0.7","","84","","","","16","","37","","","","99.70","","","","","","NA"
"-131.66","54.16","ROSE SPIT (AUT)","1056869","2012-02-28 03:00","2012","02","28","03:00","3.2","","1.2","","87","","","","16","","35","","","","99.67","","","","","","NA"
"-131.66","54.16","ROSE SPIT (AUT)","1056869","2012-02-28 04:00","2012","02","28","04:00","3.2","","1.5","","89","","","","14","","37","","","","99.65","","","","","","NA"
"-131.66","54.16","ROSE SPIT (AUT)","1056869","2012-02-28 05:00","2012","02","28","05:00","2.5","","1.3","","92","","","","15","","43","","","","99.61","","","","","","NA"
"-131.66","54.16","ROSE SPIT (AUT)","1056869","2012-02-28 06:00","2012","02","28","06:00","2.7","","1.5","","92","","","","13","","43","","","","99.62","","","","","","NA"
"-131.66","54.16","ROSE SPIT (AUT)","1056869","2012-02-28 07:00","2012","02","28","07:00","2.8","","1.3","","90","","","","14","","44","","","","99.60","","","","","","NA"
"-131.66","54.16","ROSE SPIT (AUT)","1056869","2012-02-28 08:00","2012","02","28","08:00","2.6","","1.4","","92","","","","13","","43","","","","99.63","","","","","","NA"
"-131.66","54.16","ROSE SPIT (AUT)","1056869","2012-02-28 09:00","2012","02","28","09:00","2.5","","1.5","","93","","","","14","","37","","","","99.64","","","","","","NA"
"-131.66","54.16","ROSE SPIT (AUT)","1056869","2012-02-28 10:00","2012","02","28","10:00","2.1","","1.4","","95","","","","16","","32","","","","99.67","","","","","","NA"
"-131.66","54.16","ROSE SPIT (AUT)","1056869","2012-02-28 11:00","2012","02","28","11:00","1.1","","0.4","","95","","","","12","","37","","","","99.74","","","","","","NA"
"-131.66","54.16","ROSE SPIT (AUT)","1056869","2012-02-28 12:00","2012","02","28","12:00","1.6","","0.9","","95","","","","14","","39","","","","99.76","","","","","","NA"
"-131.66","54.16","ROSE SPIT (AUT)","1056869","2012-02-28 13:00","2012","02","28","13:00","1.5","","1.0","","96","","","","17","","26","","","","99.76","","","","","","NA"
"-131.66","54.16","ROSE SPIT (AUT)","1056869","2012-02-28 14:00","2012","02","28","14:00","2.9","","1.5","","90","","","","13","","33","","","","99.71","","","","","","NA"
"-131.66","54.16","ROSE SPIT (AUT)","1056869","2012-02-28 15:00","2012","02","28","15:00","3.4","","1.4","","87","","","","13","","32","","","","99.68","","","","","","NA"
"-131.66","54.16","ROSE SPIT (AUT)","1056869","2012-02-28 16:00","2012","02","28","16:00","2.0","","1.0","","93","","","","18","","17","","","","99.69","","","","","","NA"
"-131.66","54.16","ROSE SPIT (AUT)","1056869","2012-02-28 17:00","2012","02","28","17:00","3.4","","1.2","","85","","","","12","","24","","","","99.68","","","","","","NA"
"-131.66","54.16","ROSE SPIT (AUT)","1056869","2012-02-28 18:00","2012","02","28","18:00","3.3","","0.4","","81","","","","12","","20","","","","99.66","","","","","","NA"
"-131.66","54.16","ROSE SPIT (AUT)","1056869","2012-02-28 19:00","2012","02","28","19:00","3.5","","0.4","","80","","","","11","","20","","","","99.65","","","","","","NA"
"-131.66","54.16","ROSE SPIT (AUT)","1056869","2012-02-28 20:00","2012","02","28","20:00","3.0","","0.4","","83","","","","9","","17","","","","99.64","","","","","","NA"
"-131.66","54.16","ROSE SPIT (AUT)","1056869","2012-02-28 21:00","2012","02","28","21:00","2.4","","0.6","","88","","","","8","","13","","","","99.60","","","","","","NA"
"-131.66","54.16","ROSE SPIT (AUT)","1056869","2012-02-28 22:00","2012","02","28","22:00","1.6","","-0.6","","85","","","","8","","4","","","","99.58","","","","","","NA"
"-131.66","54.16","ROSE SPIT (AUT)","1056869","2012-02-28 23:00","2012","02","28","23:00","0.0","","-2.0","","86","","","","4","","4","","","","99.55","","","","-1","","NA"
"-131.66","54.16","ROSE SPIT (AUT)","1056869","2012-02-29 00:00","2012","02","29","00:00","3.0","","0.3","","82","","","","7","","15","","","","99.56","","","","","","NA"
"-131.66","54.16","ROSE SPIT (AUT)","1056869","2012-02-29 01:00","2012","02","29","01:00","2.6","","-0.3","","81","","","","6","","13","","","","99.54","","","","","","NA"
"-131.66","54.16","ROSE SPIT (AUT)","1056869","2012-02-29 02:00","2012","02","29","02:00","2.3","","-0.7","","81","","","","5","","11","","","","99.55","","","","","","NA"
"-131.66","54.16","ROSE SPIT (AUT)","1056869","2012-02-29 03:00","2012","02","29","03:00","2.3","","-0.5","","82","","","","5","","15","","","","99.55","","","","","","NA"
"-131.66","54.16","ROSE SPIT (AUT)","1056869","2012-02-29 04:00","2012","02","29","04:00","2.4","","-0.4","","82","","","","5","","17","","","","99.54","","","","","","NA"
"-131.66","54.16","ROSE SPIT (AUT)","1056869","2012-02-29 05:00","2012","02","29","05:00","2.3","","-0.6","","81","","","","4","","15","","","","99.56","","","","","","NA"
"-131.66","54.16","ROSE SPIT (AUT)","1056869","2012-02-29 06:00","2012","02","29","06:00","2.2","","-0.9","","80","","","","4","","17","","","","99.58","","","","","","NA"
"-131.66","54.16","ROSE SPIT (AUT)","1056869","2012-02-29 07:00","2012","02","29","07:00","2.1","","-0.9","","80","","","","4","","15","","","","99.58","","","","","","NA"
"-131.66","54.16","ROSE SPIT (AUT)","1056869","2012-02-29 08:00","2012","02","29","08:00","1.8","","-0.9","","82","","","","3","","13","","","","99.61","","","","","","NA"
"-131.66","54.16","ROSE SPIT (AUT)","1056869","2012-02-29 09:00","2012","02","29","09:00","1.2","","-1.2","","84","","","","2","","7","","","","99.68","","","","","","NA"
"-131.66","54.16","ROSE SPIT (AUT)","1056869","2012-02-29 10:00","2012","02","29","10:00","4.6","","1.0","","77","","","","14","","4","","","","99.71","","","","","","NA"
"-131.66","54.16","ROSE SPIT (AUT)","1056869","2012-02-29 11:00","2012","02","29","11:00","4.3","","1.0","","79","","","","6","","13","","","","99.78","","","","","","NA"
"-131.66","54.16","ROSE SPIT (AUT)","1056869","2012-02-29 12:00","2012","02","29","12:00","4.6","","0.9","","77","","","","8","","17","","","","99.87","","","","","","NA"
"-131.66","54.16","ROSE SPIT (AUT)","1056869","2012-02-29 13:00","2012","02","29","13:00","5.0","","0.8","","74","","","","5","","13","","","","99.95","","","","","","NA"
"-131.66","54.16","ROSE SPIT (AUT)","1056869","2012-02-29 14:00","2012","02","29","14:00","4.9","","0.6","","74","","","","35","","15","","","","100.02","","","","","","NA"
"-131.66","54.16","ROSE SPIT (AUT)","1056869","2012-02-29 15:00","2012","02","29","15:00","5.1","","0.1","","70","","","","35","","13","","","","100.09","","","","","","NA"
"-131.66","54.16","ROSE SPIT (AUT)","1056869","2012-02-29 16:00","2012","02","29","16:00","4.6","","-0.8","","68","","","","34","","13","","","","100.19","","","","","","NA"
"-131.66","54.16","ROSE SPIT (AUT)","1056869","2012-02-29 17:00","2012","02","29","17:00","4.0","","-0.3","","74","","","","33","","13","","","","100.28","","","","","","NA"
"-131.66","54.16","ROSE SPIT (AUT)","1056869","2012-02-29 18:00","2012","02","29","18:00","2.6","","-1.3","","75","","","","31","","9","","","","100.35","","","","","","NA"
"-131.66","54.16","ROSE SPIT (AUT)","1056869","2012-02-29 19:00","2012","02","29","19:00","2.1","","-0.9","","80","","","","31","","13","","","","100.44","","","","","","NA"
"-131.66","54.16","ROSE SPIT (AUT)","1056869","2012-02-29 20:00","2012","02","29","20:00","2.6","","-0.2","","82","","","","29","","15","","","","100.52","","","","","","NA"
"-131.66","54.16","ROSE SPIT (AUT)","1056869","2012-02-29 21:00","2012","02","29","21:00","2.8","","0.1","","82","","","","29","","19","","","","100.60","","","","","","NA"
"-131.66","54.16","ROSE SPIT (AUT)","1056869","2012-02-29 22:00","2012","02","29","22:00","2.9","","0.1","","82","","","","29","","19","","","","100.68","","","","","","NA"
"-131.66","54.16","ROSE SPIT (AUT)","1056869","2012-02-29 23:00","2012","02","29","23:00","2.8","","-0.1","","81","","","","27","","19","","","","100.77","","","","","","NA"
