"Longitude (x)","Latitude (y)","Station Name","Climate ID","Date/Time (LST)","Year","Month","Day","Time (LST)","Temp (°C)","Temp Flag","Dew Point Temp (°C)","Dew Point Temp Flag","Rel Hum (%)","Rel Hum Flag","Precip. Amount (mm)","Precip. Amount Flag","Wind Dir (10s deg)","Wind Dir Flag","Wind Spd (km/h)","Wind Spd Flag","Visibility (km)","Visibility Flag","Stn Press (kPa)","Stn Press Flag","Hmdx","Hmdx Flag","Wind Chill","Wind Chill Flag","Weather"
"-102.97","49.21","ESTEVAN A","4012403","2018-04-01 00:00","2018","04","01","00:00","-14.3","","-18.8","","69","","","M","27","","24","","","M","95.52","","","","-24","","NA"
"-102.97","49.21","ESTEVAN A","4012403","2018-04-01 01:00","2018","04","01","01:00","-14.8","","-19.3","","69","","","M","27","","24","","","M","95.49","","","","-25","","NA"
"-102.97","49.21","ESTEVAN A","4012403","2018-04-01 02:00","2018","04","01","02:00","-16.3","","-20.2","","72","","","M","25","","23","","","M","95.45","","","","-26","","NA"
"-102.97","49.21","ESTEVAN A","4012403","2018-04-01 03:00","2018","04","01","03:00","-15.9","","-20.3","","70","","","M","26","","26","","","M","95.40","","","","-27","","NA"
"-102.97","49.21","ESTEVAN A","4012403","2018-04-01 04:00","2018","04","01","04:00","-16.6","","-20.6","","71","","","M","25","","19","","","M","95.34","","","","-26","","NA"
"-102.97","49.21","ESTEVAN A","4012403","2018-04-01 05:00","2018","04","01","05:00","-17.5","","-21.2","","74","","","M","24","","17","","","M","95.31","","","","-27","","NA"
"-102.97","49.21","ESTEVAN A","4012403","2018-04-01 06:00","2018","04","01","06:00","-16.7","","-20.8","","72","","","M","26","","25","","","M","95.25","","","","-27","","NA"
"-102.97","49.21","ESTEVAN A","4012403","2018-04-01 07:00","2018","04","01","07:00","-16.5","","-20.7","","70","","","M","25","","26","","","M","95.20","","","","-27","","NA"
"-102.97","49.21","ESTEVAN A","4012403","2018-04-01 08:00","2018","04","01","08:00","-14.9","","-20.2","","65","","","M","26","","26","","","M","95.16","","","","-25","","NA"
"-102.97","49.21","ESTEVAN A","4012403","2018-04-01 09:00","2018","04","01","09:00","-13.3","","-19.1","","62","","","M","27","","28","","","M","95.09","","","","-24","","NA"
"-102.97","49.21","ESTEVAN A","4012403","2018-04-01 10:00","2018","04","01","10:00","-11.4","","-17.4","","61","","","M","25","","23","","","M","95.07","","","","-20","","NA"
"-102.97","49.21","ESTEVAN A","4012403","2018-04-01 11:00","2018","04","01","11:00","-10.1","","-16.2","","61","","","M","25","","23","","","M","95.02","","","","-19","","NA"
"-102.97","49.21","ESTEVAN A","4012403","2018-04-01 12:00","2018","04","01","12:00","-8.9","","-15.0","","62","","","M","24","","22","","","M","94.93","","","","-17","","NA"
"-102.97","49.21","ESTEVAN A","4012403","2018-04-01 13:00","2018","04","01","13:00","-7.9","","-14.3","","60","","","M","25","","21","","","M","94.85","","","","-15","","NA"
"-102.97","49.21","ESTEVAN A","4012403","2018-04-01 14:00","2018","04","01","14:00","-7.2","","-14.6","","56","","","M","26","","24","","","M","94.77","","","","-15","","NA"
"-102.97","49.21","ESTEVAN A","4012403","2018-04-01 15:00","2018","04","01","15:00","-6.3","","-13.6","","57","","","M","26","","22","","","M","94.70","","","","-14","","NA"
"-102.97","49.21","ESTEVAN A","4012403","2018-04-01 16:00","2018","04","01","16:00","-6.0","","-13.8","","54","","","M","27","","21","","","M","94.63","","","","-13","","NA"
"-102.97","49.21","ESTEVAN A","4012403","2018-04-01 17:00","2018","04","01","17:00","-6.3","","-13.6","","57","","","M","26","","16","","","M","94.60","","","","-12","","NA"
"-102.97","49.21","ESTEVAN A","4012403","2018-04-01 18:00","2018","04","01","18:00","-7.0","","-13.1","","62","","","M","25","","13","","","M","94.54","","","","-13","","NA"
"-102.97","49.21","ESTEVAN A","4012403","2018-04-01 19:00","2018","04","01","19:00","-8.8","","-13.7","","68","","","M","24","","11","","","M","94.51","","","","-14","","NA"
"-102.97","49.21","ESTEVAN A","4012403","2018-04-01 20:00","2018","04","01","20:00","-11.6","","-15.7","","72","","","M","25","","10","","","M","94.50","","","","-17","","NA"
"-102.97","49.21","ESTEVAN A","4012403","2018-04-01 21:00","2018","04","01","21:00","-11.8","","-15.9","","72","","","M","26","","10","","","M","94.52","","","","-17","","NA"
"-102.97","49.21","ESTEVAN A","4012403","2018-04-01 22:00","2018","04","01","22:00","-13.1","","-16.4","","77","","","M","27","","11","","","M","94.51","","","","-19","","NA"
"-102.97","49.21","ESTEVAN A","4012403","2018-04-01 23:00","2018","04","01","23:00","-13.2","","-15.9","","81","","","M","30","","8","","","M","94.45","","","","-18","","NA"
"-102.97","49.21","ESTEVAN A","4012403","2018-04-02 00:00","2018","04","02","00:00","-13.7","","-16.4","","80","","","M","31","","3","","","M","94.45","","","","-16","","NA"
"-102.97","49.21","ESTEVAN A","4012403","2018-04-02 01:00","2018","04","02","01:00","-13.7","","-16.0","","82","","","M","35","","6","","","M","94.44","","","","-18","","NA"
"-102.97","49.21","ESTEVAN A","4012403","2018-04-02 02:00","2018","04","02","02:00","-14.3","","-16.5","","83","","","M","4","","7","","","M","94.40","","","","-19","","NA"
"-102.97","49.21","ESTEVAN A","4012403","2018-04-02 03:00","2018","04","02","03:00","-15.3","","-17.5","","84","","","M","4","","7","","","M","94.43","","","","-20","","NA"
"-102.97","49.21","ESTEVAN A","4012403","2018-04-02 04:00","2018","04","02","04:00","-15.9","","-17.8","","86","","","M","7","","8","","","M","94.39","","","","-21","","NA"
"-102.97","49.21","ESTEVAN A","4012403","2018-04-02 05:00","2018","04","02","05:00","-16.0","","-18.5","","81","","","M","6","","15","","","M","94.34","","","","-24","","NA"
"-102.97","49.21","ESTEVAN A","4012403","2018-04-02 06:00","2018","04","02","06:00","-17.3","","-19.8","","81","","","M","5","","12","","","M","94.37","","","","-25","","NA"
"-102.97","49.21","ESTEVAN A","4012403","2018-04-02 07:00","2018","04","02","07:00","-16.6","","-18.8","","83","","","M","7","","16","","","M","94.42","","","","-25","","NA"
"-102.97","49.21","ESTEVAN A","4012403","2018-04-02 08:00","2018","04","02","08:00","-15.9","","-17.4","","89","","","M","7","","24","","","M","94.48","","","","-26","","NA"
"-102.97","49.21","ESTEVAN A","4012403","2018-04-02 09:00","2018","04","02","09:00","-13.2","","-15.3","","84","","","M","8","","23","","","M","94.54","","","","-23","","NA"
"-102.97","49.21","ESTEVAN A","4012403","2018-04-02 10:00","2018","04","02","10:00","-11.6","","-14.8","","77","","","M","7","","24","","","M","94.53","","","","-21","","NA"
"-102.97","49.21","ESTEVAN A","4012403","2018-04-02 11:00","2018","04","02","11:00","-10.8","","-14.6","","74","","","M","7","","24","","","M","94.58","","","","-20","","NA"
"-102.97","49.21","ESTEVAN A","4012403","2018-04-02 12:00","2018","04","02","12:00","-9.8","","-13.9","","73","","","M","8","","20","","","M","94.61","","","","-18","","NA"
"-102.97","49.21","ESTEVAN A","4012403","2018-04-02 13:00","2018","04","02","13:00","-9.8","","-14.1","","71","","","M","7","","22","","","M","94.65","","","","-18","","NA"
"-102.97","49.21","ESTEVAN A","4012403","2018-04-02 14:00","2018","04","02","14:00","-9.2","","-13.7","","70","","","M","7","","18","","","M","94.68","","","","-16","","NA"
"-102.97","49.21","ESTEVAN A","4012403","2018-04-02 15:00","2018","04","02","15:00","-9.3","","-13.6","","71","","","M","5","","21","","","M","94.68","","","","-17","","NA"
"-102.97","49.21","ESTEVAN A","4012403","2018-04-02 16:00","2018","04","02","16:00","-9.1","","-14.4","","65","","","M","7","","20","","","M","94.69","","","","-17","","NA"
"-102.97","49.21","ESTEVAN A","4012403","2018-04-02 17:00","2018","04","02","17:00","-9.2","","-14.6","","65","","","M","8","","13","","","M","94.78","","","","-15","","NA"
"-102.97","49.21","ESTEVAN A","4012403","2018-04-02 18:00","2018","04","02","18:00","-9.8","","-15.4","","64","","","M","5","","14","","","M","94.79","","","","-16","","NA"
"-102.97","49.21","ESTEVAN A","4012403","2018-04-02 19:00","2018","04","02","19:00","-10.9","","-15.6","","69","","","M","6","","7","","","M","94.88","","","","-15","","NA"
"-102.97","49.21","ESTEVAN A","4012403","2018-04-02 20:00","2018","04","02","20:00","-12.7","","-16.3","","74","","","M","7","","8","","","M","94.92","","","","-18","","NA"
"-102.97","49.21","ESTEVAN A","4012403","2018-04-02 21:00","2018","04","02","21:00","-13.4","","-16.2","","80","","","M","7","","4","","","M","95.02","","","","-16","","NA"
"-102.97","49.21","ESTEVAN A","4012403","2018-04-02 22:00","2018","04","02","22:00","-14.7","","-16.9","","84","","","M","19","","6","","","M","95.15","","","","-19","","NA"
"-102.97","49.21","ESTEVAN A","4012403","2018-04-02 23:00","2018","04","02","23:00","-14.1","","-16.6","","82","","","M","20","","4","","","M","95.16","","","","-17","","NA"
"-102.97","49.21","ESTEVAN A","4012403","2018-04-03 00:00","2018","04","03","00:00","-13.5","","-15.9","","82","","","M","18","","3","","","M","95.16","","","","-16","","NA"
"-102.97","49.21","ESTEVAN A","4012403","2018-04-03 01:00","2018","04","03","01:00","-13.7","","-15.9","","84","","","M","23","","8","","","M","95.20","","","","-19","","NA"
"-102.97","49.21","ESTEVAN A","4012403","2018-04-03 02:00","2018","04","03","02:00","-14.3","","-16.5","","83","","","M","25","","9","","","M","95.20","","","","-20","","NA"
"-102.97","49.21","ESTEVAN A","4012403","2018-04-03 03:00","2018","04","03","03:00","-13.4","","-15.5","","84","","","M","24","","10","","","M","95.22","","","","-19","","NA"
"-102.97","49.21","ESTEVAN A","4012403","2018-04-03 04:00","2018","04","03","04:00","-14.1","","-16.4","","83","","","M","25","","5","","","M","95.24","","","","-18","","NA"
"-102.97","49.21","ESTEVAN A","4012403","2018-04-03 05:00","2018","04","03","05:00","-14.1","","-16.4","","83","","","M","24","","9","","","M","95.25","","","","-20","","NA"
"-102.97","49.21","ESTEVAN A","4012403","2018-04-03 06:00","2018","04","03","06:00","-14.0","","-16.6","","81","","","M","24","","11","","","M","95.28","","","","-20","","NA"
"-102.97","49.21","ESTEVAN A","4012403","2018-04-03 07:00","2018","04","03","07:00","-13.9","","-16.5","","81","","","M","25","","11","","","M","95.33","","","","-20","","NA"
"-102.97","49.21","ESTEVAN A","4012403","2018-04-03 08:00","2018","04","03","08:00","-11.6","","-14.6","","79","","","M","25","","9","","","M","95.33","","","","-17","","NA"
"-102.97","49.21","ESTEVAN A","4012403","2018-04-03 09:00","2018","04","03","09:00","-10.2","","-14.2","","73","","","M","23","","14","","","M","95.29","","","","-17","","NA"
"-102.97","49.21","ESTEVAN A","4012403","2018-04-03 10:00","2018","04","03","10:00","-7.5","","-13.2","","64","","","M","29","","21","","","M","95.29","","","","-15","","NA"
"-102.97","49.21","ESTEVAN A","4012403","2018-04-03 11:00","2018","04","03","11:00","-7.2","","-12.6","","65","","","M","27","","16","","","M","95.28","","","","-14","","NA"
"-102.97","49.21","ESTEVAN A","4012403","2018-04-03 12:00","2018","04","03","12:00","-5.7","","-11.8","","62","","","M","27","","15","","","M","95.28","","","","-11","","NA"
"-102.97","49.21","ESTEVAN A","4012403","2018-04-03 13:00","2018","04","03","13:00","-4.2","","-11.4","","57","","","M","29","","22","","","M","95.26","","","","-11","","NA"
"-102.97","49.21","ESTEVAN A","4012403","2018-04-03 14:00","2018","04","03","14:00","-3.6","","-11.6","","54","","","M","28","","19","","","M","95.24","","","","-10","","NA"
"-102.97","49.21","ESTEVAN A","4012403","2018-04-03 15:00","2018","04","03","15:00","-2.9","","-11.4","","52","","","M","27","","22","","","M","95.23","","","","-9","","NA"
"-102.97","49.21","ESTEVAN A","4012403","2018-04-03 16:00","2018","04","03","16:00","-3.5","","-12.0","","52","","","M","27","","23","","","M","95.20","","","","-10","","NA"
"-102.97","49.21","ESTEVAN A","4012403","2018-04-03 17:00","2018","04","03","17:00","-3.5","","-11.4","","55","","","M","27","","21","","","M","95.17","","","","-10","","NA"
"-102.97","49.21","ESTEVAN A","4012403","2018-04-03 18:00","2018","04","03","18:00","-4.3","","-12.5","","53","","","M","26","","18","","","M","95.15","","","","-10","","NA"
"-102.97","49.21","ESTEVAN A","4012403","2018-04-03 19:00","2018","04","03","19:00","-5.7","","-12.1","","61","","","M","25","","19","","","M","95.13","","","","-12","","NA"
"-102.97","49.21","ESTEVAN A","4012403","2018-04-03 20:00","2018","04","03","20:00","-8.6","","-12.5","","74","","","M","24","","10","","","M","95.10","","","","-14","","NA"
"-102.97","49.21","ESTEVAN A","4012403","2018-04-03 21:00","2018","04","03","21:00","-10.6","","-13.1","","82","","","M","23","","10","","","M","95.07","","","","-16","","NA"
"-102.97","49.21","ESTEVAN A","4012403","2018-04-03 22:00","2018","04","03","22:00","-11.4","","-13.4","","85","","","M","22","","12","","","M","95.07","","","","-18","","NA"
"-102.97","49.21","ESTEVAN A","4012403","2018-04-03 23:00","2018","04","03","23:00","-12.2","","-14.3","","84","","","M","22","","10","","","M","95.03","","","","-18","","NA"
"-102.97","49.21","ESTEVAN A","4012403","2018-04-04 00:00","2018","04","04","00:00","-13.4","","-15.8","","82","","","M","23","","13","","","M","95.00","","","","-20","","NA"
"-102.97","49.21","ESTEVAN A","4012403","2018-04-04 01:00","2018","04","04","01:00","-13.8","","-16.3","","82","","","M","23","","9","","","M","94.98","","","","-19","","NA"
"-102.97","49.21","ESTEVAN A","4012403","2018-04-04 02:00","2018","04","04","02:00","-14.2","","-16.7","","82","","","M","21","","10","","","M","94.94","","","","-20","","NA"
"-102.97","49.21","ESTEVAN A","4012403","2018-04-04 03:00","2018","04","04","03:00","-13.1","","-15.6","","82","","","M","27","","4","","","M","94.91","","","","-16","","NA"
"-102.97","49.21","ESTEVAN A","4012403","2018-04-04 04:00","2018","04","04","04:00","-13.7","","-16.0","","83","","","M","21","","3","","","M","94.88","","","","-16","","NA"
"-102.97","49.21","ESTEVAN A","4012403","2018-04-04 05:00","2018","04","04","05:00","-14.3","","-16.1","","86","","","M","25","","6","","","M","94.86","","","","-18","","NA"
"-102.97","49.21","ESTEVAN A","4012403","2018-04-04 06:00","2018","04","04","06:00","-14.4","","-16.0","","88","","","M","30","","4","","","M","94.85","","","","-17","","NA"
"-102.97","49.21","ESTEVAN A","4012403","2018-04-04 07:00","2018","04","04","07:00","-15.2","","-17.0","","86","","","M","26","","7","","","M","94.87","","","","-20","","NA"
"-102.97","49.21","ESTEVAN A","4012403","2018-04-04 08:00","2018","04","04","08:00","-12.3","","-14.3","","85","","","M","27","","5","","","M","94.90","","","","-16","","NA"
"-102.97","49.21","ESTEVAN A","4012403","2018-04-04 09:00","2018","04","04","09:00","-10.5","","-13.0","","82","","","M","30","","10","","","M","94.92","","","","-16","","NA"
"-102.97","49.21","ESTEVAN A","4012403","2018-04-04 10:00","2018","04","04","10:00","-8.7","","-12.1","","77","","","M","30","","9","","","M","94.91","","","","-13","","NA"
"-102.97","49.21","ESTEVAN A","4012403","2018-04-04 11:00","2018","04","04","11:00","-6.7","","-10.6","","74","","","M","30","","10","","","M","94.91","","","","-11","","NA"
"-102.97","49.21","ESTEVAN A","4012403","2018-04-04 12:00","2018","04","04","12:00","-4.8","","-9.4","","70","","","M","26","","11","","","M","94.92","","","","-9","","NA"
"-102.97","49.21","ESTEVAN A","4012403","2018-04-04 13:00","2018","04","04","13:00","-3.6","","-9.0","","66","","","M","28","","16","","","M","94.93","","","","-9","","NA"
"-102.97","49.21","ESTEVAN A","4012403","2018-04-04 14:00","2018","04","04","14:00","-3.2","","-9.6","","61","","","M","30","","20","","","M","94.95","","","","-9","","NA"
"-102.97","49.21","ESTEVAN A","4012403","2018-04-04 15:00","2018","04","04","15:00","-2.7","","-8.4","","65","","","M","29","","14","","","M","94.93","","","","-8","","NA"
"-102.97","49.21","ESTEVAN A","4012403","2018-04-04 16:00","2018","04","04","16:00","-2.4","","-9.3","","59","","","M","31","","16","","","M","94.91","","","","-8","","NA"
"-102.97","49.21","ESTEVAN A","4012403","2018-04-04 17:00","2018","04","04","17:00","-2.2","","-9.4","","58","","","M","29","","14","","","M","94.90","","","","-7","","NA"
"-102.97","49.21","ESTEVAN A","4012403","2018-04-04 18:00","2018","04","04","18:00","-2.9","","-9.9","","59","","","M","29","","13","","","M","94.89","","","","-8","","NA"
"-102.97","49.21","ESTEVAN A","4012403","2018-04-04 19:00","2018","04","04","19:00","-4.1","","-8.9","","69","","","M","28","","9","","","M","94.89","","","","-8","","NA"
"-102.97","49.21","ESTEVAN A","4012403","2018-04-04 20:00","2018","04","04","20:00","-6.1","","-9.3","","78","","","M","25","","9","","","M","94.92","","","","-10","","NA"
"-102.97","49.21","ESTEVAN A","4012403","2018-04-04 21:00","2018","04","04","21:00","-6.8","","-8.7","","86","","","M","24","","4","","","M","94.94","","","","-9","","NA"
"-102.97","49.21","ESTEVAN A","4012403","2018-04-04 22:00","2018","04","04","22:00","-7.5","","-9.1","","88","","","M","1","","7","","","M","94.93","","","","-11","","NA"
"-102.97","49.21","ESTEVAN A","4012403","2018-04-04 23:00","2018","04","04","23:00","-6.2","","-9.3","","79","","","M","4","","7","","","M","94.91","","","","-10","","NA"
"-102.97","49.21","ESTEVAN A","4012403","2018-04-05 00:00","2018","04","05","00:00","-6.2","","-10.3","","73","","","M","11","","7","","","M","94.93","","","","-10","","NA"
"-102.97","49.21","ESTEVAN A","4012403","2018-04-05 01:00","2018","04","05","01:00","-6.1","","-8.4","","84","","","M","23","","5","","","M","94.96","","","","-9","","NA"
"-102.97","49.21","ESTEVAN A","4012403","2018-04-05 02:00","2018","04","05","02:00","-6.8","","-9.2","","83","","","M","35","","9","","","M","94.96","","","","-11","","NA"
"-102.97","49.21","ESTEVAN A","4012403","2018-04-05 03:00","2018","04","05","03:00","-7.4","","-8.7","","90","","","M","33","","7","","","M","94.98","","","","-11","","NA"
"-102.97","49.21","ESTEVAN A","4012403","2018-04-05 04:00","2018","04","05","04:00","-7.4","","-8.8","","90","","","M","32","","15","","","M","95.00","","","","-14","","NA"
"-102.97","49.21","ESTEVAN A","4012403","2018-04-05 05:00","2018","04","05","05:00","-8.3","","-9.6","","90","","","M","31","","13","","","M","95.01","","","","-14","","NA"
"-102.97","49.21","ESTEVAN A","4012403","2018-04-05 06:00","2018","04","05","06:00","-8.5","","-9.9","","90","","","M","31","","16","","","M","95.04","","","","-15","","NA"
"-102.97","49.21","ESTEVAN A","4012403","2018-04-05 07:00","2018","04","05","07:00","-9.7","","-11.3","","88","","","M","30","","18","","","M","95.07","","","","-17","","NA"
"-102.97","49.21","ESTEVAN A","4012403","2018-04-05 08:00","2018","04","05","08:00","-9.5","","-11.4","","86","","","M","30","","20","","","M","95.12","","","","-17","","NA"
"-102.97","49.21","ESTEVAN A","4012403","2018-04-05 09:00","2018","04","05","09:00","-9.0","","-11.9","","80","","","M","30","","29","","","M","95.17","","","","-18","","NA"
"-102.97","49.21","ESTEVAN A","4012403","2018-04-05 10:00","2018","04","05","10:00","-8.4","","-12.4","","73","","","M","29","","26","","","M","95.21","","","","-17","","NA"
"-102.97","49.21","ESTEVAN A","4012403","2018-04-05 11:00","2018","04","05","11:00","-8.2","","-12.9","","69","","","M","29","","30","","","M","95.23","","","","-17","","NA"
"-102.97","49.21","ESTEVAN A","4012403","2018-04-05 12:00","2018","04","05","12:00","-7.2","","-11.6","","71","","","M","30","","32","","","M","95.24","","","","-16","","NA"
"-102.97","49.21","ESTEVAN A","4012403","2018-04-05 13:00","2018","04","05","13:00","-6.7","","-11.9","","67","","","M","28","","34","","","M","95.24","","","","-16","","NA"
"-102.97","49.21","ESTEVAN A","4012403","2018-04-05 14:00","2018","04","05","14:00","-7.6","","-12.6","","68","","","M","31","","36","","","M","95.29","","","","-17","","NA"
"-102.97","49.21","ESTEVAN A","4012403","2018-04-05 15:00","2018","04","05","15:00","-7.0","","-13.0","","63","","","M","31","","32","","","M","95.28","","","","-16","","NA"
"-102.97","49.21","ESTEVAN A","4012403","2018-04-05 16:00","2018","04","05","16:00","-7.6","","-14.3","","59","","","M","31","","34","","","M","95.27","","","","-17","","NA"
"-102.97","49.21","ESTEVAN A","4012403","2018-04-05 17:00","2018","04","05","17:00","-9.0","","-13.9","","68","","","M","31","","32","","","M","95.24","","","","-18","","NA"
"-102.97","49.21","ESTEVAN A","4012403","2018-04-05 18:00","2018","04","05","18:00","-9.0","","-12.4","","77","","","M","30","","45","","","M","95.27","","","","-20","","NA"
"-102.97","49.21","ESTEVAN A","4012403","2018-04-05 19:00","2018","04","05","19:00","-12.3","","-16.4","","72","","","M","34","","38","","","M","95.36","","","","-24","","NA"
"-102.97","49.21","ESTEVAN A","4012403","2018-04-05 20:00","2018","04","05","20:00","-14.3","","-19.1","","68","","","M","33","","36","","","M","95.48","","","","-26","","NA"
"-102.97","49.21","ESTEVAN A","4012403","2018-04-05 21:00","2018","04","05","21:00","-16.1","","-20.6","","69","","","M","34","","39","","","M","95.66","","","","-29","","NA"
"-102.97","49.21","ESTEVAN A","4012403","2018-04-05 22:00","2018","04","05","22:00","-17.3","","-23.3","","60","","","M","33","","32","","","M","95.76","","","","-29","","NA"
"-102.97","49.21","ESTEVAN A","4012403","2018-04-05 23:00","2018","04","05","23:00","-17.8","","-23.3","","63","","","M","32","","28","","","M","95.83","","","","-29","","NA"
"-102.97","49.21","ESTEVAN A","4012403","2018-04-06 00:00","2018","04","06","00:00","-18.5","","-22.5","","72","","","M","31","","25","","","M","95.88","","","","-30","","NA"
"-102.97","49.21","ESTEVAN A","4012403","2018-04-06 01:00","2018","04","06","01:00","-19.0","","-22.9","","71","","","M","30","","22","","","M","95.95","","","","-30","","NA"
"-102.97","49.21","ESTEVAN A","4012403","2018-04-06 02:00","2018","04","06","02:00","-19.2","","-23.1","","72","","","M","31","","26","","","M","95.98","","","","-31","","NA"
"-102.97","49.21","ESTEVAN A","4012403","2018-04-06 03:00","2018","04","06","03:00","-19.6","","-23.6","","71","","","M","29","","21","","","M","96.04","","","","-30","","NA"
"-102.97","49.21","ESTEVAN A","4012403","2018-04-06 04:00","2018","04","06","04:00","-20.1","","-24.0","","72","","","M","29","","21","","","M","96.04","","","","-31","","NA"
"-102.97","49.21","ESTEVAN A","4012403","2018-04-06 05:00","2018","04","06","05:00","-20.4","","-24.1","","73","","","M","29","","20","","","M","96.08","","","","-31","","NA"
"-102.97","49.21","ESTEVAN A","4012403","2018-04-06 06:00","2018","04","06","06:00","-20.5","","-24.2","","73","","","M","29","","17","","","M","96.11","","","","-30","","NA"
"-102.97","49.21","ESTEVAN A","4012403","2018-04-06 07:00","2018","04","06","07:00","-19.6","","-23.6","","71","","","M","29","","22","","","M","96.13","","","","-30","","NA"
"-102.97","49.21","ESTEVAN A","4012403","2018-04-06 08:00","2018","04","06","08:00","-18.0","","-22.7","","67","","","M","30","","28","","","M","96.16","","","","-30","","NA"
"-102.97","49.21","ESTEVAN A","4012403","2018-04-06 09:00","2018","04","06","09:00","-15.8","","-21.4","","63","","","M","30","","31","","","M","96.15","","","","-27","","NA"
"-102.97","49.21","ESTEVAN A","4012403","2018-04-06 10:00","2018","04","06","10:00","-13.9","","-19.5","","63","","","M","31","","27","","","M","96.19","","","","-24","","NA"
"-102.97","49.21","ESTEVAN A","4012403","2018-04-06 11:00","2018","04","06","11:00","-12.7","","-18.9","","60","","","M","29","","31","","","M","96.16","","","","-23","","NA"
"-102.97","49.21","ESTEVAN A","4012403","2018-04-06 12:00","2018","04","06","12:00","-11.3","","-17.9","","59","","","M","29","","28","","","M","96.15","","","","-21","","NA"
"-102.97","49.21","ESTEVAN A","4012403","2018-04-06 13:00","2018","04","06","13:00","-10.6","","-18.3","","54","","","M","30","","36","","","M","96.10","","","","-21","","NA"
"-102.97","49.21","ESTEVAN A","4012403","2018-04-06 14:00","2018","04","06","14:00","-10.0","","-17.4","","55","","","M","30","","32","","","M","96.03","","","","-20","","NA"
"-102.97","49.21","ESTEVAN A","4012403","2018-04-06 15:00","2018","04","06","15:00","-9.9","","-17.1","","56","","","M","31","","34","","","M","95.98","","","","-20","","NA"
"-102.97","49.21","ESTEVAN A","4012403","2018-04-06 16:00","2018","04","06","16:00","-9.5","","-16.4","","58","","","M","30","","30","","","M","95.93","","","","-19","","NA"
"-102.97","49.21","ESTEVAN A","4012403","2018-04-06 17:00","2018","04","06","17:00","-9.5","","-15.8","","60","","","M","30","","25","","","M","95.88","","","","-18","","NA"
"-102.97","49.21","ESTEVAN A","4012403","2018-04-06 18:00","2018","04","06","18:00","-10.2","","-16.0","","63","","","M","32","","26","","","M","95.81","","","","-19","","NA"
"-102.97","49.21","ESTEVAN A","4012403","2018-04-06 19:00","2018","04","06","19:00","-11.4","","-16.1","","69","","","M","30","","17","","","M","95.76","","","","-19","","NA"
"-102.97","49.21","ESTEVAN A","4012403","2018-04-06 20:00","2018","04","06","20:00","-13.8","","-17.1","","76","","","M","28","","12","","","M","95.73","","","","-21","","NA"
"-102.97","49.21","ESTEVAN A","4012403","2018-04-06 21:00","2018","04","06","21:00","-14.9","","-17.8","","79","","","M","28","","13","","","M","95.73","","","","-22","","NA"
"-102.97","49.21","ESTEVAN A","4012403","2018-04-06 22:00","2018","04","06","22:00","-15.2","","-18.2","","77","","","M","27","","14","","","M","95.73","","","","-23","","NA"
"-102.97","49.21","ESTEVAN A","4012403","2018-04-06 23:00","2018","04","06","23:00","-15.2","","-18.2","","78","","","M","26","","14","","","M","95.71","","","","-23","","NA"
"-102.97","49.21","ESTEVAN A","4012403","2018-04-07 00:00","2018","04","07","00:00","-16.4","","-19.2","","79","","","M","27","","12","","","M","95.70","","","","-24","","NA"
"-102.97","49.21","ESTEVAN A","4012403","2018-04-07 01:00","2018","04","07","01:00","-18.5","","-20.9","","82","","","M","30","","9","","","M","95.66","","","","-25","","NA"
"-102.97","49.21","ESTEVAN A","4012403","2018-04-07 02:00","2018","04","07","02:00","-18.6","","-21.0","","82","","","M","21","","9","","","M","95.63","","","","-25","","NA"
"-102.97","49.21","ESTEVAN A","4012403","2018-04-07 03:00","2018","04","07","03:00","-18.9","","-21.4","","82","","","M","27","","8","","","M","95.57","","","","-25","","NA"
"-102.97","49.21","ESTEVAN A","4012403","2018-04-07 04:00","2018","04","07","04:00","-19.4","","-22.0","","80","","","M","28","","9","","","M","95.54","","","","-26","","NA"
"-102.97","49.21","ESTEVAN A","4012403","2018-04-07 05:00","2018","04","07","05:00","-19.0","","-21.4","","82","","","M","27","","5","","","M","95.52","","","","-23","","NA"
"-102.97","49.21","ESTEVAN A","4012403","2018-04-07 06:00","2018","04","07","06:00","-20.4","","-23.2","","79","","","M","26","","4","","","M","95.48","","","","-24","","NA"
"-102.97","49.21","ESTEVAN A","4012403","2018-04-07 07:00","2018","04","07","07:00","-19.1","","-21.7","","80","","","M","23","","4","","","M","95.46","","","","-22","","NA"
"-102.97","49.21","ESTEVAN A","4012403","2018-04-07 08:00","2018","04","07","08:00","-16.3","","-18.8","","81","","","M","24","","4","","","M","95.46","","","","-19","","NA"
"-102.97","49.21","ESTEVAN A","4012403","2018-04-07 09:00","2018","04","07","09:00","-13.1","","-16.1","","78","","","M","24","","9","","","M","95.42","","","","-19","","NA"
"-102.97","49.21","ESTEVAN A","4012403","2018-04-07 10:00","2018","04","07","10:00","-10.9","","-17.0","","61","","","M","28","","3","","","M","95.37","","","","-13","","NA"
"-102.97","49.21","ESTEVAN A","4012403","2018-04-07 11:00","2018","04","07","11:00","-8.8","","-15.7","","58","","","M","28","","3","","","M","95.29","","","","-10","","NA"
"-102.97","49.21","ESTEVAN A","4012403","2018-04-07 12:00","2018","04","07","12:00","-7.7","","-14.1","","61","","","M","9","","7","","","M","95.17","","","","-11","","NA"
"-102.97","49.21","ESTEVAN A","4012403","2018-04-07 13:00","2018","04","07","13:00","-6.4","","-13.4","","58","","","M","8","","9","","","M","95.12","","","","-11","","NA"
"-102.97","49.21","ESTEVAN A","4012403","2018-04-07 14:00","2018","04","07","14:00","-4.3","","-11.2","","59","","","M","11","","9","","","M","95.03","","","","-8","","NA"
"-102.97","49.21","ESTEVAN A","4012403","2018-04-07 15:00","2018","04","07","15:00","-3.9","","-13.3","","48","","","M","12","","14","","","M","94.91","","","","-9","","NA"
"-102.97","49.21","ESTEVAN A","4012403","2018-04-07 16:00","2018","04","07","16:00","-3.8","","-11.8","","54","","","M","9","","23","","","M","94.83","","","","-11","","NA"
"-102.97","49.21","ESTEVAN A","4012403","2018-04-07 17:00","2018","04","07","17:00","-4.2","","-12.2","","54","","","M","13","","22","","","M","94.80","","","","-11","","NA"
"-102.97","49.21","ESTEVAN A","4012403","2018-04-07 18:00","2018","04","07","18:00","-5.4","","-11.7","","62","","","M","10","","22","","","M","94.73","","","","-12","","NA"
"-102.97","49.21","ESTEVAN A","4012403","2018-04-07 19:00","2018","04","07","19:00","-7.1","","-12.3","","67","","","M","10","","22","","","M","94.61","","","","-15","","NA"
"-102.97","49.21","ESTEVAN A","4012403","2018-04-07 20:00","2018","04","07","20:00","-8.7","","-12.6","","74","","","M","9","","23","","","M","94.54","","","","-17","","NA"
"-102.97","49.21","ESTEVAN A","4012403","2018-04-07 21:00","2018","04","07","21:00","-9.1","","-13.3","","71","","","M","9","","23","","","M","94.58","","","","-17","","NA"
"-102.97","49.21","ESTEVAN A","4012403","2018-04-07 22:00","2018","04","07","22:00","-9.3","","-13.9","","69","","","M","9","","23","","","M","94.56","","","","-18","","NA"
"-102.97","49.21","ESTEVAN A","4012403","2018-04-07 23:00","2018","04","07","23:00","-9.2","","-13.7","","70","","","M","9","","22","","","M","94.54","","","","-17","","NA"
"-102.97","49.21","ESTEVAN A","4012403","2018-04-08 00:00","2018","04","08","00:00","-9.2","","-14.0","","68","","","M","9","","21","","","M","94.48","","","","-17","","NA"
"-102.97","49.21","ESTEVAN A","4012403","2018-04-08 01:00","2018","04","08","01:00","-9.6","","-13.8","","72","","","M","9","","22","","","M","94.40","","","","-18","","NA"
"-102.97","49.21","ESTEVAN A","4012403","2018-04-08 02:00","2018","04","08","02:00","-10.2","","-13.5","","77","","","M","10","","16","","","M","94.38","","","","-17","","NA"
"-102.97","49.21","ESTEVAN A","4012403","2018-04-08 03:00","2018","04","08","03:00","-10.6","","-13.6","","79","","","M","9","","18","","","M","94.35","","","","-18","","NA"
"-102.97","49.21","ESTEVAN A","4012403","2018-04-08 04:00","2018","04","08","04:00","-10.3","","-13.2","","80","","","M","9","","19","","","M","94.37","","","","-18","","NA"
"-102.97","49.21","ESTEVAN A","4012403","2018-04-08 05:00","2018","04","08","05:00","-10.1","","-12.8","","81","","","M","9","","23","","","M","94.41","","","","-19","","NA"
"-102.97","49.21","ESTEVAN A","4012403","2018-04-08 06:00","2018","04","08","06:00","-9.8","","-12.7","","80","","","M","9","","19","","","M","94.43","","","","-17","","NA"
"-102.97","49.21","ESTEVAN A","4012403","2018-04-08 07:00","2018","04","08","07:00"
"-102.97","49.21","ESTEVAN A","4012403","2018-04-08 08:00","2018","04","08","08:00"
"-102.97","49.21","ESTEVAN A","4012403","2018-04-08 09:00","2018","04","08","09:00"
"-102.97","49.21","ESTEVAN A","4012403","2018-04-08 10:00","2018","04","08","10:00"
"-102.97","49.21","ESTEVAN A","4012403","2018-04-08 11:00","2018","04","08","11:00"
"-102.97","49.21","ESTEVAN A","4012403","2018-04-08 12:00","2018","04","08","12:00"
"-102.97","49.21","ESTEVAN A","4012403","2018-04-08 13:00","2018","04","08","13:00"
"-102.97","49.21","ESTEVAN A","4012403","2018-04-08 14:00","2018","04","08","14:00"
"-102.97","49.21","ESTEVAN A","4012403","2018-04-08 15:00","2018","04","08","15:00"
"-102.97","49.21","ESTEVAN A","4012403","2018-04-08 16:00","2018","04","08","16:00"
"-102.97","49.21","ESTEVAN A","4012403","2018-04-08 17:00","2018","04","08","17:00"
"-102.97","49.21","ESTEVAN A","4012403","2018-04-08 18:00","2018","04","08","18:00"
"-102.97","49.21","ESTEVAN A","4012403","2018-04-08 19:00","2018","04","08","19:00"
"-102.97","49.21","ESTEVAN A","4012403","2018-04-08 20:00","2018","04","08","20:00"
"-102.97","49.21","ESTEVAN A","4012403","2018-04-08 21:00","2018","04","08","21:00"
"-102.97","49.21","ESTEVAN A","4012403","2018-04-08 22:00","2018","04","08","22:00"
"-102.97","49.21","ESTEVAN A","4012403","2018-04-08 23:00","2018","04","08","23:00"
"-102.97","49.21","ESTEVAN A","4012403","2018-04-09 00:00","2018","04","09","00:00","-9.2","","-11.6","","83","","","M","6","","7","","","M","95.21","","","","-13","","NA"
"-102.97","49.21","ESTEVAN A","4012403","2018-04-09 01:00","2018","04","09","01:00","-8.8","","-11.8","","79","","","M","7","","6","","","M","95.25","","","","-12","","NA"
"-102.97","49.21","ESTEVAN A","4012403","2018-04-09 02:00","2018","04","09","02:00","-8.8","","-11.5","","81","","","M","11","","5","","","M","95.25","","","","-12","","NA"
"-102.97","49.21","ESTEVAN A","4012403","2018-04-09 03:00","2018","04","09","03:00","-8.6","","-11.5","","80","","","M","6","","4","","","M","95.29","","","","-11","","NA"
"-102.97","49.21","ESTEVAN A","4012403","2018-04-09 04:00","2018","04","09","04:00","-9.0","","-11.2","","84","","","M","7","","5","","","M","95.31","","","","-12","","NA"
"-102.97","49.21","ESTEVAN A","4012403","2018-04-09 05:00","2018","04","09","05:00","-8.9","","-10.9","","85","","","M","14","","1","","","M","95.32","","","","-9","","NA"
"-102.97","49.21","ESTEVAN A","4012403","2018-04-09 06:00","2018","04","09","06:00","-8.4","","-10.5","","85","","","M","12","","4","","","M","95.36","","","","-11","","NA"
"-102.97","49.21","ESTEVAN A","4012403","2018-04-09 07:00","2018","04","09","07:00","-7.2","","-8.9","","88","","","M","15","","9","","","M","95.36","","","","-12","","NA"
"-102.97","49.21","ESTEVAN A","4012403","2018-04-09 08:00","2018","04","09","08:00","-6.0","","-7.8","","87","","","M","21","","11","","","M","95.37","","","","-11","","NA"
"-102.97","49.21","ESTEVAN A","4012403","2018-04-09 09:00","2018","04","09","09:00","-5.4","","-7.9","","83","","","M","22","","16","","","M","95.38","","","","-11","","NA"
"-102.97","49.21","ESTEVAN A","4012403","2018-04-09 10:00","2018","04","09","10:00","-4.6","","-7.5","","81","","","M","22","","12","","","M","95.39","","","","-9","","NA"
"-102.97","49.21","ESTEVAN A","4012403","2018-04-09 11:00","2018","04","09","11:00","-4.5","","-7.3","","81","","","M","20","","14","","","M","95.42","","","","-10","","NA"
"-102.97","49.21","ESTEVAN A","4012403","2018-04-09 12:00","2018","04","09","12:00","-3.5","","-7.2","","76","","","M","20","","8","","","M","95.37","","","","-7","","NA"
"-102.97","49.21","ESTEVAN A","4012403","2018-04-09 13:00","2018","04","09","13:00","-2.9","","-6.7","","76","","","M","22","","13","","","M","95.36","","","","-8","","NA"
"-102.97","49.21","ESTEVAN A","4012403","2018-04-09 14:00","2018","04","09","14:00","-2.9","","-6.9","","74","","","M","25","","15","","","M","95.35","","","","-8","","NA"
"-102.97","49.21","ESTEVAN A","4012403","2018-04-09 15:00","2018","04","09","15:00","-2.3","","-6.7","","72","","","M","24","","16","","","M","95.27","","","","-7","","NA"
"-102.97","49.21","ESTEVAN A","4012403","2018-04-09 16:00","2018","04","09","16:00","-2.5","","-6.9","","72","","","M","24","","21","","","M","95.24","","","","-9","","NA"
"-102.97","49.21","ESTEVAN A","4012403","2018-04-09 17:00","2018","04","09","17:00","-2.4","","-6.3","","75","","","M","23","","16","","","M","95.23","","","","-8","","NA"
"-102.97","49.21","ESTEVAN A","4012403","2018-04-09 18:00","2018","04","09","18:00","-2.0","","-6.0","","75","","","M","25","","15","","","M","95.20","","","","-7","","NA"
"-102.97","49.21","ESTEVAN A","4012403","2018-04-09 19:00","2018","04","09","19:00","-2.2","","-5.3","","80","","","M","23","","15","","","M","95.16","","","","-7","","NA"
"-102.97","49.21","ESTEVAN A","4012403","2018-04-09 20:00","2018","04","09","20:00","-1.9","","-5.2","","78","","","M","24","","11","","","M","95.12","","","","-6","","NA"
"-102.97","49.21","ESTEVAN A","4012403","2018-04-09 21:00","2018","04","09","21:00","-2.2","","-4.8","","82","","","M","22","","10","","","M","95.09","","","","-6","","NA"
"-102.97","49.21","ESTEVAN A","4012403","2018-04-09 22:00","2018","04","09","22:00","-2.3","","-4.5","","85","","","M","21","","11","","","M","95.06","","","","-6","","NA"
"-102.97","49.21","ESTEVAN A","4012403","2018-04-09 23:00","2018","04","09","23:00","-3.8","","-5.2","","90","","","M","24","","11","","","M","95.01","","","","-8","","NA"
"-102.97","49.21","ESTEVAN A","4012403","2018-04-10 00:00","2018","04","10","00:00","-5.3","","-6.7","","91","","","M","24","","15","","","M","95.00","","","","-11","","NA"
"-102.97","49.21","ESTEVAN A","4012403","2018-04-10 01:00","2018","04","10","01:00","-8.0","","-9.0","","92","","","M","22","","11","","","M","94.99","","","","-13","","NA"
"-102.97","49.21","ESTEVAN A","4012403","2018-04-10 02:00","2018","04","10","02:00","-8.5","","-9.6","","92","","","M","22","","14","","","M","94.95","","","","-15","","NA"
"-102.97","49.21","ESTEVAN A","4012403","2018-04-10 03:00","2018","04","10","03:00","-8.6","","-9.7","","92","","","M","22","","14","","","M","94.89","","","","-15","","NA"
"-102.97","49.21","ESTEVAN A","4012403","2018-04-10 04:00","2018","04","10","04:00","-8.0","","-9.0","","92","","","M","24","","12","","","M","94.85","","","","-13","","NA"
"-102.97","49.21","ESTEVAN A","4012403","2018-04-10 05:00","2018","04","10","05:00","-8.4","","-9.6","","91","","","M","24","","11","","","M","94.83","","","","-14","","NA"
"-102.97","49.21","ESTEVAN A","4012403","2018-04-10 06:00","2018","04","10","06:00","-8.8","","-10.0","","91","","","M","27","","10","","","M","94.83","","","","-14","","NA"
"-102.97","49.21","ESTEVAN A","4012403","2018-04-10 07:00","2018","04","10","07:00","-8.4","","-9.8","","90","","","M","28","","12","","","M","94.82","","","","-14","","NA"
"-102.97","49.21","ESTEVAN A","4012403","2018-04-10 08:00","2018","04","10","08:00","-5.4","","-7.0","","88","","","M","28","","14","","","M","94.85","","","","-11","","NA"
"-102.97","49.21","ESTEVAN A","4012403","2018-04-10 09:00","2018","04","10","09:00","-3.9","","-5.9","","86","","","M","30","","14","","","M","94.84","","","","-9","","NA"
"-102.97","49.21","ESTEVAN A","4012403","2018-04-10 10:00","2018","04","10","10:00","-2.7","","-5.6","","80","","","M","31","","16","","","M","94.86","","","","-8","","NA"
"-102.97","49.21","ESTEVAN A","4012403","2018-04-10 11:00","2018","04","10","11:00","-0.9","","-5.5","","71","","","M","29","","12","","","M","94.86","","","","-5","","NA"
"-102.97","49.21","ESTEVAN A","4012403","2018-04-10 12:00","2018","04","10","12:00","0.7","","-4.4","","68","","","M","33","","10","","","M","94.83","","","","","","NA"
"-102.97","49.21","ESTEVAN A","4012403","2018-04-10 13:00","2018","04","10","13:00","1.4","","-3.9","","68","","","M","31","","9","","","M","94.76","","","","","","NA"
"-102.97","49.21","ESTEVAN A","4012403","2018-04-10 14:00","2018","04","10","14:00","2.1","","-3.8","","65","","","M","31","","13","","","M","94.72","","","","","","NA"
"-102.97","49.21","ESTEVAN A","4012403","2018-04-10 15:00","2018","04","10","15:00","2.7","","-3.8","","62","","","M","28","","15","","","M","94.70","","","","","","NA"
"-102.97","49.21","ESTEVAN A","4012403","2018-04-10 16:00","2018","04","10","16:00","3.5","","-4.1","","57","","","M","28","","13","","","M","94.68","","","","","","NA"
"-102.97","49.21","ESTEVAN A","4012403","2018-04-10 17:00","2018","04","10","17:00","4.2","","-3.3","","58","","","M","26","","11","","","M","94.59","","","","","","NA"
"-102.97","49.21","ESTEVAN A","4012403","2018-04-10 18:00","2018","04","10","18:00","2.8","","-2.3","","69","","","M","27","","9","","","M","94.52","","","","","","NA"
"-102.97","49.21","ESTEVAN A","4012403","2018-04-10 19:00","2018","04","10","19:00","0.8","","-3.0","","76","","","M","23","","9","","","M","94.48","","","","","","NA"
"-102.97","49.21","ESTEVAN A","4012403","2018-04-10 20:00","2018","04","10","20:00","-1.4","","-3.4","","86","","","M","21","","8","","","M","94.47","","","","-4","","NA"
"-102.97","49.21","ESTEVAN A","4012403","2018-04-10 21:00","2018","04","10","21:00","-2.0","","-3.4","","90","","","M","22","","10","","","M","94.43","","","","-6","","NA"
"-102.97","49.21","ESTEVAN A","4012403","2018-04-10 22:00","2018","04","10","22:00","-2.3","","-3.7","","90","","","M","18","","4","","","M","94.43","","","","-4","","NA"
"-102.97","49.21","ESTEVAN A","4012403","2018-04-10 23:00","2018","04","10","23:00","-2.0","","-2.9","","93","","","M","24","","6","","","M","94.45","","","","-4","","NA"
"-102.97","49.21","ESTEVAN A","4012403","2018-04-11 00:00","2018","04","11","00:00","-2.4","","-3.1","","95","","","M","15","","3","","","M","94.42","","","","-4","","NA"
"-102.97","49.21","ESTEVAN A","4012403","2018-04-11 01:00","2018","04","11","01:00","-2.0","","-2.9","","93","","","M","6","","12","","","M","94.38","","","","-6","","NA"
"-102.97","49.21","ESTEVAN A","4012403","2018-04-11 02:00","2018","04","11","02:00","-3.3","","-4.1","","94","","","M","11","","10","","","M","94.33","","","","-7","","NA"
"-102.97","49.21","ESTEVAN A","4012403","2018-04-11 03:00","2018","04","11","03:00","-3.0","","-3.7","","95","","","M","9","","12","","","M","94.31","","","","-7","","NA"
"-102.97","49.21","ESTEVAN A","4012403","2018-04-11 04:00","2018","04","11","04:00","-2.2","","-3.2","","93","","","M","10","","10","","","M","94.27","","","","-6","","NA"
"-102.97","49.21","ESTEVAN A","4012403","2018-04-11 05:00","2018","04","11","05:00","-1.7","","-4.0","","84","","","M","11","","18","","","M","94.18","","","","-7","","NA"
"-102.97","49.21","ESTEVAN A","4012403","2018-04-11 06:00","2018","04","11","06:00","-1.8","","-4.7","","81","","","M","10","","19","","","M","94.12","","","","-7","","NA"
"-102.97","49.21","ESTEVAN A","4012403","2018-04-11 07:00","2018","04","11","07:00","-2.0","","-4.8","","81","","","M","11","","23","","","M","94.08","","","","-8","","NA"
"-102.97","49.21","ESTEVAN A","4012403","2018-04-11 08:00","2018","04","11","08:00","-1.6","","-4.7","","80","","","M","9","","22","","","M","94.02","","","","-8","","NA"
"-102.97","49.21","ESTEVAN A","4012403","2018-04-11 09:00","2018","04","11","09:00","-0.3","","-4.4","","74","","","M","11","","26","","","M","93.96","","","","-6","","NA"
"-102.97","49.21","ESTEVAN A","4012403","2018-04-11 10:00","2018","04","11","10:00","0.1","","-4.0","","74","","","M","10","","22","","","M","93.97","","","","","","NA"
"-102.97","49.21","ESTEVAN A","4012403","2018-04-11 11:00","2018","04","11","11:00","0.6","","-3.0","","76","","","M","10","","21","","","M","93.94","","","","","","NA"
"-102.97","49.21","ESTEVAN A","4012403","2018-04-11 12:00","2018","04","11","12:00","0.8","","-3.7","","72","","","M","11","","27","","","M","93.89","","","","","","NA"
"-102.97","49.21","ESTEVAN A","4012403","2018-04-11 13:00","2018","04","11","13:00","1.3","","-3.6","","70","","","M","11","","31","","","M","93.83","","","","","","NA"
"-102.97","49.21","ESTEVAN A","4012403","2018-04-11 14:00","2018","04","11","14:00","1.6","","-2.8","","72","","","M","12","","30","","","M","93.78","","","","","","NA"
"-102.97","49.21","ESTEVAN A","4012403","2018-04-11 15:00","2018","04","11","15:00","2.6","","-2.0","","72","","","M","13","","24","","","M","93.74","","","","","","NA"
"-102.97","49.21","ESTEVAN A","4012403","2018-04-11 16:00","2018","04","11","16:00","2.7","","-1.9","","72","","","M","12","","22","","","M","93.75","","","","","","NA"
"-102.97","49.21","ESTEVAN A","4012403","2018-04-11 17:00","2018","04","11","17:00","2.5","","-1.7","","74","","","M","11","","22","","","M","93.64","","","","","","NA"
"-102.97","49.21","ESTEVAN A","4012403","2018-04-11 18:00","2018","04","11","18:00","2.0","","-1.4","","78","","","M","11","","16","","","M","93.66","","","","","","NA"
"-102.97","49.21","ESTEVAN A","4012403","2018-04-11 19:00","2018","04","11","19:00","1.1","","-1.4","","83","","","M","10","","16","","","M","93.66","","","","","","NA"
"-102.97","49.21","ESTEVAN A","4012403","2018-04-11 20:00","2018","04","11","20:00","0.5","","-1.4","","87","","","M","10","","13","","","M","93.67","","","","","","NA"
"-102.97","49.21","ESTEVAN A","4012403","2018-04-11 21:00","2018","04","11","21:00","0.4","","-1.4","","88","","","M","6","","11","","","M","93.74","","","","","","NA"
"-102.97","49.21","ESTEVAN A","4012403","2018-04-11 22:00","2018","04","11","22:00","0.0","","-1.2","","91","","","M","5","","13","","","M","93.77","","","","-4","","NA"
"-102.97","49.21","ESTEVAN A","4012403","2018-04-11 23:00","2018","04","11","23:00","-0.2","","-1.3","","93","","","M","5","","11","","","M","93.79","","","","-4","","NA"
"-102.97","49.21","ESTEVAN A","4012403","2018-04-12 00:00","2018","04","12","00:00","-0.4","","-1.3","","94","","","M","5","","11","","","M","93.81","","","","-4","","NA"
"-102.97","49.21","ESTEVAN A","4012403","2018-04-12 01:00","2018","04","12","01:00","-0.6","","-1.3","","95","","","M","5","","13","","","M","93.84","","","","-5","","NA"
"-102.97","49.21","ESTEVAN A","4012403","2018-04-12 02:00","2018","04","12","02:00","-0.8","","-1.5","","95","","","M","5","","13","","","M","93.85","","","","-5","","NA"
"-102.97","49.21","ESTEVAN A","4012403","2018-04-12 03:00","2018","04","12","03:00","-1.1","","-1.6","","97","","","M","5","","14","","","M","93.85","","","","-6","","NA"
"-102.97","49.21","ESTEVAN A","4012403","2018-04-12 04:00","2018","04","12","04:00"
"-102.97","49.21","ESTEVAN A","4012403","2018-04-12 05:00","2018","04","12","05:00"
"-102.97","49.21","ESTEVAN A","4012403","2018-04-12 06:00","2018","04","12","06:00","-1.3","","-2.0","","95","","","M","8","","12","","","M","93.96","","","","-5","","NA"
"-102.97","49.21","ESTEVAN A","4012403","2018-04-12 07:00","2018","04","12","07:00","-1.5","","-2.0","","96","","","M","8","","13","","","M","94.09","","","","-6","","NA"
"-102.97","49.21","ESTEVAN A","4012403","2018-04-12 08:00","2018","04","12","08:00","-1.5","","-2.1","","96","","","M","8","","13","","","M","94.17","","","","-6","","NA"
"-102.97","49.21","ESTEVAN A","4012403","2018-04-12 09:00","2018","04","12","09:00","-1.3","","-2.3","","93","","","M","8","","16","","","M","94.15","","","","-6","","NA"
"-102.97","49.21","ESTEVAN A","4012403","2018-04-12 10:00","2018","04","12","10:00","-0.8","","-2.9","","85","","","M","10","","19","","","M","94.12","","","","-6","","NA"
"-102.97","49.21","ESTEVAN A","4012403","2018-04-12 11:00","2018","04","12","11:00","1.3","","-3.4","","71","","","M","9","","18","","","M","94.11","","","","","","NA"
"-102.97","49.21","ESTEVAN A","4012403","2018-04-12 12:00","2018","04","12","12:00","0.6","","-3.3","","75","","","M","9","","19","","","M","94.14","","","","","","NA"
"-102.97","49.21","ESTEVAN A","4012403","2018-04-12 13:00","2018","04","12","13:00","-0.1","","-2.6","","83","","","M","9","","18","","","M","94.16","","","","-5","","NA"
"-102.97","49.21","ESTEVAN A","4012403","2018-04-12 14:00","2018","04","12","14:00","-0.4","","-2.3","","87","","","M","6","","25","","","M","94.14","","","","-6","","NA"
"-102.97","49.21","ESTEVAN A","4012403","2018-04-12 15:00","2018","04","12","15:00","-0.4","","-2.1","","88","","","M","9","","23","","","M","94.17","","","","-6","","NA"
"-102.97","49.21","ESTEVAN A","4012403","2018-04-12 16:00","2018","04","12","16:00","-1.4","","-2.3","","94","","","M","7","","28","","","M","94.22","","","","-8","","NA"
"-102.97","49.21","ESTEVAN A","4012403","2018-04-12 17:00","2018","04","12","17:00","-1.4","","-2.6","","92","","","M","8","","28","","","M","94.28","","","","-8","","NA"
"-102.97","49.21","ESTEVAN A","4012403","2018-04-12 18:00","2018","04","12","18:00","-1.5","","-2.8","","91","","","M","8","","25","","","M","94.31","","","","-8","","NA"
"-102.97","49.21","ESTEVAN A","4012403","2018-04-12 19:00","2018","04","12","19:00","-1.4","","-2.8","","90","","","M","7","","26","","","M","94.34","","","","-8","","NA"
"-102.97","49.21","ESTEVAN A","4012403","2018-04-12 20:00","2018","04","12","20:00","-1.7","","-3.2","","90","","","M","7","","26","","","M","94.41","","","","-8","","NA"
"-102.97","49.21","ESTEVAN A","4012403","2018-04-12 21:00","2018","04","12","21:00","-1.8","","-3.3","","90","","","M","8","","26","","","M","94.53","","","","-8","","NA"
"-102.97","49.21","ESTEVAN A","4012403","2018-04-12 22:00","2018","04","12","22:00","-1.9","","-3.4","","90","","","M","8","","21","","","M","94.59","","","","-8","","NA"
"-102.97","49.21","ESTEVAN A","4012403","2018-04-12 23:00","2018","04","12","23:00","-2.0","","-3.9","","87","","","M","7","","23","","","M","94.65","","","","-8","","NA"
"-102.97","49.21","ESTEVAN A","4012403","2018-04-13 00:00","2018","04","13","00:00","-2.9","","-5.5","","82","","","M","7","","20","","","M","94.73","","","","-9","","NA"
"-102.97","49.21","ESTEVAN A","4012403","2018-04-13 01:00","2018","04","13","01:00","-3.2","","-6.5","","78","","","M","7","","22","","","M","94.77","","","","-10","","NA"
"-102.97","49.21","ESTEVAN A","4012403","2018-04-13 02:00","2018","04","13","02:00","-3.7","","-7.1","","77","","","M","8","","19","","","M","94.84","","","","-10","","NA"
"-102.97","49.21","ESTEVAN A","4012403","2018-04-13 03:00","2018","04","13","03:00","-4.0","","-7.5","","77","","","M","8","","19","","","M","94.88","","","","-10","","NA"
"-102.97","49.21","ESTEVAN A","4012403","2018-04-13 04:00","2018","04","13","04:00","-4.2","","-8.7","","71","","","M","7","","17","","","M","94.97","","","","-10","","NA"
"-102.97","49.21","ESTEVAN A","4012403","2018-04-13 05:00","2018","04","13","05:00","-4.6","","-9.8","","67","","","M","7","","24","","","M","95.03","","","","-12","","NA"
"-102.97","49.21","ESTEVAN A","4012403","2018-04-13 06:00","2018","04","13","06:00","-5.1","","-10.0","","69","","","M","7","","17","","","M","95.15","","","","-11","","NA"
"-102.97","49.21","ESTEVAN A","4012403","2018-04-13 07:00","2018","04","13","07:00","-5.3","","-10.4","","67","","","M","6","","14","","","M","95.18","","","","-11","","NA"
"-102.97","49.21","ESTEVAN A","4012403","2018-04-13 08:00","2018","04","13","08:00","-5.1","","-10.8","","64","","","M","6","","21","","","M","95.25","","","","-12","","NA"
"-102.97","49.21","ESTEVAN A","4012403","2018-04-13 09:00","2018","04","13","09:00","-4.3","","-11.5","","58","","","M","8","","23","","","M","95.35","","","","-11","","NA"
"-102.97","49.21","ESTEVAN A","4012403","2018-04-13 10:00","2018","04","13","10:00","-3.8","","-13.2","","48","","","M","8","","24","","","M","95.47","","","","-11","","NA"
"-102.97","49.21","ESTEVAN A","4012403","2018-04-13 11:00","2018","04","13","11:00","-2.7","","-12.5","","47","","","M","8","","22","","","M","95.59","","","","-9","","NA"
"-102.97","49.21","ESTEVAN A","4012403","2018-04-13 12:00","2018","04","13","12:00","-1.8","","-11.9","","46","","","M","6","","22","","","M","95.65","","","","-8","","NA"
"-102.97","49.21","ESTEVAN A","4012403","2018-04-13 13:00","2018","04","13","13:00","-1.0","","-11.4","","45","","","M","6","","19","","","M","95.69","","","","-6","","NA"
"-102.97","49.21","ESTEVAN A","4012403","2018-04-13 14:00","2018","04","13","14:00","-1.0","","-11.1","","47","","","M","7","","19","","","M","95.73","","","","-6","","NA"
"-102.97","49.21","ESTEVAN A","4012403","2018-04-13 15:00","2018","04","13","15:00","-0.8","","-11.0","","46","","","M","6","","15","","","M","95.78","","","","-5","","NA"
"-102.97","49.21","ESTEVAN A","4012403","2018-04-13 16:00","2018","04","13","16:00","-0.4","","-10.3","","47","","","M","9","","15","","","M","95.83","","","","-5","","NA"
"-102.97","49.21","ESTEVAN A","4012403","2018-04-13 17:00","2018","04","13","17:00","-0.5","","-10.2","","48","","","M","8","","13","","","M","95.86","","","","-5","","NA"
"-102.97","49.21","ESTEVAN A","4012403","2018-04-13 18:00","2018","04","13","18:00","-1.4","","-11.2","","47","","","M","9","","14","","","M","95.91","","","","-6","","NA"
"-102.97","49.21","ESTEVAN A","4012403","2018-04-13 19:00","2018","04","13","19:00","-2.8","","-10.6","","55","","","M","7","","15","","","M","95.95","","","","-8","","NA"
"-102.97","49.21","ESTEVAN A","4012403","2018-04-13 20:00","2018","04","13","20:00","-4.3","","-10.0","","65","","","M","8","","11","","","M","95.99","","","","-9","","NA"
"-102.97","49.21","ESTEVAN A","4012403","2018-04-13 21:00","2018","04","13","21:00","-5.1","","-9.6","","71","","","M","8","","11","","","M","96.04","","","","-10","","NA"
"-102.97","49.21","ESTEVAN A","4012403","2018-04-13 22:00","2018","04","13","22:00","-5.8","","-10.3","","71","","","M","9","","13","","","M","96.04","","","","-11","","NA"
"-102.97","49.21","ESTEVAN A","4012403","2018-04-13 23:00","2018","04","13","23:00","-6.6","","-10.5","","74","","","M","10","","12","","","M","96.00","","","","-12","","NA"
"-102.97","49.21","ESTEVAN A","4012403","2018-04-14 00:00","2018","04","14","00:00","-5.8","","-10.6","","69","","","M","12","","14","","","M","96.00","","","","-11","","NA"
"-102.97","49.21","ESTEVAN A","4012403","2018-04-14 01:00","2018","04","14","01:00","-5.9","","-11.4","","66","","","M","12","","13","","","M","96.03","","","","-11","","NA"
"-102.97","49.21","ESTEVAN A","4012403","2018-04-14 02:00","2018","04","14","02:00","-6.4","","-12.1","","64","","","M","11","","18","","","M","96.00","","","","-13","","NA"
"-102.97","49.21","ESTEVAN A","4012403","2018-04-14 03:00","2018","04","14","03:00","-7.0","","-12.9","","63","","","M","11","","22","","","M","95.97","","","","-14","","NA"
"-102.97","49.21","ESTEVAN A","4012403","2018-04-14 04:00","2018","04","14","04:00","-8.0","","-12.5","","70","","","M","11","","17","","","M","95.94","","","","-15","","NA"
"-102.97","49.21","ESTEVAN A","4012403","2018-04-14 05:00","2018","04","14","05:00","-8.8","","-12.2","","76","","","M","12","","10","","","M","95.97","","","","-14","","NA"
"-102.97","49.21","ESTEVAN A","4012403","2018-04-14 06:00","2018","04","14","06:00","-10.2","","-12.0","","87","","","M","10","","12","","","M","95.98","","","","-16","","NA"
"-102.97","49.21","ESTEVAN A","4012403","2018-04-14 07:00","2018","04","14","07:00","-8.1","","-10.4","","83","","","M","11","","15","","","M","95.97","","","","-14","","NA"
"-102.97","49.21","ESTEVAN A","4012403","2018-04-14 08:00","2018","04","14","08:00","-5.3","","-11.2","","64","","","M","14","","22","","","M","95.98","","","","-12","","NA"
"-102.97","49.21","ESTEVAN A","4012403","2018-04-14 09:00","2018","04","14","09:00","-3.5","","-12.2","","51","","","M","17","","27","","","M","95.96","","","","-11","","NA"
"-102.97","49.21","ESTEVAN A","4012403","2018-04-14 10:00","2018","04","14","10:00","-1.7","","-10.7","","50","","","M","14","","27","","","M","95.89","","","","-8","","NA"
"-102.97","49.21","ESTEVAN A","4012403","2018-04-14 11:00","2018","04","14","11:00","-0.6","","-11.3","","44","","","M","15","","32","","","M","95.87","","","","-7","","NA"
"-102.97","49.21","ESTEVAN A","4012403","2018-04-14 12:00","2018","04","14","12:00","0.7","","-9.5","","46","","","M","15","","25","","","M","95.81","","","","","","NA"
"-102.97","49.21","ESTEVAN A","4012403","2018-04-14 13:00","2018","04","14","13:00","1.3","","-9.6","","44","","","M","15","","26","","","M","95.71","","","","","","NA"
"-102.97","49.21","ESTEVAN A","4012403","2018-04-14 14:00","2018","04","14","14:00","2.3","","-9.1","","43","","","M","17","","28","","","M","95.67","","","","","","NA"
"-102.97","49.21","ESTEVAN A","4012403","2018-04-14 15:00","2018","04","14","15:00","2.6","","-8.4","","44","","","M","16","","27","","","M","95.65","","","","","","NA"
"-102.97","49.21","ESTEVAN A","4012403","2018-04-14 16:00","2018","04","14","16:00","1.4","","-9.2","","45","","","M","14","","27","","","M","95.59","","","","","","NA"
"-102.97","49.21","ESTEVAN A","4012403","2018-04-14 17:00","2018","04","14","17:00","0.6","","-9.1","","49","","","M","14","","31","","","M","95.60","","","","","","NA"
"-102.97","49.21","ESTEVAN A","4012403","2018-04-14 18:00","2018","04","14","18:00","-0.1","","-9.2","","50","","","M","14","","28","","","M","95.62","","","","-6","","NA"
"-102.97","49.21","ESTEVAN A","4012403","2018-04-14 19:00","2018","04","14","19:00","-0.6","","-10.7","","47","","","M","13","","26","","","M","95.63","","","","-7","","NA"
"-102.97","49.21","ESTEVAN A","4012403","2018-04-14 20:00","2018","04","14","20:00","-0.9","","-10.7","","47","","","M","13","","28","","","M","95.58","","","","-7","","NA"
"-102.97","49.21","ESTEVAN A","4012403","2018-04-14 21:00","2018","04","14","21:00","-1.2","","-10.0","","51","","","M","13","","25","","","M","95.61","","","","-7","","NA"
"-102.97","49.21","ESTEVAN A","4012403","2018-04-14 22:00","2018","04","14","22:00","-1.5","","-9.2","","56","","","M","14","","29","","","M","95.62","","","","-8","","NA"
"-102.97","49.21","ESTEVAN A","4012403","2018-04-14 23:00","2018","04","14","23:00","-2.1","","-8.5","","62","","","M","14","","21","","","M","95.60","","","","-8","","NA"
"-102.97","49.21","ESTEVAN A","4012403","2018-04-15 00:00","2018","04","15","00:00","-2.5","","-8.3","","64","","","M","14","","21","","","M","95.59","","","","-9","","NA"
"-102.97","49.21","ESTEVAN A","4012403","2018-04-15 01:00","2018","04","15","01:00","-2.7","","-8.7","","63","","","M","13","","22","","","M","95.57","","","","-9","","NA"
"-102.97","49.21","ESTEVAN A","4012403","2018-04-15 02:00","2018","04","15","02:00","-3.1","","-8.7","","66","","","M","13","","21","","","M","95.53","","","","-9","","NA"
"-102.97","49.21","ESTEVAN A","4012403","2018-04-15 03:00","2018","04","15","03:00","-3.5","","-8.7","","68","","","M","13","","17","","","M","95.53","","","","-9","","NA"
"-102.97","49.21","ESTEVAN A","4012403","2018-04-15 04:00","2018","04","15","04:00","-3.6","","-9.1","","66","","","M","12","","18","","","M","95.52","","","","-9","","NA"
"-102.97","49.21","ESTEVAN A","4012403","2018-04-15 05:00","2018","04","15","05:00","-4.0","","-9.0","","69","","","M","13","","18","","","M","95.53","","","","-10","","NA"
"-102.97","49.21","ESTEVAN A","4012403","2018-04-15 06:00","2018","04","15","06:00","-4.2","","-9.2","","68","","","M","13","","22","","","M","95.52","","","","-11","","NA"
"-102.97","49.21","ESTEVAN A","4012403","2018-04-15 07:00","2018","04","15","07:00","-3.2","","-9.1","","64","","","M","13","","21","","","M","95.52","","","","-9","","NA"
"-102.97","49.21","ESTEVAN A","4012403","2018-04-15 08:00","2018","04","15","08:00","-1.3","","-10.2","","51","","","M","15","","29","","","M","95.54","","","","-8","","NA"
"-102.97","49.21","ESTEVAN A","4012403","2018-04-15 09:00","2018","04","15","09:00","0.7","","-10.6","","43","","","M","14","","28","","","M","95.53","","","","","","NA"
"-102.97","49.21","ESTEVAN A","4012403","2018-04-15 10:00","2018","04","15","10:00","2.6","","-10.8","","37","","","M","15","","28","","","M","95.47","","","","","","NA"
"-102.97","49.21","ESTEVAN A","4012403","2018-04-15 11:00","2018","04","15","11:00","3.6","","-9.5","","38","","","M","15","","28","","","M","95.49","","","","","","NA"
"-102.97","49.21","ESTEVAN A","4012403","2018-04-15 12:00","2018","04","15","12:00","4.8","","-10.1","","33","","","M","14","","24","","","M","95.48","","","","","","NA"
"-102.97","49.21","ESTEVAN A","4012403","2018-04-15 13:00","2018","04","15","13:00","5.3","","-10.6","","31","","","M","13","","30","","","M","95.34","","","","","","NA"
"-102.97","49.21","ESTEVAN A","4012403","2018-04-15 14:00","2018","04","15","14:00","5.2","","-8.3","","37","","","M","14","","35","","","M","95.36","","","","","","NA"
"-102.97","49.21","ESTEVAN A","4012403","2018-04-15 15:00","2018","04","15","15:00","4.7","","-8.1","","39","","","M","13","","32","","","M","95.34","","","","","","NA"
"-102.97","49.21","ESTEVAN A","4012403","2018-04-15 16:00","2018","04","15","16:00","4.4","","-9.6","","36","","","M","14","","30","","","M","95.35","","","","","","NA"
"-102.97","49.21","ESTEVAN A","4012403","2018-04-15 17:00","2018","04","15","17:00","3.3","","-8.1","","43","","","M","12","","28","","","M","95.33","","","","","","NA"
"-102.97","49.21","ESTEVAN A","4012403","2018-04-15 18:00","2018","04","15","18:00","1.9","","-7.5","","50","","","M","13","","23","","","M","95.33","","","","","","NA"
"-102.97","49.21","ESTEVAN A","4012403","2018-04-15 19:00","2018","04","15","19:00","0.6","","-6.7","","58","","","M","12","","19","","","M","95.32","","","","","","NA"
"-102.97","49.21","ESTEVAN A","4012403","2018-04-15 20:00","2018","04","15","20:00","-0.8","","-6.8","","64","","","M","10","","24","","","M","95.26","","","","-7","","NA"
"-102.97","49.21","ESTEVAN A","4012403","2018-04-15 21:00","2018","04","15","21:00","-1.2","","-7.8","","61","","","M","12","","25","","","M","95.23","","","","-7","","NA"
"-102.97","49.21","ESTEVAN A","4012403","2018-04-15 22:00","2018","04","15","22:00","-1.6","","-9.0","","57","","","M","12","","23","","","M","95.23","","","","-8","","NA"
"-102.97","49.21","ESTEVAN A","4012403","2018-04-15 23:00","2018","04","15","23:00","-2.0","","-8.4","","62","","","M","13","","21","","","M","95.28","","","","-8","","NA"
"-102.97","49.21","ESTEVAN A","4012403","2018-04-16 00:00","2018","04","16","00:00","-2.4","","-7.6","","68","","","M","13","","19","","","M","95.29","","","","-8","","NA"
"-102.97","49.21","ESTEVAN A","4012403","2018-04-16 01:00","2018","04","16","01:00","-2.7","","-7.4","","70","","","M","13","","18","","","M","95.29","","","","-8","","NA"
"-102.97","49.21","ESTEVAN A","4012403","2018-04-16 02:00","2018","04","16","02:00","-3.4","","-7.9","","71","","","M","13","","20","","","M","95.26","","","","-10","","NA"
"-102.97","49.21","ESTEVAN A","4012403","2018-04-16 03:00","2018","04","16","03:00","-3.8","","-8.6","","69","","","M","12","","20","","","M","95.25","","","","-10","","NA"
"-102.97","49.21","ESTEVAN A","4012403","2018-04-16 04:00","2018","04","16","04:00","-4.2","","-9.0","","69","","","M","12","","19","","","M","95.20","","","","-10","","NA"
"-102.97","49.21","ESTEVAN A","4012403","2018-04-16 05:00","2018","04","16","05:00","-5.9","","-9.2","","78","","","M","10","","18","","","M","95.12","","","","-12","","NA"
"-102.97","49.21","ESTEVAN A","4012403","2018-04-16 06:00","2018","04","16","06:00","-6.1","","-9.5","","77","","","M","11","","18","","","M","95.11","","","","-13","","NA"
"-102.97","49.21","ESTEVAN A","4012403","2018-04-16 07:00","2018","04","16","07:00","-4.4","","-9.7","","67","","","M","12","","18","","","M","95.12","","","","-10","","NA"
"-102.97","49.21","ESTEVAN A","4012403","2018-04-16 08:00","2018","04","16","08:00","-2.1","","-9.6","","56","","","M","12","","21","","","M","95.10","","","","-8","","NA"
"-102.97","49.21","ESTEVAN A","4012403","2018-04-16 09:00","2018","04","16","09:00","0.0","","-10.9","","44","","","M","12","","27","","","M","95.02","","","","-6","","NA"
"-102.97","49.21","ESTEVAN A","4012403","2018-04-16 10:00","2018","04","16","10:00","1.4","","-10.3","","42","","","M","13","","32","","","M","94.97","","","","","","NA"
"-102.97","49.21","ESTEVAN A","4012403","2018-04-16 11:00","2018","04","16","11:00","2.5","","-11.2","","36","","","M","12","","38","","","M","94.91","","","","","","NA"
"-102.97","49.21","ESTEVAN A","4012403","2018-04-16 12:00","2018","04","16","12:00","3.8","","-8.6","","40","","","M","12","","37","","","M","94.88","","","","","","NA"
"-102.97","49.21","ESTEVAN A","4012403","2018-04-16 13:00","2018","04","16","13:00","4.1","","-9.4","","37","","","M","12","","39","","","M","94.77","","","","","","NA"
"-102.97","49.21","ESTEVAN A","4012403","2018-04-16 14:00","2018","04","16","14:00","4.8","","-8.2","","38","","","M","11","","37","","","M","94.69","","","","","","NA"
"-102.97","49.21","ESTEVAN A","4012403","2018-04-16 15:00","2018","04","16","15:00","5.1","","-8.7","","36","","","M","11","","43","","","M","94.64","","","","","","NA"
"-102.97","49.21","ESTEVAN A","4012403","2018-04-16 16:00","2018","04","16","16:00","4.8","","-8.3","","38","","","M","11","","46","","","M","94.57","","","","","","NA"
"-102.97","49.21","ESTEVAN A","4012403","2018-04-16 17:00","2018","04","16","17:00","4.4","","-7.6","","41","","","M","12","","43","","","M","94.55","","","","","","NA"
"-102.97","49.21","ESTEVAN A","4012403","2018-04-16 18:00","2018","04","16","18:00","3.7","","-6.7","","47","","","M","11","","42","","","M","94.52","","","","","","NA"
"-102.97","49.21","ESTEVAN A","4012403","2018-04-16 19:00","2018","04","16","19:00","2.4","","-7.8","","47","","","M","11","","40","","","M","94.47","","","","","","NA"
"-102.97","49.21","ESTEVAN A","4012403","2018-04-16 20:00","2018","04","16","20:00","0.9","","-5.8","","61","","","M","11","","34","","","M","94.50","","","","","","NA"
"-102.97","49.21","ESTEVAN A","4012403","2018-04-16 21:00","2018","04","16","21:00","0.4","","-6.0","","62","","","M","11","","35","","","M","94.51","","","","","","NA"
"-102.97","49.21","ESTEVAN A","4012403","2018-04-16 22:00","2018","04","16","22:00","0.1","","-5.5","","66","","","M","11","","28","","","M","94.52","","","","","","NA"
"-102.97","49.21","ESTEVAN A","4012403","2018-04-16 23:00","2018","04","16","23:00","0.2","","-5.2","","67","","","M","11","","33","","","M","94.46","","","","","","NA"
"-102.97","49.21","ESTEVAN A","4012403","2018-04-17 00:00","2018","04","17","00:00","-0.1","","-6.0","","65","","","M","11","","29","","","M","94.57","","","","-6","","NA"
"-102.97","49.21","ESTEVAN A","4012403","2018-04-17 01:00","2018","04","17","01:00","0.1","","-8.6","","52","","","M","11","","43","","","M","94.38","","","","","","NA"
"-102.97","49.21","ESTEVAN A","4012403","2018-04-17 02:00","2018","04","17","02:00","-0.2","","-9.6","","49","","","M","11","","37","","","M","94.30","","","","-7","","NA"
"-102.97","49.21","ESTEVAN A","4012403","2018-04-17 03:00","2018","04","17","03:00","-0.2","","-8.6","","53","","","M","12","","28","","","M","94.30","","","","-7","","NA"
"-102.97","49.21","ESTEVAN A","4012403","2018-04-17 04:00","2018","04","17","04:00","-0.3","","-6.3","","64","","","M","13","","27","","","M","94.28","","","","-7","","NA"
"-102.97","49.21","ESTEVAN A","4012403","2018-04-17 05:00","2018","04","17","05:00","-0.7","","-5.8","","68","","","M","12","","27","","","M","94.21","","","","-7","","NA"
"-102.97","49.21","ESTEVAN A","4012403","2018-04-17 06:00","2018","04","17","06:00","-0.5","","-6.0","","67","","","M","13","","33","","","M","94.23","","","","-7","","NA"
"-102.97","49.21","ESTEVAN A","4012403","2018-04-17 07:00","2018","04","17","07:00","-0.2","","-6.1","","65","","","M","12","","36","","","M","94.22","","","","-7","","NA"
"-102.97","49.21","ESTEVAN A","4012403","2018-04-17 08:00","2018","04","17","08:00","0.6","","-5.7","","63","","","M","12","","39","","","M","94.21","","","","","","NA"
"-102.97","49.21","ESTEVAN A","4012403","2018-04-17 09:00","2018","04","17","09:00","1.6","","-5.2","","61","","","M","12","","36","","","M","94.22","","","","","","NA"
"-102.97","49.21","ESTEVAN A","4012403","2018-04-17 10:00","2018","04","17","10:00","3.1","","-4.3","","59","","","M","12","","43","","","M","94.20","","","","","","NA"
"-102.97","49.21","ESTEVAN A","4012403","2018-04-17 11:00","2018","04","17","11:00","3.9","","-3.8","","57","","","M","12","","45","","","M","94.22","","","","","","NA"
"-102.97","49.21","ESTEVAN A","4012403","2018-04-17 12:00","2018","04","17","12:00","4.5","","-3.7","","55","","","M","11","","43","","","M","94.22","","","","","","NA"
"-102.97","49.21","ESTEVAN A","4012403","2018-04-17 13:00","2018","04","17","13:00","6.1","","-3.4","","51","","","M","11","","47","","","M","94.18","","","","","","NA"
"-102.97","49.21","ESTEVAN A","4012403","2018-04-17 14:00","2018","04","17","14:00","5.2","","-3.1","","55","","","M","12","","39","","","M","94.30","","","","","","NA"
"-102.97","49.21","ESTEVAN A","4012403","2018-04-17 15:00","2018","04","17","15:00","4.7","","-2.9","","58","","","M","12","","39","","","M","94.39","","","","","","NA"
"-102.97","49.21","ESTEVAN A","4012403","2018-04-17 16:00","2018","04","17","16:00","4.4","","-2.4","","61","","","M","12","","26","","","M","94.45","","","","","","NA"
"-102.97","49.21","ESTEVAN A","4012403","2018-04-17 17:00","2018","04","17","17:00","4.3","","-2.5","","61","","","M","12","","23","","","M","94.56","","","","","","NA"
"-102.97","49.21","ESTEVAN A","4012403","2018-04-17 18:00","2018","04","17","18:00","2.6","","-0.9","","78","","","M","13","","29","","","M","94.62","","","","","","NA"
"-102.97","49.21","ESTEVAN A","4012403","2018-04-17 19:00","2018","04","17","19:00","2.5","","-0.8","","79","","","M","11","","18","","","M","94.62","","","","","","NA"
"-102.97","49.21","ESTEVAN A","4012403","2018-04-17 20:00","2018","04","17","20:00","2.8","","-2.1","","70","","","M","12","","18","","","M","94.69","","","","","","NA"
"-102.97","49.21","ESTEVAN A","4012403","2018-04-17 21:00","2018","04","17","21:00","2.1","","-1.9","","75","","","M","11","","16","","","M","94.77","","","","","","NA"
"-102.97","49.21","ESTEVAN A","4012403","2018-04-17 22:00","2018","04","17","22:00","1.6","","-1.3","","81","","","M","13","","21","","","M","94.80","","","","","","NA"
"-102.97","49.21","ESTEVAN A","4012403","2018-04-17 23:00","2018","04","17","23:00","1.0","","-0.9","","87","","","M","14","","17","","","M","94.80","","","","","","NA"
"-102.97","49.21","ESTEVAN A","4012403","2018-04-18 00:00","2018","04","18","00:00","0.6","","-0.7","","91","","","M","12","","10","","","M","94.80","","","","","","NA"
"-102.97","49.21","ESTEVAN A","4012403","2018-04-18 01:00","2018","04","18","01:00","-0.1","","-0.7","","96","","","M","10","","10","","","M","94.85","","","","-3","","NA"
"-102.97","49.21","ESTEVAN A","4012403","2018-04-18 02:00","2018","04","18","02:00","-0.2","","-0.6","","97","","","M","11","","9","","","M","94.90","","","","-3","","NA"
"-102.97","49.21","ESTEVAN A","4012403","2018-04-18 03:00","2018","04","18","03:00","0.0","","-0.3","","98","","","M","14","","9","","","M","94.94","","","","-3","","NA"
"-102.97","49.21","ESTEVAN A","4012403","2018-04-18 04:00","2018","04","18","04:00","0.3","","0.0","","98","","","M","16","","9","","","M","94.99","","","","","","NA"
"-102.97","49.21","ESTEVAN A","4012403","2018-04-18 05:00","2018","04","18","05:00","0.2","","-0.1","","98","","","M","22","","3","","","M","95.04","","","","","","NA"
"-102.97","49.21","ESTEVAN A","4012403","2018-04-18 06:00","2018","04","18","06:00","0.3","","0.0","","98","","","M","10","","7","","","M","95.08","","","","","","NA"
"-102.97","49.21","ESTEVAN A","4012403","2018-04-18 07:00","2018","04","18","07:00","0.2","","-0.1","","98","","","M","14","","5","","","M","95.14","","","","","","NA"
"-102.97","49.21","ESTEVAN A","4012403","2018-04-18 08:00","2018","04","18","08:00","0.6","","0.3","","98","","","M","0","","1","","","M","95.20","","","","","","NA"
"-102.97","49.21","ESTEVAN A","4012403","2018-04-18 09:00","2018","04","18","09:00","0.8","","0.5","","97","","","M","28","","12","","","M","95.23","","","","","","NA"
"-102.97","49.21","ESTEVAN A","4012403","2018-04-18 10:00","2018","04","18","10:00","0.4","","0.2","","98","","","M","28","","8","","","M","95.30","","","","","","NA"
"-102.97","49.21","ESTEVAN A","4012403","2018-04-18 11:00","2018","04","18","11:00","1.1","","0.9","","99","","","M","27","","12","","","M","95.38","","","","","","NA"
"-102.97","49.21","ESTEVAN A","4012403","2018-04-18 12:00","2018","04","18","12:00","1.6","","1.4","","99","","","M","30","","13","","","M","95.45","","","","","","NA"
"-102.97","49.21","ESTEVAN A","4012403","2018-04-18 13:00","2018","04","18","13:00","2.4","","1.9","","97","","","M","34","","8","","","M","95.51","","","","","","NA"
"-102.97","49.21","ESTEVAN A","4012403","2018-04-18 14:00","2018","04","18","14:00","2.9","","1.5","","90","","","M","36","","11","","","M","95.54","","","","","","NA"
"-102.97","49.21","ESTEVAN A","4012403","2018-04-18 15:00","2018","04","18","15:00","3.5","","1.7","","88","","","M","33","","13","","","M","95.58","","","","","","NA"
"-102.97","49.21","ESTEVAN A","4012403","2018-04-18 16:00","2018","04","18","16:00","3.8","","1.8","","86","","","M","33","","14","","","M","95.62","","","","","","NA"
"-102.97","49.21","ESTEVAN A","4012403","2018-04-18 17:00","2018","04","18","17:00","3.4","","1.2","","86","","","M","32","","13","","","M","95.65","","","","","","NA"
"-102.97","49.21","ESTEVAN A","4012403","2018-04-18 18:00","2018","04","18","18:00","3.1","","1.0","","86","","","M","32","","13","","","M","95.68","","","","","","NA"
"-102.97","49.21","ESTEVAN A","4012403","2018-04-18 19:00","2018","04","18","19:00","3.3","","0.9","","84","","","M","33","","10","","","M","95.68","","","","","","NA"
"-102.97","49.21","ESTEVAN A","4012403","2018-04-18 20:00","2018","04","18","20:00","2.4","","0.7","","89","","","M","33","","12","","","M","95.72","","","","","","NA"
"-102.97","49.21","ESTEVAN A","4012403","2018-04-18 21:00","2018","04","18","21:00","1.4","","0.4","","93","","","M","32","","10","","","M","95.78","","","","","","NA"
"-102.97","49.21","ESTEVAN A","4012403","2018-04-18 22:00","2018","04","18","22:00","1.0","","0.4","","96","","","M","30","","8","","","M","95.82","","","","","","NA"
"-102.97","49.21","ESTEVAN A","4012403","2018-04-18 23:00","2018","04","18","23:00","0.8","","0.1","","95","","","M","30","","9","","","M","95.84","","","","","","NA"
"-102.97","49.21","ESTEVAN A","4012403","2018-04-19 00:00","2018","04","19","00:00","-0.8","","-1.2","","97","","","M","31","","9","","","M","95.87","","","","-4","","NA"
"-102.97","49.21","ESTEVAN A","4012403","2018-04-19 01:00","2018","04","19","01:00","-1.2","","-1.5","","98","","","M","28","","10","","","M","95.92","","","","-5","","NA"
"-102.97","49.21","ESTEVAN A","4012403","2018-04-19 02:00","2018","04","19","02:00","-1.0","","-1.2","","98","","","M","30","","8","","","M","95.95","","","","-4","","NA"
"-102.97","49.21","ESTEVAN A","4012403","2018-04-19 03:00","2018","04","19","03:00","-1.0","","-1.2","","98","","","M","26","","3","","","M","95.94","","","","-2","","NA"
"-102.97","49.21","ESTEVAN A","4012403","2018-04-19 04:00","2018","04","19","04:00","-1.3","","-1.5","","98","","","M","28","","8","","","M","95.98","","","","-4","","NA"
"-102.97","49.21","ESTEVAN A","4012403","2018-04-19 05:00","2018","04","19","05:00","-1.1","","-1.3","","98","","","M","24","","6","","","M","96.02","","","","-3","","NA"
"-102.97","49.21","ESTEVAN A","4012403","2018-04-19 06:00","2018","04","19","06:00","-1.1","","-1.3","","98","","","M","20","","5","","","M","96.06","","","","-3","","NA"
"-102.97","49.21","ESTEVAN A","4012403","2018-04-19 07:00","2018","04","19","07:00","-1.2","","-1.4","","98","","","M","20","","7","","","M","96.08","","","","-4","","NA"
"-102.97","49.21","ESTEVAN A","4012403","2018-04-19 08:00","2018","04","19","08:00","-1.0","","-1.2","","98","","","M","15","","5","","","M","96.11","","","","-3","","NA"
"-102.97","49.21","ESTEVAN A","4012403","2018-04-19 09:00","2018","04","19","09:00","-0.5","","-0.7","","98","","","M","26","","4","","","M","96.16","","","","-2","","NA"
"-102.97","49.21","ESTEVAN A","4012403","2018-04-19 10:00","2018","04","19","10:00","0.3","","0.1","","99","","","M","18","","4","","","M","96.15","","","","","","NA"
"-102.97","49.21","ESTEVAN A","4012403","2018-04-19 11:00","2018","04","19","11:00","3.5","","0.5","","81","","","M","10","","8","","","M","96.15","","","","","","NA"
"-102.97","49.21","ESTEVAN A","4012403","2018-04-19 12:00","2018","04","19","12:00","6.7","","0.2","","63","","","M","9","","9","","","M","96.08","","","","","","NA"
"-102.97","49.21","ESTEVAN A","4012403","2018-04-19 13:00","2018","04","19","13:00","8.7","","0.0","","54","","","M","12","","13","","","M","96.02","","","","","","NA"
"-102.97","49.21","ESTEVAN A","4012403","2018-04-19 14:00","2018","04","19","14:00","10.0","","-2.2","","42","","","M","8","","20","","","M","95.99","","","","","","NA"
"-102.97","49.21","ESTEVAN A","4012403","2018-04-19 15:00","2018","04","19","15:00","10.4","","-2.2","","41","","","M","9","","22","","","M","95.94","","","","","","NA"
"-102.97","49.21","ESTEVAN A","4012403","2018-04-19 16:00","2018","04","19","16:00","10.8","","-3.6","","36","","","M","11","","20","","","M","95.88","","","","","","NA"
"-102.97","49.21","ESTEVAN A","4012403","2018-04-19 17:00","2018","04","19","17:00","10.4","","-4.6","","35","","","M","11","","17","","","M","95.86","","","","","","NA"
"-102.97","49.21","ESTEVAN A","4012403","2018-04-19 18:00","2018","04","19","18:00","9.6","","-5.2","","35","","","M","10","","19","","","M","95.83","","","","","","NA"
"-102.97","49.21","ESTEVAN A","4012403","2018-04-19 19:00","2018","04","19","19:00","7.4","","-4.0","","44","","","M","11","","14","","","M","95.83","","","","","","NA"
"-102.97","49.21","ESTEVAN A","4012403","2018-04-19 20:00","2018","04","19","20:00","3.7","","-3.3","","60","","","M","12","","11","","","M","95.81","","","","","","NA"
"-102.97","49.21","ESTEVAN A","4012403","2018-04-19 21:00","2018","04","19","21:00","1.8","","-3.1","","70","","","M","12","","13","","","M","95.79","","","","","","NA"
"-102.97","49.21","ESTEVAN A","4012403","2018-04-19 22:00","2018","04","19","22:00","0.6","","-2.4","","80","","","M","13","","9","","","M","95.80","","","","","","NA"
"-102.97","49.21","ESTEVAN A","4012403","2018-04-19 23:00","2018","04","19","23:00","-0.4","","-2.1","","88","","","M","11","","12","","","M","95.78","","","","-4","","NA"
"-102.97","49.21","ESTEVAN A","4012403","2018-04-20 00:00","2018","04","20","00:00","-0.4","","-1.2","","94","","","M","10","","13","","","M","95.76","","","","-5","","NA"
"-102.97","49.21","ESTEVAN A","4012403","2018-04-20 01:00","2018","04","20","01:00","-0.6","","-1.4","","94","","","M","11","","11","","","M","95.73","","","","-4","","NA"
"-102.97","49.21","ESTEVAN A","4012403","2018-04-20 02:00","2018","04","20","02:00","-0.7","","-1.4","","95","","","M","9","","12","","","M","95.69","","","","-5","","NA"
"-102.97","49.21","ESTEVAN A","4012403","2018-04-20 03:00","2018","04","20","03:00","-0.4","","-1.2","","94","","","M","9","","12","","","M","95.65","","","","-4","","NA"
"-102.97","49.21","ESTEVAN A","4012403","2018-04-20 04:00","2018","04","20","04:00","0.1","","-0.8","","94","","","M","11","","14","","","M","95.64","","","","","","NA"
"-102.97","49.21","ESTEVAN A","4012403","2018-04-20 05:00","2018","04","20","05:00","-0.8","","-1.6","","94","","","M","10","","12","","","M","95.63","","","","-5","","NA"
"-102.97","49.21","ESTEVAN A","4012403","2018-04-20 06:00","2018","04","20","06:00","-0.4","","-1.2","","95","","","M","10","","16","","","M","95.63","","","","-5","","NA"
"-102.97","49.21","ESTEVAN A","4012403","2018-04-20 07:00","2018","04","20","07:00","0.2","","-0.6","","94","","","M","10","","16","","","M","95.65","","","","","","NA"
"-102.97","49.21","ESTEVAN A","4012403","2018-04-20 08:00","2018","04","20","08:00","1.6","","0.3","","91","","","M","10","","15","","","M","95.66","","","","","","NA"
"-102.97","49.21","ESTEVAN A","4012403","2018-04-20 09:00","2018","04","20","09:00","4.5","","0.8","","77","","","M","10","","16","","","M","95.64","","","","","","NA"
"-102.97","49.21","ESTEVAN A","4012403","2018-04-20 10:00","2018","04","20","10:00","9.1","","-0.1","","52","","","M","13","","19","","","M","95.59","","","","","","NA"
"-102.97","49.21","ESTEVAN A","4012403","2018-04-20 11:00","2018","04","20","11:00","11.8","","-0.7","","42","","","M","14","","24","","","M","95.55","","","","","","NA"
"-102.97","49.21","ESTEVAN A","4012403","2018-04-20 12:00","2018","04","20","12:00","13.4","","-0.4","","39","","","M","11","","21","","","M","95.51","","","","","","NA"
"-102.97","49.21","ESTEVAN A","4012403","2018-04-20 13:00","2018","04","20","13:00","14.5","","0.0","","37","","","M","13","","19","","","M","95.45","","","","","","NA"
"-102.97","49.21","ESTEVAN A","4012403","2018-04-20 14:00","2018","04","20","14:00","15.1","","1.4","","39","","","M","12","","21","","","M","95.40","","","","","","NA"
"-102.97","49.21","ESTEVAN A","4012403","2018-04-20 15:00","2018","04","20","15:00","15.8","","-0.4","","33","","","M","12","","26","","","M","95.31","","","","","","NA"
"-102.97","49.21","ESTEVAN A","4012403","2018-04-20 16:00","2018","04","20","16:00","15.8","","0.6","","35","","","M","14","","27","","","M","95.29","","","","","","NA"
"-102.97","49.21","ESTEVAN A","4012403","2018-04-20 17:00","2018","04","20","17:00","15.2","","0.8","","37","","","M","16","","23","","","M","95.32","","","","","","NA"
"-102.97","49.21","ESTEVAN A","4012403","2018-04-20 18:00","2018","04","20","18:00","14.2","","1.5","","42","","","M","14","","25","","","M","95.33","","","","","","NA"
"-102.97","49.21","ESTEVAN A","4012403","2018-04-20 19:00","2018","04","20","19:00","12.0","","1.8","","49","","","M","12","","16","","","M","95.33","","","","","","NA"
"-102.97","49.21","ESTEVAN A","4012403","2018-04-20 20:00","2018","04","20","20:00","8.3","","1.1","","60","","","M","12","","17","","","M","95.33","","","","","","NA"
"-102.97","49.21","ESTEVAN A","4012403","2018-04-20 21:00","2018","04","20","21:00","7.2","","1.4","","67","","","M","12","","17","","","M","95.31","","","","","","NA"
"-102.97","49.21","ESTEVAN A","4012403","2018-04-20 22:00","2018","04","20","22:00","4.7","","1.0","","77","","","M","12","","15","","","M","95.28","","","","","","NA"
"-102.97","49.21","ESTEVAN A","4012403","2018-04-20 23:00","2018","04","20","23:00","4.3","","-0.1","","73","","","M","14","","13","","","M","95.27","","","","","","NA"
"-102.97","49.21","ESTEVAN A","4012403","2018-04-21 00:00","2018","04","21","00:00","3.0","","-0.5","","78","","","M","15","","12","","","M","95.25","","","","","","NA"
"-102.97","49.21","ESTEVAN A","4012403","2018-04-21 01:00","2018","04","21","01:00","7.0","","1.6","","68","","","M","18","","26","","","M","95.25","","","","","","NA"
"-102.97","49.21","ESTEVAN A","4012403","2018-04-21 02:00","2018","04","21","02:00","6.0","","2.0","","76","","","M","18","","19","","","M","95.25","","","","","","NA"
"-102.97","49.21","ESTEVAN A","4012403","2018-04-21 03:00","2018","04","21","03:00","5.4","","2.3","","80","","","M","18","","13","","","M","95.24","","","","","","NA"
"-102.97","49.21","ESTEVAN A","4012403","2018-04-21 04:00","2018","04","21","04:00","4.5","","2.0","","83","","","M","18","","17","","","M","95.22","","","","","","NA"
"-102.97","49.21","ESTEVAN A","4012403","2018-04-21 05:00","2018","04","21","05:00","3.2","","1.6","","89","","","M","18","","9","","","M","95.23","","","","","","NA"
"-102.97","49.21","ESTEVAN A","4012403","2018-04-21 06:00","2018","04","21","06:00","2.0","","0.9","","92","","","M","15","","13","","","M","95.24","","","","","","NA"
"-102.97","49.21","ESTEVAN A","4012403","2018-04-21 07:00","2018","04","21","07:00","3.6","","2.2","","90","","","M","15","","11","","","M","95.22","","","","","","NA"
"-102.97","49.21","ESTEVAN A","4012403","2018-04-21 08:00","2018","04","21","08:00","6.4","","3.2","","80","","","M","18","","19","","","M","95.19","","","","","","NA"
"-102.97","49.21","ESTEVAN A","4012403","2018-04-21 09:00","2018","04","21","09:00","8.7","","3.3","","69","","","M","18","","22","","","M","95.12","","","","","","NA"
"-102.97","49.21","ESTEVAN A","4012403","2018-04-21 10:00","2018","04","21","10:00","10.6","","3.8","","63","","","M","18","","26","","","M","95.05","","","","","","NA"
"-102.97","49.21","ESTEVAN A","4012403","2018-04-21 11:00","2018","04","21","11:00","12.1","","4.3","","59","","","M","17","","32","","","M","95.03","","","","","","NA"
"-102.97","49.21","ESTEVAN A","4012403","2018-04-21 12:00","2018","04","21","12:00","14.4","","4.7","","52","","","M","18","","23","","","M","94.97","","","","","","NA"
"-102.97","49.21","ESTEVAN A","4012403","2018-04-21 13:00","2018","04","21","13:00","16.9","","5.4","","46","","","M","19","","29","","","M","94.91","","","","","","NA"
"-102.97","49.21","ESTEVAN A","4012403","2018-04-21 14:00","2018","04","21","14:00","17.3","","5.2","","44","","","M","18","","25","","","M","94.84","","","","","","NA"
"-102.97","49.21","ESTEVAN A","4012403","2018-04-21 15:00","2018","04","21","15:00","17.6","","5.5","","44","","","M","18","","26","","","M","94.78","","","","","","NA"
"-102.97","49.21","ESTEVAN A","4012403","2018-04-21 16:00","2018","04","21","16:00","18.2","","4.7","","41","","","M","18","","32","","","M","94.71","","","","","","NA"
"-102.97","49.21","ESTEVAN A","4012403","2018-04-21 17:00","2018","04","21","17:00","18.0","","4.2","","40","","","M","18","","37","","","M","94.65","","","","","","NA"
"-102.97","49.21","ESTEVAN A","4012403","2018-04-21 18:00","2018","04","21","18:00","17.8","","4.0","","40","","","M","18","","33","","","M","94.59","","","","","","NA"
"-102.97","49.21","ESTEVAN A","4012403","2018-04-21 19:00","2018","04","21","19:00","16.3","","4.0","","44","","","M","17","","27","","","M","94.52","","","","","","NA"
"-102.97","49.21","ESTEVAN A","4012403","2018-04-21 20:00","2018","04","21","20:00","13.7","","4.4","","53","","","M","15","","24","","","M","94.59","","","","","","NA"
"-102.97","49.21","ESTEVAN A","4012403","2018-04-21 21:00","2018","04","21","21:00","12.4","","3.8","","56","","","M","17","","36","","","M","94.58","","","","","","NA"
"-102.97","49.21","ESTEVAN A","4012403","2018-04-21 22:00","2018","04","21","22:00","12.0","","3.4","","55","","","M","17","","41","","","M","94.53","","","","","","NA"
"-102.97","49.21","ESTEVAN A","4012403","2018-04-21 23:00","2018","04","21","23:00","11.3","","3.3","","58","","","M","18","","40","","","M","94.57","","","","","","NA"
"-102.97","49.21","ESTEVAN A","4012403","2018-04-22 00:00","2018","04","22","00:00","9.4","","3.6","","67","","","M","23","","16","","","M","94.78","","","","","","NA"
"-102.97","49.21","ESTEVAN A","4012403","2018-04-22 01:00","2018","04","22","01:00","8.0","","3.2","","72","","","M","24","","14","","","M","94.82","","","","","","NA"
"-102.97","49.21","ESTEVAN A","4012403","2018-04-22 02:00","2018","04","22","02:00","9.4","","0.7","","55","","","M","30","","17","","","M","94.81","","","","","","NA"
"-102.97","49.21","ESTEVAN A","4012403","2018-04-22 03:00","2018","04","22","03:00","7.8","","-0.4","","56","","","M","27","","16","","","M","94.84","","","","","","NA"
"-102.97","49.21","ESTEVAN A","4012403","2018-04-22 04:00","2018","04","22","04:00","6.2","","-0.8","","61","","","M","27","","17","","","M","94.89","","","","","","NA"
"-102.97","49.21","ESTEVAN A","4012403","2018-04-22 05:00","2018","04","22","05:00","6.1","","-1.7","","57","","","M","24","","18","","","M","94.94","","","","","","NA"
"-102.97","49.21","ESTEVAN A","4012403","2018-04-22 06:00","2018","04","22","06:00","4.0","","-2.1","","65","","","M","26","","16","","","M","95.01","","","","","","NA"
"-102.97","49.21","ESTEVAN A","4012403","2018-04-22 07:00","2018","04","22","07:00","4.7","","-1.5","","64","","","M","25","","13","","","M","95.07","","","","","","NA"
"-102.97","49.21","ESTEVAN A","4012403","2018-04-22 08:00","2018","04","22","08:00","7.3","","-0.3","","58","","","M","24","","14","","","M","95.11","","","","","","NA"
"-102.97","49.21","ESTEVAN A","4012403","2018-04-22 09:00","2018","04","22","09:00","11.0","","0.2","","47","","","M","26","","18","","","M","95.10","","","","","","NA"
"-102.97","49.21","ESTEVAN A","4012403","2018-04-22 10:00","2018","04","22","10:00","13.0","","0.3","","42","","","M","26","","24","","","M","95.08","","","","","","NA"
"-102.97","49.21","ESTEVAN A","4012403","2018-04-22 11:00","2018","04","22","11:00","14.6","","-0.7","","35","","","M","28","","21","","","M","95.10","","","","","","NA"
"-102.97","49.21","ESTEVAN A","4012403","2018-04-22 12:00","2018","04","22","12:00","15.9","","-1.4","","30","","","M","28","","22","","","M","95.09","","","","","","NA"
"-102.97","49.21","ESTEVAN A","4012403","2018-04-22 13:00","2018","04","22","13:00","16.5","","-1.5","","29","","","M","25","","29","","","M","95.06","","","","","","NA"
"-102.97","49.21","ESTEVAN A","4012403","2018-04-22 14:00","2018","04","22","14:00","17.6","","-2.7","","25","","","M","24","","32","","","M","95.05","","","","","","NA"
"-102.97","49.21","ESTEVAN A","4012403","2018-04-22 15:00","2018","04","22","15:00","17.7","","-3.4","","23","","","M","27","","30","","","M","95.03","","","","","","NA"
"-102.97","49.21","ESTEVAN A","4012403","2018-04-22 16:00","2018","04","22","16:00","16.8","","-3.8","","24","","","M","28","","26","","","M","95.01","","","","","","NA"
"-102.97","49.21","ESTEVAN A","4012403","2018-04-22 17:00","2018","04","22","17:00","16.6","","-3.3","","25","","","M","26","","16","","","M","94.99","","","","","","NA"
"-102.97","49.21","ESTEVAN A","4012403","2018-04-22 18:00","2018","04","22","18:00","16.8","","-4.2","","23","","","M","27","","27","","","M","94.97","","","","","","NA"
"-102.97","49.21","ESTEVAN A","4012403","2018-04-22 19:00","2018","04","22","19:00","15.2","","-4.3","","26","","","M","30","","22","","","M","95.00","","","","","","NA"
"-102.97","49.21","ESTEVAN A","4012403","2018-04-22 20:00","2018","04","22","20:00","10.5","","-2.8","","39","","","M","31","","14","","","M","95.07","","","","","","NA"
"-102.97","49.21","ESTEVAN A","4012403","2018-04-22 21:00","2018","04","22","21:00","6.2","","-2.0","","56","","","M","32","","12","","","M","95.15","","","","","","NA"
"-102.97","49.21","ESTEVAN A","4012403","2018-04-22 22:00","2018","04","22","22:00","4.7","","-2.7","","58","","","M","33","","11","","","M","95.21","","","","","","NA"
"-102.97","49.21","ESTEVAN A","4012403","2018-04-22 23:00","2018","04","22","23:00","4.7","","-3.0","","58","","","M","33","","6","","","M","95.22","","","","","","NA"
"-102.97","49.21","ESTEVAN A","4012403","2018-04-23 00:00","2018","04","23","00:00","2.4","","-2.9","","68","","","M","27","","7","","","M","95.25","","","","","","NA"
"-102.97","49.21","ESTEVAN A","4012403","2018-04-23 01:00","2018","04","23","01:00","1.4","","-2.6","","74","","","M","27","","12","","","M","95.35","","","","","","NA"
"-102.97","49.21","ESTEVAN A","4012403","2018-04-23 02:00","2018","04","23","02:00","0.5","","-3.0","","78","","","M","28","","10","","","M","95.39","","","","","","NA"
"-102.97","49.21","ESTEVAN A","4012403","2018-04-23 03:00","2018","04","23","03:00","-0.8","","-2.9","","85","","","M","21","","9","","","M","95.45","","","","-4","","NA"
"-102.97","49.21","ESTEVAN A","4012403","2018-04-23 04:00","2018","04","23","04:00","-2.0","","-3.8","","88","","","M","26","","12","","","M","95.51","","","","-6","","NA"
"-102.97","49.21","ESTEVAN A","4012403","2018-04-23 05:00","2018","04","23","05:00","-1.1","","-2.5","","90","","","M","28","","15","","","M","95.57","","","","-6","","NA"
"-102.97","49.21","ESTEVAN A","4012403","2018-04-23 06:00","2018","04","23","06:00","-1.2","","-2.2","","92","","","M","30","","16","","","M","95.59","","","","-6","","NA"
"-102.97","49.21","ESTEVAN A","4012403","2018-04-23 07:00","2018","04","23","07:00","1.1","","-0.7","","88","","","M","30","","16","","","M","95.65","","","","","","NA"
"-102.97","49.21","ESTEVAN A","4012403","2018-04-23 08:00","2018","04","23","08:00","3.8","","1.1","","83","","","M","30","","14","","","M","95.67","","","","","","NA"
"-102.97","49.21","ESTEVAN A","4012403","2018-04-23 09:00","2018","04","23","09:00","6.8","","1.1","","67","","","M","32","","19","","","M","95.73","","","","","","NA"
"-102.97","49.21","ESTEVAN A","4012403","2018-04-23 10:00","2018","04","23","10:00","8.2","","1.0","","60","","","M","31","","21","","","M","95.75","","","","","","NA"
"-102.97","49.21","ESTEVAN A","4012403","2018-04-23 11:00","2018","04","23","11:00","8.3","","1.0","","60","","","M","29","","21","","","M","95.78","","","","","","NA"
"-102.97","49.21","ESTEVAN A","4012403","2018-04-23 12:00","2018","04","23","12:00","9.3","","0.5","","54","","","M","30","","21","","","M","95.79","","","","","","NA"
"-102.97","49.21","ESTEVAN A","4012403","2018-04-23 13:00","2018","04","23","13:00","10.4","","0.2","","49","","","M","32","","29","","","M","95.75","","","","","","NA"
"-102.97","49.21","ESTEVAN A","4012403","2018-04-23 14:00","2018","04","23","14:00","11.5","","-1.8","","40","","","M","34","","28","","","M","95.71","","","","","","NA"
"-102.97","49.21","ESTEVAN A","4012403","2018-04-23 15:00","2018","04","23","15:00","11.4","","-5.4","","30","","","M","35","","27","","","M","95.71","","","","","","NA"
"-102.97","49.21","ESTEVAN A","4012403","2018-04-23 16:00","2018","04","23","16:00","10.9","","-6.8","","28","","","M","32","","34","","","M","95.72","","","","","","NA"
"-102.97","49.21","ESTEVAN A","4012403","2018-04-23 17:00","2018","04","23","17:00","10.6","","-6.9","","28","","","M","35","","32","","","M","95.74","","","","","","NA"
"-102.97","49.21","ESTEVAN A","4012403","2018-04-23 18:00","2018","04","23","18:00","10.2","","-6.7","","30","","","M","35","","27","","","M","95.76","","","","","","NA"
"-102.97","49.21","ESTEVAN A","4012403","2018-04-23 19:00","2018","04","23","19:00","9.2","","-6.0","","33","","","M","34","","25","","","M","95.80","","","","","","NA"
"-102.97","49.21","ESTEVAN A","4012403","2018-04-23 20:00","2018","04","23","20:00","6.2","","-5.7","","42","","","M","35","","18","","","M","95.87","","","","","","NA"
"-102.97","49.21","ESTEVAN A","4012403","2018-04-23 21:00","2018","04","23","21:00","2.3","","-5.0","","59","","","M","1","","10","","","M","95.93","","","","","","NA"
"-102.97","49.21","ESTEVAN A","4012403","2018-04-23 22:00","2018","04","23","22:00","1.2","","-5.0","","64","","","M","1","","11","","","M","95.97","","","","","","NA"
"-102.97","49.21","ESTEVAN A","4012403","2018-04-23 23:00","2018","04","23","23:00","-0.1","","-5.2","","68","","","M","1","","9","","","M","95.98","","","","-3","","NA"
"-102.97","49.21","ESTEVAN A","4012403","2018-04-24 00:00","2018","04","24","00:00","-0.9","","-5.6","","71","","","M","35","","7","","","M","96.03","","","","-3","","NA"
"-102.97","49.21","ESTEVAN A","4012403","2018-04-24 01:00","2018","04","24","01:00","-1.2","","-5.8","","71","","","M","32","","7","","","M","96.07","","","","-4","","NA"
"-102.97","49.21","ESTEVAN A","4012403","2018-04-24 02:00","2018","04","24","02:00","-2.8","","-5.7","","81","","","M","25","","9","","","M","96.12","","","","-6","","NA"
"-102.97","49.21","ESTEVAN A","4012403","2018-04-24 03:00","2018","04","24","03:00","-2.0","","-5.6","","77","","","M","27","","14","","","M","96.13","","","","-7","","NA"
"-102.97","49.21","ESTEVAN A","4012403","2018-04-24 04:00","2018","04","24","04:00","-3.7","","-6.0","","84","","","M","29","","11","","","M","96.19","","","","-8","","NA"
"-102.97","49.21","ESTEVAN A","4012403","2018-04-24 05:00","2018","04","24","05:00","-3.5","","-5.9","","83","","","M","28","","13","","","M","96.21","","","","-8","","NA"
"-102.97","49.21","ESTEVAN A","4012403","2018-04-24 06:00","2018","04","24","06:00","-3.5","","-5.5","","86","","","M","27","","11","","","M","96.23","","","","-8","","NA"
"-102.97","49.21","ESTEVAN A","4012403","2018-04-24 07:00","2018","04","24","07:00","-0.2","","-3.3","","80","","","M","26","","8","","","M","96.28","","","","-3","","NA"
"-102.97","49.21","ESTEVAN A","4012403","2018-04-24 08:00","2018","04","24","08:00","3.5","","-3.1","","62","","","M","25","","14","","","M","96.29","","","","","","NA"
"-102.97","49.21","ESTEVAN A","4012403","2018-04-24 09:00","2018","04","24","09:00","8.5","","-2.1","","47","","","M","25","","13","","","M","96.27","","","","","","NA"
"-102.97","49.21","ESTEVAN A","4012403","2018-04-24 10:00","2018","04","24","10:00","11.2","","-5.8","","30","","","M","25","","18","","","M","96.25","","","","","","NA"
"-102.97","49.21","ESTEVAN A","4012403","2018-04-24 11:00","2018","04","24","11:00","12.0","","-7.8","","24","","","M","28","","14","","","M","96.23","","","","","","NA"
"-102.97","49.21","ESTEVAN A","4012403","2018-04-24 12:00","2018","04","24","12:00","13.3","","-6.0","","26","","","M","25","","17","","","M","96.17","","","","","","NA"
"-102.97","49.21","ESTEVAN A","4012403","2018-04-24 13:00","2018","04","24","13:00","13.9","","-6.3","","24","","","M","27","","10","","","M","96.08","","","","","","NA"
"-102.97","49.21","ESTEVAN A","4012403","2018-04-24 14:00","2018","04","24","14:00","14.5","","-5.9","","24","","","M","26","","15","","","M","96.01","","","","","","NA"
"-102.97","49.21","ESTEVAN A","4012403","2018-04-24 15:00","2018","04","24","15:00","15.3","","-4.7","","25","","","M","24","","15","","","M","95.92","","","","","","NA"
"-102.97","49.21","ESTEVAN A","4012403","2018-04-24 16:00","2018","04","24","16:00","16.1","","-4.7","","23","","","M","25","","11","","","M","95.82","","","","","","NA"
"-102.97","49.21","ESTEVAN A","4012403","2018-04-24 17:00","2018","04","24","17:00","16.3","","-5.0","","23","","","M","24","","17","","","M","95.75","","","","","","NA"
"-102.97","49.21","ESTEVAN A","4012403","2018-04-24 18:00","2018","04","24","18:00","16.2","","-5.0","","23","","","M","23","","21","","","M","95.68","","","","","","NA"
"-102.97","49.21","ESTEVAN A","4012403","2018-04-24 19:00","2018","04","24","19:00","14.6","","-3.0","","29","","","M","22","","11","","","M","95.59","","","","","","NA"
"-102.97","49.21","ESTEVAN A","4012403","2018-04-24 20:00","2018","04","24","20:00","11.2","","-1.9","","40","","","M","19","","15","","","M","95.54","","","","","","NA"
"-102.97","49.21","ESTEVAN A","4012403","2018-04-24 21:00","2018","04","24","21:00","9.5","","-2.1","","44","","","M","20","","16","","","M","95.52","","","","","","NA"
"-102.97","49.21","ESTEVAN A","4012403","2018-04-24 22:00","2018","04","24","22:00","8.7","","-2.9","","44","","","M","21","","22","","","M","95.47","","","","","","NA"
"-102.97","49.21","ESTEVAN A","4012403","2018-04-24 23:00","2018","04","24","23:00","7.0","","-2.9","","49","","","M","21","","21","","","M","95.41","","","","","","NA"
"-102.97","49.21","ESTEVAN A","4012403","2018-04-25 00:00","2018","04","25","00:00","5.8","","-2.5","","55","","","M","21","","21","","","M","95.34","","","","","","NA"
"-102.97","49.21","ESTEVAN A","4012403","2018-04-25 01:00","2018","04","25","01:00","4.8","","-2.1","","61","","","M","21","","19","","","M","95.30","","","","","","NA"
"-102.97","49.21","ESTEVAN A","4012403","2018-04-25 02:00","2018","04","25","02:00","4.5","","-1.5","","65","","","M","20","","23","","","M","95.23","","","","","","NA"
"-102.97","49.21","ESTEVAN A","4012403","2018-04-25 03:00","2018","04","25","03:00","4.5","","-0.8","","68","","","M","21","","23","","","M","95.14","","","","","","NA"
"-102.97","49.21","ESTEVAN A","4012403","2018-04-25 04:00","2018","04","25","04:00","3.7","","-0.4","","74","","","M","21","","22","","","M","95.07","","","","","","NA"
"-102.97","49.21","ESTEVAN A","4012403","2018-04-25 05:00","2018","04","25","05:00","3.4","","-0.8","","74","","","M","21","","19","","","M","94.96","","","","","","NA"
"-102.97","49.21","ESTEVAN A","4012403","2018-04-25 06:00","2018","04","25","06:00","4.8","","-1.2","","65","","","M","20","","26","","","M","94.86","","","","","","NA"
"-102.97","49.21","ESTEVAN A","4012403","2018-04-25 07:00","2018","04","25","07:00","6.0","","-1.3","","59","","","M","20","","30","","","M","94.75","","","","","","NA"
"-102.97","49.21","ESTEVAN A","4012403","2018-04-25 08:00","2018","04","25","08:00","7.1","","-1.3","","55","","","M","21","","33","","","M","94.64","","","","","","NA"
"-102.97","49.21","ESTEVAN A","4012403","2018-04-25 09:00","2018","04","25","09:00","8.6","","-1.1","","50","","","M","22","","37","","","M","94.52","","","","","","NA"
"-102.97","49.21","ESTEVAN A","4012403","2018-04-25 10:00","2018","04","25","10:00","12.2","","-0.1","","42","","","M","21","","34","","","M","94.39","","","","","","NA"
"-102.97","49.21","ESTEVAN A","4012403","2018-04-25 11:00","2018","04","25","11:00","14.7","","-0.4","","35","","","M","22","","36","","","M","94.28","","","","","","NA"
"-102.97","49.21","ESTEVAN A","4012403","2018-04-25 12:00","2018","04","25","12:00","16.5","","-0.2","","32","","","M","24","","37","","","M","94.23","","","","","","NA"
"-102.97","49.21","ESTEVAN A","4012403","2018-04-25 13:00","2018","04","25","13:00","17.4","","0.1","","31","","","M","23","","27","","","M","94.17","","","","","","NA"
"-102.97","49.21","ESTEVAN A","4012403","2018-04-25 14:00","2018","04","25","14:00","19.4","","-1.3","","24","","","M","27","","30","","","M","94.12","","","","","","NA"
"-102.97","49.21","ESTEVAN A","4012403","2018-04-25 15:00","2018","04","25","15:00","19.8","","-2.4","","22","","","M","31","","27","","","M","94.08","","","","","","NA"
"-102.97","49.21","ESTEVAN A","4012403","2018-04-25 16:00","2018","04","25","16:00","18.9","","-1.3","","25","","","M","34","","33","","","M","94.10","","","","","","NA"
"-102.97","49.21","ESTEVAN A","4012403","2018-04-25 17:00","2018","04","25","17:00","17.4","","-0.6","","29","","","M","35","","40","","","M","94.18","","","","","","NA"
"-102.97","49.21","ESTEVAN A","4012403","2018-04-25 18:00","2018","04","25","18:00","16.6","","-0.4","","31","","","M","1","","39","","","M","94.33","","","","","","NA"
"-102.97","49.21","ESTEVAN A","4012403","2018-04-25 19:00","2018","04","25","19:00","14.8","","-1.0","","34","","","M","35","","31","","","M","94.46","","","","","","NA"
"-102.97","49.21","ESTEVAN A","4012403","2018-04-25 20:00","2018","04","25","20:00","12.3","","-0.4","","41","","","M","34","","30","","","M","94.60","","","","","","NA"
"-102.97","49.21","ESTEVAN A","4012403","2018-04-25 21:00","2018","04","25","21:00","9.2","","-1.4","","47","","","M","34","","21","","","M","94.73","","","","","","NA"
"-102.97","49.21","ESTEVAN A","4012403","2018-04-25 22:00","2018","04","25","22:00","4.9","","-2.0","","61","","","M","34","","14","","","M","94.81","","","","","","NA"
"-102.97","49.21","ESTEVAN A","4012403","2018-04-25 23:00","2018","04","25","23:00","4.7","","-1.8","","63","","","M","33","","16","","","M","94.86","","","","","","NA"
"-102.97","49.21","ESTEVAN A","4012403","2018-04-26 00:00","2018","04","26","00:00","1.6","","-2.9","","72","","","M","32","","15","","","M","94.92","","","","","","NA"
"-102.97","49.21","ESTEVAN A","4012403","2018-04-26 01:00","2018","04","26","01:00","0.4","","-3.5","","75","","","M","32","","14","","","M","94.98","","","","","","NA"
"-102.97","49.21","ESTEVAN A","4012403","2018-04-26 02:00","2018","04","26","02:00","-1.7","","-4.5","","81","","","M","31","","13","","","M","95.04","","","","-6","","NA"
"-102.97","49.21","ESTEVAN A","4012403","2018-04-26 03:00","2018","04","26","03:00","-2.3","","-4.4","","86","","","M","30","","13","","","M","95.08","","","","-7","","NA"
"-102.97","49.21","ESTEVAN A","4012403","2018-04-26 04:00","2018","04","26","04:00","-2.6","","-4.4","","87","","","M","28","","10","","","M","95.12","","","","-6","","NA"
"-102.97","49.21","ESTEVAN A","4012403","2018-04-26 05:00","2018","04","26","05:00","-2.0","","-4.4","","84","","","M","29","","15","","","M","95.15","","","","-7","","NA"
"-102.97","49.21","ESTEVAN A","4012403","2018-04-26 06:00","2018","04","26","06:00","-2.5","","-4.3","","87","","","M","29","","14","","","M","95.19","","","","-7","","NA"
"-102.97","49.21","ESTEVAN A","4012403","2018-04-26 07:00","2018","04","26","07:00","0.7","","-2.7","","78","","","M","29","","7","","","M","95.23","","","","","","NA"
"-102.97","49.21","ESTEVAN A","4012403","2018-04-26 08:00","2018","04","26","08:00","5.3","","-1.4","","62","","","M","26","","11","","","M","95.23","","","","","","NA"
"-102.97","49.21","ESTEVAN A","4012403","2018-04-26 09:00","2018","04","26","09:00","9.1","","-0.5","","51","","","M","24","","12","","","M","95.17","","","","","","NA"
"-102.97","49.21","ESTEVAN A","4012403","2018-04-26 10:00","2018","04","26","10:00","14.3","","-1.7","","33","","","M","26","","24","","","M","95.12","","","","","","NA"
"-102.97","49.21","ESTEVAN A","4012403","2018-04-26 11:00","2018","04","26","11:00","16.3","","-3.6","","25","","","M","27","","22","","","M","95.05","","","","","","NA"
"-102.97","49.21","ESTEVAN A","4012403","2018-04-26 12:00","2018","04","26","12:00","17.6","","-2.9","","24","","","M","26","","33","","","M","94.96","","","","","","NA"
"-102.97","49.21","ESTEVAN A","4012403","2018-04-26 13:00","2018","04","26","13:00","18.8","","-3.0","","22","","","M","28","","37","","","M","94.87","","","","","","NA"
"-102.97","49.21","ESTEVAN A","4012403","2018-04-26 14:00","2018","04","26","14:00","19.4","","-4.5","","19","","","M","29","","44","","","M","94.78","","","","","","NA"
"-102.97","49.21","ESTEVAN A","4012403","2018-04-26 15:00","2018","04","26","15:00","19.9","","-4.5","","19","","","M","28","","46","","","M","94.70","","","","","","NA"
"-102.97","49.21","ESTEVAN A","4012403","2018-04-26 16:00","2018","04","26","16:00","20.5","","-4.2","","18","","","M","29","","45","","","M","94.60","","","","","","NA"
"-102.97","49.21","ESTEVAN A","4012403","2018-04-26 17:00","2018","04","26","17:00","20.9","","-3.0","","20","","","M","30","","40","","","M","94.55","","","","","","NA"
"-102.97","49.21","ESTEVAN A","4012403","2018-04-26 18:00","2018","04","26","18:00","20.7","","-3.6","","19","","","M","30","","45","","","M","94.50","","","","","","NA"
"-102.97","49.21","ESTEVAN A","4012403","2018-04-26 19:00","2018","04","26","19:00","19.5","","-2.4","","22","","","M","31","","28","","","M","94.46","","","","","","NA"
"-102.97","49.21","ESTEVAN A","4012403","2018-04-26 20:00","2018","04","26","20:00","15.4","","-1.8","","31","","","M","31","","18","","","M","94.46","","","","","","NA"
"-102.97","49.21","ESTEVAN A","4012403","2018-04-26 21:00","2018","04","26","21:00","10.8","","-1.1","","44","","","M","33","","17","","","M","94.54","","","","","","NA"
"-102.97","49.21","ESTEVAN A","4012403","2018-04-26 22:00","2018","04","26","22:00","10.7","","-1.0","","44","","","M","35","","21","","","M","94.63","","","","","","NA"
"-102.97","49.21","ESTEVAN A","4012403","2018-04-26 23:00","2018","04","26","23:00","8.6","","-2.2","","47","","","M","35","","19","","","M","94.68","","","","","","NA"
"-102.97","49.21","ESTEVAN A","4012403","2018-04-27 00:00","2018","04","27","00:00","4.6","","-3.4","","56","","","M","34","","9","","","M","94.74","","","","","","NA"
"-102.97","49.21","ESTEVAN A","4012403","2018-04-27 01:00","2018","04","27","01:00","3.0","","-4.0","","60","","","M","30","","14","","","M","94.83","","","","","","NA"
"-102.97","49.21","ESTEVAN A","4012403","2018-04-27 02:00","2018","04","27","02:00","1.7","","-4.4","","64","","","M","30","","17","","","M","94.89","","","","","","NA"
"-102.97","49.21","ESTEVAN A","4012403","2018-04-27 03:00","2018","04","27","03:00","-0.5","","-4.9","","72","","","M","31","","16","","","M","94.95","","","","-5","","NA"
"-102.97","49.21","ESTEVAN A","4012403","2018-04-27 04:00","2018","04","27","04:00","-1.8","","-5.4","","76","","","M","29","","14","","","M","95.01","","","","-6","","NA"
"-102.97","49.21","ESTEVAN A","4012403","2018-04-27 05:00","2018","04","27","05:00","-2.4","","-5.2","","81","","","M","32","","14","","","M","95.08","","","","-7","","NA"
"-102.97","49.21","ESTEVAN A","4012403","2018-04-27 06:00","2018","04","27","06:00","-2.5","","-5.0","","83","","","M","33","","14","","","M","95.15","","","","-7","","NA"
"-102.97","49.21","ESTEVAN A","4012403","2018-04-27 07:00","2018","04","27","07:00","2.7","","-2.8","","67","","","M","35","","10","","","M","95.21","","","","","","NA"
"-102.97","49.21","ESTEVAN A","4012403","2018-04-27 08:00","2018","04","27","08:00","6.3","","-2.6","","53","","","M","36","","19","","","M","95.26","","","","","","NA"
"-102.97","49.21","ESTEVAN A","4012403","2018-04-27 09:00","2018","04","27","09:00","8.4","","-2.6","","46","","","M","35","","18","","","M","95.29","","","","","","NA"
"-102.97","49.21","ESTEVAN A","4012403","2018-04-27 10:00","2018","04","27","10:00","9.9","","-2.8","","41","","","M","34","","16","","","M","95.30","","","","","","NA"
"-102.97","49.21","ESTEVAN A","4012403","2018-04-27 11:00","2018","04","27","11:00","11.2","","-3.2","","36","","","M","1","","19","","","M","95.29","","","","","","NA"
"-102.97","49.21","ESTEVAN A","4012403","2018-04-27 12:00","2018","04","27","12:00","12.6","","-3.7","","32","","","M","36","","20","","","M","95.28","","","","","","NA"
"-102.97","49.21","ESTEVAN A","4012403","2018-04-27 13:00","2018","04","27","13:00","13.4","","-4.2","","29","","","M","1","","13","","","M","95.24","","","","","","NA"
"-102.97","49.21","ESTEVAN A","4012403","2018-04-27 14:00","2018","04","27","14:00","14.4","","-7.0","","22","","","M","3","","12","","","M","95.20","","","","","","NA"
"-102.97","49.21","ESTEVAN A","4012403","2018-04-27 15:00","2018","04","27","15:00","14.4","","-8.1","","20","","","M","3","","17","","","M","95.16","","","","","","NA"
"-102.97","49.21","ESTEVAN A","4012403","2018-04-27 16:00","2018","04","27","16:00","15.4","","-7.1","","20","","","M","34","","9","","","M","95.13","","","","","","NA"
"-102.97","49.21","ESTEVAN A","4012403","2018-04-27 17:00","2018","04","27","17:00","15.4","","-6.5","","21","","","M","2","","8","","","M","95.10","","","","","","NA"
"-102.97","49.21","ESTEVAN A","4012403","2018-04-27 18:00","2018","04","27","18:00","14.8","","-6.6","","22","","","M","6","","12","","","M","95.08","","","","","","NA"
"-102.97","49.21","ESTEVAN A","4012403","2018-04-27 19:00","2018","04","27","19:00","13.7","","-6.9","","23","","","M","10","","3","","","M","95.05","","","","","","NA"
"-102.97","49.21","ESTEVAN A","4012403","2018-04-27 20:00","2018","04","27","20:00","10.4","","-4.4","","35","","","M","10","","5","","","M","95.06","","","","","","NA"
"-102.97","49.21","ESTEVAN A","4012403","2018-04-27 21:00","2018","04","27","21:00","5.8","","-5.0","","46","","","M","10","","13","","","M","95.08","","","","","","NA"
"-102.97","49.21","ESTEVAN A","4012403","2018-04-27 22:00","2018","04","27","22:00","3.4","","-4.0","","58","","","M","12","","13","","","M","95.09","","","","","","NA"
"-102.97","49.21","ESTEVAN A","4012403","2018-04-27 23:00","2018","04","27","23:00","4.8","","-3.3","","56","","","M","13","","14","","","M","95.10","","","","","","NA"
"-102.97","49.21","ESTEVAN A","4012403","2018-04-28 00:00","2018","04","28","00:00","3.5","","-3.4","","61","","","M","13","","13","","","M","95.09","","","","","","NA"
"-102.97","49.21","ESTEVAN A","4012403","2018-04-28 01:00","2018","04","28","01:00","3.4","","-3.4","","61","","","M","13","","14","","","M","95.09","","","","","","NA"
"-102.97","49.21","ESTEVAN A","4012403","2018-04-28 02:00","2018","04","28","02:00","3.2","","-3.9","","60","","","M","13","","14","","","M","95.04","","","","","","NA"
"-102.97","49.21","ESTEVAN A","4012403","2018-04-28 03:00","2018","04","28","03:00","2.2","","-3.5","","66","","","M","13","","13","","","M","95.02","","","","","","NA"
"-102.97","49.21","ESTEVAN A","4012403","2018-04-28 04:00","2018","04","28","04:00","-0.1","","-4.3","","73","","","M","12","","12","","","M","94.99","","","","-4","","NA"
"-102.97","49.21","ESTEVAN A","4012403","2018-04-28 05:00","2018","04","28","05:00","-0.9","","-4.5","","77","","","M","12","","12","","","M","94.97","","","","-5","","NA"
"-102.97","49.21","ESTEVAN A","4012403","2018-04-28 06:00","2018","04","28","06:00","0.0","","-3.8","","76","","","M","15","","12","","","M","94.95","","","","-4","","NA"
"-102.97","49.21","ESTEVAN A","4012403","2018-04-28 07:00","2018","04","28","07:00","5.0","","-2.1","","60","","","M","15","","15","","","M","94.95","","","","","","NA"
"-102.97","49.21","ESTEVAN A","4012403","2018-04-28 08:00","2018","04","28","08:00","8.5","","-2.1","","47","","","M","16","","25","","","M","94.92","","","","","","NA"
"-102.97","49.21","ESTEVAN A","4012403","2018-04-28 09:00","2018","04","28","09:00","11.1","","-1.6","","41","","","M","18","","29","","","M","94.83","","","","","","NA"
"-102.97","49.21","ESTEVAN A","4012403","2018-04-28 10:00","2018","04","28","10:00","13.8","","-1.6","","34","","","M","16","","26","","","M","94.77","","","","","","NA"
"-102.97","49.21","ESTEVAN A","4012403","2018-04-28 11:00","2018","04","28","11:00","15.2","","-2.3","","30","","","M","15","","39","","","M","94.70","","","","","","NA"
"-102.97","49.21","ESTEVAN A","4012403","2018-04-28 12:00","2018","04","28","12:00","16.6","","-1.3","","29","","","M","15","","36","","","M","94.60","","","","","","NA"
"-102.97","49.21","ESTEVAN A","4012403","2018-04-28 13:00","2018","04","28","13:00","18.1","","-1.2","","27","","","M","16","","34","","","M","94.50","","","","","","NA"
"-102.97","49.21","ESTEVAN A","4012403","2018-04-28 14:00","2018","04","28","14:00","18.7","","-1.6","","25","","","M","16","","39","","","M","94.43","","","","","","NA"
"-102.97","49.21","ESTEVAN A","4012403","2018-04-28 15:00","2018","04","28","15:00","19.2","","-1.2","","25","","","M","15","","39","","","M","94.35","","","","","","NA"
"-102.97","49.21","ESTEVAN A","4012403","2018-04-28 16:00","2018","04","28","16:00","20.1","","0.3","","26","","","M","17","","33","","","M","94.25","","","","","","NA"
"-102.97","49.21","ESTEVAN A","4012403","2018-04-28 17:00","2018","04","28","17:00","19.9","","-0.1","","26","","","M","15","","39","","","M","94.20","","","","","","NA"
"-102.97","49.21","ESTEVAN A","4012403","2018-04-28 18:00","2018","04","28","18:00","19.1","","-0.3","","27","","","M","14","","42","","","M","94.13","","","","","","NA"
"-102.97","49.21","ESTEVAN A","4012403","2018-04-28 19:00","2018","04","28","19:00","17.7","","-0.5","","29","","","M","14","","36","","","M","94.07","","","","","","NA"
"-102.97","49.21","ESTEVAN A","4012403","2018-04-28 20:00","2018","04","28","20:00","15.8","","-1.1","","31","","","M","15","","29","","","M","94.05","","","","","","NA"
"-102.97","49.21","ESTEVAN A","4012403","2018-04-28 21:00","2018","04","28","21:00","13.1","","-1.3","","37","","","M","13","","23","","","M","94.05","","","","","","NA"
"-102.97","49.21","ESTEVAN A","4012403","2018-04-28 22:00","2018","04","28","22:00","11.9","","-2.0","","38","","","M","13","","23","","","M","94.02","","","","","","NA"
"-102.97","49.21","ESTEVAN A","4012403","2018-04-28 23:00","2018","04","28","23:00","8.7","","-2.2","","46","","","M","11","","16","","","M","93.99","","","","","","NA"
"-102.97","49.21","ESTEVAN A","4012403","2018-04-29 00:00","2018","04","29","00:00","10.8","","-2.2","","40","","","M","14","","25","","","M","93.92","","","","","","NA"
"-102.97","49.21","ESTEVAN A","4012403","2018-04-29 01:00","2018","04","29","01:00","9.7","","-2.1","","44","","","M","15","","17","","","M","93.88","","","","","","NA"
"-102.97","49.21","ESTEVAN A","4012403","2018-04-29 02:00","2018","04","29","02:00","8.7","","-1.7","","48","","","M","14","","17","","","M","93.78","","","","","","NA"
"-102.97","49.21","ESTEVAN A","4012403","2018-04-29 03:00","2018","04","29","03:00","6.8","","-1.3","","56","","","M","9","","11","","","M","93.73","","","","","","NA"
"-102.97","49.21","ESTEVAN A","4012403","2018-04-29 04:00","2018","04","29","04:00","7.2","","-0.8","","57","","","M","12","","18","","","M","93.62","","","","","","NA"
"-102.97","49.21","ESTEVAN A","4012403","2018-04-29 05:00","2018","04","29","05:00","5.1","","-0.7","","66","","","M","9","","12","","","M","93.56","","","","","","NA"
"-102.97","49.21","ESTEVAN A","4012403","2018-04-29 06:00","2018","04","29","06:00","4.5","","-0.6","","69","","","M","8","","13","","","M","93.52","","","","","","NA"
"-102.97","49.21","ESTEVAN A","4012403","2018-04-29 07:00","2018","04","29","07:00","8.0","","0.6","","59","","","M","11","","15","","","M","93.49","","","","","","NA"
"-102.97","49.21","ESTEVAN A","4012403","2018-04-29 08:00","2018","04","29","08:00","11.0","","1.0","","50","","","M","12","","18","","","M","93.41","","","","","","NA"
"-102.97","49.21","ESTEVAN A","4012403","2018-04-29 09:00","2018","04","29","09:00","14.7","","1.5","","41","","","M","16","","17","","","M","93.42","","","","","","NA"
"-102.97","49.21","ESTEVAN A","4012403","2018-04-29 10:00","2018","04","29","10:00","17.6","","2.5","","36","","","M","17","","19","","","M","93.31","","","","","","NA"
"-102.97","49.21","ESTEVAN A","4012403","2018-04-29 11:00","2018","04","29","11:00","20.2","","3.0","","32","","","M","18","","19","","","M","93.28","","","","","","NA"
"-102.97","49.21","ESTEVAN A","4012403","2018-04-29 12:00","2018","04","29","12:00","21.5","","4.5","","32","","","M","18","","14","","","M","93.23","","","","","","NA"
"-102.97","49.21","ESTEVAN A","4012403","2018-04-29 13:00","2018","04","29","13:00","22.2","","4.0","","30","","","M","20","","7","","","M","93.19","","","","","","NA"
"-102.97","49.21","ESTEVAN A","4012403","2018-04-29 14:00","2018","04","29","14:00","25.0","","4.8","","27","","","M","20","","20","","","M","93.16","","","","","","NA"
"-102.97","49.21","ESTEVAN A","4012403","2018-04-29 15:00","2018","04","29","15:00","24.9","","5.1","","27","","","M","24","","20","","","M","93.15","","","","","","NA"
"-102.97","49.21","ESTEVAN A","4012403","2018-04-29 16:00","2018","04","29","16:00","25.4","","5.2","","27","","","M","28","","26","","","M","93.11","","25","","","","NA"
"-102.97","49.21","ESTEVAN A","4012403","2018-04-29 17:00","2018","04","29","17:00","24.5","","6.5","","31","","","M","30","","36","","","M","93.15","","","","","","NA"
"-102.97","49.21","ESTEVAN A","4012403","2018-04-29 18:00","2018","04","29","18:00","23.7","","6.6","","33","","","M","32","","28","","","M","93.16","","","","","","NA"
"-102.97","49.21","ESTEVAN A","4012403","2018-04-29 19:00","2018","04","29","19:00","20.9","","6.2","","38","","","M","33","","22","","","M","93.18","","","","","","NA"
"-102.97","49.21","ESTEVAN A","4012403","2018-04-29 20:00","2018","04","29","20:00","16.9","","5.7","","47","","","M","31","","13","","","M","93.23","","","","","","NA"
"-102.97","49.21","ESTEVAN A","4012403","2018-04-29 21:00","2018","04","29","21:00","13.5","","5.5","","58","","","M","32","","17","","","M","93.21","","","","","","NA"
"-102.97","49.21","ESTEVAN A","4012403","2018-04-29 22:00","2018","04","29","22:00","11.5","","5.6","","67","","","M","34","","13","","","M","93.18","","","","","","NA"
"-102.97","49.21","ESTEVAN A","4012403","2018-04-29 23:00","2018","04","29","23:00","12.4","","5.5","","62","","","M","32","","4","","","M","93.27","","","","","","NA"
"-102.97","49.21","ESTEVAN A","4012403","2018-04-30 00:00","2018","04","30","00:00","13.0","","11.6","","91","","","M","22","","20","","","M","93.39","","","","","","NA"
"-102.97","49.21","ESTEVAN A","4012403","2018-04-30 01:00","2018","04","30","01:00","12.7","","11.6","","93","","","M","26","","25","","","M","93.30","","","","","","NA"
"-102.97","49.21","ESTEVAN A","4012403","2018-04-30 02:00","2018","04","30","02:00","9.6","","6.7","","82","","","M","29","","35","","","M","93.37","","","","","","NA"
"-102.97","49.21","ESTEVAN A","4012403","2018-04-30 03:00","2018","04","30","03:00","8.0","","5.8","","86","","","M","30","","34","","","M","93.46","","","","","","NA"
"-102.97","49.21","ESTEVAN A","4012403","2018-04-30 04:00","2018","04","30","04:00","7.0","","5.0","","87","","","M","33","","35","","","M","93.51","","","","","","NA"
"-102.97","49.21","ESTEVAN A","4012403","2018-04-30 05:00","2018","04","30","05:00","5.8","","4.1","","89","","","M","34","","32","","","M","93.57","","","","","","NA"
"-102.97","49.21","ESTEVAN A","4012403","2018-04-30 06:00","2018","04","30","06:00","5.2","","3.8","","91","","","M","34","","29","","","M","93.76","","","","","","NA"
"-102.97","49.21","ESTEVAN A","4012403","2018-04-30 07:00","2018","04","30","07:00","5.3","","3.7","","89","","","M","35","","22","","","M","93.79","","","","","","NA"
"-102.97","49.21","ESTEVAN A","4012403","2018-04-30 08:00","2018","04","30","08:00","6.4","","3.3","","80","","","M","36","","26","","","M","93.87","","","","","","NA"
"-102.97","49.21","ESTEVAN A","4012403","2018-04-30 09:00","2018","04","30","09:00","6.5","","3.3","","80","","","M","36","","30","","","M","93.94","","","","","","NA"
"-102.97","49.21","ESTEVAN A","4012403","2018-04-30 10:00","2018","04","30","10:00","6.8","","2.8","","76","","","M","34","","28","","","M","94.07","","","","","","NA"
"-102.97","49.21","ESTEVAN A","4012403","2018-04-30 11:00","2018","04","30","11:00","6.8","","2.1","","72","","","M","35","","27","","","M","94.13","","","","","","NA"
"-102.97","49.21","ESTEVAN A","4012403","2018-04-30 12:00","2018","04","30","12:00","7.8","","1.9","","66","","","M","34","","27","","","M","94.19","","","","","","NA"
"-102.97","49.21","ESTEVAN A","4012403","2018-04-30 13:00","2018","04","30","13:00","8.7","","2.2","","63","","","M","34","","28","","","M","94.21","","","","","","NA"
"-102.97","49.21","ESTEVAN A","4012403","2018-04-30 14:00","2018","04","30","14:00","10.3","","2.5","","58","","","M","36","","30","","","M","94.18","","","","","","NA"
"-102.97","49.21","ESTEVAN A","4012403","2018-04-30 15:00","2018","04","30","15:00","11.2","","2.6","","55","","","M","35","","31","","","M","94.17","","","","","","NA"
"-102.97","49.21","ESTEVAN A","4012403","2018-04-30 16:00","2018","04","30","16:00","9.1","","2.4","","63","","","M","36","","24","","","M","94.21","","","","","","NA"
"-102.97","49.21","ESTEVAN A","4012403","2018-04-30 17:00","2018","04","30","17:00","10.1","","2.4","","59","","","M","4","","21","","","M","94.25","","","","","","NA"
"-102.97","49.21","ESTEVAN A","4012403","2018-04-30 18:00","2018","04","30","18:00","9.8","","1.9","","58","","","M","2","","20","","","M","94.27","","","","","","NA"
"-102.97","49.21","ESTEVAN A","4012403","2018-04-30 19:00","2018","04","30","19:00","7.5","","1.9","","68","","","M","1","","21","","","M","94.32","","","","","","NA"
"-102.97","49.21","ESTEVAN A","4012403","2018-04-30 20:00","2018","04","30","20:00","6.2","","1.5","","72","","","M","2","","18","","","M","94.34","","","","","","NA"
"-102.97","49.21","ESTEVAN A","4012403","2018-04-30 21:00","2018","04","30","21:00","5.7","","1.4","","74","","","M","1","","9","","","M","94.38","","","","","","NA"
"-102.97","49.21","ESTEVAN A","4012403","2018-04-30 22:00","2018","04","30","22:00","5.6","","1.6","","75","","","M","35","","9","","","M","94.39","","","","","","NA"
"-102.97","49.21","ESTEVAN A","4012403","2018-04-30 23:00","2018","04","30","23:00","4.8","","1.4","","78","","","M","5","","18","","","M","94.34","","","","","","NA"
