"Longitude (x)","Latitude (y)","Station Name","Climate ID","Date/Time (LST)","Year","Month","Day","Time (LST)","Temp (°C)","Temp Flag","Dew Point Temp (°C)","Dew Point Temp Flag","Rel Hum (%)","Rel Hum Flag","Precip. Amount (mm)","Precip. Amount Flag","Wind Dir (10s deg)","Wind Dir Flag","Wind Spd (km/h)","Wind Spd Flag","Visibility (km)","Visibility Flag","Stn Press (kPa)","Stn Press Flag","Hmdx","Hmdx Flag","Wind Chill","Wind Chill Flag","Weather"
"-102.97","49.21","ESTEVAN A","4012403","2018-01-01 00:00","2018","01","01","00:00","-31.2","","-34.8","","71","","","M","26","","12","","","M","97.05","","","","-42","","NA"
"-102.97","49.21","ESTEVAN A","4012403","2018-01-01 01:00","2018","01","01","01:00","-30.7","","-34.4","","71","","","M","26","","12","","","M","97.04","","","","-41","","NA"
"-102.97","49.21","ESTEVAN A","4012403","2018-01-01 02:00","2018","01","01","02:00","-32.7","","-36.4","","70","","","M","24","","10","","","M","97.05","","","","-42","","NA"
"-102.97","49.21","ESTEVAN A","4012403","2018-01-01 03:00","2018","01","01","03:00","-33.3","","-37.1","","70","","","M","24","","5","","","M","97.03","","","","-39","","NA"
"-102.97","49.21","ESTEVAN A","4012403","2018-01-01 04:00","2018","01","01","04:00","-33.5","","-37.2","","70","","","M","22","","10","","","M","97.00","","","","-43","","NA"
"-102.97","49.21","ESTEVAN A","4012403","2018-01-01 05:00","2018","01","01","05:00","-33.6","","-37.4","","69","","","M","28","","4","","","M","96.94","","","","-38","","NA"
"-102.97","49.21","ESTEVAN A","4012403","2018-01-01 06:00","2018","01","01","06:00","-34.2","","-38.0","","70","","","M","22","","12","","","M","96.90","","","","-45","","NA"
"-102.97","49.21","ESTEVAN A","4012403","2018-01-01 07:00","2018","01","01","07:00","-34.6","","-38.4","","69","","","M","22","","9","","","M","96.85","","","","-44","","NA"
"-102.97","49.21","ESTEVAN A","4012403","2018-01-01 08:00","2018","01","01","08:00","-34.8","","-38.5","","70","","","M","21","","7","","","M","96.80","","","","-43","","NA"
"-102.97","49.21","ESTEVAN A","4012403","2018-01-01 09:00","2018","01","01","09:00","-34.3","","-38.0","","70","","","M","22","","11","","","M","96.83","","","","-45","","NA"
"-102.97","49.21","ESTEVAN A","4012403","2018-01-01 10:00","2018","01","01","10:00","-31.0","","-34.8","","71","","","M","22","","4","","","M","96.86","","","","-36","","NA"
"-102.97","49.21","ESTEVAN A","4012403","2018-01-01 11:00","2018","01","01","11:00","-28.7","","-32.7","","69","","","M","22","","7","","","M","96.81","","","","-36","","NA"
"-102.97","49.21","ESTEVAN A","4012403","2018-01-01 12:00","2018","01","01","12:00","-26.5","","-31.0","","66","","","M","26","","5","","","M","96.81","","","","-32","","NA"
"-102.97","49.21","ESTEVAN A","4012403","2018-01-01 13:00","2018","01","01","13:00","-24.6","","-30.1","","61","","","M","23","","11","","","M","96.65","","","","-33","","NA"
"-102.97","49.21","ESTEVAN A","4012403","2018-01-01 14:00","2018","01","01","14:00","-22.6","","-29.1","","57","","","M","24","","10","","","M","96.53","","","","-30","","NA"
"-102.97","49.21","ESTEVAN A","4012403","2018-01-01 15:00","2018","01","01","15:00","-21.5","","-28.3","","55","","","M","21","","10","","","M","96.46","","","","-29","","NA"
"-102.97","49.21","ESTEVAN A","4012403","2018-01-01 16:00","2018","01","01","16:00","-21.7","","-28.7","","54","","","M","22","","13","","","M","96.45","","","","-30","","NA"
"-102.97","49.21","ESTEVAN A","4012403","2018-01-01 17:00","2018","01","01","17:00","-23.7","","-29.6","","59","","","M","21","","14","","","M","96.38","","","","-33","","NA"
"-102.97","49.21","ESTEVAN A","4012403","2018-01-01 18:00","2018","01","01","18:00","-24.6","","-29.7","","63","","","M","22","","16","","","M","96.34","","","","-35","","NA"
"-102.97","49.21","ESTEVAN A","4012403","2018-01-01 19:00","2018","01","01","19:00","-25.5","","-30.1","","66","","","M","22","","16","","","M","96.28","","","","-36","","NA"
"-102.97","49.21","ESTEVAN A","4012403","2018-01-01 20:00","2018","01","01","20:00","-26.5","","-30.5","","70","","","M","21","","16","","","M","96.15","","","","-37","","NA"
"-102.97","49.21","ESTEVAN A","4012403","2018-01-01 21:00","2018","01","01","21:00","-26.0","","-30.3","","68","","","M","21","","17","","","M","96.00","","","","-37","","NA"
"-102.97","49.21","ESTEVAN A","4012403","2018-01-01 22:00","2018","01","01","22:00","-26.6","","-30.7","","69","","","M","22","","16","","","M","95.96","","","","-38","","NA"
"-102.97","49.21","ESTEVAN A","4012403","2018-01-01 23:00","2018","01","01","23:00","-27.1","","-31.0","","70","","","M","21","","13","","","M","95.83","","","","-37","","NA"
"-102.97","49.21","ESTEVAN A","4012403","2018-01-02 00:00","2018","01","02","00:00","-25.8","","-29.8","","69","","","M","22","","30","","","M","95.75","","","","-40","","NA"
"-102.97","49.21","ESTEVAN A","4012403","2018-01-02 01:00","2018","01","02","01:00","-25.9","","-29.8","","70","","","M","23","","23","","","M","95.61","","","","-39","","NA"
"-102.97","49.21","ESTEVAN A","4012403","2018-01-02 02:00","2018","01","02","02:00","-26.0","","-29.9","","70","","","M","22","","28","","","M","95.41","","","","-40","","NA"
"-102.97","49.21","ESTEVAN A","4012403","2018-01-02 03:00","2018","01","02","03:00","-24.6","","-28.5","","71","","","M","23","","23","","","M","95.33","","","","-37","","NA"
"-102.97","49.21","ESTEVAN A","4012403","2018-01-02 04:00","2018","01","02","04:00","-22.4","","-26.4","","71","","","M","23","","30","","","M","95.17","","","","-36","","NA"
"-102.97","49.21","ESTEVAN A","4012403","2018-01-02 05:00","2018","01","02","05:00","-20.6","","-24.7","","70","","","M","23","","35","","","M","95.07","","","","-34","","NA"
"-102.97","49.21","ESTEVAN A","4012403","2018-01-02 06:00","2018","01","02","06:00","-18.6","","-22.5","","72","","","M","24","","29","","","M","94.93","","","","-31","","NA"
"-102.97","49.21","ESTEVAN A","4012403","2018-01-02 07:00","2018","01","02","07:00","-17.1","","-21.2","","71","","","M","24","","25","","","M","94.87","","","","-28","","NA"
"-102.97","49.21","ESTEVAN A","4012403","2018-01-02 08:00","2018","01","02","08:00","-16.5","","-20.1","","74","","","M","24","","21","","","M","94.83","","","","-26","","NA"
"-102.97","49.21","ESTEVAN A","4012403","2018-01-02 09:00","2018","01","02","09:00","-12.7","","-16.5","","73","","","M","25","","19","","","M","94.82","","","","-21","","NA"
"-102.97","49.21","ESTEVAN A","4012403","2018-01-02 10:00","2018","01","02","10:00","-8.8","","-13.2","","71","","","M","26","","29","","","M","94.83","","","","-18","","NA"
"-102.97","49.21","ESTEVAN A","4012403","2018-01-02 11:00","2018","01","02","11:00","-7.8","","-12.2","","71","","","M","30","","36","","","M","94.90","","","","-17","","NA"
"-102.97","49.21","ESTEVAN A","4012403","2018-01-02 12:00","2018","01","02","12:00","-7.4","","-10.8","","77","","","M","31","","49","","","M","94.95","","","","-18","","NA"
"-102.97","49.21","ESTEVAN A","4012403","2018-01-02 13:00","2018","01","02","13:00","-6.8","","-10.6","","74","","","M","31","","40","","","M","94.99","","","","-16","","NA"
"-102.97","49.21","ESTEVAN A","4012403","2018-01-02 14:00","2018","01","02","14:00","-6.8","","-10.7","","74","","","M","32","","37","","","M","95.04","","","","-16","","NA"
"-102.97","49.21","ESTEVAN A","4012403","2018-01-02 15:00","2018","01","02","15:00","-7.0","","-11.1","","73","","","M","33","","35","","","M","95.13","","","","-16","","NA"
"-102.97","49.21","ESTEVAN A","4012403","2018-01-02 16:00","2018","01","02","16:00","-8.6","","-12.3","","75","","","M","33","","24","","","M","95.23","","","","-17","","NA"
"-102.97","49.21","ESTEVAN A","4012403","2018-01-02 17:00","2018","01","02","17:00","-10.7","","-14.2","","75","","","M","33","","18","","","M","95.38","","","","-18","","NA"
"-102.97","49.21","ESTEVAN A","4012403","2018-01-02 18:00","2018","01","02","18:00","-11.0","","-14.9","","73","","","M","32","","16","","","M","95.41","","","","-18","","NA"
"-102.97","49.21","ESTEVAN A","4012403","2018-01-02 19:00","2018","01","02","19:00","-12.0","","-15.6","","75","","","M","34","","18","","","M","95.53","","","","-20","","NA"
"-102.97","49.21","ESTEVAN A","4012403","2018-01-02 20:00","2018","01","02","20:00","-13.6","","-16.8","","78","","","M","33","","10","","","M","95.59","","","","-20","","NA"
"-102.97","49.21","ESTEVAN A","4012403","2018-01-02 21:00","2018","01","02","21:00","-16.1","","-18.4","","83","","","M","31","","10","","","M","95.61","","","","-23","","NA"
"-102.97","49.21","ESTEVAN A","4012403","2018-01-02 22:00","2018","01","02","22:00","-16.4","","-18.9","","82","","","M","31","","16","","","M","95.66","","","","-25","","NA"
"-102.97","49.21","ESTEVAN A","4012403","2018-01-02 23:00","2018","01","02","23:00","-20.3","","-22.7","","81","","","M","33","","14","","","M","95.64","","","","-29","","NA"
"-102.97","49.21","ESTEVAN A","4012403","2018-01-03 00:00","2018","01","03","00:00","-20.1","","-22.3","","83","","","M","29","","13","","","M","95.69","","","","-29","","NA"
"-102.97","49.21","ESTEVAN A","4012403","2018-01-03 01:00","2018","01","03","01:00","-22.1","","-24.8","","79","","","M","32","","13","","","M","95.65","","","","-31","","NA"
"-102.97","49.21","ESTEVAN A","4012403","2018-01-03 02:00","2018","01","03","02:00","-21.7","","-24.3","","80","","","M","30","","13","","","M","95.63","","","","-30","","NA"
"-102.97","49.21","ESTEVAN A","4012403","2018-01-03 03:00","2018","01","03","03:00","-20.7","","-23.3","","80","","","M","30","","7","","","M","95.67","","","","-26","","NA"
"-102.97","49.21","ESTEVAN A","4012403","2018-01-03 04:00","2018","01","03","04:00","-20.5","","-23.2","","79","","","M","28","","5","","","M","95.69","","","","-25","","NA"
"-102.97","49.21","ESTEVAN A","4012403","2018-01-03 05:00","2018","01","03","05:00","-18.9","","-21.5","","80","","","M","31","","3","","","M","95.69","","","","-21","","NA"
"-102.97","49.21","ESTEVAN A","4012403","2018-01-03 06:00","2018","01","03","06:00","-18.9","","-21.5","","81","","","M","20","","4","","","M","95.66","","","","-22","","NA"
"-102.97","49.21","ESTEVAN A","4012403","2018-01-03 07:00","2018","01","03","07:00","-18.0","","-20.5","","81","","","M","9","","4","","","M","95.62","","","","-21","","NA"
"-102.97","49.21","ESTEVAN A","4012403","2018-01-03 08:00","2018","01","03","08:00","-17.9","","-20.4","","81","","","M","9","","7","","","M","95.58","","","","-23","","NA"
"-102.97","49.21","ESTEVAN A","4012403","2018-01-03 09:00","2018","01","03","09:00","-18.1","","-20.7","","80","","","M","15","","5","","","M","95.60","","","","-22","","NA"
"-102.97","49.21","ESTEVAN A","4012403","2018-01-03 10:00","2018","01","03","10:00","-16.9","","-19.4","","81","","","M","14","","5","","","M","95.55","","","","-21","","NA"
"-102.97","49.21","ESTEVAN A","4012403","2018-01-03 11:00","2018","01","03","11:00","-14.9","","-17.4","","82","","","M","11","","11","","","M","95.54","","","","-21","","NA"
"-102.97","49.21","ESTEVAN A","4012403","2018-01-03 12:00","2018","01","03","12:00","-14.7","","-17.5","","79","","","M","13","","10","","","M","95.50","","","","-21","","NA"
"-102.97","49.21","ESTEVAN A","4012403","2018-01-03 13:00","2018","01","03","13:00","-11.5","","-16.5","","67","","","M","12","","14","","","M","95.39","","","","-18","","NA"
"-102.97","49.21","ESTEVAN A","4012403","2018-01-03 14:00","2018","01","03","14:00","-11.0","","-15.6","","69","","","M","12","","11","","","M","95.33","","","","-17","","NA"
"-102.97","49.21","ESTEVAN A","4012403","2018-01-03 15:00","2018","01","03","15:00","-10.3","","-14.9","","69","","","M","12","","13","","","M","95.25","","","","-17","","NA"
"-102.97","49.21","ESTEVAN A","4012403","2018-01-03 16:00","2018","01","03","16:00","-11.3","","-14.9","","75","","","M","10","","19","","","M","95.23","","","","-19","","NA"
"-102.97","49.21","ESTEVAN A","4012403","2018-01-03 17:00","2018","01","03","17:00","-12.0","","-15.4","","76","","","M","10","","21","","","M","95.25","","","","-21","","NA"
"-102.97","49.21","ESTEVAN A","4012403","2018-01-03 18:00","2018","01","03","18:00","-12.8","","-15.9","","78","","","M","10","","22","","","M","95.21","","","","-22","","NA"
"-102.97","49.21","ESTEVAN A","4012403","2018-01-03 19:00","2018","01","03","19:00","-13.0","","-15.9","","79","","","M","10","","16","","","M","95.21","","","","-21","","NA"
"-102.97","49.21","ESTEVAN A","4012403","2018-01-03 20:00","2018","01","03","20:00","-14.6","","-17.0","","82","","","M","11","","20","","","M","95.16","","","","-24","","NA"
"-102.97","49.21","ESTEVAN A","4012403","2018-01-03 21:00","2018","01","03","21:00","-14.5","","-16.8","","83","","","M","12","","14","","","M","95.10","","","","-22","","NA"
"-102.97","49.21","ESTEVAN A","4012403","2018-01-03 22:00","2018","01","03","22:00","-14.2","","-16.4","","83","","","M","9","","13","","","M","95.10","","","","-21","","NA"
"-102.97","49.21","ESTEVAN A","4012403","2018-01-03 23:00","2018","01","03","23:00","-14.2","","-16.4","","84","","","M","11","","12","","","M","95.07","","","","-21","","NA"
"-102.97","49.21","ESTEVAN A","4012403","2018-01-04 00:00","2018","01","04","00:00","-16.0","","-18.1","","84","","","M","6","","12","","","M","95.13","","","","-23","","NA"
"-102.97","49.21","ESTEVAN A","4012403","2018-01-04 01:00","2018","01","04","01:00","-16.0","","-18.3","","82","","","M","8","","18","","","M","95.16","","","","-25","","NA"
"-102.97","49.21","ESTEVAN A","4012403","2018-01-04 02:00","2018","01","04","02:00","-16.4","","-18.8","","82","","","M","8","","19","","","M","95.21","","","","-26","","NA"
"-102.97","49.21","ESTEVAN A","4012403","2018-01-04 03:00","2018","01","04","03:00","-16.5","","-18.9","","82","","","M","8","","16","","","M","95.25","","","","-25","","NA"
"-102.97","49.21","ESTEVAN A","4012403","2018-01-04 04:00","2018","01","04","04:00","-15.9","","-18.3","","82","","","M","9","","18","","","M","95.26","","","","-25","","NA"
"-102.97","49.21","ESTEVAN A","4012403","2018-01-04 05:00","2018","01","04","05:00","-16.0","","-18.4","","82","","","M","8","","15","","","M","95.31","","","","-24","","NA"
"-102.97","49.21","ESTEVAN A","4012403","2018-01-04 06:00","2018","01","04","06:00","-15.9","","-18.1","","83","","","M","9","","12","","","M","95.35","","","","-23","","NA"
"-102.97","49.21","ESTEVAN A","4012403","2018-01-04 07:00","2018","01","04","07:00","-14.9","","-16.9","","85","","","M","9","","16","","","M","95.36","","","","-23","","NA"
"-102.97","49.21","ESTEVAN A","4012403","2018-01-04 08:00","2018","01","04","08:00","-14.8","","-16.6","","86","","","M","10","","15","","","M","95.40","","","","-23","","NA"
"-102.97","49.21","ESTEVAN A","4012403","2018-01-04 09:00","2018","01","04","09:00","-14.7","","-16.8","","85","","","M","10","","16","","","M","95.39","","","","-23","","NA"
"-102.97","49.21","ESTEVAN A","4012403","2018-01-04 10:00","2018","01","04","10:00","-14.3","","-16.4","","85","","","M","12","","13","","","M","95.42","","","","-21","","NA"
"-102.97","49.21","ESTEVAN A","4012403","2018-01-04 11:00","2018","01","04","11:00","-13.8","","-15.8","","85","","","M","11","","15","","","M","95.48","","","","-21","","NA"
"-102.97","49.21","ESTEVAN A","4012403","2018-01-04 12:00","2018","01","04","12:00","-13.0","","-15.2","","84","","","M","12","","14","","","M","95.46","","","","-20","","NA"
"-102.97","49.21","ESTEVAN A","4012403","2018-01-04 13:00","2018","01","04","13:00","-12.2","","-15.3","","78","","","M","12","","16","","","M","95.41","","","","-20","","NA"
"-102.97","49.21","ESTEVAN A","4012403","2018-01-04 14:00","2018","01","04","14:00","-11.4","","-14.6","","77","","","M","11","","15","","","M","95.39","","","","-18","","NA"
"-102.97","49.21","ESTEVAN A","4012403","2018-01-04 15:00","2018","01","04","15:00","-11.6","","-14.7","","78","","","M","10","","18","","","M","95.39","","","","-19","","NA"
"-102.97","49.21","ESTEVAN A","4012403","2018-01-04 16:00","2018","01","04","16:00","-11.9","","-15.0","","79","","","M","10","","20","","","M","95.43","","","","-20","","NA"
"-102.97","49.21","ESTEVAN A","4012403","2018-01-04 17:00","2018","01","04","17:00","-12.4","","-15.2","","80","","","M","10","","20","","","M","95.47","","","","-21","","NA"
"-102.97","49.21","ESTEVAN A","4012403","2018-01-04 18:00","2018","01","04","18:00","-12.8","","-15.8","","79","","","M","11","","26","","","M","95.47","","","","-23","","NA"
"-102.97","49.21","ESTEVAN A","4012403","2018-01-04 19:00","2018","01","04","19:00","-13.3","","-16.2","","79","","","M","11","","23","","","M","95.51","","","","-23","","NA"
"-102.97","49.21","ESTEVAN A","4012403","2018-01-04 20:00","2018","01","04","20:00","-13.6","","-16.5","","79","","","M","11","","20","","","M","95.58","","","","-22","","NA"
"-102.97","49.21","ESTEVAN A","4012403","2018-01-04 21:00","2018","01","04","21:00","-13.9","","-17.0","","77","","","M","11","","22","","","M","95.61","","","","-23","","NA"
"-102.97","49.21","ESTEVAN A","4012403","2018-01-04 22:00","2018","01","04","22:00","-14.1","","-17.1","","78","","","M","11","","25","","","M","95.59","","","","-24","","NA"
"-102.97","49.21","ESTEVAN A","4012403","2018-01-04 23:00","2018","01","04","23:00","-14.5","","-17.3","","79","","","M","11","","20","","","M","95.60","","","","-24","","NA"
"-102.97","49.21","ESTEVAN A","4012403","2018-01-05 00:00","2018","01","05","00:00","-14.4","","-17.3","","79","","","M","11","","25","","","M","95.66","","","","-24","","NA"
"-102.97","49.21","ESTEVAN A","4012403","2018-01-05 01:00","2018","01","05","01:00","-14.2","","-17.0","","79","","","M","11","","18","","","M","95.70","","","","-23","","NA"
"-102.97","49.21","ESTEVAN A","4012403","2018-01-05 02:00","2018","01","05","02:00","-14.7","","-17.4","","80","","","M","11","","25","","","M","95.65","","","","-25","","NA"
"-102.97","49.21","ESTEVAN A","4012403","2018-01-05 03:00","2018","01","05","03:00","-15.5","","-18.0","","81","","","M","11","","23","","","M","95.63","","","","-25","","NA"
"-102.97","49.21","ESTEVAN A","4012403","2018-01-05 04:00","2018","01","05","04:00","-16.0","","-18.6","","81","","","M","11","","20","","","M","95.65","","","","-25","","NA"
"-102.97","49.21","ESTEVAN A","4012403","2018-01-05 05:00","2018","01","05","05:00","-16.5","","-18.9","","82","","","M","10","","15","","","M","95.68","","","","-25","","NA"
"-102.97","49.21","ESTEVAN A","4012403","2018-01-05 06:00","2018","01","05","06:00","-16.1","","-18.6","","81","","","M","11","","22","","","M","95.66","","","","-26","","NA"
"-102.97","49.21","ESTEVAN A","4012403","2018-01-05 07:00","2018","01","05","07:00","-16.0","","-18.6","","81","","","M","11","","27","","","M","95.68","","","","-27","","NA"
"-102.97","49.21","ESTEVAN A","4012403","2018-01-05 08:00","2018","01","05","08:00","-15.8","","-18.4","","80","","","M","11","","24","","","M","95.68","","","","-26","","NA"
"-102.97","49.21","ESTEVAN A","4012403","2018-01-05 09:00","2018","01","05","09:00","-16.0","","-18.6","","80","","","M","11","","20","","","M","95.65","","","","-25","","NA"
"-102.97","49.21","ESTEVAN A","4012403","2018-01-05 10:00","2018","01","05","10:00","-15.7","","-18.5","","79","","","M","11","","20","","","M","95.66","","","","-25","","NA"
"-102.97","49.21","ESTEVAN A","4012403","2018-01-05 11:00","2018","01","05","11:00","-14.5","","-17.5","","78","","","M","12","","16","","","M","95.73","","","","-23","","NA"
"-102.97","49.21","ESTEVAN A","4012403","2018-01-05 12:00","2018","01","05","12:00","-13.8","","-16.7","","79","","","M","12","","23","","","M","95.71","","","","-23","","NA"
"-102.97","49.21","ESTEVAN A","4012403","2018-01-05 13:00","2018","01","05","13:00","-13.0","","-15.9","","79","","","M","12","","21","","","M","95.62","","","","-22","","NA"
"-102.97","49.21","ESTEVAN A","4012403","2018-01-05 14:00","2018","01","05","14:00","-12.3","","-15.2","","80","","","M","11","","22","","","M","95.58","","","","-21","","NA"
"-102.97","49.21","ESTEVAN A","4012403","2018-01-05 15:00","2018","01","05","15:00","-11.8","","-14.5","","80","","","M","11","","17","","","M","95.57","","","","-19","","NA"
"-102.97","49.21","ESTEVAN A","4012403","2018-01-05 16:00","2018","01","05","16:00","-11.6","","-14.1","","82","","","M","11","","21","","","M","95.58","","","","-20","","NA"
"-102.97","49.21","ESTEVAN A","4012403","2018-01-05 17:00","2018","01","05","17:00","-11.2","","-13.3","","84","","","M","13","","20","","","M","95.51","","","","-19","","NA"
"-102.97","49.21","ESTEVAN A","4012403","2018-01-05 18:00","2018","01","05","18:00","-11.1","","-13.3","","84","","","M","13","","18","","","M","95.51","","","","-19","","NA"
"-102.97","49.21","ESTEVAN A","4012403","2018-01-05 19:00","2018","01","05","19:00","-10.9","","-13.1","","84","","","M","13","","19","","","M","95.47","","","","-19","","NA"
"-102.97","49.21","ESTEVAN A","4012403","2018-01-05 20:00","2018","01","05","20:00","-10.7","","-12.6","","86","","","M","13","","18","","","M","95.37","","","","-18","","NA"
"-102.97","49.21","ESTEVAN A","4012403","2018-01-05 21:00","2018","01","05","21:00","-10.2","","-12.3","","85","","","M","15","","22","","","M","95.30","","","","-18","","NA"
"-102.97","49.21","ESTEVAN A","4012403","2018-01-05 22:00","2018","01","05","22:00","-10.2","","-12.4","","84","","","M","14","","18","","","M","95.25","","","","-18","","NA"
"-102.97","49.21","ESTEVAN A","4012403","2018-01-05 23:00","2018","01","05","23:00","-10.1","","-12.1","","85","","","M","14","","18","","","M","95.19","","","","-18","","NA"
"-102.97","49.21","ESTEVAN A","4012403","2018-01-06 00:00","2018","01","06","00:00","-10.1","","-12.1","","85","","","M","14","","15","","","M","95.10","","","","-17","","NA"
"-102.97","49.21","ESTEVAN A","4012403","2018-01-06 01:00","2018","01","06","01:00","-10.3","","-12.4","","85","","","M","14","","17","","","M","94.96","","","","-18","","NA"
"-102.97","49.21","ESTEVAN A","4012403","2018-01-06 02:00","2018","01","06","02:00","-10.2","","-12.4","","84","","","M","14","","17","","","M","94.88","","","","-17","","NA"
"-102.97","49.21","ESTEVAN A","4012403","2018-01-06 03:00","2018","01","06","03:00","-10.0","","-12.3","","83","","","M","14","","15","","","M","94.79","","","","-17","","NA"
"-102.97","49.21","ESTEVAN A","4012403","2018-01-06 04:00","2018","01","06","04:00","-9.5","","-12.0","","82","","","M","15","","20","","","M","94.66","","","","-17","","NA"
"-102.97","49.21","ESTEVAN A","4012403","2018-01-06 05:00","2018","01","06","05:00","-10.1","","-12.3","","84","","","M","16","","16","","","M","94.55","","","","-17","","NA"
"-102.97","49.21","ESTEVAN A","4012403","2018-01-06 06:00","2018","01","06","06:00","-10.9","","-12.9","","85","","","M","15","","15","","","M","94.37","","","","-18","","NA"
"-102.97","49.21","ESTEVAN A","4012403","2018-01-06 07:00","2018","01","06","07:00","-9.4","","-11.7","","84","","","M","15","","12","","","M","94.25","","","","-15","","NA"
"-102.97","49.21","ESTEVAN A","4012403","2018-01-06 08:00","2018","01","06","08:00","-8.9","","-11.1","","84","","","M","14","","9","","","M","94.15","","","","-14","","NA"
"-102.97","49.21","ESTEVAN A","4012403","2018-01-06 09:00","2018","01","06","09:00","-7.8","","-10.0","","84","","","M","18","","14","","","M","94.02","","","","-14","","NA"
"-102.97","49.21","ESTEVAN A","4012403","2018-01-06 10:00","2018","01","06","10:00","-6.0","","-9.1","","79","","","M","20","","21","","","M","93.95","","","","-13","","NA"
"-102.97","49.21","ESTEVAN A","4012403","2018-01-06 11:00","2018","01","06","11:00","-4.8","","-8.4","","76","","","M","22","","17","","","M","93.91","","","","-11","","NA"
"-102.97","49.21","ESTEVAN A","4012403","2018-01-06 12:00","2018","01","06","12:00","-2.7","","-6.6","","74","","","M","22","","20","","","M","93.79","","","","-9","","NA"
"-102.97","49.21","ESTEVAN A","4012403","2018-01-06 13:00","2018","01","06","13:00","-2.9","","-5.9","","79","","","M","23","","27","","","M","93.67","","","","-10","","NA"
"-102.97","49.21","ESTEVAN A","4012403","2018-01-06 14:00","2018","01","06","14:00","1.1","","-3.1","","74","","","M","24","","22","","","M","93.58","","","","","","NA"
"-102.97","49.21","ESTEVAN A","4012403","2018-01-06 15:00","2018","01","06","15:00","1.7","","-2.2","","75","","","M","23","","23","","","M","93.53","","","","","","NA"
"-102.97","49.21","ESTEVAN A","4012403","2018-01-06 16:00","2018","01","06","16:00","1.1","","-2.5","","77","","","M","24","","26","","","M","93.51","","","","","","NA"
"-102.97","49.21","ESTEVAN A","4012403","2018-01-06 17:00","2018","01","06","17:00","0.6","","-2.0","","82","","","M","24","","18","","","M","93.48","","","","","","NA"
"-102.97","49.21","ESTEVAN A","4012403","2018-01-06 18:00","2018","01","06","18:00","-1.1","","-3.2","","86","","","M","22","","20","","","M","93.48","","","","-7","","NA"
"-102.97","49.21","ESTEVAN A","4012403","2018-01-06 19:00","2018","01","06","19:00","-1.6","","-3.5","","87","","","M","23","","22","","","M","93.47","","","","-8","","NA"
"-102.97","49.21","ESTEVAN A","4012403","2018-01-06 20:00","2018","01","06","20:00","-2.0","","-3.5","","89","","","M","23","","21","","","M","93.47","","","","-8","","NA"
"-102.97","49.21","ESTEVAN A","4012403","2018-01-06 21:00","2018","01","06","21:00","-2.9","","-4.2","","91","","","M","25","","19","","","M","93.49","","","","-9","","NA"
"-102.97","49.21","ESTEVAN A","4012403","2018-01-06 22:00","2018","01","06","22:00","-1.1","","-3.3","","85","","","M","27","","25","","","M","93.54","","","","-7","","NA"
"-102.97","49.21","ESTEVAN A","4012403","2018-01-06 23:00","2018","01","06","23:00","-0.2","","-2.1","","87","","","M","29","","23","","","M","93.55","","","","-6","","NA"
"-102.97","49.21","ESTEVAN A","4012403","2018-01-07 00:00","2018","01","07","00:00","-1.2","","-3.2","","86","","","M","29","","25","","","M","93.61","","","","-7","","NA"
"-102.97","49.21","ESTEVAN A","4012403","2018-01-07 01:00","2018","01","07","01:00","-1.8","","-4.5","","82","","","M","30","","30","","","M","93.68","","","","-9","","NA"
"-102.97","49.21","ESTEVAN A","4012403","2018-01-07 02:00","2018","01","07","02:00","-2.0","","-4.5","","83","","","M","30","","35","","","M","93.79","","","","-10","","NA"
"-102.97","49.21","ESTEVAN A","4012403","2018-01-07 03:00","2018","01","07","03:00","-2.1","","-3.7","","88","","","M","30","","29","","","M","93.86","","","","-9","","NA"
"-102.97","49.21","ESTEVAN A","4012403","2018-01-07 04:00","2018","01","07","04:00","-3.1","","-4.7","","89","","","M","28","","20","","","M","93.93","","","","-9","","NA"
"-102.97","49.21","ESTEVAN A","4012403","2018-01-07 05:00","2018","01","07","05:00","-3.3","","-5.3","","86","","","M","30","","31","","","M","93.98","","","","-11","","NA"
"-102.97","49.21","ESTEVAN A","4012403","2018-01-07 06:00","2018","01","07","06:00","-2.4","","-5.1","","81","","","M","29","","29","","","M","94.01","","","","-9","","NA"
"-102.97","49.21","ESTEVAN A","4012403","2018-01-07 07:00","2018","01","07","07:00","-2.0","","-5.1","","79","","","M","29","","29","","","M","94.08","","","","-9","","NA"
"-102.97","49.21","ESTEVAN A","4012403","2018-01-07 08:00","2018","01","07","08:00","-2.2","","-5.5","","78","","","M","29","","28","","","M","94.10","","","","-9","","NA"
"-102.97","49.21","ESTEVAN A","4012403","2018-01-07 09:00","2018","01","07","09:00","-3.8","","-6.2","","83","","","M","28","","21","","","M","94.12","","","","-10","","NA"
"-102.97","49.21","ESTEVAN A","4012403","2018-01-07 10:00","2018","01","07","10:00","-2.6","","-5.8","","78","","","M","27","","24","","","M","94.20","","","","-9","","NA"
"-102.97","49.21","ESTEVAN A","4012403","2018-01-07 11:00","2018","01","07","11:00","-1.4","","-5.0","","76","","","M","26","","24","","","M","94.22","","","","-8","","NA"
"-102.97","49.21","ESTEVAN A","4012403","2018-01-07 12:00","2018","01","07","12:00","0.1","","-4.9","","69","","","M","27","","25","","","M","94.22","","","","","","NA"
"-102.97","49.21","ESTEVAN A","4012403","2018-01-07 13:00","2018","01","07","13:00","2.0","","-4.9","","60","","","M","26","","25","","","M","94.15","","","","","","NA"
"-102.97","49.21","ESTEVAN A","4012403","2018-01-07 14:00","2018","01","07","14:00","2.3","","-4.4","","61","","","M","25","","23","","","M","94.10","","","","","","NA"
"-102.97","49.21","ESTEVAN A","4012403","2018-01-07 15:00","2018","01","07","15:00","2.7","","-4.9","","58","","","M","25","","23","","","M","94.08","","","","","","NA"
"-102.97","49.21","ESTEVAN A","4012403","2018-01-07 16:00","2018","01","07","16:00","1.0","","-4.2","","68","","","M","24","","23","","","M","94.10","","","","","","NA"
"-102.97","49.21","ESTEVAN A","4012403","2018-01-07 17:00","2018","01","07","17:00","-0.1","","-4.1","","75","","","M","25","","22","","","M","94.11","","","","-6","","NA"
"-102.97","49.21","ESTEVAN A","4012403","2018-01-07 18:00","2018","01","07","18:00","-1.3","","-4.7","","78","","","M","25","","24","","","M","94.14","","","","-7","","NA"
"-102.97","49.21","ESTEVAN A","4012403","2018-01-07 19:00","2018","01","07","19:00","-1.5","","-5.0","","77","","","M","26","","24","","","M","94.17","","","","-8","","NA"
"-102.97","49.21","ESTEVAN A","4012403","2018-01-07 20:00","2018","01","07","20:00","-2.4","","-5.9","","77","","","M","27","","23","","","M","94.20","","","","-9","","NA"
"-102.97","49.21","ESTEVAN A","4012403","2018-01-07 21:00","2018","01","07","21:00","-3.2","","-6.4","","78","","","M","28","","26","","","M","94.21","","","","-10","","NA"
"-102.97","49.21","ESTEVAN A","4012403","2018-01-07 22:00","2018","01","07","22:00","-5.7","","-7.8","","85","","","M","26","","21","","","M","94.25","","","","-13","","NA"
"-102.97","49.21","ESTEVAN A","4012403","2018-01-07 23:00","2018","01","07","23:00","-5.3","","-8.2","","80","","","M","27","","20","","","M","94.27","","","","-12","","NA"
"-102.97","49.21","ESTEVAN A","4012403","2018-01-08 00:00","2018","01","08","00:00","-5.6","","-8.5","","80","","","M","28","","19","","","M","94.35","","","","-12","","NA"
"-102.97","49.21","ESTEVAN A","4012403","2018-01-08 01:00","2018","01","08","01:00","-6.2","","-9.0","","81","","","M","29","","18","","","M","94.31","","","","-13","","NA"
"-102.97","49.21","ESTEVAN A","4012403","2018-01-08 02:00","2018","01","08","02:00","-6.7","","-9.1","","83","","","M","27","","16","","","M","94.36","","","","-13","","NA"
"-102.97","49.21","ESTEVAN A","4012403","2018-01-08 03:00","2018","01","08","03:00","-7.0","","-9.5","","83","","","M","27","","16","","","M","94.37","","","","-13","","NA"
"-102.97","49.21","ESTEVAN A","4012403","2018-01-08 04:00","2018","01","08","04:00","-9.4","","-11.3","","86","","","M","25","","12","","","M","94.37","","","","-15","","NA"
"-102.97","49.21","ESTEVAN A","4012403","2018-01-08 05:00","2018","01","08","05:00","-10.9","","-12.7","","87","","","M","23","","10","","","M","94.34","","","","-16","","NA"
"-102.97","49.21","ESTEVAN A","4012403","2018-01-08 06:00","2018","01","08","06:00","-10.4","","-12.1","","87","","","M","23","","12","","","M","94.35","","","","-16","","NA"
"-102.97","49.21","ESTEVAN A","4012403","2018-01-08 07:00","2018","01","08","07:00","-9.6","","-11.5","","86","","","M","23","","3","","","M","94.37","","","","-11","","NA"
"-102.97","49.21","ESTEVAN A","4012403","2018-01-08 08:00","2018","01","08","08:00","-8.4","","-10.6","","85","","","M","16","","7","","","M","94.34","","","","-12","","NA"
"-102.97","49.21","ESTEVAN A","4012403","2018-01-08 09:00","2018","01","08","09:00","-7.8","","-9.6","","87","","","M","8","","5","","","M","94.34","","","","-10","","NA"
"-102.97","49.21","ESTEVAN A","4012403","2018-01-08 10:00","2018","01","08","10:00","-6.2","","-8.5","","84","","","M","8","","7","","","M","94.38","","","","-10","","NA"
"-102.97","49.21","ESTEVAN A","4012403","2018-01-08 11:00","2018","01","08","11:00","-4.7","","-7.5","","81","","","M","17","","8","","","M","94.39","","","","-8","","NA"
"-102.97","49.21","ESTEVAN A","4012403","2018-01-08 12:00","2018","01","08","12:00","-3.0","","-6.5","","77","","","M","17","","10","","","M","94.38","","","","-7","","NA"
"-102.97","49.21","ESTEVAN A","4012403","2018-01-08 13:00","2018","01","08","13:00","-1.2","","-5.9","","70","","","M","9","","15","","","M","94.23","","","","-6","","NA"
"-102.97","49.21","ESTEVAN A","4012403","2018-01-08 14:00","2018","01","08","14:00","-1.6","","-5.6","","74","","","M","9","","13","","","M","94.19","","","","-6","","NA"
"-102.97","49.21","ESTEVAN A","4012403","2018-01-08 15:00","2018","01","08","15:00","-0.2","","-4.8","","71","","","M","10","","17","","","M","94.18","","","","-5","","NA"
"-102.97","49.21","ESTEVAN A","4012403","2018-01-08 16:00","2018","01","08","16:00","-1.0","","-4.8","","76","","","M","9","","14","","","M","94.19","","","","-5","","NA"
"-102.97","49.21","ESTEVAN A","4012403","2018-01-08 17:00","2018","01","08","17:00","-3.1","","-5.8","","81","","","M","9","","16","","","M","94.24","","","","-8","","NA"
"-102.97","49.21","ESTEVAN A","4012403","2018-01-08 18:00","2018","01","08","18:00","-4.7","","-6.7","","86","","","M","11","","18","","","M","94.22","","","","-11","","NA"
"-102.97","49.21","ESTEVAN A","4012403","2018-01-08 19:00","2018","01","08","19:00","-6.4","","-7.9","","89","","","M","11","","18","","","M","94.23","","","","-13","","NA"
"-102.97","49.21","ESTEVAN A","4012403","2018-01-08 20:00","2018","01","08","20:00","-7.8","","-9.1","","91","","","M","10","","14","","","M","94.23","","","","-14","","NA"
"-102.97","49.21","ESTEVAN A","4012403","2018-01-08 21:00","2018","01","08","21:00","-8.8","","-10.0","","91","","","M","9","","14","","","M","94.20","","","","-15","","NA"
"-102.97","49.21","ESTEVAN A","4012403","2018-01-08 22:00","2018","01","08","22:00","-9.6","","-10.8","","91","","","M","11","","12","","","M","94.19","","","","-15","","NA"
"-102.97","49.21","ESTEVAN A","4012403","2018-01-08 23:00","2018","01","08","23:00","-9.9","","-11.1","","91","","","M","12","","13","","","M","94.12","","","","-16","","NA"
"-102.97","49.21","ESTEVAN A","4012403","2018-01-09 00:00","2018","01","09","00:00","-11.2","","-12.8","","89","","","M","7","","8","","","M","94.13","","","","-16","","NA"
"-102.97","49.21","ESTEVAN A","4012403","2018-01-09 01:00","2018","01","09","01:00","-10.8","","-12.1","","90","","","M","8","","11","","","M","94.11","","","","-17","","NA"
"-102.97","49.21","ESTEVAN A","4012403","2018-01-09 02:00","2018","01","09","02:00","-10.4","","-12.0","","89","","","M","7","","10","","","M","94.09","","","","-16","","NA"
"-102.97","49.21","ESTEVAN A","4012403","2018-01-09 03:00","2018","01","09","03:00","-10.6","","-12.1","","89","","","M","10","","10","","","M","94.05","","","","-16","","NA"
"-102.97","49.21","ESTEVAN A","4012403","2018-01-09 04:00","2018","01","09","04:00","-11.0","","-12.5","","89","","","M","10","","12","","","M","94.02","","","","-17","","NA"
"-102.97","49.21","ESTEVAN A","4012403","2018-01-09 05:00","2018","01","09","05:00","-11.2","","-12.7","","89","","","M","10","","11","","","M","93.96","","","","-17","","NA"
"-102.97","49.21","ESTEVAN A","4012403","2018-01-09 06:00","2018","01","09","06:00","-11.2","","-12.7","","89","","","M","9","","10","","","M","93.94","","","","-17","","NA"
"-102.97","49.21","ESTEVAN A","4012403","2018-01-09 07:00","2018","01","09","07:00","-11.6","","-13.1","","89","","","M","8","","8","","","M","93.87","","","","-16","","NA"
"-102.97","49.21","ESTEVAN A","4012403","2018-01-09 08:00","2018","01","09","08:00","-10.8","","-12.2","","90","","","M","11","","10","","","M","93.82","","","","-16","","NA"
"-102.97","49.21","ESTEVAN A","4012403","2018-01-09 09:00","2018","01","09","09:00"
"-102.97","49.21","ESTEVAN A","4012403","2018-01-09 10:00","2018","01","09","10:00"
"-102.97","49.21","ESTEVAN A","4012403","2018-01-09 11:00","2018","01","09","11:00"
"-102.97","49.21","ESTEVAN A","4012403","2018-01-09 12:00","2018","01","09","12:00"
"-102.97","49.21","ESTEVAN A","4012403","2018-01-09 13:00","2018","01","09","13:00"
"-102.97","49.21","ESTEVAN A","4012403","2018-01-09 14:00","2018","01","09","14:00","0.8","","-2.2","","80","","","M","10","","9","","","M","93.21","","","","","","NA"
"-102.97","49.21","ESTEVAN A","4012403","2018-01-09 15:00","2018","01","09","15:00","2.0","","-1.2","","80","","","M","11","","10","","","M","93.13","","","","","","NA"
"-102.97","49.21","ESTEVAN A","4012403","2018-01-09 16:00","2018","01","09","16:00","1.8","","-0.7","","83","","","M","14","","5","","","M","93.10","","","","","","NA"
"-102.97","49.21","ESTEVAN A","4012403","2018-01-09 17:00","2018","01","09","17:00","1.9","","-0.8","","82","","","M","12","","9","","","M","93.04","","","","","","NA"
"-102.97","49.21","ESTEVAN A","4012403","2018-01-09 18:00","2018","01","09","18:00","1.8","","-0.9","","83","","","M","10","","8","","","M","92.90","","","","","","NA"
"-102.97","49.21","ESTEVAN A","4012403","2018-01-09 19:00","2018","01","09","19:00","0.6","","-1.0","","89","","","M","34","","5","","","M","92.85","","","","","","NA"
"-102.97","49.21","ESTEVAN A","4012403","2018-01-09 20:00","2018","01","09","20:00","-0.5","","-1.4","","94","","","M","5","","2","","","M","92.82","","","","-1","","NA"
"-102.97","49.21","ESTEVAN A","4012403","2018-01-09 21:00","2018","01","09","21:00","-0.6","","-1.5","","93","","","M","19","","3","","","M","92.79","","","","-2","","NA"
"-102.97","49.21","ESTEVAN A","4012403","2018-01-09 22:00","2018","01","09","22:00","-0.5","","-1.7","","92","","","M","17","","7","","","M","92.70","","","","-3","","NA"
"-102.97","49.21","ESTEVAN A","4012403","2018-01-09 23:00","2018","01","09","23:00","-0.3","","-1.8","","90","","","M","22","","7","","","M","92.70","","","","-3","","NA"
"-102.97","49.21","ESTEVAN A","4012403","2018-01-10 00:00","2018","01","10","00:00","0.6","","-1.4","","86","","","M","28","","21","","","M","92.76","","","","","","NA"
"-102.97","49.21","ESTEVAN A","4012403","2018-01-10 01:00","2018","01","10","01:00","1.0","","-1.1","","86","","","M","31","","33","","","M","92.83","","","","","","NA"
"-102.97","49.21","ESTEVAN A","4012403","2018-01-10 02:00","2018","01","10","02:00","-2.6","","-4.8","","85","","","M","31","","45","","","M","92.94","","","","-11","","NA"
"-102.97","49.21","ESTEVAN A","4012403","2018-01-10 03:00","2018","01","10","03:00","-5.9","","-7.8","","86","","","M","31","","55","","","M","93.09","","","","-17","","NA"
"-102.97","49.21","ESTEVAN A","4012403","2018-01-10 04:00","2018","01","10","04:00","-9.2","","-12.1","","79","","","M","31","","54","","","M","93.21","","","","-21","","NA"
"-102.97","49.21","ESTEVAN A","4012403","2018-01-10 05:00","2018","01","10","05:00","-11.2","","-14.2","","78","","","M","31","","37","","","M","93.36","","","","-22","","NA"
"-102.97","49.21","ESTEVAN A","4012403","2018-01-10 06:00","2018","01","10","06:00","-12.6","","-16.1","","75","","","M","32","","37","","","M","93.45","","","","-24","","NA"
"-102.97","49.21","ESTEVAN A","4012403","2018-01-10 07:00","2018","01","10","07:00","-13.6","","-17.2","","74","","","M","32","","40","","","M","93.55","","","","-26","","NA"
"-102.97","49.21","ESTEVAN A","4012403","2018-01-10 08:00","2018","01","10","08:00","-14.9","","-19.0","","72","","","M","33","","39","","","M","93.66","","","","-27","","NA"
"-102.97","49.21","ESTEVAN A","4012403","2018-01-10 09:00","2018","01","10","09:00","-16.0","","-20.1","","71","","","M","32","","39","","","M","93.76","","","","-29","","NA"
"-102.97","49.21","ESTEVAN A","4012403","2018-01-10 10:00","2018","01","10","10:00","-16.1","","-20.1","","71","","","M","33","","35","","","M","93.87","","","","-28","","NA"
"-102.97","49.21","ESTEVAN A","4012403","2018-01-10 11:00","2018","01","10","11:00","-15.8","","-20.1","","70","","","M","32","","40","","","M","94.00","","","","-29","","NA"
"-102.97","49.21","ESTEVAN A","4012403","2018-01-10 12:00","2018","01","10","12:00","-16.3","","-19.8","","75","","","M","33","","34","","","M","94.04","","","","-28","","NA"
"-102.97","49.21","ESTEVAN A","4012403","2018-01-10 13:00","2018","01","10","13:00","-16.7","","-20.3","","74","","","M","32","","36","","","M","94.07","","","","-29","","NA"
"-102.97","49.21","ESTEVAN A","4012403","2018-01-10 14:00","2018","01","10","14:00","-17.1","","-20.6","","74","","","M","32","","37","","","M","94.17","","","","-30","","NA"
"-102.97","49.21","ESTEVAN A","4012403","2018-01-10 15:00","2018","01","10","15:00","-17.2","","-22.0","","67","","","M","33","","36","","","M","94.24","","","","-30","","NA"
"-102.97","49.21","ESTEVAN A","4012403","2018-01-10 16:00","2018","01","10","16:00","-18.1","","-22.2","","71","","","M","32","","35","","","M","94.41","","","","-31","","NA"
"-102.97","49.21","ESTEVAN A","4012403","2018-01-10 17:00","2018","01","10","17:00","-18.5","","-22.3","","73","","","M","33","","39","","","M","94.50","","","","-32","","NA"
"-102.97","49.21","ESTEVAN A","4012403","2018-01-10 18:00","2018","01","10","18:00","-18.8","","-22.4","","73","","","M","33","","35","","","M","94.65","","","","-32","","NA"
"-102.97","49.21","ESTEVAN A","4012403","2018-01-10 19:00","2018","01","10","19:00","-18.9","","-22.5","","73","","","M","34","","34","","","M","94.74","","","","-32","","NA"
"-102.97","49.21","ESTEVAN A","4012403","2018-01-10 20:00","2018","01","10","20:00","-19.2","","-22.9","","73","","","M","34","","26","","","M","94.84","","","","-31","","NA"
"-102.97","49.21","ESTEVAN A","4012403","2018-01-10 21:00","2018","01","10","21:00","-19.6","","-23.2","","73","","","M","34","","32","","","M","94.95","","","","-32","","NA"
"-102.97","49.21","ESTEVAN A","4012403","2018-01-10 22:00","2018","01","10","22:00","-19.8","","-23.3","","74","","","M","33","","35","","","M","95.03","","","","-33","","NA"
"-102.97","49.21","ESTEVAN A","4012403","2018-01-10 23:00","2018","01","10","23:00","-20.2","","-23.9","","73","","","M","33","","28","","","M","95.12","","","","-32","","NA"
"-102.97","49.21","ESTEVAN A","4012403","2018-01-11 00:00","2018","01","11","00:00","-21.5","","-25.7","","69","","","M","33","","28","","","M","95.22","","","","-34","","NA"
"-102.97","49.21","ESTEVAN A","4012403","2018-01-11 01:00","2018","01","11","01:00","-22.8","","-26.6","","72","","","M","32","","25","","","M","95.31","","","","-35","","NA"
"-102.97","49.21","ESTEVAN A","4012403","2018-01-11 02:00","2018","01","11","02:00","-24.0","","-27.5","","73","","","M","32","","22","","","M","95.37","","","","-36","","NA"
"-102.97","49.21","ESTEVAN A","4012403","2018-01-11 03:00","2018","01","11","03:00","-24.8","","-28.4","","73","","","M","31","","21","","","M","95.45","","","","-37","","NA"
"-102.97","49.21","ESTEVAN A","4012403","2018-01-11 04:00","2018","01","11","04:00","-24.6","","-28.1","","73","","","M","32","","29","","","M","95.53","","","","-38","","NA"
"-102.97","49.21","ESTEVAN A","4012403","2018-01-11 05:00","2018","01","11","05:00","-24.6","","-28.2","","72","","","M","32","","24","","","M","95.61","","","","-37","","NA"
"-102.97","49.21","ESTEVAN A","4012403","2018-01-11 06:00","2018","01","11","06:00","-24.4","","-28.2","","72","","","M","32","","20","","","M","95.69","","","","-36","","NA"
"-102.97","49.21","ESTEVAN A","4012403","2018-01-11 07:00","2018","01","11","07:00","-24.4","","-28.2","","71","","","M","31","","20","","","M","95.74","","","","-36","","NA"
"-102.97","49.21","ESTEVAN A","4012403","2018-01-11 08:00","2018","01","11","08:00","-23.8","","-27.5","","73","","","M","30","","15","","","M","95.84","","","","-34","","NA"
"-102.97","49.21","ESTEVAN A","4012403","2018-01-11 09:00","2018","01","11","09:00","-23.0","","-26.6","","73","","","M","30","","17","","","M","95.88","","","","-33","","NA"
"-102.97","49.21","ESTEVAN A","4012403","2018-01-11 10:00","2018","01","11","10:00","-22.2","","-26.6","","68","","","M","31","","21","","","M","95.99","","","","-34","","NA"
"-102.97","49.21","ESTEVAN A","4012403","2018-01-11 11:00","2018","01","11","11:00","-22.0","","-26.9","","65","","","M","31","","25","","","M","96.02","","","","-34","","NA"
"-102.97","49.21","ESTEVAN A","4012403","2018-01-11 12:00","2018","01","11","12:00","-21.8","","-27.1","","63","","","M","32","","28","","","M","96.01","","","","-35","","NA"
"-102.97","49.21","ESTEVAN A","4012403","2018-01-11 13:00","2018","01","11","13:00","-22.0","","-27.3","","63","","","M","31","","23","","","M","95.96","","","","-34","","NA"
"-102.97","49.21","ESTEVAN A","4012403","2018-01-11 14:00","2018","01","11","14:00","-22.3","","-27.8","","62","","","M","30","","25","","","M","95.98","","","","-35","","NA"
"-102.97","49.21","ESTEVAN A","4012403","2018-01-11 15:00","2018","01","11","15:00","-22.4","","-28.0","","61","","","M","31","","21","","","M","95.95","","","","-34","","NA"
"-102.97","49.21","ESTEVAN A","4012403","2018-01-11 16:00","2018","01","11","16:00","-22.7","","-28.2","","62","","","M","31","","19","","","M","95.94","","","","-34","","NA"
"-102.97","49.21","ESTEVAN A","4012403","2018-01-11 17:00","2018","01","11","17:00","-24.4","","-29.1","","66","","","M","29","","12","","","M","95.94","","","","-33","","NA"
"-102.97","49.21","ESTEVAN A","4012403","2018-01-11 18:00","2018","01","11","18:00","-27.0","","-30.8","","71","","","M","27","","9","","","M","95.95","","","","-35","","NA"
"-102.97","49.21","ESTEVAN A","4012403","2018-01-11 19:00","2018","01","11","19:00","-29.0","","-32.4","","73","","","M","25","","7","","","M","95.94","","","","-36","","NA"
"-102.97","49.21","ESTEVAN A","4012403","2018-01-11 20:00","2018","01","11","20:00","-29.0","","-32.3","","74","","","M","28","","10","","","M","95.95","","","","-38","","NA"
"-102.97","49.21","ESTEVAN A","4012403","2018-01-11 21:00","2018","01","11","21:00","-29.2","","-32.4","","75","","","M","26","","7","","","M","95.94","","","","-36","","NA"
"-102.97","49.21","ESTEVAN A","4012403","2018-01-11 22:00","2018","01","11","22:00","-30.0","","-33.3","","73","","","M","26","","8","","","M","95.91","","","","-38","","NA"
"-102.97","49.21","ESTEVAN A","4012403","2018-01-11 23:00","2018","01","11","23:00","-29.6","","-32.7","","75","","","M","26","","10","","","M","95.95","","","","-39","","NA"
"-102.97","49.21","ESTEVAN A","4012403","2018-01-12 00:00","2018","01","12","00:00","-30.7","","-33.8","","75","","","M","26","","9","","","M","95.94","","","","-39","","NA"
"-102.97","49.21","ESTEVAN A","4012403","2018-01-12 01:00","2018","01","12","01:00","-30.9","","-34.1","","74","","","M","25","","5","","","M","95.94","","","","-37","","NA"
"-102.97","49.21","ESTEVAN A","4012403","2018-01-12 02:00","2018","01","12","02:00","-32.0","","-35.4","","73","","","M","27","","4","","","M","95.97","","","","-37","","NA"
"-102.97","49.21","ESTEVAN A","4012403","2018-01-12 03:00","2018","01","12","03:00","-31.8","","-35.2","","72","","","M","32","","9","","","M","96.01","","","","-41","","NA"
"-102.97","49.21","ESTEVAN A","4012403","2018-01-12 04:00","2018","01","12","04:00","-31.6","","-35.0","","73","","","M","30","","7","","","M","96.06","","","","-39","","NA"
"-102.97","49.21","ESTEVAN A","4012403","2018-01-12 05:00","2018","01","12","05:00","-32.8","","-36.3","","72","","","M","27","","6","","","M","96.06","","","","-40","","NA"
"-102.97","49.21","ESTEVAN A","4012403","2018-01-12 06:00","2018","01","12","06:00","-32.9","","-36.5","","71","","","M","27","","7","","","M","96.09","","","","-41","","NA"
"-102.97","49.21","ESTEVAN A","4012403","2018-01-12 07:00","2018","01","12","07:00","-33.1","","-36.7","","71","","","M","28","","11","","","M","96.17","","","","-43","","NA"
"-102.97","49.21","ESTEVAN A","4012403","2018-01-12 08:00","2018","01","12","08:00","-33.0","","-36.5","","71","","","M","26","","10","","","M","96.23","","","","-43","","NA"
"-102.97","49.21","ESTEVAN A","4012403","2018-01-12 09:00","2018","01","12","09:00","-33.0","","-36.6","","71","","","M","26","","14","","","M","96.31","","","","-45","","NA"
"-102.97","49.21","ESTEVAN A","4012403","2018-01-12 10:00","2018","01","12","10:00","-30.6","","-34.2","","72","","","M","27","","9","","","M","96.45","","","","-39","","NA"
"-102.97","49.21","ESTEVAN A","4012403","2018-01-12 11:00","2018","01","12","11:00","-27.1","","-30.5","","74","","","M","28","","8","","","M","96.52","","","","-35","","NA"
"-102.97","49.21","ESTEVAN A","4012403","2018-01-12 12:00","2018","01","12","12:00","-24.8","","-28.2","","74","","","M","27","","10","","","M","96.57","","","","-33","","NA"
"-102.97","49.21","ESTEVAN A","4012403","2018-01-12 13:00","2018","01","12","13:00","-23.2","","-26.8","","73","","","M","29","","17","","","M","96.55","","","","-34","","NA"
"-102.97","49.21","ESTEVAN A","4012403","2018-01-12 14:00","2018","01","12","14:00","-22.5","","-26.6","","70","","","M","28","","17","","","M","96.56","","","","-33","","NA"
"-102.97","49.21","ESTEVAN A","4012403","2018-01-12 15:00","2018","01","12","15:00","-21.6","","-27.4","","60","","","M","28","","13","","","M","96.57","","","","-30","","NA"
"-102.97","49.21","ESTEVAN A","4012403","2018-01-12 16:00","2018","01","12","16:00","-21.8","","-27.7","","60","","","M","30","","13","","","M","96.61","","","","-31","","NA"
"-102.97","49.21","ESTEVAN A","4012403","2018-01-12 17:00","2018","01","12","17:00","-24.0","","-28.8","","65","","","M","28","","13","","","M","96.63","","","","-33","","NA"
"-102.97","49.21","ESTEVAN A","4012403","2018-01-12 18:00","2018","01","12","18:00","-25.6","","-29.6","","70","","","M","25","","7","","","M","96.66","","","","-32","","NA"
"-102.97","49.21","ESTEVAN A","4012403","2018-01-12 19:00","2018","01","12","19:00","-27.2","","-30.6","","73","","","M","25","","10","","","M","96.70","","","","-36","","NA"
"-102.97","49.21","ESTEVAN A","4012403","2018-01-12 20:00","2018","01","12","20:00","-28.2","","-31.6","","73","","","M","26","","9","","","M","96.72","","","","-36","","NA"
"-102.97","49.21","ESTEVAN A","4012403","2018-01-12 21:00","2018","01","12","21:00","-30.4","","-33.7","","74","","","M","22","","11","","","M","96.72","","","","-40","","NA"
"-102.97","49.21","ESTEVAN A","4012403","2018-01-12 22:00","2018","01","12","22:00","-30.3","","-33.6","","74","","","M","24","","10","","","M","96.70","","","","-40","","NA"
"-102.97","49.21","ESTEVAN A","4012403","2018-01-12 23:00","2018","01","12","23:00","-30.9","","-34.2","","74","","","M","22","","8","","","M","96.64","","","","-39","","NA"
"-102.97","49.21","ESTEVAN A","4012403","2018-01-13 00:00","2018","01","13","00:00","-30.8","","-34.1","","73","","","M","20","","8","","","M","96.59","","","","-39","","NA"
"-102.97","49.21","ESTEVAN A","4012403","2018-01-13 01:00","2018","01","13","01:00","-30.9","","-34.2","","73","","","M","18","","4","","","M","96.53","","","","-35","","NA"
"-102.97","49.21","ESTEVAN A","4012403","2018-01-13 02:00","2018","01","13","02:00","-30.6","","-33.9","","73","","","M","15","","5","","","M","96.48","","","","-36","","NA"
"-102.97","49.21","ESTEVAN A","4012403","2018-01-13 03:00","2018","01","13","03:00","-33.0","","-36.1","","75","","","M","14","","7","","","M","96.45","","","","-41","","NA"
"-102.97","49.21","ESTEVAN A","4012403","2018-01-13 04:00","2018","01","13","04:00","-31.8","","-35.2","","72","","","M","15","","5","","","M","96.41","","","","-38","","NA"
"-102.97","49.21","ESTEVAN A","4012403","2018-01-13 05:00","2018","01","13","05:00","-30.9","","-34.5","","72","","","M","12","","9","","","M","96.33","","","","-40","","NA"
"-102.97","49.21","ESTEVAN A","4012403","2018-01-13 06:00","2018","01","13","06:00","-30.8","","-34.4","","71","","","M","10","","13","","","M","96.18","","","","-42","","NA"
"-102.97","49.21","ESTEVAN A","4012403","2018-01-13 07:00","2018","01","13","07:00","-30.6","","-34.3","","71","","","M","11","","10","","","M","96.14","","","","-40","","NA"
"-102.97","49.21","ESTEVAN A","4012403","2018-01-13 08:00","2018","01","13","08:00","-29.5","","-33.1","","72","","","M","9","","12","","","M","96.06","","","","-40","","NA"
"-102.97","49.21","ESTEVAN A","4012403","2018-01-13 09:00","2018","01","13","09:00","-29.1","","-32.6","","72","","","M","10","","13","","","M","95.98","","","","-39","","NA"
"-102.97","49.21","ESTEVAN A","4012403","2018-01-13 10:00","2018","01","13","10:00","-25.8","","-29.2","","74","","","M","12","","9","","","M","95.95","","","","-34","","NA"
"-102.97","49.21","ESTEVAN A","4012403","2018-01-13 11:00","2018","01","13","11:00","-22.3","","-25.4","","76","","","M","10","","11","","","M","95.92","","","","-30","","NA"
"-102.97","49.21","ESTEVAN A","4012403","2018-01-13 12:00","2018","01","13","12:00","-19.4","","-22.3","","78","","","M","14","","11","","","M","95.84","","","","-27","","NA"
"-102.97","49.21","ESTEVAN A","4012403","2018-01-13 13:00","2018","01","13","13:00","-18.2","","-21.6","","75","","","M","17","","11","","","M","95.71","","","","-25","","NA"
"-102.97","49.21","ESTEVAN A","4012403","2018-01-13 14:00","2018","01","13","14:00","-16.9","","-21.7","","66","","","M","15","","9","","","M","95.59","","","","-23","","NA"
"-102.97","49.21","ESTEVAN A","4012403","2018-01-13 15:00","2018","01","13","15:00","-16.2","","-20.9","","67","","","M","20","","9","","","M","95.56","","","","-22","","NA"
"-102.97","49.21","ESTEVAN A","4012403","2018-01-13 16:00","2018","01","13","16:00","-16.2","","-20.8","","68","","","M","21","","14","","","M","95.57","","","","-24","","NA"
"-102.97","49.21","ESTEVAN A","4012403","2018-01-13 17:00","2018","01","13","17:00","-16.8","","-21.1","","70","","","M","20","","14","","","M","95.56","","","","-25","","NA"
"-102.97","49.21","ESTEVAN A","4012403","2018-01-13 18:00","2018","01","13","18:00","-17.6","","-21.5","","72","","","M","23","","14","","","M","95.60","","","","-26","","NA"
"-102.97","49.21","ESTEVAN A","4012403","2018-01-13 19:00","2018","01","13","19:00","-20.9","","-24.1","","76","","","M","22","","13","","","M","95.59","","","","-30","","NA"
"-102.97","49.21","ESTEVAN A","4012403","2018-01-13 20:00","2018","01","13","20:00","-22.2","","-25.3","","76","","","M","21","","13","","","M","95.55","","","","-31","","NA"
"-102.97","49.21","ESTEVAN A","4012403","2018-01-13 21:00","2018","01","13","21:00","-22.5","","-25.6","","76","","","M","22","","16","","","M","95.47","","","","-32","","NA"
"-102.97","49.21","ESTEVAN A","4012403","2018-01-13 22:00","2018","01","13","22:00","-22.8","","-26.1","","75","","","M","22","","16","","","M","95.43","","","","-33","","NA"
"-102.97","49.21","ESTEVAN A","4012403","2018-01-13 23:00","2018","01","13","23:00","-22.2","","-25.4","","76","","","M","22","","19","","","M","95.28","","","","-33","","NA"
"-102.97","49.21","ESTEVAN A","4012403","2018-01-14 00:00","2018","01","14","00:00","-20.0","","-23.2","","76","","","M","22","","17","","","M","95.22","","","","-30","","NA"
"-102.97","49.21","ESTEVAN A","4012403","2018-01-14 01:00","2018","01","14","01:00","-17.2","","-20.4","","77","","","M","23","","19","","","M","95.12","","","","-27","","NA"
"-102.97","49.21","ESTEVAN A","4012403","2018-01-14 02:00","2018","01","14","02:00","-15.2","","-18.5","","76","","","M","22","","18","","","M","94.99","","","","-24","","NA"
"-102.97","49.21","ESTEVAN A","4012403","2018-01-14 03:00","2018","01","14","03:00","-11.9","","-15.4","","75","","","M","24","","17","","","M","94.96","","","","-20","","NA"
"-102.97","49.21","ESTEVAN A","4012403","2018-01-14 04:00","2018","01","14","04:00","-10.3","","-13.4","","78","","","M","26","","19","","","M","94.93","","","","-18","","NA"
"-102.97","49.21","ESTEVAN A","4012403","2018-01-14 05:00","2018","01","14","05:00","-6.5","","-9.7","","78","","","M","30","","37","","","M","94.95","","","","-16","","NA"
"-102.97","49.21","ESTEVAN A","4012403","2018-01-14 06:00","2018","01","14","06:00","-8.1","","-10.9","","80","","","M","31","","35","","","M","94.98","","","","-18","","NA"
"-102.97","49.21","ESTEVAN A","4012403","2018-01-14 07:00","2018","01","14","07:00","-9.2","","-11.9","","81","","","M","31","","32","","","M","95.04","","","","-19","","NA"
"-102.97","49.21","ESTEVAN A","4012403","2018-01-14 08:00","2018","01","14","08:00","-10.4","","-13.4","","79","","","M","31","","33","","","M","95.11","","","","-20","","NA"
"-102.97","49.21","ESTEVAN A","4012403","2018-01-14 09:00","2018","01","14","09:00","-13.2","","-16.4","","77","","","M","32","","29","","","M","95.25","","","","-24","","NA"
"-102.97","49.21","ESTEVAN A","4012403","2018-01-14 10:00","2018","01","14","10:00","-13.7","","-17.4","","74","","","M","32","","43","","","M","95.38","","","","-26","","NA"
"-102.97","49.21","ESTEVAN A","4012403","2018-01-14 11:00","2018","01","14","11:00","-14.6","","-18.8","","71","","","M","32","","44","","","M","95.54","","","","-27","","NA"
"-102.97","49.21","ESTEVAN A","4012403","2018-01-14 12:00","2018","01","14","12:00","-14.8","","-19.4","","69","","","M","32","","34","","","M","95.62","","","","-26","","NA"
"-102.97","49.21","ESTEVAN A","4012403","2018-01-14 13:00","2018","01","14","13:00","-15.7","","-20.8","","66","","","M","31","","42","","","M","95.69","","","","-29","","NA"
"-102.97","49.21","ESTEVAN A","4012403","2018-01-14 14:00","2018","01","14","14:00","-16.5","","-21.6","","65","","","M","32","","46","","","M","95.72","","","","-30","","NA"
"-102.97","49.21","ESTEVAN A","4012403","2018-01-14 15:00","2018","01","14","15:00","-16.9","","-22.0","","65","","","M","33","","40","","","M","95.83","","","","-30","","NA"
"-102.97","49.21","ESTEVAN A","4012403","2018-01-14 16:00","2018","01","14","16:00","-17.4","","-22.4","","66","","","M","32","","32","","","M","95.93","","","","-30","","NA"
"-102.97","49.21","ESTEVAN A","4012403","2018-01-14 17:00","2018","01","14","17:00","-18.7","","-23.6","","66","","","M","33","","28","","","M","96.06","","","","-31","","NA"
"-102.97","49.21","ESTEVAN A","4012403","2018-01-14 18:00","2018","01","14","18:00","-19.9","","-24.5","","67","","","M","32","","30","","","M","96.17","","","","-32","","NA"
"-102.97","49.21","ESTEVAN A","4012403","2018-01-14 19:00","2018","01","14","19:00","-20.9","","-25.2","","69","","","M","32","","25","","","M","96.29","","","","-33","","NA"
"-102.97","49.21","ESTEVAN A","4012403","2018-01-14 20:00","2018","01","14","20:00","-21.7","","-26.1","","68","","","M","32","","27","","","M","96.40","","","","-34","","NA"
"-102.97","49.21","ESTEVAN A","4012403","2018-01-14 21:00","2018","01","14","21:00","-22.2","","-26.8","","67","","","M","33","","29","","","M","96.47","","","","-35","","NA"
"-102.97","49.21","ESTEVAN A","4012403","2018-01-14 22:00","2018","01","14","22:00","-22.9","","-27.4","","67","","","M","33","","28","","","M","96.53","","","","-36","","NA"
"-102.97","49.21","ESTEVAN A","4012403","2018-01-14 23:00","2018","01","14","23:00","-23.8","","-28.1","","68","","","M","33","","19","","","M","96.70","","","","-35","","NA"
"-102.97","49.21","ESTEVAN A","4012403","2018-01-15 00:00","2018","01","15","00:00","-25.0","","-28.9","","70","","","M","31","","17","","","M","96.79","","","","-36","","NA"
"-102.97","49.21","ESTEVAN A","4012403","2018-01-15 01:00","2018","01","15","01:00","-24.9","","-28.9","","70","","","M","32","","18","","","M","96.86","","","","-36","","NA"
"-102.97","49.21","ESTEVAN A","4012403","2018-01-15 02:00","2018","01","15","02:00","-25.4","","-29.2","","71","","","M","32","","15","","","M","96.96","","","","-36","","NA"
"-102.97","49.21","ESTEVAN A","4012403","2018-01-15 03:00","2018","01","15","03:00","-26.0","","-29.6","","72","","","M","31","","16","","","M","97.06","","","","-37","","NA"
"-102.97","49.21","ESTEVAN A","4012403","2018-01-15 04:00","2018","01","15","04:00","-26.2","","-29.8","","72","","","M","30","","19","","","M","97.15","","","","-38","","NA"
"-102.97","49.21","ESTEVAN A","4012403","2018-01-15 05:00","2018","01","15","05:00","-27.3","","-30.8","","73","","","M","31","","15","","","M","97.17","","","","-38","","NA"
"-102.97","49.21","ESTEVAN A","4012403","2018-01-15 06:00","2018","01","15","06:00","-28.0","","-31.4","","73","","","M","31","","15","","","M","97.27","","","","-39","","NA"
"-102.97","49.21","ESTEVAN A","4012403","2018-01-15 07:00","2018","01","15","07:00","-29.2","","-32.6","","73","","","M","30","","11","","","M","97.35","","","","-39","","NA"
"-102.97","49.21","ESTEVAN A","4012403","2018-01-15 08:00","2018","01","15","08:00","-29.6","","-33.0","","72","","","M","29","","13","","","M","97.45","","","","-40","","NA"
"-102.97","49.21","ESTEVAN A","4012403","2018-01-15 09:00","2018","01","15","09:00","-30.1","","-33.5","","73","","","M","28","","15","","","M","97.49","","","","-42","","NA"
"-102.97","49.21","ESTEVAN A","4012403","2018-01-15 10:00","2018","01","15","10:00","-27.6","","-31.2","","72","","","M","31","","16","","","M","97.52","","","","-39","","NA"
"-102.97","49.21","ESTEVAN A","4012403","2018-01-15 11:00","2018","01","15","11:00","-25.8","","-29.7","","70","","","M","30","","14","","","M","97.62","","","","-36","","NA"
"-102.97","49.21","ESTEVAN A","4012403","2018-01-15 12:00","2018","01","15","12:00","-24.2","","-28.9","","65","","","M","32","","13","","","M","97.62","","","","-34","","NA"
"-102.97","49.21","ESTEVAN A","4012403","2018-01-15 13:00","2018","01","15","13:00","-22.0","","-27.3","","63","","","M","29","","8","","","M","97.54","","","","-29","","NA"
"-102.97","49.21","ESTEVAN A","4012403","2018-01-15 14:00","2018","01","15","14:00","-20.4","","-26.1","","61","","","M","27","","8","","","M","97.47","","","","-27","","NA"
"-102.97","49.21","ESTEVAN A","4012403","2018-01-15 15:00","2018","01","15","15:00","-20.2","","-26.3","","59","","","M","27","","10","","","M","97.43","","","","-27","","NA"
"-102.97","49.21","ESTEVAN A","4012403","2018-01-15 16:00","2018","01","15","16:00","-20.4","","-26.3","","60","","","M","27","","11","","","M","97.42","","","","-28","","NA"
"-102.97","49.21","ESTEVAN A","4012403","2018-01-15 17:00","2018","01","15","17:00","-21.8","","-26.9","","64","","","M","26","","8","","","M","97.44","","","","-28","","NA"
"-102.97","49.21","ESTEVAN A","4012403","2018-01-15 18:00","2018","01","15","18:00","-24.3","","-27.9","","73","","","M","23","","5","","","M","97.44","","","","-29","","NA"
"-102.97","49.21","ESTEVAN A","4012403","2018-01-15 19:00","2018","01","15","19:00","-25.3","","-28.6","","75","","","M","21","","10","","","M","97.38","","","","-34","","NA"
"-102.97","49.21","ESTEVAN A","4012403","2018-01-15 20:00","2018","01","15","20:00","-25.1","","-28.2","","75","","","M","23","","12","","","M","97.28","","","","-34","","NA"
"-102.97","49.21","ESTEVAN A","4012403","2018-01-15 21:00","2018","01","15","21:00","-27.4","","-30.8","","74","","","M","21","","10","","","M","97.22","","","","-36","","NA"
"-102.97","49.21","ESTEVAN A","4012403","2018-01-15 22:00","2018","01","15","22:00","-27.5","","-30.9","","73","","","M","21","","10","","","M","97.16","","","","-36","","NA"
"-102.97","49.21","ESTEVAN A","4012403","2018-01-15 23:00","2018","01","15","23:00","-26.4","","-29.9","","73","","","M","21","","13","","","M","97.12","","","","-36","","NA"
"-102.97","49.21","ESTEVAN A","4012403","2018-01-16 00:00","2018","01","16","00:00","-26.0","","-29.5","","73","","","M","21","","15","","","M","97.09","","","","-36","","NA"
"-102.97","49.21","ESTEVAN A","4012403","2018-01-16 01:00","2018","01","16","01:00","-24.6","","-28.2","","72","","","M","21","","20","","","M","97.02","","","","-36","","NA"
"-102.97","49.21","ESTEVAN A","4012403","2018-01-16 02:00","2018","01","16","02:00","-24.4","","-28.1","","72","","","M","21","","19","","","M","96.90","","","","-36","","NA"
"-102.97","49.21","ESTEVAN A","4012403","2018-01-16 03:00","2018","01","16","03:00","-23.4","","-27.2","","71","","","M","21","","18","","","M","96.83","","","","-34","","NA"
"-102.97","49.21","ESTEVAN A","4012403","2018-01-16 04:00","2018","01","16","04:00","-22.1","","-26.3","","69","","","M","21","","20","","","M","96.73","","","","-33","","NA"
"-102.97","49.21","ESTEVAN A","4012403","2018-01-16 05:00","2018","01","16","05:00","-20.2","","-24.7","","68","","","M","20","","17","","","M","96.57","","","","-30","","NA"
"-102.97","49.21","ESTEVAN A","4012403","2018-01-16 06:00","2018","01","16","06:00","-19.7","","-24.3","","68","","","M","21","","18","","","M","96.47","","","","-30","","NA"
"-102.97","49.21","ESTEVAN A","4012403","2018-01-16 07:00","2018","01","16","07:00","-18.7","","-23.3","","67","","","M","17","","9","","","M","96.43","","","","-25","","NA"
"-102.97","49.21","ESTEVAN A","4012403","2018-01-16 08:00","2018","01","16","08:00","-18.4","","-23.2","","67","","","M","21","","16","","","M","96.31","","","","-27","","NA"
"-102.97","49.21","ESTEVAN A","4012403","2018-01-16 09:00","2018","01","16","09:00","-18.3","","-23.2","","66","","","M","20","","20","","","M","96.16","","","","-28","","NA"
"-102.97","49.21","ESTEVAN A","4012403","2018-01-16 10:00","2018","01","16","10:00","-16.9","","-22.7","","62","","","M","21","","18","","","M","96.03","","","","-26","","NA"
"-102.97","49.21","ESTEVAN A","4012403","2018-01-16 11:00","2018","01","16","11:00","-15.1","","-21.9","","57","","","M","20","","17","","","M","96.07","","","","-24","","NA"
"-102.97","49.21","ESTEVAN A","4012403","2018-01-16 12:00","2018","01","16","12:00","-14.1","","-21.1","","56","","","M","21","","21","","","M","95.92","","","","-23","","NA"
"-102.97","49.21","ESTEVAN A","4012403","2018-01-16 13:00","2018","01","16","13:00","-12.2","","-20.1","","52","","","M","21","","20","","","M","95.80","","","","-21","","NA"
"-102.97","49.21","ESTEVAN A","4012403","2018-01-16 14:00","2018","01","16","14:00","-11.6","","-19.5","","53","","","M","21","","22","","","M","95.70","","","","-20","","NA"
"-102.97","49.21","ESTEVAN A","4012403","2018-01-16 15:00","2018","01","16","15:00","-11.6","","-19.6","","52","","","M","20","","22","","","M","95.61","","","","-20","","NA"
"-102.97","49.21","ESTEVAN A","4012403","2018-01-16 16:00","2018","01","16","16:00","-10.8","","-18.9","","51","","","M","20","","20","","","M","95.52","","","","-19","","NA"
"-102.97","49.21","ESTEVAN A","4012403","2018-01-16 17:00","2018","01","16","17:00","-10.8","","-18.7","","53","","","M","21","","18","","","M","95.45","","","","-18","","NA"
"-102.97","49.21","ESTEVAN A","4012403","2018-01-16 18:00","2018","01","16","18:00","-11.5","","-19.0","","54","","","M","20","","21","","","M","95.36","","","","-20","","NA"
"-102.97","49.21","ESTEVAN A","4012403","2018-01-16 19:00","2018","01","16","19:00","-11.8","","-19.2","","54","","","M","20","","20","","","M","95.24","","","","-20","","NA"
"-102.97","49.21","ESTEVAN A","4012403","2018-01-16 20:00","2018","01","16","20:00","-10.3","","-18.8","","50","","","M","20","","22","","","M","95.12","","","","-19","","NA"
"-102.97","49.21","ESTEVAN A","4012403","2018-01-16 21:00","2018","01","16","21:00","-10.0","","-18.2","","52","","","M","20","","26","","","M","95.03","","","","-19","","NA"
"-102.97","49.21","ESTEVAN A","4012403","2018-01-16 22:00","2018","01","16","22:00","-10.8","","-18.1","","56","","","M","22","","24","","","M","95.00","","","","-20","","NA"
"-102.97","49.21","ESTEVAN A","4012403","2018-01-16 23:00","2018","01","16","23:00","-12.4","","-18.3","","62","","","M","23","","23","","","M","94.99","","","","-21","","NA"
"-102.97","49.21","ESTEVAN A","4012403","2018-01-17 00:00","2018","01","17","00:00","-13.2","","-18.6","","64","","","M","22","","21","","","M","94.91","","","","-22","","NA"
"-102.97","49.21","ESTEVAN A","4012403","2018-01-17 01:00","2018","01","17","01:00","-13.3","","-18.4","","66","","","M","22","","29","","","M","94.85","","","","-24","","NA"
"-102.97","49.21","ESTEVAN A","4012403","2018-01-17 02:00","2018","01","17","02:00","-13.2","","-18.3","","66","","","M","22","","21","","","M","94.81","","","","-22","","NA"
"-102.97","49.21","ESTEVAN A","4012403","2018-01-17 03:00","2018","01","17","03:00","-13.0","","-17.7","","68","","","M","22","","19","","","M","94.79","","","","-21","","NA"
"-102.97","49.21","ESTEVAN A","4012403","2018-01-17 04:00","2018","01","17","04:00","-13.8","","-17.7","","72","","","M","23","","16","","","M","94.81","","","","-22","","NA"
"-102.97","49.21","ESTEVAN A","4012403","2018-01-17 05:00","2018","01","17","05:00","-12.6","","-16.4","","73","","","M","22","","21","","","M","94.76","","","","-21","","NA"
"-102.97","49.21","ESTEVAN A","4012403","2018-01-17 06:00","2018","01","17","06:00","-11.7","","-15.4","","75","","","M","22","","22","","","M","94.70","","","","-20","","NA"
"-102.97","49.21","ESTEVAN A","4012403","2018-01-17 07:00","2018","01","17","07:00","-10.2","","-14.0","","74","","","M","22","","22","","","M","94.68","","","","-18","","NA"
"-102.97","49.21","ESTEVAN A","4012403","2018-01-17 08:00","2018","01","17","08:00","-8.6","","-12.3","","75","","","M","23","","22","","","M","94.64","","","","-16","","NA"
"-102.97","49.21","ESTEVAN A","4012403","2018-01-17 09:00","2018","01","17","09:00","-7.4","","-11.3","","74","","","M","24","","21","","","M","94.65","","","","-15","","NA"
"-102.97","49.21","ESTEVAN A","4012403","2018-01-17 10:00","2018","01","17","10:00","-5.2","","-10.1","","69","","","M","22","","17","","","M","94.68","","","","-11","","NA"
"-102.97","49.21","ESTEVAN A","4012403","2018-01-17 11:00","2018","01","17","11:00","-2.0","","-8.0","","64","","","M","23","","22","","","M","94.73","","","","-8","","NA"
"-102.97","49.21","ESTEVAN A","4012403","2018-01-17 12:00","2018","01","17","12:00","3.1","","-4.6","","57","","","M","27","","38","","","M","94.73","","","","","","NA"
"-102.97","49.21","ESTEVAN A","4012403","2018-01-17 13:00","2018","01","17","13:00","3.6","","-4.1","","57","","","M","26","","31","","","M","94.69","","","","","","NA"
"-102.97","49.21","ESTEVAN A","4012403","2018-01-17 14:00","2018","01","17","14:00","2.8","","-4.5","","58","","","M","25","","32","","","M","94.62","","","","","","NA"
"-102.97","49.21","ESTEVAN A","4012403","2018-01-17 15:00","2018","01","17","15:00","3.0","","-4.4","","58","","","M","26","","31","","","M","94.61","","","","","","NA"
"-102.97","49.21","ESTEVAN A","4012403","2018-01-17 16:00","2018","01","17","16:00","2.1","","-4.2","","63","","","M","25","","24","","","M","94.54","","","","","","NA"
"-102.97","49.21","ESTEVAN A","4012403","2018-01-17 17:00","2018","01","17","17:00","1.3","","-5.0","","63","","","M","25","","32","","","M","94.48","","","","","","NA"
"-102.97","49.21","ESTEVAN A","4012403","2018-01-17 18:00","2018","01","17","18:00","-1.1","","-5.9","","70","","","M","24","","24","","","M","94.46","","","","-7","","NA"
"-102.97","49.21","ESTEVAN A","4012403","2018-01-17 19:00","2018","01","17","19:00","-1.7","","-6.6","","70","","","M","24","","22","","","M","94.47","","","","-8","","NA"
"-102.97","49.21","ESTEVAN A","4012403","2018-01-17 20:00","2018","01","17","20:00","-2.8","","-7.5","","70","","","M","24","","22","","","M","94.44","","","","-9","","NA"
"-102.97","49.21","ESTEVAN A","4012403","2018-01-17 21:00","2018","01","17","21:00","-4.9","","-8.6","","76","","","M","23","","16","","","M","94.41","","","","-11","","NA"
"-102.97","49.21","ESTEVAN A","4012403","2018-01-17 22:00","2018","01","17","22:00","-5.4","","-8.6","","78","","","M","23","","19","","","M","94.36","","","","-12","","NA"
"-102.97","49.21","ESTEVAN A","4012403","2018-01-17 23:00","2018","01","17","23:00","-6.0","","-9.0","","79","","","M","23","","22","","","M","94.29","","","","-13","","NA"
"-102.97","49.21","ESTEVAN A","4012403","2018-01-18 00:00","2018","01","18","00:00","-7.0","","-9.9","","80","","","M","23","","16","","","M","94.26","","","","-13","","NA"
"-102.97","49.21","ESTEVAN A","4012403","2018-01-18 01:00","2018","01","18","01:00","-8.8","","-11.0","","85","","","M","23","","15","","","M","94.23","","","","-15","","NA"
"-102.97","49.21","ESTEVAN A","4012403","2018-01-18 02:00","2018","01","18","02:00","-9.2","","-11.1","","86","","","M","23","","19","","","M","94.17","","","","-17","","NA"
"-102.97","49.21","ESTEVAN A","4012403","2018-01-18 03:00","2018","01","18","03:00","-9.8","","-11.4","","88","","","M","22","","16","","","M","94.13","","","","-17","","NA"
"-102.97","49.21","ESTEVAN A","4012403","2018-01-18 04:00","2018","01","18","04:00","-8.8","","-10.8","","86","","","M","20","","14","","","M","94.12","","","","-15","","NA"
"-102.97","49.21","ESTEVAN A","4012403","2018-01-18 05:00","2018","01","18","05:00","-9.8","","-11.6","","87","","","M","18","","11","","","M","94.06","","","","-15","","NA"
"-102.97","49.21","ESTEVAN A","4012403","2018-01-18 06:00","2018","01","18","06:00","-8.0","","-10.2","","84","","","M","20","","14","","","M","93.98","","","","-14","","NA"
"-102.97","49.21","ESTEVAN A","4012403","2018-01-18 07:00","2018","01","18","07:00","-7.8","","-10.1","","84","","","M","21","","14","","","M","93.94","","","","-14","","NA"
"-102.97","49.21","ESTEVAN A","4012403","2018-01-18 08:00","2018","01","18","08:00","-7.3","","-9.8","","83","","","M","20","","13","","","M","93.88","","","","-13","","NA"
"-102.97","49.21","ESTEVAN A","4012403","2018-01-18 09:00","2018","01","18","09:00","-6.5","","-9.1","","82","","","M","21","","14","","","M","93.84","","","","-12","","NA"
"-102.97","49.21","ESTEVAN A","4012403","2018-01-18 10:00","2018","01","18","10:00","-4.8","","-7.9","","79","","","M","20","","17","","","M","93.75","","","","-11","","NA"
"-102.97","49.21","ESTEVAN A","4012403","2018-01-18 11:00","2018","01","18","11:00","-3.3","","-7.0","","76","","","M","19","","11","","","M","93.75","","","","-8","","NA"
"-102.97","49.21","ESTEVAN A","4012403","2018-01-18 12:00","2018","01","18","12:00","-1.0","","-5.3","","73","","","M","21","","16","","","M","93.70","","","","-6","","NA"
"-102.97","49.21","ESTEVAN A","4012403","2018-01-18 13:00","2018","01","18","13:00","0.8","","-4.5","","68","","","M","21","","19","","","M","93.58","","","","","","NA"
"-102.97","49.21","ESTEVAN A","4012403","2018-01-18 14:00","2018","01","18","14:00","1.5","","-3.5","","69","","","M","22","","22","","","M","93.45","","","","","","NA"
"-102.97","49.21","ESTEVAN A","4012403","2018-01-18 15:00","2018","01","18","15:00","2.3","","-2.4","","71","","","M","22","","23","","","M","93.44","","","","","","NA"
"-102.97","49.21","ESTEVAN A","4012403","2018-01-18 16:00","2018","01","18","16:00","2.7","","-1.8","","73","","","M","22","","25","","","M","93.42","","","","","","NA"
"-102.97","49.21","ESTEVAN A","4012403","2018-01-18 17:00","2018","01","18","17:00","1.8","","-1.9","","77","","","M","20","","18","","","M","93.40","","","","","","NA"
"-102.97","49.21","ESTEVAN A","4012403","2018-01-18 18:00","2018","01","18","18:00","0.1","","-2.4","","83","","","M","18","","8","","","M","93.33","","","","","","NA"
"-102.97","49.21","ESTEVAN A","4012403","2018-01-18 19:00","2018","01","18","19:00","1.0","","-1.9","","81","","","M","21","","16","","","M","93.25","","","","","","NA"
"-102.97","49.21","ESTEVAN A","4012403","2018-01-18 20:00","2018","01","18","20:00","2.4","","-1.6","","75","","","M","26","","21","","","M","93.27","","","","","","NA"
"-102.97","49.21","ESTEVAN A","4012403","2018-01-18 21:00","2018","01","18","21:00","0.7","","-2.1","","82","","","M","23","","14","","","M","93.25","","","","","","NA"
"-102.97","49.21","ESTEVAN A","4012403","2018-01-18 22:00","2018","01","18","22:00","1.6","","-1.9","","78","","","M","25","","17","","","M","93.21","","","","","","NA"
"-102.97","49.21","ESTEVAN A","4012403","2018-01-18 23:00","2018","01","18","23:00","3.9","","-1.1","","70","","","M","26","","25","","","M","93.18","","","","","","NA"
"-102.97","49.21","ESTEVAN A","4012403","2018-01-19 00:00","2018","01","19","00:00","4.1","","-1.0","","69","","","M","25","","21","","","M","93.14","","","","","","NA"
"-102.97","49.21","ESTEVAN A","4012403","2018-01-19 01:00","2018","01","19","01:00","3.2","","-0.8","","75","","","M","23","","24","","","M","93.14","","","","","","NA"
"-102.97","49.21","ESTEVAN A","4012403","2018-01-19 02:00","2018","01","19","02:00","2.8","","-0.7","","78","","","M","24","","23","","","M","93.11","","","","","","NA"
"-102.97","49.21","ESTEVAN A","4012403","2018-01-19 03:00","2018","01","19","03:00","3.2","","-0.7","","76","","","M","25","","24","","","M","93.09","","","","","","NA"
"-102.97","49.21","ESTEVAN A","4012403","2018-01-19 04:00","2018","01","19","04:00","3.3","","-0.9","","74","","","M","25","","27","","","M","93.13","","","","","","NA"
"-102.97","49.21","ESTEVAN A","4012403","2018-01-19 05:00","2018","01","19","05:00","2.9","","-1.2","","75","","","M","25","","21","","","M","93.03","","","","","","NA"
"-102.97","49.21","ESTEVAN A","4012403","2018-01-19 06:00","2018","01","19","06:00","2.6","","-1.6","","74","","","M","24","","22","","","M","93.11","","","","","","NA"
"-102.97","49.21","ESTEVAN A","4012403","2018-01-19 07:00","2018","01","19","07:00","2.6","","-2.2","","71","","","M","27","","24","","","M","93.12","","","","","","NA"
"-102.97","49.21","ESTEVAN A","4012403","2018-01-19 08:00","2018","01","19","08:00","1.1","","-2.4","","77","","","M","27","","16","","","M","93.15","","","","","","NA"
"-102.97","49.21","ESTEVAN A","4012403","2018-01-19 09:00","2018","01","19","09:00","1.2","","-2.8","","75","","","M","25","","17","","","M","93.20","","","","","","NA"
"-102.97","49.21","ESTEVAN A","4012403","2018-01-19 10:00","2018","01","19","10:00","0.6","","-3.3","","75","","","M","25","","16","","","M","93.26","","","","","","NA"
"-102.97","49.21","ESTEVAN A","4012403","2018-01-19 11:00","2018","01","19","11:00","1.7","","-3.3","","70","","","M","26","","19","","","M","93.32","","","","","","NA"
"-102.97","49.21","ESTEVAN A","4012403","2018-01-19 12:00","2018","01","19","12:00","2.0","","-3.2","","68","","","M","26","","18","","","M","93.37","","","","","","NA"
"-102.97","49.21","ESTEVAN A","4012403","2018-01-19 13:00","2018","01","19","13:00","2.4","","-3.4","","66","","","M","26","","25","","","M","93.35","","","","","","NA"
"-102.97","49.21","ESTEVAN A","4012403","2018-01-19 14:00","2018","01","19","14:00","2.4","","-2.8","","69","","","M","24","","17","","","M","93.35","","","","","","NA"
"-102.97","49.21","ESTEVAN A","4012403","2018-01-19 15:00","2018","01","19","15:00","2.1","","-2.8","","70","","","M","23","","17","","","M","93.35","","","","","","NA"
"-102.97","49.21","ESTEVAN A","4012403","2018-01-19 16:00","2018","01","19","16:00","1.5","","-2.6","","74","","","M","23","","15","","","M","93.38","","","","","","NA"
"-102.97","49.21","ESTEVAN A","4012403","2018-01-19 17:00","2018","01","19","17:00","0.1","","-3.2","","79","","","M","23","","18","","","M","93.44","","","","","","NA"
"-102.97","49.21","ESTEVAN A","4012403","2018-01-19 18:00","2018","01","19","18:00","-1.7","","-4.2","","83","","","M","24","","18","","","M","93.49","","","","-7","","NA"
"-102.97","49.21","ESTEVAN A","4012403","2018-01-19 19:00","2018","01","19","19:00","-3.6","","-5.4","","88","","","M","24","","13","","","M","93.51","","","","-8","","NA"
"-102.97","49.21","ESTEVAN A","4012403","2018-01-19 20:00","2018","01","19","20:00","-5.1","","-7.0","","87","","","M","24","","13","","","M","93.58","","","","-10","","NA"
"-102.97","49.21","ESTEVAN A","4012403","2018-01-19 21:00","2018","01","19","21:00","-4.8","","-6.8","","86","","","M","23","","17","","","M","93.62","","","","-11","","NA"
"-102.97","49.21","ESTEVAN A","4012403","2018-01-19 22:00","2018","01","19","22:00","-5.4","","-7.4","","86","","","M","23","","15","","","M","93.64","","","","-11","","NA"
"-102.97","49.21","ESTEVAN A","4012403","2018-01-19 23:00","2018","01","19","23:00","-6.4","","-8.1","","88","","","M","22","","13","","","M","93.69","","","","-12","","NA"
"-102.97","49.21","ESTEVAN A","4012403","2018-01-20 00:00","2018","01","20","00:00","-6.6","","-8.2","","88","","","M","22","","14","","","M","93.72","","","","-12","","NA"
"-102.97","49.21","ESTEVAN A","4012403","2018-01-20 01:00","2018","01","20","01:00","-7.5","","-9.0","","89","","","M","22","","14","","","M","93.77","","","","-13","","NA"
"-102.97","49.21","ESTEVAN A","4012403","2018-01-20 02:00","2018","01","20","02:00","-7.9","","-9.3","","90","","","M","23","","14","","","M","93.79","","","","-14","","NA"
"-102.97","49.21","ESTEVAN A","4012403","2018-01-20 03:00","2018","01","20","03:00","-7.9","","-9.5","","88","","","M","24","","15","","","M","93.80","","","","-14","","NA"
"-102.97","49.21","ESTEVAN A","4012403","2018-01-20 04:00","2018","01","20","04:00","-8.6","","-10.1","","89","","","M","23","","15","","","M","93.79","","","","-15","","NA"
"-102.97","49.21","ESTEVAN A","4012403","2018-01-20 05:00","2018","01","20","05:00","-9.9","","-11.4","","89","","","M","23","","11","","","M","93.83","","","","-15","","NA"
"-102.97","49.21","ESTEVAN A","4012403","2018-01-20 06:00","2018","01","20","06:00","-9.4","","-11.2","","87","","","M","22","","15","","","M","93.84","","","","-16","","NA"
"-102.97","49.21","ESTEVAN A","4012403","2018-01-20 07:00","2018","01","20","07:00","-8.7","","-10.7","","86","","","M","23","","17","","","M","93.90","","","","-16","","NA"
"-102.97","49.21","ESTEVAN A","4012403","2018-01-20 08:00","2018","01","20","08:00","-9.8","","-11.7","","86","","","M","22","","16","","","M","93.95","","","","-17","","NA"
"-102.97","49.21","ESTEVAN A","4012403","2018-01-20 09:00","2018","01","20","09:00","-8.9","","-10.9","","86","","","M","23","","15","","","M","93.99","","","","-15","","NA"
"-102.97","49.21","ESTEVAN A","4012403","2018-01-20 10:00","2018","01","20","10:00","-7.7","","-10.2","","82","","","M","24","","15","","","M","94.05","","","","-14","","NA"
"-102.97","49.21","ESTEVAN A","4012403","2018-01-20 11:00","2018","01","20","11:00","-5.2","","-8.5","","78","","","M","23","","19","","","M","94.11","","","","-12","","NA"
"-102.97","49.21","ESTEVAN A","4012403","2018-01-20 12:00","2018","01","20","12:00","-3.1","","-7.3","","73","","","M","23","","23","","","M","94.11","","","","-10","","NA"
"-102.97","49.21","ESTEVAN A","4012403","2018-01-20 13:00","2018","01","20","13:00","-0.7","","-6.2","","66","","","M","24","","27","","","M","94.12","","","","-7","","NA"
"-102.97","49.21","ESTEVAN A","4012403","2018-01-20 14:00","2018","01","20","14:00","0.1","","-5.3","","67","","","M","25","","18","","","M","94.10","","","","","","NA"
"-102.97","49.21","ESTEVAN A","4012403","2018-01-20 15:00","2018","01","20","15:00","0.4","","-5.4","","65","","","M","26","","21","","","M","94.14","","","","","","NA"
"-102.97","49.21","ESTEVAN A","4012403","2018-01-20 16:00","2018","01","20","16:00","0.5","","-5.2","","66","","","M","25","","18","","","M","94.19","","","","","","NA"
"-102.97","49.21","ESTEVAN A","4012403","2018-01-20 17:00","2018","01","20","17:00","-1.2","","-5.4","","73","","","M","24","","13","","","M","94.25","","","","-5","","NA"
"-102.97","49.21","ESTEVAN A","4012403","2018-01-20 18:00","2018","01","20","18:00","-4.5","","-6.4","","86","","","M","24","","11","","","M","94.32","","","","-9","","NA"
"-102.97","49.21","ESTEVAN A","4012403","2018-01-20 19:00","2018","01","20","19:00","-6.2","","-8.0","","88","","","M","22","","15","","","M","94.37","","","","-12","","NA"
"-102.97","49.21","ESTEVAN A","4012403","2018-01-20 20:00","2018","01","20","20:00","-8.1","","-9.4","","90","","","M","23","","14","","","M","94.43","","","","-14","","NA"
"-102.97","49.21","ESTEVAN A","4012403","2018-01-20 21:00","2018","01","20","21:00","-8.6","","-10.2","","89","","","M","24","","12","","","M","94.46","","","","-14","","NA"
"-102.97","49.21","ESTEVAN A","4012403","2018-01-20 22:00","2018","01","20","22:00","-9.8","","-11.4","","88","","","M","25","","7","","","M","94.49","","","","-14","","NA"
"-102.97","49.21","ESTEVAN A","4012403","2018-01-20 23:00","2018","01","20","23:00","-11.3","","-12.6","","90","","","M","23","","11","","","M","94.56","","","","-17","","NA"
"-102.97","49.21","ESTEVAN A","4012403","2018-01-21 00:00","2018","01","21","00:00","-12.2","","-13.9","","87","","","M","23","","11","","","M","94.60","","","","-18","","NA"
"-102.97","49.21","ESTEVAN A","4012403","2018-01-21 01:00","2018","01","21","01:00","-12.6","","-14.3","","87","","","M","22","","9","","","M","94.62","","","","-18","","NA"
"-102.97","49.21","ESTEVAN A","4012403","2018-01-21 02:00","2018","01","21","02:00","-13.2","","-14.8","","87","","","M","21","","7","","","M","94.67","","","","-18","","NA"
"-102.97","49.21","ESTEVAN A","4012403","2018-01-21 03:00","2018","01","21","03:00","-12.8","","-14.4","","88","","","M","20","","9","","","M","94.68","","","","-18","","NA"
"-102.97","49.21","ESTEVAN A","4012403","2018-01-21 04:00","2018","01","21","04:00","-13.6","","-15.0","","89","","","M","21","","4","","","M","94.69","","","","-16","","NA"
"-102.97","49.21","ESTEVAN A","4012403","2018-01-21 05:00","2018","01","21","05:00","-14.1","","-16.0","","86","","","M","20","","8","","","M","94.67","","","","-19","","NA"
"-102.97","49.21","ESTEVAN A","4012403","2018-01-21 06:00","2018","01","21","06:00","-14.3","","-16.2","","86","","","M","17","","9","","","M","94.69","","","","-20","","NA"
"-102.97","49.21","ESTEVAN A","4012403","2018-01-21 07:00","2018","01","21","07:00","-14.4","","-16.2","","87","","","M","18","","5","","","M","94.73","","","","-18","","NA"
"-102.97","49.21","ESTEVAN A","4012403","2018-01-21 08:00","2018","01","21","08:00","-14.7","","-16.6","","86","","","M","18","","9","","","M","94.74","","","","-20","","NA"
"-102.97","49.21","ESTEVAN A","4012403","2018-01-21 09:00","2018","01","21","09:00","-14.2","","-16.1","","86","","","M","20","","9","","","M","94.74","","","","-20","","NA"
"-102.97","49.21","ESTEVAN A","4012403","2018-01-21 10:00","2018","01","21","10:00","-11.5","","-13.2","","88","","","M","15","","7","","","M","94.76","","","","-16","","NA"
"-102.97","49.21","ESTEVAN A","4012403","2018-01-21 11:00","2018","01","21","11:00","-9.3","","-10.7","","89","","","M","18","","10","","","M","94.80","","","","-14","","NA"
"-102.97","49.21","ESTEVAN A","4012403","2018-01-21 12:00","2018","01","21","12:00","-6.8","","-8.3","","89","","","M","20","","9","","","M","94.75","","","","-11","","NA"
"-102.97","49.21","ESTEVAN A","4012403","2018-01-21 13:00","2018","01","21","13:00","-4.6","","-7.9","","78","","","M","19","","18","","","M","94.70","","","","-11","","NA"
"-102.97","49.21","ESTEVAN A","4012403","2018-01-21 14:00","2018","01","21","14:00","-3.2","","-7.4","","73","","","M","20","","17","","","M","94.65","","","","-9","","NA"
"-102.97","49.21","ESTEVAN A","4012403","2018-01-21 15:00","2018","01","21","15:00","-3.0","","-7.3","","72","","","M","21","","20","","","M","94.66","","","","-9","","NA"
"-102.97","49.21","ESTEVAN A","4012403","2018-01-21 16:00","2018","01","21","16:00","-2.8","","-7.0","","73","","","M","21","","13","","","M","94.68","","","","-7","","NA"
"-102.97","49.21","ESTEVAN A","4012403","2018-01-21 17:00","2018","01","21","17:00","-4.1","","-7.6","","76","","","M","22","","8","","","M","94.68","","","","-8","","NA"
"-102.97","49.21","ESTEVAN A","4012403","2018-01-21 18:00","2018","01","21","18:00","-7.4","","-9.3","","87","","","M","23","","8","","","M","94.71","","","","-11","","NA"
"-102.97","49.21","ESTEVAN A","4012403","2018-01-21 19:00","2018","01","21","19:00","-8.6","","-9.8","","91","","","M","21","","9","","","M","94.74","","","","-13","","NA"
"-102.97","49.21","ESTEVAN A","4012403","2018-01-21 20:00","2018","01","21","20:00","-9.8","","-11.5","","88","","","M","23","","10","","","M","94.76","","","","-15","","NA"
"-102.97","49.21","ESTEVAN A","4012403","2018-01-21 21:00","2018","01","21","21:00","-10.7","","-11.8","","92","","","M","19","","8","","","M","94.75","","","","-15","","NA"
"-102.97","49.21","ESTEVAN A","4012403","2018-01-21 22:00","2018","01","21","22:00","-11.4","","-12.7","","91","","","M","20","","8","","","M","94.75","","","","-16","","NA"
"-102.97","49.21","ESTEVAN A","4012403","2018-01-21 23:00","2018","01","21","23:00","-12.1","","-13.5","","89","","","M","21","","7","","","M","94.78","","","","-16","","NA"
"-102.97","49.21","ESTEVAN A","4012403","2018-01-22 00:00","2018","01","22","00:00","-12.9","","-14.4","","89","","","M","24","","7","","","M","94.79","","","","-17","","NA"
"-102.97","49.21","ESTEVAN A","4012403","2018-01-22 01:00","2018","01","22","01:00","-13.8","","-15.5","","87","","","M","16","","2","","","M","94.77","","","","-15","","NA"
"-102.97","49.21","ESTEVAN A","4012403","2018-01-22 02:00","2018","01","22","02:00","-16.3","","-18.6","","83","","","M","8","","7","","","M","94.75","","","","-21","","NA"
"-102.97","49.21","ESTEVAN A","4012403","2018-01-22 03:00","2018","01","22","03:00","-16.9","","-18.9","","85","","","M","9","","10","","","M","94.78","","","","-24","","NA"
"-102.97","49.21","ESTEVAN A","4012403","2018-01-22 04:00","2018","01","22","04:00","-16.7","","-18.8","","84","","","M","8","","9","","","M","94.77","","","","-23","","NA"
"-102.97","49.21","ESTEVAN A","4012403","2018-01-22 05:00","2018","01","22","05:00","-17.1","","-19.3","","84","","","M","9","","9","","","M","94.77","","","","-23","","NA"
"-102.97","49.21","ESTEVAN A","4012403","2018-01-22 06:00","2018","01","22","06:00","-16.9","","-18.9","","84","","","M","9","","8","","","M","94.77","","","","-23","","NA"
"-102.97","49.21","ESTEVAN A","4012403","2018-01-22 07:00","2018","01","22","07:00","-15.9","","-18.0","","84","","","M","12","","9","","","M","94.81","","","","-22","","NA"
"-102.97","49.21","ESTEVAN A","4012403","2018-01-22 08:00","2018","01","22","08:00","-15.0","","-17.0","","85","","","M","10","","12","","","M","94.84","","","","-22","","NA"
"-102.97","49.21","ESTEVAN A","4012403","2018-01-22 09:00","2018","01","22","09:00","-14.9","","-17.1","","84","","","M","10","","14","","","M","94.83","","","","-22","","NA"
"-102.97","49.21","ESTEVAN A","4012403","2018-01-22 10:00","2018","01","22","10:00","-13.9","","-15.9","","85","","","M","10","","12","","","M","94.85","","","","-21","","NA"
"-102.97","49.21","ESTEVAN A","4012403","2018-01-22 11:00","2018","01","22","11:00","-11.5","","-13.2","","87","","","M","11","","15","","","M","94.82","","","","-19","","NA"
"-102.97","49.21","ESTEVAN A","4012403","2018-01-22 12:00","2018","01","22","12:00","-10.0","","-11.4","","89","","","M","11","","13","","","M","94.77","","","","-16","","NA"
"-102.97","49.21","ESTEVAN A","4012403","2018-01-22 13:00","2018","01","22","13:00","-7.9","","-9.1","","91","","","M","13","","13","","","M","94.74","","","","-14","","NA"
"-102.97","49.21","ESTEVAN A","4012403","2018-01-22 14:00","2018","01","22","14:00","-6.6","","-7.7","","92","","","M","11","","16","","","M","94.67","","","","-13","","NA"
"-102.97","49.21","ESTEVAN A","4012403","2018-01-22 15:00","2018","01","22","15:00","-5.9","","-6.9","","92","","","M","11","","13","","","M","94.61","","","","-11","","NA"
"-102.97","49.21","ESTEVAN A","4012403","2018-01-22 16:00","2018","01","22","16:00","-5.7","","-7.1","","90","","","M","11","","12","","","M","94.61","","","","-11","","NA"
"-102.97","49.21","ESTEVAN A","4012403","2018-01-22 17:00","2018","01","22","17:00","-7.1","","-8.3","","91","","","M","11","","13","","","M","94.64","","","","-13","","NA"
"-102.97","49.21","ESTEVAN A","4012403","2018-01-22 18:00","2018","01","22","18:00","-8.7","","-9.8","","92","","","M","12","","11","","","M","94.61","","","","-14","","NA"
"-102.97","49.21","ESTEVAN A","4012403","2018-01-22 19:00","2018","01","22","19:00","-9.7","","-10.9","","91","","","M","9","","7","","","M","94.61","","","","-14","","NA"
"-102.97","49.21","ESTEVAN A","4012403","2018-01-22 20:00","2018","01","22","20:00","-9.9","","-11.4","","89","","","M","14","","7","","","M","94.59","","","","-14","","NA"
"-102.97","49.21","ESTEVAN A","4012403","2018-01-22 21:00","2018","01","22","21:00","-9.2","","-10.7","","89","","","M","16","","4","","","M","94.58","","","","-11","","NA"
"-102.97","49.21","ESTEVAN A","4012403","2018-01-22 22:00","2018","01","22","22:00","-9.3","","-10.9","","88","","","M","17","","9","","","M","94.56","","","","-14","","NA"
"-102.97","49.21","ESTEVAN A","4012403","2018-01-22 23:00","2018","01","22","23:00","-10.0","","-11.6","","88","","","M","20","","11","","","M","94.55","","","","-16","","NA"
"-102.97","49.21","ESTEVAN A","4012403","2018-01-23 00:00","2018","01","23","00:00","-10.6","","-12.4","","87","","","M","21","","14","","","M","94.56","","","","-17","","NA"
"-102.97","49.21","ESTEVAN A","4012403","2018-01-23 01:00","2018","01","23","01:00","-10.6","","-12.6","","86","","","M","22","","14","","","M","94.57","","","","-17","","NA"
"-102.97","49.21","ESTEVAN A","4012403","2018-01-23 02:00","2018","01","23","02:00","-11.4","","-13.4","","85","","","M","24","","13","","","M","94.57","","","","-18","","NA"
"-102.97","49.21","ESTEVAN A","4012403","2018-01-23 03:00","2018","01","23","03:00","-8.8","","-10.9","","85","","","M","27","","18","","","M","94.62","","","","-16","","NA"
"-102.97","49.21","ESTEVAN A","4012403","2018-01-23 04:00","2018","01","23","04:00","-10.1","","-12.1","","86","","","M","26","","11","","","M","94.67","","","","-16","","NA"
"-102.97","49.21","ESTEVAN A","4012403","2018-01-23 05:00","2018","01","23","05:00","-9.8","","-11.3","","89","","","M","29","","22","","","M","94.73","","","","-18","","NA"
"-102.97","49.21","ESTEVAN A","4012403","2018-01-23 06:00","2018","01","23","06:00","-9.9","","-11.1","","91","","","M","30","","27","","","M","94.81","","","","-19","","NA"
"-102.97","49.21","ESTEVAN A","4012403","2018-01-23 07:00","2018","01","23","07:00","-9.2","","-10.2","","93","","","M","30","","22","","","M","94.89","","","","-17","","NA"
"-102.97","49.21","ESTEVAN A","4012403","2018-01-23 08:00","2018","01","23","08:00","-8.8","","-9.8","","92","","","M","30","","27","","","M","94.94","","","","-18","","NA"
"-102.97","49.21","ESTEVAN A","4012403","2018-01-23 09:00","2018","01","23","09:00","-8.4","","-9.4","","92","","","M","31","","27","","","M","95.00","","","","-17","","NA"
"-102.97","49.21","ESTEVAN A","4012403","2018-01-23 10:00","2018","01","23","10:00","-8.1","","-9.1","","92","","","M","32","","22","","","M","95.05","","","","-16","","NA"
"-102.97","49.21","ESTEVAN A","4012403","2018-01-23 11:00","2018","01","23","11:00","-7.7","","-8.8","","92","","","M","31","","18","","","M","95.09","","","","-15","","NA"
"-102.97","49.21","ESTEVAN A","4012403","2018-01-23 12:00","2018","01","23","12:00","-7.3","","-8.3","","92","","","M","31","","15","","","M","95.12","","","","-13","","NA"
"-102.97","49.21","ESTEVAN A","4012403","2018-01-23 13:00","2018","01","23","13:00","-7.0","","-8.0","","92","","","M","30","","20","","","M","95.07","","","","-14","","NA"
"-102.97","49.21","ESTEVAN A","4012403","2018-01-23 14:00","2018","01","23","14:00","-6.5","","-7.5","","93","","","M","30","","14","","","M","95.04","","","","-12","","NA"
"-102.97","49.21","ESTEVAN A","4012403","2018-01-23 15:00","2018","01","23","15:00","-6.1","","-7.0","","93","","","M","27","","16","","","M","95.04","","","","-12","","NA"
"-102.97","49.21","ESTEVAN A","4012403","2018-01-23 16:00","2018","01","23","16:00","-5.6","","-6.6","","93","","","M","26","","10","","","M","95.05","","","","-10","","NA"
"-102.97","49.21","ESTEVAN A","4012403","2018-01-23 17:00","2018","01","23","17:00","-6.0","","-6.9","","93","","","M","26","","11","","","M","95.09","","","","-11","","NA"
"-102.97","49.21","ESTEVAN A","4012403","2018-01-23 18:00","2018","01","23","18:00","-8.9","","-10.2","","90","","","M","17","","8","","","M","95.05","","","","-13","","NA"
"-102.97","49.21","ESTEVAN A","4012403","2018-01-23 19:00","2018","01","23","19:00","-10.6","","-12.0","","90","","","M","16","","11","","","M","95.02","","","","-16","","NA"
"-102.97","49.21","ESTEVAN A","4012403","2018-01-23 20:00","2018","01","23","20:00","-11.1","","-12.7","","88","","","M","19","","11","","","M","94.97","","","","-17","","NA"
"-102.97","49.21","ESTEVAN A","4012403","2018-01-23 21:00","2018","01","23","21:00","-10.3","","-12.1","","87","","","M","21","","12","","","M","94.97","","","","-16","","NA"
"-102.97","49.21","ESTEVAN A","4012403","2018-01-23 22:00","2018","01","23","22:00","-10.9","","-12.6","","88","","","M","21","","14","","","M","94.94","","","","-18","","NA"
"-102.97","49.21","ESTEVAN A","4012403","2018-01-23 23:00","2018","01","23","23:00","-10.8","","-12.6","","87","","","M","21","","14","","","M","94.90","","","","-17","","NA"
"-102.97","49.21","ESTEVAN A","4012403","2018-01-24 00:00","2018","01","24","00:00","-11.4","","-13.2","","86","","","M","20","","12","","","M","94.85","","","","-18","","NA"
"-102.97","49.21","ESTEVAN A","4012403","2018-01-24 01:00","2018","01","24","01:00","-12.3","","-14.2","","86","","","M","21","","14","","","M","94.82","","","","-19","","NA"
"-102.97","49.21","ESTEVAN A","4012403","2018-01-24 02:00","2018","01","24","02:00","-10.9","","-12.6","","87","","","M","22","","18","","","M","94.80","","","","-19","","NA"
"-102.97","49.21","ESTEVAN A","4012403","2018-01-24 03:00","2018","01","24","03:00","-11.1","","-13.0","","86","","","M","21","","16","","","M","94.79","","","","-18","","NA"
"-102.97","49.21","ESTEVAN A","4012403","2018-01-24 04:00","2018","01","24","04:00","-11.9","","-13.8","","86","","","M","22","","13","","","M","94.78","","","","-19","","NA"
"-102.97","49.21","ESTEVAN A","4012403","2018-01-24 05:00","2018","01","24","05:00","-12.2","","-14.1","","86","","","M","19","","5","","","M","94.76","","","","-15","","NA"
"-102.97","49.21","ESTEVAN A","4012403","2018-01-24 06:00","2018","01","24","06:00","-12.5","","-14.6","","85","","","M","21","","6","","","M","94.76","","","","-16","","NA"
"-102.97","49.21","ESTEVAN A","4012403","2018-01-24 07:00","2018","01","24","07:00","-12.4","","-14.3","","86","","","M","19","","5","","","M","94.75","","","","-16","","NA"
"-102.97","49.21","ESTEVAN A","4012403","2018-01-24 08:00","2018","01","24","08:00","-13.9","","-16.0","","84","","","M","9","","9","","","M","94.72","","","","-20","","NA"
"-102.97","49.21","ESTEVAN A","4012403","2018-01-24 09:00","2018","01","24","09:00","-14.3","","-16.4","","84","","","M","9","","11","","","M","94.73","","","","-21","","NA"
"-102.97","49.21","ESTEVAN A","4012403","2018-01-24 10:00","2018","01","24","10:00","-12.7","","-14.5","","87","","","M","9","","13","","","M","94.76","","","","-20","","NA"
"-102.97","49.21","ESTEVAN A","4012403","2018-01-24 11:00","2018","01","24","11:00","-10.5","","-12.0","","89","","","M","11","","13","","","M","94.73","","","","-17","","NA"
"-102.97","49.21","ESTEVAN A","4012403","2018-01-24 12:00","2018","01","24","12:00","-8.4","","-9.8","","90","","","M","10","","15","","","M","94.67","","","","-15","","NA"
"-102.97","49.21","ESTEVAN A","4012403","2018-01-24 13:00","2018","01","24","13:00","-7.2","","-8.6","","90","","","M","9","","13","","","M","94.62","","","","-13","","NA"
"-102.97","49.21","ESTEVAN A","4012403","2018-01-24 14:00","2018","01","24","14:00","-6.6","","-8.1","","89","","","M","9","","14","","","M","94.57","","","","-12","","NA"
"-102.97","49.21","ESTEVAN A","4012403","2018-01-24 15:00","2018","01","24","15:00","-5.9","","-7.6","","87","","","M","8","","16","","","M","94.56","","","","-12","","NA"
"-102.97","49.21","ESTEVAN A","4012403","2018-01-24 16:00","2018","01","24","16:00","-5.7","","-7.8","","85","","","M","9","","21","","","M","94.55","","","","-13","","NA"
"-102.97","49.21","ESTEVAN A","4012403","2018-01-24 17:00","2018","01","24","17:00","-6.5","","-8.5","","86","","","M","10","","19","","","M","94.55","","","","-13","","NA"
"-102.97","49.21","ESTEVAN A","4012403","2018-01-24 18:00","2018","01","24","18:00","-8.7","","-10.3","","88","","","M","8","","18","","","M","94.61","","","","-16","","NA"
"-102.97","49.21","ESTEVAN A","4012403","2018-01-24 19:00","2018","01","24","19:00","-9.8","","-11.3","","89","","","M","10","","20","","","M","94.57","","","","-18","","NA"
"-102.97","49.21","ESTEVAN A","4012403","2018-01-24 20:00","2018","01","24","20:00","-10.3","","-11.4","","92","","","M","11","","22","","","M","94.58","","","","-19","","NA"
"-102.97","49.21","ESTEVAN A","4012403","2018-01-24 21:00","2018","01","24","21:00","-9.7","","-10.8","","92","","","M","10","","21","","","M","94.49","","","","-18","","NA"
"-102.97","49.21","ESTEVAN A","4012403","2018-01-24 22:00","2018","01","24","22:00","-9.2","","-10.2","","93","","","M","11","","20","","","M","94.53","","","","-17","","NA"
"-102.97","49.21","ESTEVAN A","4012403","2018-01-24 23:00","2018","01","24","23:00","-8.9","","-10.0","","92","","","M","11","","21","","","M","94.45","","","","-17","","NA"
"-102.97","49.21","ESTEVAN A","4012403","2018-01-25 00:00","2018","01","25","00:00","-9.0","","-10.1","","92","","","M","11","","22","","","M","94.44","","","","-17","","NA"
"-102.97","49.21","ESTEVAN A","4012403","2018-01-25 01:00","2018","01","25","01:00","-9.2","","-10.3","","92","","","M","10","","30","","","M","94.35","","","","-18","","NA"
"-102.97","49.21","ESTEVAN A","4012403","2018-01-25 02:00","2018","01","25","02:00","-9.1","","-10.2","","92","","","M","10","","23","","","M","94.36","","","","-17","","NA"
"-102.97","49.21","ESTEVAN A","4012403","2018-01-25 03:00","2018","01","25","03:00","-9.2","","-10.4","","92","","","M","11","","24","","","M","94.32","","","","-18","","NA"
"-102.97","49.21","ESTEVAN A","4012403","2018-01-25 04:00","2018","01","25","04:00","-8.9","","-10.1","","92","","","M","10","","22","","","M","94.26","","","","-17","","NA"
"-102.97","49.21","ESTEVAN A","4012403","2018-01-25 05:00","2018","01","25","05:00","-8.8","","-10.0","","91","","","M","10","","30","","","M","94.19","","","","-18","","NA"
"-102.97","49.21","ESTEVAN A","4012403","2018-01-25 06:00","2018","01","25","06:00","-8.7","","-9.9","","91","","","M","10","","24","","","M","94.11","","","","-17","","NA"
"-102.97","49.21","ESTEVAN A","4012403","2018-01-25 07:00","2018","01","25","07:00","-8.3","","-9.5","","91","","","M","10","","23","","","M","94.03","","","","-16","","NA"
"-102.97","49.21","ESTEVAN A","4012403","2018-01-25 08:00","2018","01","25","08:00","-8.6","","-9.8","","91","","","M","10","","27","","","M","93.97","","","","-17","","NA"
"-102.97","49.21","ESTEVAN A","4012403","2018-01-25 09:00","2018","01","25","09:00","-8.0","","-9.1","","92","","","M","10","","22","","","M","93.93","","","","-16","","NA"
"-102.97","49.21","ESTEVAN A","4012403","2018-01-25 10:00","2018","01","25","10:00","-7.6","","-8.7","","92","","","M","10","","24","","","M","93.86","","","","-16","","NA"
"-102.97","49.21","ESTEVAN A","4012403","2018-01-25 11:00","2018","01","25","11:00","-5.9","","-6.9","","93","","","M","9","","22","","","M","93.85","","","","-13","","NA"
"-102.97","49.21","ESTEVAN A","4012403","2018-01-25 12:00","2018","01","25","12:00","-5.4","","-6.5","","92","","","M","10","","22","","","M","93.75","","","","-12","","NA"
"-102.97","49.21","ESTEVAN A","4012403","2018-01-25 13:00","2018","01","25","13:00","-4.5","","-5.7","","91","","","M","10","","21","","","M","93.62","","","","-11","","NA"
"-102.97","49.21","ESTEVAN A","4012403","2018-01-25 14:00","2018","01","25","14:00","-4.5","","-5.8","","90","","","M","11","","20","","","M","93.53","","","","-11","","NA"
"-102.97","49.21","ESTEVAN A","4012403","2018-01-25 15:00","2018","01","25","15:00","-3.6","","-5.4","","87","","","M","10","","20","","","M","93.47","","","","-10","","NA"
"-102.97","49.21","ESTEVAN A","4012403","2018-01-25 16:00","2018","01","25","16:00","-3.4","","-5.8","","83","","","M","11","","21","","","M","93.43","","","","-10","","NA"
"-102.97","49.21","ESTEVAN A","4012403","2018-01-25 17:00","2018","01","25","17:00","-3.5","","-5.6","","86","","","M","10","","19","","","M","93.41","","","","-9","","NA"
"-102.97","49.21","ESTEVAN A","4012403","2018-01-25 18:00","2018","01","25","18:00","-4.5","","-5.9","","90","","","M","8","","14","","","M","93.38","","","","-10","","NA"
"-102.97","49.21","ESTEVAN A","4012403","2018-01-25 19:00","2018","01","25","19:00","-4.8","","-6.0","","91","","","M","9","","13","","","M","93.35","","","","-10","","NA"
"-102.97","49.21","ESTEVAN A","4012403","2018-01-25 20:00","2018","01","25","20:00","-6.0","","-6.9","","93","","","M","10","","11","","","M","93.30","","","","-11","","NA"
"-102.97","49.21","ESTEVAN A","4012403","2018-01-25 21:00","2018","01","25","21:00","-6.5","","-7.4","","93","","","M","11","","13","","","M","93.25","","","","-12","","NA"
"-102.97","49.21","ESTEVAN A","4012403","2018-01-25 22:00","2018","01","25","22:00","-6.1","","-7.0","","93","","","M","10","","10","","","M","93.18","","","","-11","","NA"
"-102.97","49.21","ESTEVAN A","4012403","2018-01-25 23:00","2018","01","25","23:00","-6.5","","-7.5","","93","","","M","6","","9","","","M","93.22","","","","-11","","NA"
"-102.97","49.21","ESTEVAN A","4012403","2018-01-26 00:00","2018","01","26","00:00","-6.3","","-7.2","","93","","","M","5","","7","","","M","93.23","","","","-10","","NA"
"-102.97","49.21","ESTEVAN A","4012403","2018-01-26 01:00","2018","01","26","01:00","-6.3","","-7.2","","93","","","M","8","","8","","","M","93.20","","","","-10","","NA"
"-102.97","49.21","ESTEVAN A","4012403","2018-01-26 02:00","2018","01","26","02:00","-5.9","","-7.0","","93","","","M","28","","8","","","M","93.20","","","","-10","","NA"
"-102.97","49.21","ESTEVAN A","4012403","2018-01-26 03:00","2018","01","26","03:00","-6.6","","-7.5","","93","","","M","33","","9","","","M","93.20","","","","-11","","NA"
"-102.97","49.21","ESTEVAN A","4012403","2018-01-26 04:00","2018","01","26","04:00","-6.7","","-7.6","","93","","","M","25","","3","","","M","93.27","","","","-8","","NA"
"-102.97","49.21","ESTEVAN A","4012403","2018-01-26 05:00","2018","01","26","05:00","-6.2","","-7.2","","92","","","M","33","","6","","","M","93.35","","","","-9","","NA"
"-102.97","49.21","ESTEVAN A","4012403","2018-01-26 06:00","2018","01","26","06:00","-4.8","","-5.8","","93","","","M","29","","14","","","M","93.39","","","","-10","","NA"
"-102.97","49.21","ESTEVAN A","4012403","2018-01-26 07:00","2018","01","26","07:00","-3.5","","-5.0","","89","","","M","30","","39","","","M","93.51","","","","-12","","NA"
"-102.97","49.21","ESTEVAN A","4012403","2018-01-26 08:00","2018","01","26","08:00","-5.1","","-7.0","","86","","","M","30","","32","","","M","93.61","","","","-13","","NA"
"-102.97","49.21","ESTEVAN A","4012403","2018-01-26 09:00","2018","01","26","09:00","-6.0","","-8.4","","83","","","M","30","","40","","","M","93.69","","","","-15","","NA"
"-102.97","49.21","ESTEVAN A","4012403","2018-01-26 10:00","2018","01","26","10:00","-6.0","","-8.1","","86","","","M","30","","39","","","M","93.78","","","","-15","","NA"
"-102.97","49.21","ESTEVAN A","4012403","2018-01-26 11:00","2018","01","26","11:00","-6.0","","-8.7","","82","","","M","29","","36","","","M","93.87","","","","-15","","NA"
"-102.97","49.21","ESTEVAN A","4012403","2018-01-26 12:00","2018","01","26","12:00","-5.3","","-8.5","","78","","","M","29","","28","","","M","93.94","","","","-13","","NA"
"-102.97","49.21","ESTEVAN A","4012403","2018-01-26 13:00","2018","01","26","13:00","-5.8","","-9.8","","74","","","M","30","","41","","","M","93.96","","","","-15","","NA"
"-102.97","49.21","ESTEVAN A","4012403","2018-01-26 14:00","2018","01","26","14:00","-4.9","","-10.4","","65","","","M","29","","34","","","M","94.01","","","","-13","","NA"
"-102.97","49.21","ESTEVAN A","4012403","2018-01-26 15:00","2018","01","26","15:00","-4.9","","-10.7","","64","","","M","30","","32","","","M","94.06","","","","-13","","NA"
"-102.97","49.21","ESTEVAN A","4012403","2018-01-26 16:00","2018","01","26","16:00","-4.6","","-10.2","","65","","","M","30","","24","","","M","94.11","","","","-12","","NA"
"-102.97","49.21","ESTEVAN A","4012403","2018-01-26 17:00","2018","01","26","17:00","-5.7","","-11.3","","65","","","M","29","","26","","","M","94.15","","","","-13","","NA"
"-102.97","49.21","ESTEVAN A","4012403","2018-01-26 18:00","2018","01","26","18:00","-9.2","","-12.7","","76","","","M","31","","17","","","M","94.25","","","","-16","","NA"
"-102.97","49.21","ESTEVAN A","4012403","2018-01-26 19:00","2018","01","26","19:00","-10.9","","-13.7","","80","","","M","30","","21","","","M","94.31","","","","-19","","NA"
"-102.97","49.21","ESTEVAN A","4012403","2018-01-26 20:00","2018","01","26","20:00","-11.7","","-14.5","","80","","","M","29","","16","","","M","94.34","","","","-19","","NA"
"-102.97","49.21","ESTEVAN A","4012403","2018-01-26 21:00","2018","01","26","21:00","-13.5","","-15.9","","83","","","M","28","","13","","","M","94.39","","","","-20","","NA"
"-102.97","49.21","ESTEVAN A","4012403","2018-01-26 22:00","2018","01","26","22:00","-14.0","","-16.3","","83","","","M","28","","15","","","M","94.44","","","","-22","","NA"
"-102.97","49.21","ESTEVAN A","4012403","2018-01-26 23:00","2018","01","26","23:00","-11.0","","-15.5","","70","","","M","30","","28","","","M","94.48","","","","-21","","NA"
"-102.97","49.21","ESTEVAN A","4012403","2018-01-27 00:00","2018","01","27","00:00","-10.3","","-15.0","","69","","","M","31","","33","","","M","94.53","","","","-20","","NA"
"-102.97","49.21","ESTEVAN A","4012403","2018-01-27 01:00","2018","01","27","01:00","-10.5","","-15.1","","69","","","M","30","","31","","","M","94.59","","","","-20","","NA"
"-102.97","49.21","ESTEVAN A","4012403","2018-01-27 02:00","2018","01","27","02:00","-12.2","","-16.4","","71","","","M","30","","26","","","M","94.65","","","","-22","","NA"
"-102.97","49.21","ESTEVAN A","4012403","2018-01-27 03:00","2018","01","27","03:00","-13.8","","-17.4","","75","","","M","29","","25","","","M","94.71","","","","-24","","NA"
"-102.97","49.21","ESTEVAN A","4012403","2018-01-27 04:00","2018","01","27","04:00","-14.8","","-18.0","","77","","","M","28","","22","","","M","94.77","","","","-24","","NA"
"-102.97","49.21","ESTEVAN A","4012403","2018-01-27 05:00","2018","01","27","05:00","-14.5","","-17.6","","78","","","M","28","","21","","","M","94.83","","","","-24","","NA"
"-102.97","49.21","ESTEVAN A","4012403","2018-01-27 06:00","2018","01","27","06:00","-14.8","","-18.0","","77","","","M","29","","22","","","M","94.86","","","","-24","","NA"
"-102.97","49.21","ESTEVAN A","4012403","2018-01-27 07:00","2018","01","27","07:00","-13.9","","-16.9","","78","","","M","29","","22","","","M","94.92","","","","-23","","NA"
"-102.97","49.21","ESTEVAN A","4012403","2018-01-27 08:00","2018","01","27","08:00","-13.1","","-16.2","","78","","","M","31","","27","","","M","95.03","","","","-23","","NA"
"-102.97","49.21","ESTEVAN A","4012403","2018-01-27 09:00","2018","01","27","09:00","-13.0","","-16.5","","75","","","M","31","","29","","","M","95.12","","","","-23","","NA"
"-102.97","49.21","ESTEVAN A","4012403","2018-01-27 10:00","2018","01","27","10:00","-13.1","","-16.4","","76","","","M","33","","23","","","M","95.24","","","","-22","","NA"
"-102.97","49.21","ESTEVAN A","4012403","2018-01-27 11:00","2018","01","27","11:00","-13.2","","-17.3","","71","","","M","33","","25","","","M","95.36","","","","-23","","NA"
"-102.97","49.21","ESTEVAN A","4012403","2018-01-27 12:00","2018","01","27","12:00","-12.8","","-17.4","","69","","","M","32","","29","","","M","95.45","","","","-23","","NA"
"-102.97","49.21","ESTEVAN A","4012403","2018-01-27 13:00","2018","01","27","13:00","-12.0","","-16.8","","68","","","M","33","","27","","","M","95.49","","","","-22","","NA"
"-102.97","49.21","ESTEVAN A","4012403","2018-01-27 14:00","2018","01","27","14:00","-12.2","","-17.2","","67","","","M","33","","29","","","M","95.54","","","","-22","","NA"
"-102.97","49.21","ESTEVAN A","4012403","2018-01-27 15:00","2018","01","27","15:00","-12.4","","-17.7","","65","","","M","34","","26","","","M","95.65","","","","-22","","NA"
"-102.97","49.21","ESTEVAN A","4012403","2018-01-27 16:00","2018","01","27","16:00","-12.9","","-17.7","","68","","","M","34","","23","","","M","95.72","","","","-22","","NA"
"-102.97","49.21","ESTEVAN A","4012403","2018-01-27 17:00","2018","01","27","17:00","-14.2","","-18.2","","72","","","M","33","","17","","","M","95.80","","","","-22","","NA"
"-102.97","49.21","ESTEVAN A","4012403","2018-01-27 18:00","2018","01","27","18:00","-16.2","","-19.2","","78","","","M","34","","10","","","M","95.82","","","","-23","","NA"
"-102.97","49.21","ESTEVAN A","4012403","2018-01-27 19:00","2018","01","27","19:00","-16.9","","-19.8","","79","","","M","33","","7","","","M","95.84","","","","-22","","NA"
"-102.97","49.21","ESTEVAN A","4012403","2018-01-27 20:00","2018","01","27","20:00","-19.1","","-21.9","","79","","","M","30","","10","","","M","95.90","","","","-26","","NA"
"-102.97","49.21","ESTEVAN A","4012403","2018-01-27 21:00","2018","01","27","21:00","-20.4","","-23.0","","81","","","M","29","","13","","","M","95.96","","","","-29","","NA"
"-102.97","49.21","ESTEVAN A","4012403","2018-01-27 22:00","2018","01","27","22:00","-21.6","","-24.3","","80","","","M","29","","11","","","M","95.99","","","","-30","","NA"
"-102.97","49.21","ESTEVAN A","4012403","2018-01-27 23:00","2018","01","27","23:00","-21.7","","-24.6","","78","","","M","30","","7","","","M","96.03","","","","-28","","NA"
"-102.97","49.21","ESTEVAN A","4012403","2018-01-28 00:00","2018","01","28","00:00","-22.6","","-25.3","","79","","","M","36","","7","","","M","96.07","","","","-29","","NA"
"-102.97","49.21","ESTEVAN A","4012403","2018-01-28 01:00","2018","01","28","01:00","-22.6","","-25.2","","80","","","M","9","","5","","","M","96.13","","","","-27","","NA"
"-102.97","49.21","ESTEVAN A","4012403","2018-01-28 02:00","2018","01","28","02:00","-21.9","","-24.6","","80","","","M","10","","13","","","M","96.12","","","","-31","","NA"
"-102.97","49.21","ESTEVAN A","4012403","2018-01-28 03:00","2018","01","28","03:00","-20.9","","-23.6","","79","","","M","9","","10","","","M","96.19","","","","-28","","NA"
"-102.97","49.21","ESTEVAN A","4012403","2018-01-28 04:00","2018","01","28","04:00","-21.7","","-24.6","","78","","","M","11","","8","","","M","96.24","","","","-28","","NA"
"-102.97","49.21","ESTEVAN A","4012403","2018-01-28 05:00","2018","01","28","05:00","-22.1","","-24.9","","78","","","M","13","","8","","","M","96.30","","","","-29","","NA"
"-102.97","49.21","ESTEVAN A","4012403","2018-01-28 06:00","2018","01","28","06:00","-22.0","","-24.8","","78","","","M","10","","7","","","M","96.36","","","","-28","","NA"
"-102.97","49.21","ESTEVAN A","4012403","2018-01-28 07:00","2018","01","28","07:00","-21.6","","-24.6","","78","","","M","9","","6","","","M","96.40","","","","-27","","NA"
"-102.97","49.21","ESTEVAN A","4012403","2018-01-28 08:00","2018","01","28","08:00","-22.4","","-25.4","","77","","","M","9","","7","","","M","96.49","","","","-28","","NA"
"-102.97","49.21","ESTEVAN A","4012403","2018-01-28 09:00","2018","01","28","09:00","-22.3","","-25.2","","77","","","M","9","","6","","","M","96.58","","","","-28","","NA"
"-102.97","49.21","ESTEVAN A","4012403","2018-01-28 10:00","2018","01","28","10:00","-20.5","","-23.4","","78","","","M","5","","7","","","M","96.71","","","","-26","","NA"
"-102.97","49.21","ESTEVAN A","4012403","2018-01-28 11:00","2018","01","28","11:00","-19.3","","-22.2","","78","","","M","11","","8","","","M","96.73","","","","-25","","NA"
"-102.97","49.21","ESTEVAN A","4012403","2018-01-28 12:00","2018","01","28","12:00","-17.7","","-20.8","","77","","","M","16","","8","","","M","96.74","","","","-24","","NA"
"-102.97","49.21","ESTEVAN A","4012403","2018-01-28 13:00","2018","01","28","13:00","-15.6","","-19.6","","72","","","M","17","","5","","","M","96.68","","","","-19","","NA"
"-102.97","49.21","ESTEVAN A","4012403","2018-01-28 14:00","2018","01","28","14:00","-14.5","","-19.3","","67","","","M","22","","8","","","M","96.66","","","","-20","","NA"
"-102.97","49.21","ESTEVAN A","4012403","2018-01-28 15:00","2018","01","28","15:00","-13.7","","-18.3","","69","","","M","24","","10","","","M","96.70","","","","-20","","NA"
"-102.97","49.21","ESTEVAN A","4012403","2018-01-28 16:00","2018","01","28","16:00","-13.6","","-18.0","","70","","","M","27","","7","","","M","96.69","","","","-18","","NA"
"-102.97","49.21","ESTEVAN A","4012403","2018-01-28 17:00","2018","01","28","17:00","-13.7","","-17.9","","71","","","M","23","","5","","","M","96.68","","","","-17","","NA"
"-102.97","49.21","ESTEVAN A","4012403","2018-01-28 18:00","2018","01","28","18:00","-14.0","","-17.7","","74","","","M","24","","5","","","M","96.71","","","","-17","","NA"
"-102.97","49.21","ESTEVAN A","4012403","2018-01-28 19:00","2018","01","28","19:00","-14.5","","-17.5","","78","","","M","15","","3","","","M","96.65","","","","-17","","NA"
"-102.97","49.21","ESTEVAN A","4012403","2018-01-28 20:00","2018","01","28","20:00","-16.0","","-18.8","","79","","","M","10","","4","","","M","96.63","","","","-19","","NA"
"-102.97","49.21","ESTEVAN A","4012403","2018-01-28 21:00","2018","01","28","21:00","-16.9","","-19.2","","83","","","M","9","","10","","","M","96.59","","","","-24","","NA"
"-102.97","49.21","ESTEVAN A","4012403","2018-01-28 22:00","2018","01","28","22:00","-17.4","","-20.0","","81","","","M","10","","6","","","M","96.57","","","","-22","","NA"
"-102.97","49.21","ESTEVAN A","4012403","2018-01-28 23:00","2018","01","28","23:00","-18.4","","-20.7","","82","","","M","12","","6","","","M","96.55","","","","-23","","NA"
"-102.97","49.21","ESTEVAN A","4012403","2018-01-29 00:00","2018","01","29","00:00","-19.2","","-21.4","","83","","","M","11","","4","","","M","96.54","","","","-23","","NA"
"-102.97","49.21","ESTEVAN A","4012403","2018-01-29 01:00","2018","01","29","01:00","-21.9","","-24.4","","81","","","M","10","","8","","","M","96.51","","","","-28","","NA"
"-102.97","49.21","ESTEVAN A","4012403","2018-01-29 02:00","2018","01","29","02:00","-22.6","","-25.2","","79","","","M","7","","9","","","M","96.49","","","","-30","","NA"
"-102.97","49.21","ESTEVAN A","4012403","2018-01-29 03:00","2018","01","29","03:00","-21.3","","-23.7","","81","","","M","11","","7","","","M","96.47","","","","-27","","NA"
"-102.97","49.21","ESTEVAN A","4012403","2018-01-29 04:00","2018","01","29","04:00","-21.2","","-23.5","","82","","","M","12","","8","","","M","96.40","","","","-28","","NA"
"-102.97","49.21","ESTEVAN A","4012403","2018-01-29 05:00","2018","01","29","05:00","-22.1","","-24.9","","79","","","M","12","","7","","","M","96.37","","","","-28","","NA"
"-102.97","49.21","ESTEVAN A","4012403","2018-01-29 06:00","2018","01","29","06:00","-22.7","","-25.6","","78","","","M","8","","7","","","M","96.35","","","","-29","","NA"
"-102.97","49.21","ESTEVAN A","4012403","2018-01-29 07:00","2018","01","29","07:00","-21.8","","-24.4","","80","","","M","9","","11","","","M","96.35","","","","-30","","NA"
"-102.97","49.21","ESTEVAN A","4012403","2018-01-29 08:00","2018","01","29","08:00","-20.2","","-22.7","","81","","","M","9","","12","","","M","96.32","","","","-28","","NA"
"-102.97","49.21","ESTEVAN A","4012403","2018-01-29 09:00","2018","01","29","09:00","-19.9","","-22.4","","81","","","M","10","","9","","","M","96.26","","","","-27","","NA"
"-102.97","49.21","ESTEVAN A","4012403","2018-01-29 10:00","2018","01","29","10:00","-18.5","","-20.9","","82","","","M","12","","11","","","M","96.23","","","","-26","","NA"
"-102.97","49.21","ESTEVAN A","4012403","2018-01-29 11:00","2018","01","29","11:00","-15.8","","-18.0","","84","","","M","10","","13","","","M","96.15","","","","-23","","NA"
"-102.97","49.21","ESTEVAN A","4012403","2018-01-29 12:00","2018","01","29","12:00","-14.0","","-16.1","","84","","","M","11","","18","","","M","96.11","","","","-22","","NA"
"-102.97","49.21","ESTEVAN A","4012403","2018-01-29 13:00","2018","01","29","13:00","-12.1","","-14.5","","83","","","M","11","","17","","","M","95.98","","","","-20","","NA"
"-102.97","49.21","ESTEVAN A","4012403","2018-01-29 14:00","2018","01","29","14:00","-10.2","","-13.9","","74","","","M","11","","19","","","M","95.86","","","","-18","","NA"
"-102.97","49.21","ESTEVAN A","4012403","2018-01-29 15:00","2018","01","29","15:00","-8.6","","-13.6","","67","","","M","14","","24","","","M","95.75","","","","-17","","NA"
"-102.97","49.21","ESTEVAN A","4012403","2018-01-29 16:00","2018","01","29","16:00","-8.7","","-13.2","","70","","","M","12","","23","","","M","95.66","","","","-17","","NA"
"-102.97","49.21","ESTEVAN A","4012403","2018-01-29 17:00","2018","01","29","17:00","-8.7","","-13.1","","71","","","M","12","","26","","","M","95.58","","","","-17","","NA"
"-102.97","49.21","ESTEVAN A","4012403","2018-01-29 18:00","2018","01","29","18:00","-9.7","","-13.3","","75","","","M","12","","26","","","M","95.51","","","","-19","","NA"
"-102.97","49.21","ESTEVAN A","4012403","2018-01-29 19:00","2018","01","29","19:00","-10.5","","-13.8","","77","","","M","12","","27","","","M","95.32","","","","-20","","NA"
"-102.97","49.21","ESTEVAN A","4012403","2018-01-29 20:00","2018","01","29","20:00","-11.0","","-14.0","","79","","","M","12","","29","","","M","95.18","","","","-21","","NA"
"-102.97","49.21","ESTEVAN A","4012403","2018-01-29 21:00","2018","01","29","21:00","-10.8","","-13.6","","80","","","M","12","","24","","","M","95.03","","","","-20","","NA"
"-102.97","49.21","ESTEVAN A","4012403","2018-01-29 22:00","2018","01","29","22:00","-10.5","","-13.1","","81","","","M","11","","27","","","M","94.88","","","","-20","","NA"
"-102.97","49.21","ESTEVAN A","4012403","2018-01-29 23:00","2018","01","29","23:00","-10.3","","-12.8","","82","","","M","12","","27","","","M","94.74","","","","-19","","NA"
"-102.97","49.21","ESTEVAN A","4012403","2018-01-30 00:00","2018","01","30","00:00","-10.1","","-12.4","","83","","","M","12","","27","","","M","94.51","","","","-19","","NA"
"-102.97","49.21","ESTEVAN A","4012403","2018-01-30 01:00","2018","01","30","01:00","-9.2","","-11.6","","83","","","M","12","","18","","","M","94.36","","","","-16","","NA"
"-102.97","49.21","ESTEVAN A","4012403","2018-01-30 02:00","2018","01","30","02:00","-8.9","","-11.1","","84","","","M","12","","19","","","M","94.12","","","","-16","","NA"
"-102.97","49.21","ESTEVAN A","4012403","2018-01-30 03:00","2018","01","30","03:00","-6.5","","-9.6","","79","","","M","13","","25","","","M","93.90","","","","-14","","NA"
"-102.97","49.21","ESTEVAN A","4012403","2018-01-30 04:00","2018","01","30","04:00","-6.2","","-9.2","","79","","","M","12","","22","","","M","93.68","","","","-13","","NA"
"-102.97","49.21","ESTEVAN A","4012403","2018-01-30 05:00","2018","01","30","05:00","-6.0","","-8.8","","81","","","M","12","","18","","","M","93.45","","","","-12","","NA"
"-102.97","49.21","ESTEVAN A","4012403","2018-01-30 06:00","2018","01","30","06:00","-5.6","","-8.5","","80","","","M","14","","17","","","M","93.31","","","","-12","","NA"
"-102.97","49.21","ESTEVAN A","4012403","2018-01-30 07:00","2018","01","30","07:00","-4.9","","-7.8","","80","","","M","14","","17","","","M","93.18","","","","-11","","NA"
"-102.97","49.21","ESTEVAN A","4012403","2018-01-30 08:00","2018","01","30","08:00","-4.5","","-7.2","","82","","","M","13","","12","","","M","93.01","","","","-9","","NA"
"-102.97","49.21","ESTEVAN A","4012403","2018-01-30 09:00","2018","01","30","09:00","-0.8","","-4.0","","79","","","M","20","","16","","","M","92.90","","","","-6","","NA"
"-102.97","49.21","ESTEVAN A","4012403","2018-01-30 10:00","2018","01","30","10:00","0.9","","-3.3","","73","","","M","21","","24","","","M","92.80","","","","","","NA"
"-102.97","49.21","ESTEVAN A","4012403","2018-01-30 11:00","2018","01","30","11:00","4.7","","-1.7","","63","","","M","22","","30","","","M","92.64","","","","","","NA"
"-102.97","49.21","ESTEVAN A","4012403","2018-01-30 12:00","2018","01","30","12:00","4.6","","-1.1","","67","","","M","24","","32","","","M","92.65","","","","","","NA"
"-102.97","49.21","ESTEVAN A","4012403","2018-01-30 13:00","2018","01","30","13:00","3.1","","-1.2","","73","","","M","28","","52","","","M","92.70","","","","","","NA"
"-102.97","49.21","ESTEVAN A","4012403","2018-01-30 14:00","2018","01","30","14:00","-1.2","","-4.5","","78","","","M","29","","46","","","M","92.82","","","","-9","","NA"
"-102.97","49.21","ESTEVAN A","4012403","2018-01-30 15:00","2018","01","30","15:00","-3.7","","-8.1","","71","","","M","29","","60","","","M","92.94","","","","-14","","NA"
"-102.97","49.21","ESTEVAN A","4012403","2018-01-30 16:00","2018","01","30","16:00","-3.6","","-9.1","","66","","","M","30","","48","","","M","93.12","","","","-13","","NA"
"-102.97","49.21","ESTEVAN A","4012403","2018-01-30 17:00","2018","01","30","17:00","-5.2","","-9.4","","72","","","M","30","","33","","","M","93.29","","","","-14","","NA"
"-102.97","49.21","ESTEVAN A","4012403","2018-01-30 18:00","2018","01","30","18:00","-7.7","","-12.3","","70","","","M","30","","41","","","M","93.43","","","","-18","","NA"
"-102.97","49.21","ESTEVAN A","4012403","2018-01-30 19:00","2018","01","30","19:00","-9.4","","-13.4","","73","","","M","31","","38","","","M","93.56","","","","-20","","NA"
"-102.97","49.21","ESTEVAN A","4012403","2018-01-30 20:00","2018","01","30","20:00","-10.3","","-14.0","","74","","","M","30","","30","","","M","93.68","","","","-20","","NA"
"-102.97","49.21","ESTEVAN A","4012403","2018-01-30 21:00","2018","01","30","21:00","-10.8","","-14.3","","76","","","M","30","","34","","","M","93.73","","","","-21","","NA"
"-102.97","49.21","ESTEVAN A","4012403","2018-01-30 22:00","2018","01","30","22:00","-10.9","","-14.2","","77","","","M","30","","25","","","M","93.79","","","","-20","","NA"
"-102.97","49.21","ESTEVAN A","4012403","2018-01-30 23:00","2018","01","30","23:00","-12.2","","-14.7","","82","","","M","27","","19","","","M","93.82","","","","-20","","NA"
"-102.97","49.21","ESTEVAN A","4012403","2018-01-31 00:00","2018","01","31","00:00","-12.3","","-15.1","","80","","","M","27","","21","","","M","93.92","","","","-21","","NA"
"-102.97","49.21","ESTEVAN A","4012403","2018-01-31 01:00","2018","01","31","01:00","-12.6","","-15.0","","82","","","M","26","","20","","","M","93.92","","","","-21","","NA"
"-102.97","49.21","ESTEVAN A","4012403","2018-01-31 02:00","2018","01","31","02:00","-12.9","","-15.3","","83","","","M","26","","15","","","M","93.88","","","","-20","","NA"
"-102.97","49.21","ESTEVAN A","4012403","2018-01-31 03:00","2018","01","31","03:00","-12.4","","-14.9","","82","","","M","25","","15","","","M","93.89","","","","-20","","NA"
"-102.97","49.21","ESTEVAN A","4012403","2018-01-31 04:00","2018","01","31","04:00","-13.1","","-15.3","","83","","","M","29","","16","","","M","93.85","","","","-21","","NA"
"-102.97","49.21","ESTEVAN A","4012403","2018-01-31 05:00","2018","01","31","05:00","-12.0","","-14.6","","81","","","M","30","","22","","","M","93.88","","","","-21","","NA"
"-102.97","49.21","ESTEVAN A","4012403","2018-01-31 06:00","2018","01","31","06:00","-11.8","","-14.5","","81","","","M","29","","22","","","M","93.92","","","","-21","","NA"
"-102.97","49.21","ESTEVAN A","4012403","2018-01-31 07:00","2018","01","31","07:00","-11.4","","-14.4","","79","","","M","30","","30","","","M","93.96","","","","-21","","NA"
"-102.97","49.21","ESTEVAN A","4012403","2018-01-31 08:00","2018","01","31","08:00","-12.0","","-16.6","","69","","","M","31","","49","","","M","94.02","","","","-24","","NA"
"-102.97","49.21","ESTEVAN A","4012403","2018-01-31 09:00","2018","01","31","09:00","-12.9","","-17.1","","71","","","M","32","","44","","","M","94.15","","","","-25","","NA"
"-102.97","49.21","ESTEVAN A","4012403","2018-01-31 10:00","2018","01","31","10:00","-14.7","","-18.7","","72","","","M","32","","43","","","M","94.30","","","","-27","","NA"
"-102.97","49.21","ESTEVAN A","4012403","2018-01-31 11:00","2018","01","31","11:00","-15.3","","-21.8","","58","","","M","32","","47","","","M","94.47","","","","-29","","NA"
"-102.97","49.21","ESTEVAN A","4012403","2018-01-31 12:00","2018","01","31","12:00","-15.4","","-21.6","","59","","","M","32","","44","","","M","94.55","","","","-28","","NA"
"-102.97","49.21","ESTEVAN A","4012403","2018-01-31 13:00","2018","01","31","13:00","-15.5","","-22.1","","58","","","M","32","","40","","","M","94.60","","","","-28","","NA"
"-102.97","49.21","ESTEVAN A","4012403","2018-01-31 14:00","2018","01","31","14:00","-15.9","","-22.6","","57","","","M","31","","49","","","M","94.68","","","","-30","","NA"
"-102.97","49.21","ESTEVAN A","4012403","2018-01-31 15:00","2018","01","31","15:00","-16.1","","-22.6","","58","","","M","31","","43","","","M","94.77","","","","-29","","NA"
"-102.97","49.21","ESTEVAN A","4012403","2018-01-31 16:00","2018","01","31","16:00","-16.6","","-22.7","","59","","","M","31","","43","","","M","94.92","","","","-30","","NA"
"-102.97","49.21","ESTEVAN A","4012403","2018-01-31 17:00","2018","01","31","17:00","-17.5","","-23.3","","62","","","M","31","","44","","","M","95.03","","","","-31","","NA"
"-102.97","49.21","ESTEVAN A","4012403","2018-01-31 18:00","2018","01","31","18:00","-18.9","","-23.8","","66","","","M","31","","32","","","M","95.15","","","","-31","","NA"
"-102.97","49.21","ESTEVAN A","4012403","2018-01-31 19:00","2018","01","31","19:00","-19.8","","-24.4","","67","","","M","31","","28","","","M","95.28","","","","-32","","NA"
"-102.97","49.21","ESTEVAN A","4012403","2018-01-31 20:00","2018","01","31","20:00","-20.3","","-24.7","","69","","","M","31","","29","","","M","95.37","","","","-33","","NA"
"-102.97","49.21","ESTEVAN A","4012403","2018-01-31 21:00","2018","01","31","21:00","-21.0","","-25.0","","70","","","M","31","","27","","","M","95.42","","","","-33","","NA"
"-102.97","49.21","ESTEVAN A","4012403","2018-01-31 22:00","2018","01","31","22:00","-21.6","","-25.3","","72","","","M","31","","25","","","M","95.49","","","","-34","","NA"
"-102.97","49.21","ESTEVAN A","4012403","2018-01-31 23:00","2018","01","31","23:00","-22.0","","-25.6","","73","","","M","30","","25","","","M","95.56","","","","-34","","NA"
