"Longitude (x)","Latitude (y)","Station Name","Climate ID","Date/Time (LST)","Year","Month","Day","Time (LST)","Temp (°C)","Temp Flag","Dew Point Temp (°C)","Dew Point Temp Flag","Rel Hum (%)","Rel Hum Flag","Precip. Amount (mm)","Precip. Amount Flag","Wind Dir (10s deg)","Wind Dir Flag","Wind Spd (km/h)","Wind Spd Flag","Visibility (km)","Visibility Flag","Stn Press (kPa)","Stn Press Flag","Hmdx","Hmdx Flag","Wind Chill","Wind Chill Flag","Weather"
"-98.51","58.71","TADOULE LAKE","5062835","2012-02-01 00:00","2012","02","01","00:00","-17.3","","-19.0","","87","","","","16","","4","","16.1","","97.49","","","","-20","","NA"
"-98.51","58.71","TADOULE LAKE","5062835","2012-02-01 01:00","2012","02","01","01:00","-17.2","","-18.9","","87","","","","17","","4","","16.1","","97.51","","","","-20","","NA"
"-98.51","58.71","TADOULE LAKE","5062835","2012-02-01 02:00","2012","02","01","02:00","-17.1","","-18.8","","87","","","","17","","4","","16.1","","97.53","","","","-20","","NA"
"-98.51","58.71","TADOULE LAKE","5062835","2012-02-01 03:00","2012","02","01","03:00","-17.0","","-18.5","","88","","","","23","","5","","16.1","","97.58","","","","-21","","NA"
"-98.51","58.71","TADOULE LAKE","5062835","2012-02-01 04:00","2012","02","01","04:00","-17.0","","-18.5","","88","","","","","","0","","16.1","","97.58","","","","","","NA"
"-98.51","58.71","TADOULE LAKE","5062835","2012-02-01 05:00","2012","02","01","05:00","-16.9","","-18.4","","88","","","","","","0","","16.1","","97.60","","","","","","NA"
"-98.51","58.71","TADOULE LAKE","5062835","2012-02-01 06:00","2012","02","01","06:00","-16.9","","-18.3","","89","","","","","","0","","16.1","","97.63","","","","","","NA"
"-98.51","58.71","TADOULE LAKE","5062835","2012-02-01 07:00","2012","02","01","07:00","-16.7","","-18.2","","88","","","","","","0","","16.1","","97.72","","","","","","NA"
"-98.51","58.71","TADOULE LAKE","5062835","2012-02-01 08:00","2012","02","01","08:00","-16.6","","-18.0","","89","","","","","M","4","","16.1","","97.77","","","","-20","","NA"
"-98.51","58.71","TADOULE LAKE","5062835","2012-02-01 09:00","2012","02","01","09:00","-16.5","","-18.1","","88","","","","","","0","","16.1","","97.80","","","","","","NA"
"-98.51","58.71","TADOULE LAKE","5062835","2012-02-01 10:00","2012","02","01","10:00","-16.2","","-17.9","","87","","","","","","0","","16.1","","97.84","","","","","","NA"
"-98.51","58.71","TADOULE LAKE","5062835","2012-02-01 11:00","2012","02","01","11:00","-15.9","","-17.9","","85","","","","","","0","","16.1","","97.87","","","","","","NA"
"-98.51","58.71","TADOULE LAKE","5062835","2012-02-01 12:00","2012","02","01","12:00","-15.4","","-17.7","","83","","","","","","0","","16.1","","97.91","","","","","","NA"
"-98.51","58.71","TADOULE LAKE","5062835","2012-02-01 13:00","2012","02","01","13:00","-15.1","","-17.4","","83","","","","10","","4","","16.1","","97.92","","","","-18","","NA"
"-98.51","58.71","TADOULE LAKE","5062835","2012-02-01 14:00","2012","02","01","14:00","-14.6","","-16.9","","83","","","","12","","4","","16.1","","97.96","","","","-17","","NA"
"-98.51","58.71","TADOULE LAKE","5062835","2012-02-01 15:00","2012","02","01","15:00","-14.5","","-16.6","","84","","","","10","","4","","16.1","","98.02","","","","-17","","NA"
"-98.51","58.71","TADOULE LAKE","5062835","2012-02-01 16:00","2012","02","01","16:00","-14.4","","-16.7","","83","","","","13","","4","","16.1","","98.07","","","","-17","","NA"
"-98.51","58.71","TADOULE LAKE","5062835","2012-02-01 17:00","2012","02","01","17:00","-14.6","","-16.6","","85","","","","12","","4","","16.1","","98.14","","","","-17","","NA"
"-98.51","58.71","TADOULE LAKE","5062835","2012-02-01 18:00","2012","02","01","18:00","-15.0","","-17.0","","85","","","","12","","5","","16.1","","98.20","","","","-19","","NA"
"-98.51","58.71","TADOULE LAKE","5062835","2012-02-01 19:00","2012","02","01","19:00","-15.3","","-16.9","","88","","","","15","","5","","16.1","","98.23","","","","-19","","NA"
"-98.51","58.71","TADOULE LAKE","5062835","2012-02-01 20:00","2012","02","01","20:00","-15.4","","-17.4","","85","","","","19","","4","","16.1","","98.32","","","","-18","","NA"
"-98.51","58.71","TADOULE LAKE","5062835","2012-02-01 21:00","2012","02","01","21:00","-15.6","","-17.3","","87","","","","14","","5","","16.1","","98.34","","","","-19","","NA"
"-98.51","58.71","TADOULE LAKE","5062835","2012-02-01 22:00","2012","02","01","22:00","-16.1","","-17.8","","87","","","","15","","5","","16.1","","98.38","","","","-20","","NA"
"-98.51","58.71","TADOULE LAKE","5062835","2012-02-01 23:00","2012","02","01","23:00","-16.9","","-18.3","","89","","","","17","","4","","16.1","","98.44","","","","-20","","NA"
"-98.51","58.71","TADOULE LAKE","5062835","2012-02-02 00:00","2012","02","02","00:00","-17.4","","-18.5","","91","","","","17","","11","","16.1","","98.46","","","","-25","","NA"
"-98.51","58.71","TADOULE LAKE","5062835","2012-02-02 01:00","2012","02","02","01:00","-17.1","","-18.4","","90","","","","17","","8","","16.1","","98.52","","","","-23","","NA"
"-98.51","58.71","TADOULE LAKE","5062835","2012-02-02 02:00","2012","02","02","02:00","-17.2","","-18.6","","89","","","","19","","8","","16.1","","98.56","","","","-23","","NA"
"-98.51","58.71","TADOULE LAKE","5062835","2012-02-02 03:00","2012","02","02","03:00","-17.2","","-18.6","","89","","","","16","","8","","16.1","","98.60","","","","-23","","NA"
"-98.51","58.71","TADOULE LAKE","5062835","2012-02-02 04:00","2012","02","02","04:00","-17.1","","-18.5","","89","","","","18","","8","","16.1","","98.65","","","","-23","","NA"
"-98.51","58.71","TADOULE LAKE","5062835","2012-02-02 05:00","2012","02","02","05:00","-17.0","","-18.3","","90","","","","15","","5","","16.1","","98.67","","","","-21","","NA"
"-98.51","58.71","TADOULE LAKE","5062835","2012-02-02 06:00","2012","02","02","06:00","-16.3","","-17.6","","90","","","","19","","8","","16.1","","98.71","","","","-22","","NA"
"-98.51","58.71","TADOULE LAKE","5062835","2012-02-02 07:00","2012","02","02","07:00","-15.7","","-17.0","","90","","","","18","","8","","16.1","","98.75","","","","-21","","NA"
"-98.51","58.71","TADOULE LAKE","5062835","2012-02-02 08:00","2012","02","02","08:00","-14.3","","-15.5","","91","","","","18","","8","","16.1","","98.78","","","","-20","","NA"
"-98.51","58.71","TADOULE LAKE","5062835","2012-02-02 09:00","2012","02","02","09:00","-13.5","","-14.8","","90","","","","20","","9","","16.1","","98.77","","","","-19","","NA"
"-98.51","58.71","TADOULE LAKE","5062835","2012-02-02 10:00","2012","02","02","10:00","-13.1","","-13.5","","97","","","","22","","9","","2.4","","98.81","","","","-19","","NA"
"-98.51","58.71","TADOULE LAKE","5062835","2012-02-02 11:00","2012","02","02","11:00","-12.5","","-13.0","","96","","","","25","","9","","2.4","","98.87","","","","-18","","NA"
"-98.51","58.71","TADOULE LAKE","5062835","2012-02-02 12:00","2012","02","02","12:00","-11.2","","-11.9","","95","","","","27","","8","","4.0","","98.90","","","","-16","","NA"
"-98.51","58.71","TADOULE LAKE","5062835","2012-02-02 13:00","2012","02","02","13:00","-10.5","","-11.5","","93","","","","28","","8","","8.1","","98.92","","","","-15","","NA"
"-98.51","58.71","TADOULE LAKE","5062835","2012-02-02 14:00","2012","02","02","14:00","-10.0","","-11.5","","89","","","","31","","8","","12.9","","98.95","","","","-14","","NA"
"-98.51","58.71","TADOULE LAKE","5062835","2012-02-02 15:00","2012","02","02","15:00","-10.0","","-12.4","","83","","","","32","","8","","16.1","","98.98","","","","-14","","NA"
"-98.51","58.71","TADOULE LAKE","5062835","2012-02-02 16:00","2012","02","02","16:00","-10.1","","-12.3","","84","","","","30","","8","","12.9","","99.03","","","","-15","","NA"
"-98.51","58.71","TADOULE LAKE","5062835","2012-02-02 17:00","2012","02","02","17:00","-10.8","","-12.3","","89","","","","24","","5","","16.1","","99.04","","","","-14","","NA"
"-98.51","58.71","TADOULE LAKE","5062835","2012-02-02 18:00","2012","02","02","18:00","-10.7","","-12.0","","90","","","","24","","8","","9.7","","99.08","","","","-15","","NA"
"-98.51","58.71","TADOULE LAKE","5062835","2012-02-02 19:00","2012","02","02","19:00","-11.4","","-12.5","","92","","","","25","","4","","16.1","","99.05","","","","-14","","NA"
"-98.51","58.71","TADOULE LAKE","5062835","2012-02-02 20:00","2012","02","02","20:00","-11.0","","-12.3","","90","","","","23","","9","","16.1","","99.03","","","","-16","","NA"
"-98.51","58.71","TADOULE LAKE","5062835","2012-02-02 21:00","2012","02","02","21:00","-10.6","","-11.6","","93","","","","22","","9","","16.1","","99.00","","","","-16","","NA"
"-98.51","58.71","TADOULE LAKE","5062835","2012-02-02 22:00","2012","02","02","22:00","-10.5","","-11.3","","94","","","","21","","11","","16.1","","98.88","","","","-16","","NA"
"-98.51","58.71","TADOULE LAKE","5062835","2012-02-02 23:00","2012","02","02","23:00","-10.7","","-11.4","","95","","","","22","","11","","16.1","","98.89","","","","-16","","NA"
"-98.51","58.71","TADOULE LAKE","5062835","2012-02-03 00:00","2012","02","03","00:00","-11.2","","-11.7","","96","","","","22","","15","","16.1","","98.77","","","","-18","","NA"
"-98.51","58.71","TADOULE LAKE","5062835","2012-02-03 01:00","2012","02","03","01:00","-11.1","","-11.6","","96","","","","20","","18","","16.1","","98.63","","","","-19","","NA"
"-98.51","58.71","TADOULE LAKE","5062835","2012-02-03 02:00","2012","02","03","02:00","-10.8","","-11.3","","96","","","","20","","11","","16.1","","98.60","","","","-17","","NA"
"-98.51","58.71","TADOULE LAKE","5062835","2012-02-03 03:00","2012","02","03","03:00","-10.5","","-11.2","","95","","","","22","","17","","16.1","","98.49","","","","-18","","NA"
"-98.51","58.71","TADOULE LAKE","5062835","2012-02-03 04:00","2012","02","03","04:00","-9.0","","-9.7","","95","","","","23","","26","","16.1","","98.35","","","","-18","","NA"
"-98.51","58.71","TADOULE LAKE","5062835","2012-02-03 05:00","2012","02","03","05:00","-7.8","","-8.7","","93","","","","24","","28","","16.1","","98.27","","","","-16","","NA"
"-98.51","58.71","TADOULE LAKE","5062835","2012-02-03 06:00","2012","02","03","06:00","-8.3","","-9.2","","93","","","","24","","17","","16.1","","98.29","","","","-15","","NA"
"-98.51","58.71","TADOULE LAKE","5062835","2012-02-03 07:00","2012","02","03","07:00","-8.6","","-9.4","","94","","","","23","","13","","16.1","","98.27","","","","-15","","NA"
"-98.51","58.71","TADOULE LAKE","5062835","2012-02-03 08:00","2012","02","03","08:00","-8.5","","-9.4","","93","","","","25","","5","","16.1","","98.28","","","","-11","","NA"
"-98.51","58.71","TADOULE LAKE","5062835","2012-02-03 09:00","2012","02","03","09:00","-8.6","","-9.4","","94","","","","24","","13","","16.1","","98.30","","","","-15","","NA"
"-98.51","58.71","TADOULE LAKE","5062835","2012-02-03 10:00","2012","02","03","10:00","-5.7","","-7.3","","89","","","","28","","13","","16.1","","98.30","","","","-11","","NA"
"-98.51","58.71","TADOULE LAKE","5062835","2012-02-03 11:00","2012","02","03","11:00","-4.6","","-6.8","","85","","","","30","","18","","16.1","","98.33","","","","-11","","NA"
"-98.51","58.71","TADOULE LAKE","5062835","2012-02-03 12:00","2012","02","03","12:00","-3.9","","-6.5","","82","","","","29","","17","","16.1","","98.32","","","","-10","","NA"
"-98.51","58.71","TADOULE LAKE","5062835","2012-02-03 13:00","2012","02","03","13:00","-3.0","","-6.1","","79","","","","29","","17","","16.1","","98.36","","","","-9","","NA"
"-98.51","58.71","TADOULE LAKE","5062835","2012-02-03 14:00","2012","02","03","14:00","-2.2","","-5.7","","77","","","","30","","13","","16.1","","98.40","","","","-7","","NA"
"-98.51","58.71","TADOULE LAKE","5062835","2012-02-03 15:00","2012","02","03","15:00","-2.3","","-5.6","","78","","","","29","","15","","16.1","","98.43","","","","-7","","NA"
"-98.51","58.71","TADOULE LAKE","5062835","2012-02-03 16:00","2012","02","03","16:00","-2.9","","-5.8","","81","","","","29","","11","","16.1","","98.44","","","","-7","","NA"
"-98.51","58.71","TADOULE LAKE","5062835","2012-02-03 17:00","2012","02","03","17:00","-4.0","","-5.9","","87","","","","28","","11","","16.1","","98.48","","","","-8","","NA"
"-98.51","58.71","TADOULE LAKE","5062835","2012-02-03 18:00","2012","02","03","18:00","-4.6","","-6.2","","89","","","","30","","8","","16.1","","98.51","","","","-8","","NA"
"-98.51","58.71","TADOULE LAKE","5062835","2012-02-03 19:00","2012","02","03","19:00","-5.2","","-6.4","","91","","","","29","","8","","16.1","","98.54","","","","-9","","NA"
"-98.51","58.71","TADOULE LAKE","5062835","2012-02-03 20:00","2012","02","03","20:00","-5.1","","-6.3","","92","","","","29","","11","","16.1","","98.56","","","","-10","","NA"
"-98.51","58.71","TADOULE LAKE","5062835","2012-02-03 21:00","2012","02","03","21:00","-5.0","","-6.3","","91","","","","29","","15","","16.1","","98.57","","","","-11","","NA"
"-98.51","58.71","TADOULE LAKE","5062835","2012-02-03 22:00","2012","02","03","22:00","-5.5","","-6.6","","92","","","","29","","15","","16.1","","98.58","","","","-11","","NA"
"-98.51","58.71","TADOULE LAKE","5062835","2012-02-03 23:00","2012","02","03","23:00","-5.7","","-6.8","","92","","","","29","","13","","16.1","","98.61","","","","-11","","NA"
"-98.51","58.71","TADOULE LAKE","5062835","2012-02-04 00:00","2012","02","04","00:00","-7.2","","-7.7","","96","","","","30","","5","","16.1","","98.67","","","","-10","","NA"
"-98.51","58.71","TADOULE LAKE","5062835","2012-02-04 01:00","2012","02","04","01:00","-9.8","","-10.2","","97","","","","21","","5","","16.1","","98.68","","","","-13","","NA"
"-98.51","58.71","TADOULE LAKE","5062835","2012-02-04 02:00","2012","02","04","02:00","-9.9","","-10.4","","96","","","","23","","8","","16.1","","98.69","","","","-14","","NA"
"-98.51","58.71","TADOULE LAKE","5062835","2012-02-04 03:00","2012","02","04","03:00","-11.1","","-11.6","","96","","","","23","","11","","16.1","","98.67","","","","-17","","NA"
"-98.51","58.71","TADOULE LAKE","5062835","2012-02-04 04:00","2012","02","04","04:00","-8.9","","-9.4","","96","","","","25","","9","","16.1","","98.65","","","","-14","","NA"
"-98.51","58.71","TADOULE LAKE","5062835","2012-02-04 05:00","2012","02","04","05:00","-9.2","","-9.7","","96","","","","23","","8","","16.1","","98.63","","","","-14","","NA"
"-98.51","58.71","TADOULE LAKE","5062835","2012-02-04 06:00","2012","02","04","06:00","-10.1","","-10.8","","95","","","","22","","9","","16.1","","98.60","","","","-15","","NA"
"-98.51","58.71","TADOULE LAKE","5062835","2012-02-04 07:00","2012","02","04","07:00","-10.9","","-11.4","","96","","","","19","","18","","16.1","","98.46","","","","-19","","NA"
"-98.51","58.71","TADOULE LAKE","5062835","2012-02-04 08:00","2012","02","04","08:00","-11.1","","-11.8","","95","","","","19","","13","","16.1","","98.39","","","","-18","","NA"
"-98.51","58.71","TADOULE LAKE","5062835","2012-02-04 09:00","2012","02","04","09:00","-10.3","","-11.1","","94","","","","25","","8","","16.1","","98.37","","","","-15","","NA"
"-98.51","58.71","TADOULE LAKE","5062835","2012-02-04 10:00","2012","02","04","10:00","-8.9","","-9.5","","96","","","","18","","11","","16.1","","98.23","","","","-14","","NA"
"-98.51","58.71","TADOULE LAKE","5062835","2012-02-04 11:00","2012","02","04","11:00","-1.1","","-3.5","","84","","","","24","","17","","16.1","","98.08","","","","-6","","NA"
"-98.51","58.71","TADOULE LAKE","5062835","2012-02-04 12:00","2012","02","04","12:00","1.4","","-2.4","","76","","","","26","","17","","16.1","","98.13","","","","","","NA"
"-98.51","58.71","TADOULE LAKE","5062835","2012-02-04 13:00","2012","02","04","13:00","3.1","","-1.6","","71","","","","27","","15","","16.1","","98.13","","","","","","NA"
"-98.51","58.71","TADOULE LAKE","5062835","2012-02-04 14:00","2012","02","04","14:00","2.2","","-1.7","","76","","","","29","","17","","16.1","","98.13","","","","","","NA"
"-98.51","58.71","TADOULE LAKE","5062835","2012-02-04 15:00","2012","02","04","15:00","3.0","","-1.8","","71","","","","28","","11","","16.1","","98.10","","","","","","NA"
"-98.51","58.71","TADOULE LAKE","5062835","2012-02-04 16:00","2012","02","04","16:00","2.3","","-1.4","","76","","","","26","","13","","16.1","","98.06","","","","","","NA"
"-98.51","58.71","TADOULE LAKE","5062835","2012-02-04 17:00","2012","02","04","17:00","1.3","","-2.3","","77","","","","26","","11","","16.1","","98.02","","","","","","NA"
"-98.51","58.71","TADOULE LAKE","5062835","2012-02-04 18:00","2012","02","04","18:00","0.8","","-2.8","","77","","","","27","","11","","16.1","","98.00","","","","","","NA"
"-98.51","58.71","TADOULE LAKE","5062835","2012-02-04 19:00","2012","02","04","19:00","0.2","","-3.2","","78","","","","29","","17","","16.1","","98.01","","","","","","NA"
"-98.51","58.71","TADOULE LAKE","5062835","2012-02-04 20:00","2012","02","04","20:00","-0.2","","-3.4","","79","","","","28","","15","","16.1","","98.00","","","","-5","","NA"
"-98.51","58.71","TADOULE LAKE","5062835","2012-02-04 21:00","2012","02","04","21:00","-0.3","","-3.3","","80","","","","28","","17","","16.1","","97.97","","","","-5","","NA"
"-98.51","58.71","TADOULE LAKE","5062835","2012-02-04 22:00","2012","02","04","22:00","-0.5","","-3.3","","81","","","","29","","15","","16.1","","97.96","","","","-5","","NA"
"-98.51","58.71","TADOULE LAKE","5062835","2012-02-04 23:00","2012","02","04","23:00","-0.4","","-3.7","","79","","","","30","","13","","16.1","","97.92","","","","-5","","NA"
"-98.51","58.71","TADOULE LAKE","5062835","2012-02-05 00:00","2012","02","05","00:00","-0.9","","-4.1","","79","","","","31","","9","","16.1","","97.93","","","","-4","","NA"
"-98.51","58.71","TADOULE LAKE","5062835","2012-02-05 01:00","2012","02","05","01:00","-1.1","","-4.6","","77","","","","30","","8","","16.1","","97.89","","","","-4","","NA"
"-98.51","58.71","TADOULE LAKE","5062835","2012-02-05 02:00","2012","02","05","02:00","-1.4","","-4.6","","79","","","","32","","9","","16.1","","97.90","","","","-5","","NA"
"-98.51","58.71","TADOULE LAKE","5062835","2012-02-05 03:00","2012","02","05","03:00","-1.6","","-4.6","","80","","","","36","","11","","16.1","","97.90","","","","-5","","NA"
"-98.51","58.71","TADOULE LAKE","5062835","2012-02-05 04:00","2012","02","05","04:00","-2.5","","-5.2","","82","","","","34","","18","","16.1","","97.87","","","","-8","","NA"
"-98.51","58.71","TADOULE LAKE","5062835","2012-02-05 05:00","2012","02","05","05:00","-3.8","","-5.8","","86","","","","34","","17","","16.1","","97.93","","","","-10","","NA"
"-98.51","58.71","TADOULE LAKE","5062835","2012-02-05 06:00","2012","02","05","06:00","-4.3","","-5.6","","91","","","","35","","13","","16.1","","97.94","","","","-9","","NA"
"-98.51","58.71","TADOULE LAKE","5062835","2012-02-05 07:00","2012","02","05","07:00","-4.3","","-5.3","","93","","","","34","","17","","16.1","","97.99","","","","-10","","NA"
"-98.51","58.71","TADOULE LAKE","5062835","2012-02-05 08:00","2012","02","05","08:00","-5.7","","-6.8","","92","","","","34","","17","","16.1","","98.04","","","","-12","","NA"
"-98.51","58.71","TADOULE LAKE","5062835","2012-02-05 09:00","2012","02","05","09:00","-9.7","","-11.6","","86","","","","35","","21","","16.1","","98.09","","","","-18","","NA"
"-98.51","58.71","TADOULE LAKE","5062835","2012-02-05 10:00","2012","02","05","10:00","-9.7","","-12.6","","80","","","","34","","18","","16.1","","98.15","","","","-17","","NA"
"-98.51","58.71","TADOULE LAKE","5062835","2012-02-05 11:00","2012","02","05","11:00","-10.1","","-13.9","","74","","","","35","","18","","16.1","","98.19","","","","-18","","NA"
"-98.51","58.71","TADOULE LAKE","5062835","2012-02-05 12:00","2012","02","05","12:00","-11.3","","-15.5","","71","","","","1","","24","","16.1","","98.28","","","","-20","","NA"
"-98.51","58.71","TADOULE LAKE","5062835","2012-02-05 13:00","2012","02","05","13:00","-12.9","","-16.3","","76","","","","36","","22","","16.1","","98.33","","","","-22","","NA"
"-98.51","58.71","TADOULE LAKE","5062835","2012-02-05 14:00","2012","02","05","14:00","-12.9","","-16.3","","76","","","","34","","13","","16.1","","98.40","","","","-20","","NA"
"-98.51","58.71","TADOULE LAKE","5062835","2012-02-05 15:00","2012","02","05","15:00","-14.0","","-16.3","","83","","","","35","","17","","2.8","","98.47","","","","-22","","NA"
"-98.51","58.71","TADOULE LAKE","5062835","2012-02-05 16:00","2012","02","05","16:00","-14.2","","-16.0","","86","","","","36","","15","","2.8","","98.57","","","","-22","","NA"
"-98.51","58.71","TADOULE LAKE","5062835","2012-02-05 17:00","2012","02","05","17:00","-15.0","","-17.2","","84","","","","36","","18","","2.4","","98.68","","","","-24","","NA"
"-98.51","58.71","TADOULE LAKE","5062835","2012-02-05 18:00","2012","02","05","18:00","-15.7","","-17.8","","84","","","","35","","17","","4.8","","98.77","","","","-24","","NA"
"-98.51","58.71","TADOULE LAKE","5062835","2012-02-05 19:00","2012","02","05","19:00","-15.9","","-18.0","","84","","","","36","","21","","3.2","","98.87","","","","-26","","NA"
"-98.51","58.71","TADOULE LAKE","5062835","2012-02-05 20:00","2012","02","05","20:00","-16.4","","-18.5","","84","","","","35","","15","","4.8","","98.99","","","","-25","","NA"
"-98.51","58.71","TADOULE LAKE","5062835","2012-02-05 21:00","2012","02","05","21:00","-16.9","","-19.3","","82","","","","35","","17","","16.1","","99.10","","","","-26","","NA"
"-98.51","58.71","TADOULE LAKE","5062835","2012-02-05 22:00","2012","02","05","22:00","-17.5","","-19.9","","82","","","","35","","22","","16.1","","99.22","","","","-28","","NA"
"-98.51","58.71","TADOULE LAKE","5062835","2012-02-05 23:00","2012","02","05","23:00","-20.7","","-23.2","","81","","","","36","","13","","16.1","","99.38","","","","-29","","NA"
"-98.51","58.71","TADOULE LAKE","5062835","2012-02-06 00:00","2012","02","06","00:00","-22.3","","-24.8","","81","","","","34","","13","","16.1","","99.49","","","","-31","","NA"
"-98.51","58.71","TADOULE LAKE","5062835","2012-02-06 01:00","2012","02","06","01:00","-23.7","","-26.4","","79","","","","33","","15","","16.1","","99.62","","","","-34","","NA"
"-98.51","58.71","TADOULE LAKE","5062835","2012-02-06 02:00","2012","02","06","02:00","-25.0","","-27.9","","78","","","","33","","17","","16.1","","99.68","","","","-36","","NA"
"-98.51","58.71","TADOULE LAKE","5062835","2012-02-06 03:00","2012","02","06","03:00","-25.4","","-28.8","","74","","","","33","","15","","16.1","","99.82","","","","-36","","NA"
"-98.51","58.71","TADOULE LAKE","5062835","2012-02-06 04:00","2012","02","06","04:00","-26.1","","-29.5","","74","","","","33","","17","","16.1","","99.87","","","","-37","","NA"
"-98.51","58.71","TADOULE LAKE","5062835","2012-02-06 05:00","2012","02","06","05:00","-26.9","","-30.1","","75","","","","32","","15","","16.1","","99.93","","","","-38","","NA"
"-98.51","58.71","TADOULE LAKE","5062835","2012-02-06 06:00","2012","02","06","06:00","-27.6","","-30.8","","75","","","","32","","13","","16.1","","99.97","","","","-38","","NA"
"-98.51","58.71","TADOULE LAKE","5062835","2012-02-06 07:00","2012","02","06","07:00","-27.8","","-31.3","","73","","","","30","","15","","16.1","","100.03","","","","-39","","NA"
"-98.51","58.71","TADOULE LAKE","5062835","2012-02-06 08:00","2012","02","06","08:00","-27.9","","-31.4","","73","","","","31","","8","","16.1","","100.08","","","","-36","","NA"
"-98.51","58.71","TADOULE LAKE","5062835","2012-02-06 09:00","2012","02","06","09:00","-27.3","","-31.1","","71","","","","31","","13","","16.1","","100.11","","","","-37","","NA"
"-98.51","58.71","TADOULE LAKE","5062835","2012-02-06 10:00","2012","02","06","10:00","-26.2","","-30.3","","69","","","","31","","18","","16.1","","100.10","","","","-38","","NA"
"-98.51","58.71","TADOULE LAKE","5062835","2012-02-06 11:00","2012","02","06","11:00","-24.5","","-29.3","","65","","","","29","","13","","16.1","","100.12","","","","-34","","NA"
"-98.51","58.71","TADOULE LAKE","5062835","2012-02-06 12:00","2012","02","06","12:00","-22.7","","-28.9","","58","","","","29","","11","","16.1","","100.12","","","","-31","","NA"
"-98.51","58.71","TADOULE LAKE","5062835","2012-02-06 13:00","2012","02","06","13:00","-21.0","","-28.3","","53","","","","29","","15","","16.1","","100.12","","","","-30","","NA"
"-98.51","58.71","TADOULE LAKE","5062835","2012-02-06 14:00","2012","02","06","14:00","-19.3","","-27.8","","48","","","","28","","9","","16.1","","100.08","","","","-26","","NA"
"-98.51","58.71","TADOULE LAKE","5062835","2012-02-06 15:00","2012","02","06","15:00","-17.8","","-27.6","","43","","","","28","","13","","16.1","","100.01","","","","-26","","NA"
"-98.51","58.71","TADOULE LAKE","5062835","2012-02-06 16:00","2012","02","06","16:00","-17.0","","-27.1","","42","","","","28","","15","","16.1","","99.91","","","","-25","","NA"
"-98.51","58.71","TADOULE LAKE","5062835","2012-02-06 17:00","2012","02","06","17:00","-16.8","","-26.5","","44","","","","29","","17","","16.1","","99.87","","","","-26","","NA"
"-98.51","58.71","TADOULE LAKE","5062835","2012-02-06 18:00","2012","02","06","18:00","-17.1","","-25.4","","49","","","","27","","18","","16.1","","99.83","","","","-26","","NA"
"-98.51","58.71","TADOULE LAKE","5062835","2012-02-06 19:00","2012","02","06","19:00","-17.3","","-25.2","","51","","","","27","","18","","16.1","","99.75","","","","-27","","NA"
"-98.51","58.71","TADOULE LAKE","5062835","2012-02-06 20:00","2012","02","06","20:00","-17.1","","-25.2","","50","","","","27","","17","","16.1","","99.59","","","","-26","","NA"
"-98.51","58.71","TADOULE LAKE","5062835","2012-02-06 21:00","2012","02","06","21:00","-16.1","","-25.0","","47","","","","26","","17","","16.1","","99.42","","","","-25","","NA"
"-98.51","58.71","TADOULE LAKE","5062835","2012-02-06 22:00","2012","02","06","22:00","-16.1","","-24.1","","51","","","","27","","21","","16.1","","99.29","","","","-26","","NA"
"-98.51","58.71","TADOULE LAKE","5062835","2012-02-06 23:00","2012","02","06","23:00","-15.3","","-22.1","","57","","","","27","","21","","16.1","","99.18","","","","-25","","NA"
"-98.51","58.71","TADOULE LAKE","5062835","2012-02-07 00:00","2012","02","07","00:00","-15.2","","-20.6","","64","","","","27","","13","","16.1","","99.08","","","","-23","","NA"
"-98.51","58.71","TADOULE LAKE","5062835","2012-02-07 01:00","2012","02","07","01:00","-14.3","","-18.6","","70","","","","28","","22","","16.1","","98.95","","","","-24","","NA"
"-98.51","58.71","TADOULE LAKE","5062835","2012-02-07 02:00","2012","02","07","02:00","-13.5","","-17.4","","73","","","","28","","18","","16.1","","98.79","","","","-22","","NA"
"-98.51","58.71","TADOULE LAKE","5062835","2012-02-07 03:00","2012","02","07","03:00","-12.7","","-16.3","","75","","","","29","","24","","16.1","","98.64","","","","-22","","NA"
"-98.51","58.71","TADOULE LAKE","5062835","2012-02-07 04:00","2012","02","07","04:00","-11.9","","-15.4","","75","","","","28","","30","","16.1","","98.51","","","","-22","","NA"
"-98.51","58.71","TADOULE LAKE","5062835","2012-02-07 05:00","2012","02","07","05:00","-10.6","","-15.1","","70","","","","30","","28","","16.1","","98.50","","","","-20","","NA"
"-98.51","58.71","TADOULE LAKE","5062835","2012-02-07 06:00","2012","02","07","06:00","-10.4","","-15.2","","68","","","","29","","33","","16.1","","98.40","","","","-20","","NA"
"-98.51","58.71","TADOULE LAKE","5062835","2012-02-07 07:00","2012","02","07","07:00","-11.1","","-15.2","","72","","","","29","","31","","12.9","","98.33","","","","-21","","NA"
"-98.51","58.71","TADOULE LAKE","5062835","2012-02-07 08:00","2012","02","07","08:00","-11.7","","-15.6","","73","","","","29","","30","","16.1","","98.32","","","","-22","","NA"
"-98.51","58.71","TADOULE LAKE","5062835","2012-02-07 09:00","2012","02","07","09:00","-12.1","","-16.2","","72","","","","29","","24","","16.1","","98.32","","","","-21","","NA"
"-98.51","58.71","TADOULE LAKE","5062835","2012-02-07 10:00","2012","02","07","10:00","-11.7","","-16.1","","70","","","","30","","22","","16.1","","98.31","","","","-20","","NA"
"-98.51","58.71","TADOULE LAKE","5062835","2012-02-07 11:00","2012","02","07","11:00","-10.5","","-15.7","","66","","","","29","","28","","16.1","","98.25","","","","-20","","NA"
"-98.51","58.71","TADOULE LAKE","5062835","2012-02-07 12:00","2012","02","07","12:00","-9.7","","-15.3","","64","","","","31","","17","","16.1","","98.23","","","","-17","","NA"
"-98.51","58.71","TADOULE LAKE","5062835","2012-02-07 13:00","2012","02","07","13:00","-8.8","","-14.9","","62","","","","30","","24","","16.1","","98.22","","","","-17","","NA"
"-98.51","58.71","TADOULE LAKE","5062835","2012-02-07 14:00","2012","02","07","14:00","-8.6","","-14.7","","62","","","","31","","24","","16.1","","98.22","","","","-17","","NA"
"-98.51","58.71","TADOULE LAKE","5062835","2012-02-07 15:00","2012","02","07","15:00","-8.5","","-14.6","","62","","","","31","","11","","16.1","","98.22","","","","-14","","NA"
"-98.51","58.71","TADOULE LAKE","5062835","2012-02-07 16:00","2012","02","07","16:00","-9.1","","-14.7","","64","","","","32","","18","","16.1","","98.21","","","","-16","","NA"
"-98.51","58.71","TADOULE LAKE","5062835","2012-02-07 17:00","2012","02","07","17:00","-10.3","","-14.9","","69","","","","32","","9","","16.1","","98.21","","","","-15","","NA"
"-98.51","58.71","TADOULE LAKE","5062835","2012-02-07 18:00","2012","02","07","18:00","-11.7","","-15.2","","75","","","","31","","9","","16.1","","98.20","","","","-17","","NA"
"-98.51","58.71","TADOULE LAKE","5062835","2012-02-07 19:00","2012","02","07","19:00","-12.7","","-15.8","","78","","","","33","","15","","16.1","","98.19","","","","-20","","NA"
"-98.51","58.71","TADOULE LAKE","5062835","2012-02-07 20:00","2012","02","07","20:00","-13.8","","-16.7","","79","","","","34","","15","","16.1","","98.18","","","","-21","","NA"
"-98.51","58.71","TADOULE LAKE","5062835","2012-02-07 21:00","2012","02","07","21:00","-17.1","","-19.2","","84","","","","36","","11","","16.1","","98.20","","","","-24","","NA"
"-98.51","58.71","TADOULE LAKE","5062835","2012-02-07 22:00","2012","02","07","22:00","-18.9","","-21.2","","82","","","","36","","17","","16.1","","98.22","","","","-28","","NA"
"-98.51","58.71","TADOULE LAKE","5062835","2012-02-07 23:00","2012","02","07","23:00","-20.2","","-23.9","","73","","","","32","","11","","16.1","","98.20","","","","-28","","NA"
"-98.51","58.71","TADOULE LAKE","5062835","2012-02-08 00:00","2012","02","08","00:00","-20.7","","-25.7","","65","","","","32","","15","","16.1","","98.23","","","","-30","","NA"
"-98.51","58.71","TADOULE LAKE","5062835","2012-02-08 01:00","2012","02","08","01:00","-21.0","","-26.9","","60","","","","35","","13","","16.1","","98.23","","","","-30","","NA"
"-98.51","58.71","TADOULE LAKE","5062835","2012-02-08 02:00","2012","02","08","02:00","-21.9","","-27.0","","64","","","","33","","11","","16.1","","98.22","","","","-30","","NA"
"-98.51","58.71","TADOULE LAKE","5062835","2012-02-08 03:00","2012","02","08","03:00","-22.6","","-27.7","","64","","","","33","","13","","16.1","","98.23","","","","-32","","NA"
"-98.51","58.71","TADOULE LAKE","5062835","2012-02-08 04:00","2012","02","08","04:00","-23.4","","-28.3","","65","","","","33","","17","","16.1","","98.21","","","","-34","","NA"
"-98.51","58.71","TADOULE LAKE","5062835","2012-02-08 05:00","2012","02","08","05:00","-24.5","","-29.0","","67","","","","32","","15","","16.1","","98.23","","","","-35","","NA"
"-98.51","58.71","TADOULE LAKE","5062835","2012-02-08 06:00","2012","02","08","06:00","-25.0","","-29.8","","65","","","","31","","17","","16.1","","98.22","","","","-36","","NA"
"-98.51","58.71","TADOULE LAKE","5062835","2012-02-08 07:00","2012","02","08","07:00","-25.7","","-30.5","","65","","","","32","","11","","16.1","","98.24","","","","-34","","NA"
"-98.51","58.71","TADOULE LAKE","5062835","2012-02-08 08:00","2012","02","08","08:00","-26.2","","-31.0","","65","","","","31","","17","","16.1","","98.19","","","","-37","","NA"
"-98.51","58.71","TADOULE LAKE","5062835","2012-02-08 09:00","2012","02","08","09:00","-26.0","","-30.9","","64","","","","31","","15","","16.1","","98.18","","","","-36","","NA"
"-98.51","58.71","TADOULE LAKE","5062835","2012-02-08 10:00","2012","02","08","10:00","-25.3","","-30.4","","63","","","","33","","17","","16.1","","98.22","","","","-36","","NA"
"-98.51","58.71","TADOULE LAKE","5062835","2012-02-08 11:00","2012","02","08","11:00","-25.1","","-30.4","","62","","","","33","","17","","16.1","","98.28","","","","-36","","NA"
"-98.51","58.71","TADOULE LAKE","5062835","2012-02-08 12:00","2012","02","08","12:00","-24.6","","-29.9","","62","","","","34","","18","","16.1","","98.25","","","","-36","","NA"
"-98.51","58.71","TADOULE LAKE","5062835","2012-02-08 13:00","2012","02","08","13:00","-24.4","","-29.9","","61","","","","33","","24","","16.1","","98.23","","","","-37","","NA"
"-98.51","58.71","TADOULE LAKE","5062835","2012-02-08 14:00","2012","02","08","14:00","-24.4","","-30.1","","60","","","","35","","21","","16.1","","98.25","","","","-36","","NA"
"-98.51","58.71","TADOULE LAKE","5062835","2012-02-08 15:00","2012","02","08","15:00","-24.3","","-30.2","","59","","","","34","","18","","16.1","","98.27","","","","-35","","NA"
"-98.51","58.71","TADOULE LAKE","5062835","2012-02-08 16:00","2012","02","08","16:00","-23.8","","-29.4","","61","","","","32","","17","","16.1","","98.25","","","","-34","","NA"
"-98.51","58.71","TADOULE LAKE","5062835","2012-02-08 17:00","2012","02","08","17:00","-24.4","","-28.9","","67","","","","33","","18","","16.1","","98.25","","","","-35","","NA"
"-98.51","58.71","TADOULE LAKE","5062835","2012-02-08 18:00","2012","02","08","18:00","-24.6","","-28.6","","70","","","","32","","15","","16.1","","98.20","","","","-35","","NA"
"-98.51","58.71","TADOULE LAKE","5062835","2012-02-08 19:00","2012","02","08","19:00","-24.7","","-28.7","","70","","","","34","","18","","16.1","","98.19","","","","-36","","NA"
"-98.51","58.71","TADOULE LAKE","5062835","2012-02-08 20:00","2012","02","08","20:00","-25.5","","-29.8","","68","","","","34","","24","","16.1","","98.18","","","","-38","","NA"
"-98.51","58.71","TADOULE LAKE","5062835","2012-02-08 21:00","2012","02","08","21:00","-26.3","","-30.3","","70","","","","34","","18","","16.1","","98.16","","","","-38","","NA"
"-98.51","58.71","TADOULE LAKE","5062835","2012-02-08 22:00","2012","02","08","22:00","-27.1","","-31.4","","68","","","","34","","28","","16.1","","98.15","","","","-41","","NA"
"-98.51","58.71","TADOULE LAKE","5062835","2012-02-08 23:00","2012","02","08","23:00","-27.4","","-31.3","","70","","","","33","","18","","16.1","","98.20","","","","-39","","NA"
"-98.51","58.71","TADOULE LAKE","5062835","2012-02-09 00:00","2012","02","09","00:00","-27.0","","-31.4","","67","","","","33","","21","","16.1","","98.17","","","","-40","","NA"
"-98.51","58.71","TADOULE LAKE","5062835","2012-02-09 01:00","2012","02","09","01:00","-27.3","","-31.4","","69","","","","33","","21","","8.1","","98.19","","","","-40","","NA"
"-98.51","58.71","TADOULE LAKE","5062835","2012-02-09 02:00","2012","02","09","02:00","-27.9","","-32.3","","67","","","","33","","26","","16.1","","98.24","","","","-42","","NA"
"-98.51","58.71","TADOULE LAKE","5062835","2012-02-09 03:00","2012","02","09","03:00","-28.2","","-32.6","","67","","","","33","","18","","9.7","","98.32","","","","-40","","NA"
"-98.51","58.71","TADOULE LAKE","5062835","2012-02-09 04:00","2012","02","09","04:00","-27.9","","-32.1","","68","","","","34","","22","","6.4","","98.33","","","","-41","","NA"
"-98.51","58.71","TADOULE LAKE","5062835","2012-02-09 05:00","2012","02","09","05:00","-28.3","","-32.7","","67","","","","34","","22","","16.1","","98.39","","","","-42","","NA"
"-98.51","58.71","TADOULE LAKE","5062835","2012-02-09 06:00","2012","02","09","06:00","-27.7","","-32.9","","62","","","","35","","18","","16.1","","98.45","","","","-40","","NA"
"-98.51","58.71","TADOULE LAKE","5062835","2012-02-09 07:00","2012","02","09","07:00","-27.6","","-32.5","","64","","","","34","","17","","16.1","","98.58","","","","-39","","NA"
"-98.51","58.71","TADOULE LAKE","5062835","2012-02-09 08:00","2012","02","09","08:00","-27.9","","-32.4","","66","","","","35","","21","","14.5","","98.67","","","","-41","","NA"
"-98.51","58.71","TADOULE LAKE","5062835","2012-02-09 09:00","2012","02","09","09:00","-27.6","","-32.1","","66","","","","35","","22","","12.9","","98.77","","","","-41","","NA"
"-98.51","58.71","TADOULE LAKE","5062835","2012-02-09 10:00","2012","02","09","10:00","-27.6","","-33.0","","61","","","","35","","26","","16.1","","98.87","","","","-42","","NA"
"-98.51","58.71","TADOULE LAKE","5062835","2012-02-09 11:00","2012","02","09","11:00","-27.3","","-32.9","","60","","","","35","","26","","16.1","","99.02","","","","-41","","NA"
"-98.51","58.71","TADOULE LAKE","5062835","2012-02-09 12:00","2012","02","09","12:00","-26.8","","-32.2","","61","","","","33","","22","","14.5","","99.14","","","","-40","","NA"
"-98.51","58.71","TADOULE LAKE","5062835","2012-02-09 13:00","2012","02","09","13:00","-25.7","","-31.4","","60","","","","34","","17","","16.1","","99.25","","","","-37","","NA"
"-98.51","58.71","TADOULE LAKE","5062835","2012-02-09 14:00","2012","02","09","14:00","-25.3","","-31.3","","58","","","","33","","18","","16.1","","99.35","","","","-37","","NA"
"-98.51","58.71","TADOULE LAKE","5062835","2012-02-09 15:00","2012","02","09","15:00","-24.7","","-30.7","","58","","","","34","","13","","16.1","","99.42","","","","-34","","NA"
"-98.51","58.71","TADOULE LAKE","5062835","2012-02-09 16:00","2012","02","09","16:00","-24.9","","-30.4","","61","","","","34","","18","","16.1","","99.54","","","","-36","","NA"
"-98.51","58.71","TADOULE LAKE","5062835","2012-02-09 17:00","2012","02","09","17:00","-25.4","","-30.4","","64","","","","33","","18","","16.1","","99.60","","","","-37","","NA"
"-98.51","58.71","TADOULE LAKE","5062835","2012-02-09 18:00","2012","02","09","18:00","-26.3","","-30.9","","66","","","","32","","15","","16.1","","99.65","","","","-37","","NA"
"-98.51","58.71","TADOULE LAKE","5062835","2012-02-09 19:00","2012","02","09","19:00","-26.5","","-31.1","","66","","","","32","","17","","16.1","","99.70","","","","-38","","NA"
"-98.51","58.71","TADOULE LAKE","5062835","2012-02-09 20:00","2012","02","09","20:00","-27.1","","-31.3","","68","","","","32","","17","","16.1","","99.70","","","","-39","","NA"
"-98.51","58.71","TADOULE LAKE","5062835","2012-02-09 21:00","2012","02","09","21:00","-27.1","","-31.3","","68","","","","32","","18","","16.1","","99.71","","","","-39","","NA"
"-98.51","58.71","TADOULE LAKE","5062835","2012-02-09 22:00","2012","02","09","22:00","-28.0","","-31.8","","71","","","","31","","18","","16.1","","99.70","","","","-40","","NA"
"-98.51","58.71","TADOULE LAKE","5062835","2012-02-09 23:00","2012","02","09","23:00","-27.7","","-31.1","","74","","","","31","","17","","16.1","","99.69","","","","-39","","NA"
"-98.51","58.71","TADOULE LAKE","5062835","2012-02-10 00:00","2012","02","10","00:00","-27.7","","-30.6","","77","","","","30","","17","","16.1","","99.66","","","","-39","","NA"
"-98.51","58.71","TADOULE LAKE","5062835","2012-02-10 01:00","2012","02","10","01:00","-27.5","","-30.2","","78","","","","30","","15","","16.1","","99.68","","","","-38","","NA"
"-98.51","58.71","TADOULE LAKE","5062835","2012-02-10 02:00","2012","02","10","02:00","-25.9","","-28.5","","79","","","","30","","15","","16.1","","99.64","","","","-36","","NA"
"-98.51","58.71","TADOULE LAKE","5062835","2012-02-10 03:00","2012","02","10","03:00","-23.4","","-26.2","","78","","","","31","","21","","16.1","","99.58","","","","-35","","NA"
"-98.51","58.71","TADOULE LAKE","5062835","2012-02-10 04:00","2012","02","10","04:00","-22.4","","-25.3","","78","","","","32","","15","","16.1","","99.58","","","","-32","","NA"
"-98.51","58.71","TADOULE LAKE","5062835","2012-02-10 05:00","2012","02","10","05:00","-21.1","","-24.4","","75","","","","32","","22","","16.1","","99.61","","","","-32","","NA"
"-98.51","58.71","TADOULE LAKE","5062835","2012-02-10 06:00","2012","02","10","06:00","-21.4","","-25.0","","73","","","","32","","21","","16.1","","99.64","","","","-32","","NA"
"-98.51","58.71","TADOULE LAKE","5062835","2012-02-10 07:00","2012","02","10","07:00","-22.0","","-25.9","","71","","","","32","","18","","16.1","","99.65","","","","-32","","NA"
"-98.51","58.71","TADOULE LAKE","5062835","2012-02-10 08:00","2012","02","10","08:00","-22.5","","-29.1","","56","","","","32","","24","","16.1","","99.68","","","","-35","","NA"
"-98.51","58.71","TADOULE LAKE","5062835","2012-02-10 09:00","2012","02","10","09:00","-22.7","","-30.5","","50","","","","32","","24","","16.1","","99.70","","","","-35","","NA"
"-98.51","58.71","TADOULE LAKE","5062835","2012-02-10 10:00","2012","02","10","10:00","-22.3","","-31.0","","46","","","","32","","17","","16.1","","99.72","","","","-33","","NA"
"-98.51","58.71","TADOULE LAKE","5062835","2012-02-10 11:00","2012","02","10","11:00","-21.3","","-31.3","","41","","","","31","","18","","16.1","","99.69","","","","-32","","NA"
"-98.51","58.71","TADOULE LAKE","5062835","2012-02-10 12:00","2012","02","10","12:00","-19.7","","-30.5","","39","","","","31","","21","","16.1","","99.65","","","","-30","","NA"
"-98.51","58.71","TADOULE LAKE","5062835","2012-02-10 13:00","2012","02","10","13:00","-18.3","","-30.0","","36","","","","32","","26","","16.1","","99.65","","","","-30","","NA"
"-98.51","58.71","TADOULE LAKE","5062835","2012-02-10 14:00","2012","02","10","14:00","-17.5","","-29.6","","35","","","","32","","21","","16.1","","99.68","","","","-28","","NA"
"-98.51","58.71","TADOULE LAKE","5062835","2012-02-10 15:00","2012","02","10","15:00","-16.7","","-28.2","","37","","","","31","","21","","16.1","","99.70","","","","-27","","NA"
"-98.51","58.71","TADOULE LAKE","5062835","2012-02-10 16:00","2012","02","10","16:00","-17.0","","-28.2","","38","","","","30","","15","","16.1","","99.68","","","","-25","","NA"
"-98.51","58.71","TADOULE LAKE","5062835","2012-02-10 17:00","2012","02","10","17:00","-17.9","","-27.5","","44","","","","29","","15","","16.1","","99.67","","","","-26","","NA"
"-98.51","58.71","TADOULE LAKE","5062835","2012-02-10 18:00","2012","02","10","18:00","-18.2","","-26.7","","48","","","","30","","17","","16.1","","99.61","","","","-27","","NA"
"-98.51","58.71","TADOULE LAKE","5062835","2012-02-10 19:00","2012","02","10","19:00","-18.3","","-26.8","","48","","","","30","","17","","16.1","","99.62","","","","-28","","NA"
"-98.51","58.71","TADOULE LAKE","5062835","2012-02-10 20:00","2012","02","10","20:00","-18.6","","-26.7","","50","","","","31","","17","","16.1","","99.62","","","","-28","","NA"
"-98.51","58.71","TADOULE LAKE","5062835","2012-02-10 21:00","2012","02","10","21:00","-18.7","","-26.3","","52","","","","30","","15","","16.1","","99.56","","","","-27","","NA"
"-98.51","58.71","TADOULE LAKE","5062835","2012-02-10 22:00","2012","02","10","22:00","-18.2","","-25.8","","52","","","","31","","24","","16.1","","99.48","","","","-29","","NA"
"-98.51","58.71","TADOULE LAKE","5062835","2012-02-10 23:00","2012","02","10","23:00","-18.5","","-25.4","","55","","","","30","","18","","16.1","","99.44","","","","-28","","NA"
"-98.51","58.71","TADOULE LAKE","5062835","2012-02-11 00:00","2012","02","11","00:00","-19.0","","-25.7","","56","","","","29","","21","","16.1","","99.38","","","","-29","","NA"
"-98.51","58.71","TADOULE LAKE","5062835","2012-02-11 01:00","2012","02","11","01:00","-19.2","","-26.3","","54","","","","30","","26","","16.1","","99.26","","","","-31","","NA"
"-98.51","58.71","TADOULE LAKE","5062835","2012-02-11 02:00","2012","02","11","02:00","-19.0","","-26.8","","51","","","","29","","26","","16.1","","99.15","","","","-31","","NA"
"-98.51","58.71","TADOULE LAKE","5062835","2012-02-11 03:00","2012","02","11","03:00","-18.9","","-25.9","","55","","","","30","","22","","16.1","","99.08","","","","-30","","NA"
"-98.51","58.71","TADOULE LAKE","5062835","2012-02-11 04:00","2012","02","11","04:00","-18.6","","-25.4","","56","","","","29","","24","","16.1","","98.98","","","","-30","","NA"
"-98.51","58.71","TADOULE LAKE","5062835","2012-02-11 05:00","2012","02","11","05:00","-17.7","","-25.0","","54","","","","30","","26","","16.1","","98.93","","","","-29","","NA"
"-98.51","58.71","TADOULE LAKE","5062835","2012-02-11 06:00","2012","02","11","06:00","-17.3","","-25.0","","52","","","","30","","26","","16.1","","98.88","","","","-28","","NA"
"-98.51","58.71","TADOULE LAKE","5062835","2012-02-11 07:00","2012","02","11","07:00","-16.7","","-25.6","","47","","","","30","","18","","16.1","","98.77","","","","-26","","NA"
"-98.51","58.71","TADOULE LAKE","5062835","2012-02-11 08:00","2012","02","11","08:00","-16.8","","-25.4","","48","","","","29","","21","","16.1","","98.71","","","","-27","","NA"
"-98.51","58.71","TADOULE LAKE","5062835","2012-02-11 09:00","2012","02","11","09:00","-16.5","","-24.9","","49","","","","29","","21","","16.1","","98.65","","","","-26","","NA"
"-98.51","58.71","TADOULE LAKE","5062835","2012-02-11 10:00","2012","02","11","10:00","-14.7","","-24.3","","45","","","","29","","28","","16.1","","98.55","","","","-25","","NA"
"-98.51","58.71","TADOULE LAKE","5062835","2012-02-11 11:00","2012","02","11","11:00","-13.2","","-24.2","","40","","","","30","","30","","16.1","","98.50","","","","-24","","NA"
"-98.51","58.71","TADOULE LAKE","5062835","2012-02-11 12:00","2012","02","11","12:00","-11.2","","-23.6","","36","","","","29","","24","","16.1","","98.40","","","","-20","","NA"
"-98.51","58.71","TADOULE LAKE","5062835","2012-02-11 13:00","2012","02","11","13:00","-9.8","","-22.9","","34","","","","30","","21","","16.1","","98.32","","","","-18","","NA"
"-98.51","58.71","TADOULE LAKE","5062835","2012-02-11 14:00","2012","02","11","14:00","-8.5","","-23.9","","28","","","","29","","26","","16.1","","98.22","","","","-17","","NA"
"-98.51","58.71","TADOULE LAKE","5062835","2012-02-11 15:00","2012","02","11","15:00","-8.2","","-23.0","","30","","","","28","","21","","16.1","","98.16","","","","-16","","NA"
"-98.51","58.71","TADOULE LAKE","5062835","2012-02-11 16:00","2012","02","11","16:00","-9.0","","-22.9","","32","","","","27","","26","","16.1","","98.10","","","","-18","","NA"
"-98.51","58.71","TADOULE LAKE","5062835","2012-02-11 17:00","2012","02","11","17:00","-9.5","","-22.4","","35","","","","27","","22","","16.1","","97.99","","","","-18","","NA"
"-98.51","58.71","TADOULE LAKE","5062835","2012-02-11 18:00","2012","02","11","18:00","-10.1","","-22.0","","38","","","","27","","18","","16.1","","97.94","","","","-18","","NA"
"-98.51","58.71","TADOULE LAKE","5062835","2012-02-11 19:00","2012","02","11","19:00","-10.3","","-21.5","","40","","","","28","","15","","16.1","","97.85","","","","-17","","NA"
"-98.51","58.71","TADOULE LAKE","5062835","2012-02-11 20:00","2012","02","11","20:00","-9.8","","-21.0","","40","","","","27","","17","","16.1","","97.74","","","","-17","","NA"
"-98.51","58.71","TADOULE LAKE","5062835","2012-02-11 21:00","2012","02","11","21:00","-9.8","","-20.5","","42","","","","27","","17","","16.1","","97.64","","","","-17","","NA"
"-98.51","58.71","TADOULE LAKE","5062835","2012-02-11 22:00","2012","02","11","22:00","-10.6","","-20.7","","44","","","","29","","11","","16.1","","97.60","","","","-16","","NA"
"-98.51","58.71","TADOULE LAKE","5062835","2012-02-11 23:00","2012","02","11","23:00","-10.3","","-20.6","","43","","","","28","","18","","16.1","","97.50","","","","-18","","NA"
"-98.51","58.71","TADOULE LAKE","5062835","2012-02-12 00:00","2012","02","12","00:00","-10.4","","-20.5","","44","","","","28","","17","","16.1","","97.46","","","","-18","","NA"
"-98.51","58.71","TADOULE LAKE","5062835","2012-02-12 01:00","2012","02","12","01:00","-10.2","","-20.2","","44","","","","28","","13","","16.1","","97.43","","","","-16","","NA"
"-98.51","58.71","TADOULE LAKE","5062835","2012-02-12 02:00","2012","02","12","02:00","-10.3","","-20.0","","45","","","","27","","17","","16.1","","97.36","","","","-18","","NA"
"-98.51","58.71","TADOULE LAKE","5062835","2012-02-12 03:00","2012","02","12","03:00","-10.8","","-20.1","","47","","","","27","","18","","16.1","","97.28","","","","-18","","NA"
"-98.51","58.71","TADOULE LAKE","5062835","2012-02-12 04:00","2012","02","12","04:00","-10.7","","-20.0","","47","","","","28","","18","","16.1","","97.23","","","","-18","","NA"
"-98.51","58.71","TADOULE LAKE","5062835","2012-02-12 05:00","2012","02","12","05:00","-10.9","","-19.6","","49","","","","26","","15","","16.1","","97.16","","","","-18","","NA"
"-98.51","58.71","TADOULE LAKE","5062835","2012-02-12 06:00","2012","02","12","06:00","-10.9","","-19.3","","51","","","","27","","15","","16.1","","97.09","","","","-18","","NA"
"-98.51","58.71","TADOULE LAKE","5062835","2012-02-12 07:00","2012","02","12","07:00","-11.3","","-19.2","","53","","","","28","","13","","16.1","","97.01","","","","-18","","NA"
"-98.51","58.71","TADOULE LAKE","5062835","2012-02-12 08:00","2012","02","12","08:00","-12.2","","-19.7","","54","","","","27","","15","","16.1","","96.94","","","","-19","","NA"
"-98.51","58.71","TADOULE LAKE","5062835","2012-02-12 09:00","2012","02","12","09:00","-12.9","","-20.0","","56","","","","27","","11","","16.1","","96.94","","","","-19","","NA"
"-98.51","58.71","TADOULE LAKE","5062835","2012-02-12 10:00","2012","02","12","10:00","-12.5","","-19.9","","55","","","","27","","15","","16.1","","96.89","","","","-20","","NA"
"-98.51","58.71","TADOULE LAKE","5062835","2012-02-12 11:00","2012","02","12","11:00","-11.4","","-19.8","","51","","","","29","","15","","16.1","","96.84","","","","-18","","NA"
"-98.51","58.71","TADOULE LAKE","5062835","2012-02-12 12:00","2012","02","12","12:00","-10.4","","-19.2","","49","","","","28","","13","","16.1","","96.77","","","","-17","","NA"
"-98.51","58.71","TADOULE LAKE","5062835","2012-02-12 13:00","2012","02","12","13:00","-9.6","","-18.4","","49","","","","26","","9","","16.1","","96.72","","","","-14","","NA"
"-98.51","58.71","TADOULE LAKE","5062835","2012-02-12 14:00","2012","02","12","14:00","-8.5","","-18.4","","45","","","","29","","9","","16.1","","96.69","","","","-13","","NA"
"-98.51","58.71","TADOULE LAKE","5062835","2012-02-12 15:00","2012","02","12","15:00","-8.3","","-17.5","","48","","","","28","","8","","16.1","","96.69","","","","-12","","NA"
"-98.51","58.71","TADOULE LAKE","5062835","2012-02-12 16:00","2012","02","12","16:00","-8.5","","-17.7","","48","","","","28","","9","","16.1","","96.68","","","","-13","","NA"
"-98.51","58.71","TADOULE LAKE","5062835","2012-02-12 17:00","2012","02","12","17:00","-9.4","","-17.6","","52","","","","26","","9","","16.1","","96.64","","","","-14","","NA"
"-98.51","58.71","TADOULE LAKE","5062835","2012-02-12 18:00","2012","02","12","18:00","-11.6","","-17.5","","62","","","","26","","9","","16.1","","96.64","","","","-17","","NA"
"-98.51","58.71","TADOULE LAKE","5062835","2012-02-12 19:00","2012","02","12","19:00","-11.5","","-18.2","","58","","","","28","","9","","16.1","","96.65","","","","-17","","NA"
"-98.51","58.71","TADOULE LAKE","5062835","2012-02-12 20:00","2012","02","12","20:00","-11.7","","-18.0","","60","","","","29","","9","","16.1","","96.64","","","","-17","","NA"
"-98.51","58.71","TADOULE LAKE","5062835","2012-02-12 21:00","2012","02","12","21:00","-12.8","","-18.3","","64","","","","29","","9","","16.1","","96.66","","","","-18","","NA"
"-98.51","58.71","TADOULE LAKE","5062835","2012-02-12 22:00","2012","02","12","22:00","-12.9","","-18.1","","66","","","","28","","9","","16.1","","96.65","","","","-18","","NA"
"-98.51","58.71","TADOULE LAKE","5062835","2012-02-12 23:00","2012","02","12","23:00","-13.4","","-18.1","","68","","","","29","","9","","16.1","","96.65","","","","-19","","NA"
"-98.51","58.71","TADOULE LAKE","5062835","2012-02-13 00:00","2012","02","13","00:00","-14.7","","-18.7","","72","","","","30","","11","","16.1","","96.68","","","","-21","","NA"
"-98.51","58.71","TADOULE LAKE","5062835","2012-02-13 01:00","2012","02","13","01:00","-15.4","","-18.9","","75","","","","30","","11","","16.1","","96.72","","","","-22","","NA"
"-98.51","58.71","TADOULE LAKE","5062835","2012-02-13 02:00","2012","02","13","02:00","-15.6","","-18.8","","77","","","","30","","8","","16.1","","96.71","","","","-21","","NA"
"-98.51","58.71","TADOULE LAKE","5062835","2012-02-13 03:00","2012","02","13","03:00","-16.1","","-18.8","","80","","","","30","","11","","16.1","","96.73","","","","-23","","NA"
"-98.51","58.71","TADOULE LAKE","5062835","2012-02-13 04:00","2012","02","13","04:00","-16.8","","-19.2","","82","","","","30","","11","","16.1","","96.76","","","","-24","","NA"
"-98.51","58.71","TADOULE LAKE","5062835","2012-02-13 05:00","2012","02","13","05:00","-17.4","","-19.5","","84","","","","","M","4","","16.1","","96.77","","","","-21","","NA"
"-98.51","58.71","TADOULE LAKE","5062835","2012-02-13 06:00","2012","02","13","06:00","-19.4","","-20.9","","88","","","","31","","5","","16.1","","96.80","","","","-24","","NA"
"-98.51","58.71","TADOULE LAKE","5062835","2012-02-13 07:00","2012","02","13","07:00","-20.4","","-21.9","","88","","","","4","","4","","16.1","","96.78","","","","-24","","NA"
"-98.51","58.71","TADOULE LAKE","5062835","2012-02-13 08:00","2012","02","13","08:00","-20.8","","-21.9","","91","","","","31","","5","","16.1","","96.83","","","","-25","","NA"
"-98.51","58.71","TADOULE LAKE","5062835","2012-02-13 09:00","2012","02","13","09:00","-18.9","","-20.6","","87","","","","30","","5","","16.1","","96.84","","","","-23","","NA"
"-98.51","58.71","TADOULE LAKE","5062835","2012-02-13 10:00","2012","02","13","10:00","-17.6","","-19.9","","82","","","","","","0","","16.1","","96.86","","","","","","NA"
"-98.51","58.71","TADOULE LAKE","5062835","2012-02-13 11:00","2012","02","13","11:00","-15.3","","-19.1","","73","","","","","M","4","","16.1","","96.88","","","","-18","","NA"
"-98.51","58.71","TADOULE LAKE","5062835","2012-02-13 12:00","2012","02","13","12:00","-14.1","","-18.6","","69","","","","10","","5","","16.1","","96.87","","","","-18","","NA"
"-98.51","58.71","TADOULE LAKE","5062835","2012-02-13 13:00","2012","02","13","13:00","-12.2","","-17.9","","63","","","","12","","5","","16.1","","96.86","","","","-15","","NA"
"-98.51","58.71","TADOULE LAKE","5062835","2012-02-13 14:00","2012","02","13","14:00","-11.4","","-17.3","","62","","","","7","","4","","16.1","","96.80","","","","-14","","NA"
"-98.51","58.71","TADOULE LAKE","5062835","2012-02-13 15:00","2012","02","13","15:00","-11.9","","-17.6","","63","","","","10","","5","","16.1","","96.83","","","","-15","","NA"
"-98.51","58.71","TADOULE LAKE","5062835","2012-02-13 16:00","2012","02","13","16:00","-10.9","","-16.8","","62","","","","13","","5","","6.4","","96.82","","","","-14","","NA"
"-98.51","58.71","TADOULE LAKE","5062835","2012-02-13 17:00","2012","02","13","17:00","-11.5","","-17.2","","63","","","","13","","5","","16.1","","96.83","","","","-15","","NA"
"-98.51","58.71","TADOULE LAKE","5062835","2012-02-13 18:00","2012","02","13","18:00","-12.9","","-17.5","","69","","","","20","","8","","16.1","","96.88","","","","-18","","NA"
"-98.51","58.71","TADOULE LAKE","5062835","2012-02-13 19:00","2012","02","13","19:00","-13.5","","-17.9","","70","","","","18","","9","","16.1","","96.83","","","","-19","","NA"
"-98.51","58.71","TADOULE LAKE","5062835","2012-02-13 20:00","2012","02","13","20:00","-14.0","","-17.7","","74","","","","20","","5","","16.1","","96.80","","","","-17","","NA"
"-98.51","58.71","TADOULE LAKE","5062835","2012-02-13 21:00","2012","02","13","21:00","-14.9","","-17.9","","78","","","","17","","5","","16.1","","96.77","","","","-18","","NA"
"-98.51","58.71","TADOULE LAKE","5062835","2012-02-13 22:00","2012","02","13","22:00","-15.8","","-18.4","","81","","","","20","","5","","16.1","","96.73","","","","-20","","NA"
"-98.51","58.71","TADOULE LAKE","5062835","2012-02-13 23:00","2012","02","13","23:00","-15.8","","-18.5","","80","","","","19","","13","","16.1","","96.72","","","","-23","","NA"
"-98.51","58.71","TADOULE LAKE","5062835","2012-02-14 00:00","2012","02","14","00:00","-16.7","","-19.4","","80","","","","","M","4","","16.1","","96.74","","","","-20","","NA"
"-98.51","58.71","TADOULE LAKE","5062835","2012-02-14 01:00","2012","02","14","01:00","-18.5","","-20.2","","87","","","","19","","5","","16.1","","96.72","","","","-23","","NA"
"-98.51","58.71","TADOULE LAKE","5062835","2012-02-14 02:00","2012","02","14","02:00","-16.7","","-18.7","","85","","","","20","","9","","16.1","","96.69","","","","-23","","NA"
"-98.51","58.71","TADOULE LAKE","5062835","2012-02-14 03:00","2012","02","14","03:00","-17.6","","-19.5","","86","","","","19","","15","","16.1","","96.63","","","","-26","","NA"
"-98.51","58.71","TADOULE LAKE","5062835","2012-02-14 04:00","2012","02","14","04:00","-19.6","","-21.0","","89","","","","","M","4","","16.1","","96.62","","","","-23","","NA"
"-98.51","58.71","TADOULE LAKE","5062835","2012-02-14 05:00","2012","02","14","05:00","-19.8","","-21.9","","84","","","","23","","4","","16.1","","96.61","","","","-23","","NA"
"-98.51","58.71","TADOULE LAKE","5062835","2012-02-14 06:00","2012","02","14","06:00","-18.5","","-20.2","","87","","","","19","","5","","16.1","","96.58","","","","-23","","NA"
"-98.51","58.71","TADOULE LAKE","5062835","2012-02-14 07:00","2012","02","14","07:00","-18.6","","-20.2","","88","","","","","M","4","","16.1","","96.55","","","","-22","","NA"
"-98.51","58.71","TADOULE LAKE","5062835","2012-02-14 08:00","2012","02","14","08:00","-19.0","","-20.4","","89","","","","19","","11","","16.1","","96.53","","","","-26","","NA"
"-98.51","58.71","TADOULE LAKE","5062835","2012-02-14 09:00","2012","02","14","09:00","-17.6","","-19.3","","87","","","","22","","9","","16.1","","96.52","","","","-24","","NA"
"-98.51","58.71","TADOULE LAKE","5062835","2012-02-14 10:00","2012","02","14","10:00","-15.8","","-18.2","","82","","","","19","","5","","16.1","","96.51","","","","-20","","NA"
"-98.51","58.71","TADOULE LAKE","5062835","2012-02-14 11:00","2012","02","14","11:00","-14.4","","-18.1","","74","","","","","M","4","","16.1","","96.48","","","","-17","","NA"
"-98.51","58.71","TADOULE LAKE","5062835","2012-02-14 12:00","2012","02","14","12:00","-11.9","","-16.9","","67","","","","8","","4","","16.1","","96.46","","","","-14","","NA"
"-98.51","58.71","TADOULE LAKE","5062835","2012-02-14 13:00","2012","02","14","13:00","-11.2","","-16.0","","68","","","","8","","5","","16.1","","96.47","","","","-14","","NA"
"-98.51","58.71","TADOULE LAKE","5062835","2012-02-14 14:00","2012","02","14","14:00","-9.1","","-14.8","","64","","","","11","","5","","16.1","","96.45","","","","-12","","NA"
"-98.51","58.71","TADOULE LAKE","5062835","2012-02-14 15:00","2012","02","14","15:00","-9.4","","-14.1","","69","","","","10","","5","","16.1","","96.46","","","","-12","","NA"
"-98.51","58.71","TADOULE LAKE","5062835","2012-02-14 16:00","2012","02","14","16:00","-7.3","","-11.8","","71","","","","30","","11","","16.1","","96.49","","","","-12","","NA"
"-98.51","58.71","TADOULE LAKE","5062835","2012-02-14 17:00","2012","02","14","17:00","-8.1","","-12.3","","72","","","","29","","8","","16.1","","96.55","","","","-12","","NA"
"-98.51","58.71","TADOULE LAKE","5062835","2012-02-14 18:00","2012","02","14","18:00","-8.9","","-12.6","","75","","","","29","","5","","16.1","","96.58","","","","-12","","NA"
"-98.51","58.71","TADOULE LAKE","5062835","2012-02-14 19:00","2012","02","14","19:00","-9.5","","-12.7","","78","","","","34","","8","","16.1","","96.64","","","","-14","","NA"
"-98.51","58.71","TADOULE LAKE","5062835","2012-02-14 20:00","2012","02","14","20:00","-9.8","","-12.6","","80","","","","32","","9","","16.1","","96.66","","","","-15","","NA"
"-98.51","58.71","TADOULE LAKE","5062835","2012-02-14 21:00","2012","02","14","21:00","-10.3","","-13.0","","81","","","","33","","8","","16.1","","96.69","","","","-15","","NA"
"-98.51","58.71","TADOULE LAKE","5062835","2012-02-14 22:00","2012","02","14","22:00","-11.9","","-13.8","","86","","","","34","","8","","16.1","","96.71","","","","-17","","NA"
"-98.51","58.71","TADOULE LAKE","5062835","2012-02-14 23:00","2012","02","14","23:00","-12.5","","-14.1","","88","","","","35","","11","","16.1","","96.77","","","","-19","","NA"
"-98.51","58.71","TADOULE LAKE","5062835","2012-02-15 00:00","2012","02","15","00:00","-14.1","","-16.4","","83","","","","36","","15","","16.1","","96.84","","","","-22","","NA"
"-98.51","58.71","TADOULE LAKE","5062835","2012-02-15 01:00","2012","02","15","01:00","-14.4","","-16.5","","84","","","","34","","9","","16.1","","96.93","","","","-20","","NA"
"-98.51","58.71","TADOULE LAKE","5062835","2012-02-15 02:00","2012","02","15","02:00","-14.7","","-17.0","","83","","","","33","","11","","16.1","","96.98","","","","-21","","NA"
"-98.51","58.71","TADOULE LAKE","5062835","2012-02-15 03:00","2012","02","15","03:00","-14.7","","-17.6","","79","","","","33","","13","","16.1","","97.03","","","","-22","","NA"
"-98.51","58.71","TADOULE LAKE","5062835","2012-02-15 04:00","2012","02","15","04:00","-14.6","","-17.3","","80","","","","33","","11","","16.1","","97.09","","","","-21","","NA"
"-98.51","58.71","TADOULE LAKE","5062835","2012-02-15 05:00","2012","02","15","05:00","-14.9","","-17.6","","80","","","","32","","17","","16.1","","97.16","","","","-23","","NA"
"-98.51","58.71","TADOULE LAKE","5062835","2012-02-15 06:00","2012","02","15","06:00","-15.6","","-17.2","","88","","","","33","","11","","16.1","","97.23","","","","-22","","NA"
"-98.51","58.71","TADOULE LAKE","5062835","2012-02-15 07:00","2012","02","15","07:00"
"-98.51","58.71","TADOULE LAKE","5062835","2012-02-15 08:00","2012","02","15","08:00","-15.9","","-17.3","","89","","","","31","","9","","16.1","","97.33","","","","-22","","NA"
"-98.51","58.71","TADOULE LAKE","5062835","2012-02-15 09:00","2012","02","15","09:00","-16.3","","-18.0","","87","","","","30","","11","","16.1","","97.38","","","","-23","","NA"
"-98.51","58.71","TADOULE LAKE","5062835","2012-02-15 10:00","2012","02","15","10:00","-14.6","","-17.5","","79","","","","31","","15","","16.1","","97.44","","","","-22","","NA"
"-98.51","58.71","TADOULE LAKE","5062835","2012-02-15 11:00","2012","02","15","11:00","-14.3","","-17.7","","76","","","","32","","15","","16.1","","97.52","","","","-22","","NA"
"-98.51","58.71","TADOULE LAKE","5062835","2012-02-15 12:00","2012","02","15","12:00","-13.5","","-17.3","","73","","","","31","","15","","16.1","","97.54","","","","-21","","NA"
"-98.51","58.71","TADOULE LAKE","5062835","2012-02-15 13:00","2012","02","15","13:00","-12.5","","-17.3","","68","","","","31","","13","","16.1","","97.60","","","","-19","","NA"
"-98.51","58.71","TADOULE LAKE","5062835","2012-02-15 14:00","2012","02","15","14:00","-11.7","","-17.0","","65","","","","34","","13","","16.1","","97.62","","","","-18","","NA"
"-98.51","58.71","TADOULE LAKE","5062835","2012-02-15 15:00","2012","02","15","15:00","-12.8","","-17.2","","70","","","","36","","15","","16.1","","97.70","","","","-20","","NA"
"-98.51","58.71","TADOULE LAKE","5062835","2012-02-15 16:00","2012","02","15","16:00","-13.1","","-17.7","","69","","","","36","","11","","16.1","","97.75","","","","-19","","NA"
"-98.51","58.71","TADOULE LAKE","5062835","2012-02-15 17:00","2012","02","15","17:00","-14.5","","-18.8","","70","","","","35","","13","","16.1","","97.83","","","","-22","","NA"
"-98.51","58.71","TADOULE LAKE","5062835","2012-02-15 18:00","2012","02","15","18:00","-16.6","","-20.4","","73","","","","31","","8","","16.1","","97.92","","","","-22","","NA"
"-98.51","58.71","TADOULE LAKE","5062835","2012-02-15 19:00","2012","02","15","19:00","-17.9","","-20.9","","78","","","","30","","9","","16.1","","97.96","","","","-24","","NA"
"-98.51","58.71","TADOULE LAKE","5062835","2012-02-15 20:00","2012","02","15","20:00","-18.7","","-21.3","","80","","","","31","","11","","16.1","","97.99","","","","-26","","NA"
"-98.51","58.71","TADOULE LAKE","5062835","2012-02-15 21:00","2012","02","15","21:00","-19.2","","-21.6","","81","","","","30","","11","","16.1","","98.04","","","","-27","","NA"
"-98.51","58.71","TADOULE LAKE","5062835","2012-02-15 22:00","2012","02","15","22:00","-19.4","","-21.7","","83","","","","31","","9","","16.1","","98.07","","","","-26","","NA"
"-98.51","58.71","TADOULE LAKE","5062835","2012-02-15 23:00","2012","02","15","23:00","-20.4","","-22.3","","85","","","","32","","11","","16.1","","98.11","","","","-28","","NA"
"-98.51","58.71","TADOULE LAKE","5062835","2012-02-16 00:00","2012","02","16","00:00","-20.6","","-22.4","","86","","","","30","","8","","16.1","","98.13","","","","-27","","NA"
"-98.51","58.71","TADOULE LAKE","5062835","2012-02-16 01:00","2012","02","16","01:00","-20.8","","-22.7","","85","","","","30","","9","","16.1","","98.17","","","","-28","","NA"
"-98.51","58.71","TADOULE LAKE","5062835","2012-02-16 02:00","2012","02","16","02:00","-21.9","","-23.7","","86","","","","29","","9","","16.1","","98.21","","","","-29","","NA"
"-98.51","58.71","TADOULE LAKE","5062835","2012-02-16 03:00","2012","02","16","03:00","-22.7","","-24.3","","87","","","","28","","8","","16.1","","98.22","","","","-29","","NA"
"-98.51","58.71","TADOULE LAKE","5062835","2012-02-16 04:00","2012","02","16","04:00","-22.9","","-24.5","","87","","","","29","","8","","16.1","","98.23","","","","-30","","NA"
"-98.51","58.71","TADOULE LAKE","5062835","2012-02-16 05:00","2012","02","16","05:00","-23.1","","-24.9","","85","","","","30","","9","","16.1","","98.26","","","","-30","","NA"
"-98.51","58.71","TADOULE LAKE","5062835","2012-02-16 06:00","2012","02","16","06:00","-21.8","","-23.7","","85","","","","30","","8","","16.1","","98.30","","","","-28","","NA"
"-98.51","58.71","TADOULE LAKE","5062835","2012-02-16 07:00","2012","02","16","07:00","-20.9","","-22.9","","84","","","","29","","8","","16.1","","98.32","","","","-27","","NA"
"-98.51","58.71","TADOULE LAKE","5062835","2012-02-16 08:00","2012","02","16","08:00","-20.5","","-22.5","","84","","","","29","","8","","16.1","","98.35","","","","-27","","NA"
"-98.51","58.71","TADOULE LAKE","5062835","2012-02-16 09:00","2012","02","16","09:00","-20.0","","-22.1","","84","","","","29","","8","","16.1","","98.35","","","","-26","","NA"
"-98.51","58.71","TADOULE LAKE","5062835","2012-02-16 10:00","2012","02","16","10:00","-19.1","","-21.0","","85","","","","32","","5","","16.1","","98.35","","","","-23","","NA"
"-98.51","58.71","TADOULE LAKE","5062835","2012-02-16 11:00","2012","02","16","11:00","-17.5","","-19.7","","83","","","","32","","8","","16.1","","98.38","","","","-23","","NA"
"-98.51","58.71","TADOULE LAKE","5062835","2012-02-16 12:00","2012","02","16","12:00","-16.6","","-19.9","","76","","","","36","","8","","16.1","","98.41","","","","-22","","NA"
"-98.51","58.71","TADOULE LAKE","5062835","2012-02-16 13:00","2012","02","16","13:00","-16.2","","-19.9","","74","","","","36","","15","","16.1","","98.43","","","","-24","","NA"
"-98.51","58.71","TADOULE LAKE","5062835","2012-02-16 14:00","2012","02","16","14:00","-16.0","","-20.0","","72","","","","35","","17","","16.1","","98.45","","","","-25","","NA"
"-98.51","58.71","TADOULE LAKE","5062835","2012-02-16 15:00","2012","02","16","15:00","-15.8","","-19.4","","74","","","","34","","9","","16.1","","98.45","","","","-22","","NA"
"-98.51","58.71","TADOULE LAKE","5062835","2012-02-16 16:00","2012","02","16","16:00","-15.7","","-19.4","","74","","","","33","","8","","16.1","","98.46","","","","-21","","NA"
"-98.51","58.71","TADOULE LAKE","5062835","2012-02-16 17:00","2012","02","16","17:00","-15.9","","-19.5","","74","","","","34","","9","","16.1","","98.49","","","","-22","","NA"
"-98.51","58.71","TADOULE LAKE","5062835","2012-02-16 18:00","2012","02","16","18:00","-16.1","","-19.6","","75","","","","31","","8","","16.1","","98.51","","","","-22","","NA"
"-98.51","58.71","TADOULE LAKE","5062835","2012-02-16 19:00","2012","02","16","19:00","-16.4","","-19.5","","77","","","","32","","4","","16.1","","98.51","","","","-19","","NA"
"-98.51","58.71","TADOULE LAKE","5062835","2012-02-16 20:00","2012","02","16","20:00","-17.1","","-19.9","","80","","","","31","","5","","16.1","","98.52","","","","-21","","NA"
"-98.51","58.71","TADOULE LAKE","5062835","2012-02-16 21:00","2012","02","16","21:00","-18.4","","-20.5","","84","","","","32","","8","","16.1","","98.54","","","","-24","","NA"
"-98.51","58.71","TADOULE LAKE","5062835","2012-02-16 22:00","2012","02","16","22:00","-19.3","","-21.1","","86","","","","29","","5","","16.1","","98.51","","","","-23","","NA"
"-98.51","58.71","TADOULE LAKE","5062835","2012-02-16 23:00","2012","02","16","23:00","-19.1","","-21.0","","86","","","","28","","8","","16.1","","98.53","","","","-25","","NA"
"-98.51","58.71","TADOULE LAKE","5062835","2012-02-17 00:00","2012","02","17","00:00","-19.6","","-21.2","","87","","","","28","","8","","16.1","","98.54","","","","-26","","NA"
"-98.51","58.71","TADOULE LAKE","5062835","2012-02-17 01:00","2012","02","17","01:00","-19.2","","-20.9","","87","","","","29","","8","","16.1","","98.55","","","","-25","","NA"
"-98.51","58.71","TADOULE LAKE","5062835","2012-02-17 02:00","2012","02","17","02:00","-19.0","","-20.7","","87","","","","30","","8","","16.1","","98.57","","","","-25","","NA"
"-98.51","58.71","TADOULE LAKE","5062835","2012-02-17 03:00","2012","02","17","03:00","-18.2","","-19.9","","87","","","","29","","9","","16.1","","98.55","","","","-25","","NA"
"-98.51","58.71","TADOULE LAKE","5062835","2012-02-17 04:00","2012","02","17","04:00","-17.8","","-19.5","","87","","","","29","","8","","16.1","","98.53","","","","-24","","NA"
"-98.51","58.71","TADOULE LAKE","5062835","2012-02-17 05:00","2012","02","17","05:00","-17.5","","-19.2","","87","","","","29","","8","","16.1","","98.53","","","","-23","","NA"
"-98.51","58.71","TADOULE LAKE","5062835","2012-02-17 06:00","2012","02","17","06:00","-17.2","","-18.9","","87","","","","29","","8","","16.1","","98.55","","","","-23","","NA"
"-98.51","58.71","TADOULE LAKE","5062835","2012-02-17 07:00","2012","02","17","07:00","-17.1","","-18.8","","87","","","","29","","8","","16.1","","98.56","","","","-23","","NA"
"-98.51","58.71","TADOULE LAKE","5062835","2012-02-17 08:00","2012","02","17","08:00","-16.9","","-18.6","","87","","","","26","","8","","16.1","","98.54","","","","-23","","NA"
"-98.51","58.71","TADOULE LAKE","5062835","2012-02-17 09:00","2012","02","17","09:00","-16.8","","-18.5","","87","","","","27","","9","","16.1","","98.52","","","","-23","","NA"
"-98.51","58.71","TADOULE LAKE","5062835","2012-02-17 10:00","2012","02","17","10:00","-16.6","","-18.6","","85","","","","24","","8","","16.1","","98.53","","","","-22","","NA"
"-98.51","58.71","TADOULE LAKE","5062835","2012-02-17 11:00","2012","02","17","11:00","-16.1","","-18.5","","82","","","","20","","11","","16.1","","98.49","","","","-23","","NA"
"-98.51","58.71","TADOULE LAKE","5062835","2012-02-17 12:00","2012","02","17","12:00","-15.3","","-18.6","","77","","","","19","","15","","16.1","","98.45","","","","-23","","NA"
"-98.51","58.71","TADOULE LAKE","5062835","2012-02-17 13:00","2012","02","17","13:00","-13.9","","-18.5","","69","","","","20","","15","","16.1","","98.37","","","","-22","","NA"
"-98.51","58.71","TADOULE LAKE","5062835","2012-02-17 14:00","2012","02","17","14:00","-13.1","","-18.3","","65","","","","20","","11","","16.1","","98.30","","","","-19","","NA"
"-98.51","58.71","TADOULE LAKE","5062835","2012-02-17 15:00","2012","02","17","15:00","-12.8","","-18.5","","63","","","","21","","15","","16.1","","98.26","","","","-20","","NA"
"-98.51","58.71","TADOULE LAKE","5062835","2012-02-17 16:00","2012","02","17","16:00","-13.1","","-18.2","","66","","","","19","","15","","16.1","","98.15","","","","-21","","NA"
"-98.51","58.71","TADOULE LAKE","5062835","2012-02-17 17:00","2012","02","17","17:00","-13.7","","-18.2","","69","","","","20","","13","","16.1","","98.13","","","","-21","","NA"
"-98.51","58.71","TADOULE LAKE","5062835","2012-02-17 18:00","2012","02","17","18:00","-14.0","","-18.2","","71","","","","20","","15","","16.1","","98.07","","","","-22","","NA"
"-98.51","58.71","TADOULE LAKE","5062835","2012-02-17 19:00","2012","02","17","19:00","-14.4","","-17.9","","75","","","","20","","13","","16.1","","98.03","","","","-22","","NA"
"-98.51","58.71","TADOULE LAKE","5062835","2012-02-17 20:00","2012","02","17","20:00","-14.3","","-17.2","","79","","","","21","","11","","14.5","","97.98","","","","-21","","NA"
"-98.51","58.71","TADOULE LAKE","5062835","2012-02-17 21:00","2012","02","17","21:00","-14.1","","-16.4","","83","","","","21","","15","","14.5","","97.91","","","","-22","","NA"
"-98.51","58.71","TADOULE LAKE","5062835","2012-02-17 22:00","2012","02","17","22:00","-13.6","","-15.6","","85","","","","22","","13","","16.1","","97.87","","","","-21","","NA"
"-98.51","58.71","TADOULE LAKE","5062835","2012-02-17 23:00","2012","02","17","23:00","-13.1","","-15.1","","85","","","","24","","15","","16.1","","97.82","","","","-21","","NA"
"-98.51","58.71","TADOULE LAKE","5062835","2012-02-18 00:00","2012","02","18","00:00","-12.7","","-14.3","","88","","","","24","","11","","16.1","","97.78","","","","-19","","NA"
"-98.51","58.71","TADOULE LAKE","5062835","2012-02-18 01:00","2012","02","18","01:00","-12.4","","-13.3","","93","","","","25","","11","","14.5","","97.75","","","","-18","","NA"
"-98.51","58.71","TADOULE LAKE","5062835","2012-02-18 02:00","2012","02","18","02:00","-11.8","","-12.6","","94","","","","25","","9","","2.4","","97.73","","","","-17","","NA"
"-98.51","58.71","TADOULE LAKE","5062835","2012-02-18 03:00","2012","02","18","03:00","-11.3","","-12.1","","94","","","","26","","8","","16.1","","97.72","","","","-16","","NA"
"-98.51","58.71","TADOULE LAKE","5062835","2012-02-18 04:00","2012","02","18","04:00","-10.7","","-11.5","","94","","","","28","","11","","4.8","","97.74","","","","-16","","NA"
"-98.51","58.71","TADOULE LAKE","5062835","2012-02-18 05:00","2012","02","18","05:00","-10.8","","-11.7","","93","","","","27","","8","","16.1","","97.71","","","","-15","","NA"
"-98.51","58.71","TADOULE LAKE","5062835","2012-02-18 06:00","2012","02","18","06:00","-10.8","","-11.8","","92","","","","25","","9","","16.1","","97.68","","","","-16","","NA"
"-98.51","58.71","TADOULE LAKE","5062835","2012-02-18 07:00","2012","02","18","07:00","-11.2","","-12.3","","92","","","","25","","8","","16.1","","97.69","","","","-16","","NA"
"-98.51","58.71","TADOULE LAKE","5062835","2012-02-18 08:00","2012","02","18","08:00","-11.1","","-12.2","","92","","","","25","","11","","16.1","","97.65","","","","-17","","NA"
"-98.51","58.71","TADOULE LAKE","5062835","2012-02-18 09:00","2012","02","18","09:00","-10.9","","-12.0","","92","","","","24","","9","","16.1","","97.65","","","","-16","","NA"
"-98.51","58.71","TADOULE LAKE","5062835","2012-02-18 10:00","2012","02","18","10:00","-10.1","","-11.3","","91","","","","24","","13","","16.1","","97.62","","","","-16","","NA"
"-98.51","58.71","TADOULE LAKE","5062835","2012-02-18 11:00","2012","02","18","11:00","-10.0","","-11.2","","91","","","","22","","17","","16.1","","97.58","","","","-17","","NA"
"-98.51","58.71","TADOULE LAKE","5062835","2012-02-18 12:00","2012","02","18","12:00","-9.0","","-10.9","","86","","","","21","","13","","16.1","","97.53","","","","-15","","NA"
"-98.51","58.71","TADOULE LAKE","5062835","2012-02-18 13:00","2012","02","18","13:00","-7.6","","-10.3","","81","","","","19","","21","","16.1","","97.45","","","","-15","","NA"
"-98.51","58.71","TADOULE LAKE","5062835","2012-02-18 14:00","2012","02","18","14:00","-6.2","","-9.6","","77","","","","20","","13","","16.1","","97.40","","","","-12","","NA"
"-98.51","58.71","TADOULE LAKE","5062835","2012-02-18 15:00","2012","02","18","15:00","-5.2","","-9.1","","74","","","","20","","18","","16.1","","97.31","","","","-11","","NA"
"-98.51","58.71","TADOULE LAKE","5062835","2012-02-18 16:00","2012","02","18","16:00","-4.6","","-9.0","","72","","","","20","","17","","16.1","","97.28","","","","-10","","NA"
"-98.51","58.71","TADOULE LAKE","5062835","2012-02-18 17:00","2012","02","18","17:00","-4.8","","-9.1","","72","","","","20","","17","","16.1","","97.21","","","","-11","","NA"
"-98.51","58.71","TADOULE LAKE","5062835","2012-02-18 18:00","2012","02","18","18:00","-6.1","","-9.5","","77","","","","22","","8","","16.1","","97.24","","","","-10","","NA"
"-98.51","58.71","TADOULE LAKE","5062835","2012-02-18 19:00","2012","02","18","19:00","-7.4","","-9.9","","83","","","","21","","11","","16.1","","97.26","","","","-12","","NA"
"-98.51","58.71","TADOULE LAKE","5062835","2012-02-18 20:00","2012","02","18","20:00","-5.2","","-7.7","","83","","","","28","","13","","16.1","","97.29","","","","-10","","NA"
"-98.51","58.71","TADOULE LAKE","5062835","2012-02-18 21:00","2012","02","18","21:00","-5.0","","-7.6","","82","","","","32","","13","","16.1","","97.32","","","","-10","","NA"
"-98.51","58.71","TADOULE LAKE","5062835","2012-02-18 22:00","2012","02","18","22:00","-7.3","","-10.0","","81","","","","33","","15","","16.1","","97.40","","","","-13","","NA"
"-98.51","58.71","TADOULE LAKE","5062835","2012-02-18 23:00","2012","02","18","23:00","-8.2","","-11.2","","79","","","","34","","13","","16.1","","97.48","","","","-14","","NA"
"-98.51","58.71","TADOULE LAKE","5062835","2012-02-19 00:00","2012","02","19","00:00","-9.4","","-12.4","","79","","","","35","","21","","16.1","","97.57","","","","-17","","NA"
"-98.51","58.71","TADOULE LAKE","5062835","2012-02-19 01:00","2012","02","19","01:00","-14.2","","-17.2","","78","","","","34","","13","","16.1","","97.67","","","","-21","","NA"
"-98.51","58.71","TADOULE LAKE","5062835","2012-02-19 02:00","2012","02","19","02:00","-16.4","","-18.8","","82","","","","33","","8","","16.1","","97.72","","","","-22","","NA"
"-98.51","58.71","TADOULE LAKE","5062835","2012-02-19 03:00","2012","02","19","03:00","-18.0","","-20.1","","84","","","","33","","15","","16.1","","97.80","","","","-27","","NA"
"-98.51","58.71","TADOULE LAKE","5062835","2012-02-19 04:00","2012","02","19","04:00","-19.5","","-21.2","","87","","","","33","","9","","16.1","","97.88","","","","-26","","NA"
"-98.51","58.71","TADOULE LAKE","5062835","2012-02-19 05:00","2012","02","19","05:00","-20.0","","-21.6","","87","","","","34","","11","","16.1","","97.90","","","","-28","","NA"
"-98.51","58.71","TADOULE LAKE","5062835","2012-02-19 06:00","2012","02","19","06:00","-19.8","","-21.4","","87","","","","34","","17","","16.1","","97.95","","","","-29","","NA"
"-98.51","58.71","TADOULE LAKE","5062835","2012-02-19 07:00","2012","02","19","07:00","-20.0","","-21.9","","85","","","","35","","15","","16.1","","97.99","","","","-29","","NA"
"-98.51","58.71","TADOULE LAKE","5062835","2012-02-19 08:00","2012","02","19","08:00","-21.2","","-23.1","","85","","","","34","","13","","16.1","","98.05","","","","-30","","NA"
"-98.51","58.71","TADOULE LAKE","5062835","2012-02-19 09:00","2012","02","19","09:00","-20.8","","-23.1","","82","","","","35","","15","","16.1","","98.07","","","","-30","","NA"
"-98.51","58.71","TADOULE LAKE","5062835","2012-02-19 10:00","2012","02","19","10:00","-20.9","","-23.3","","81","","","","36","","15","","16.1","","98.16","","","","-30","","NA"
"-98.51","58.71","TADOULE LAKE","5062835","2012-02-19 11:00","2012","02","19","11:00","-20.1","","-22.0","","85","","","","34","","9","","8.1","","98.21","","","","-27","","NA"
"-98.51","58.71","TADOULE LAKE","5062835","2012-02-19 12:00","2012","02","19","12:00","-19.9","","-22.7","","79","","","","34","","15","","16.1","","98.23","","","","-29","","NA"
"-98.51","58.71","TADOULE LAKE","5062835","2012-02-19 13:00","2012","02","19","13:00","-19.2","","-22.6","","75","","","","33","","15","","16.1","","98.25","","","","-28","","NA"
"-98.51","58.71","TADOULE LAKE","5062835","2012-02-19 14:00","2012","02","19","14:00","-18.9","","-22.5","","74","","","","35","","18","","16.1","","98.24","","","","-29","","NA"
"-98.51","58.71","TADOULE LAKE","5062835","2012-02-19 15:00","2012","02","19","15:00","-18.5","","-22.1","","74","","","","35","","11","","16.1","","98.30","","","","-26","","NA"
"-98.51","58.71","TADOULE LAKE","5062835","2012-02-19 16:00","2012","02","19","16:00","-18.6","","-22.1","","75","","","","35","","11","","16.1","","98.32","","","","-26","","NA"
"-98.51","58.71","TADOULE LAKE","5062835","2012-02-19 17:00","2012","02","19","17:00","-19.9","","-23.7","","72","","","","36","","13","","16.1","","98.38","","","","-28","","NA"
"-98.51","58.71","TADOULE LAKE","5062835","2012-02-19 18:00","2012","02","19","18:00","-21.2","","-24.8","","73","","","","35","","9","","16.1","","98.45","","","","-28","","NA"
"-98.51","58.71","TADOULE LAKE","5062835","2012-02-19 19:00","2012","02","19","19:00","-23.0","","-26.1","","76","","","","35","","9","","16.1","","98.49","","","","-30","","NA"
"-98.51","58.71","TADOULE LAKE","5062835","2012-02-19 20:00","2012","02","19","20:00","-24.0","","-26.8","","78","","","","35","","11","","16.1","","98.51","","","","-32","","NA"
"-98.51","58.71","TADOULE LAKE","5062835","2012-02-19 21:00","2012","02","19","21:00","-24.4","","-27.2","","78","","","","36","","9","","16.1","","98.55","","","","-32","","NA"
"-98.51","58.71","TADOULE LAKE","5062835","2012-02-19 22:00","2012","02","19","22:00","-25.1","","-27.7","","79","","","","2","","8","","16.1","","98.56","","","","-32","","NA"
"-98.51","58.71","TADOULE LAKE","5062835","2012-02-19 23:00","2012","02","19","23:00","-25.3","","-28.0","","79","","","","3","","8","","16.1","","98.57","","","","-32","","NA"
"-98.51","58.71","TADOULE LAKE","5062835","2012-02-20 00:00","2012","02","20","00:00","-25.6","","-28.2","","79","","","","3","","9","","16.1","","98.60","","","","-33","","NA"
"-98.51","58.71","TADOULE LAKE","5062835","2012-02-20 01:00","2012","02","20","01:00","-25.7","","-28.2","","80","","","","1","","4","","16.1","","98.60","","","","-30","","NA"
"-98.51","58.71","TADOULE LAKE","5062835","2012-02-20 02:00","2012","02","20","02:00","-26.0","","-28.5","","80","","","","3","","9","","16.1","","98.59","","","","-34","","NA"
"-98.51","58.71","TADOULE LAKE","5062835","2012-02-20 03:00","2012","02","20","03:00","-25.9","","-28.7","","78","","","","5","","8","","16.1","","98.61","","","","-33","","NA"
"-98.51","58.71","TADOULE LAKE","5062835","2012-02-20 04:00","2012","02","20","04:00","-26.3","","-29.1","","78","","","","4","","9","","16.1","","98.60","","","","-34","","NA"
"-98.51","58.71","TADOULE LAKE","5062835","2012-02-20 05:00","2012","02","20","05:00","-26.3","","-29.2","","77","","","","5","","9","","16.1","","98.59","","","","-34","","NA"
"-98.51","58.71","TADOULE LAKE","5062835","2012-02-20 06:00","2012","02","20","06:00","-26.6","","-29.4","","78","","","","5","","8","","16.1","","98.56","","","","-34","","NA"
"-98.51","58.71","TADOULE LAKE","5062835","2012-02-20 07:00","2012","02","20","07:00","-27.2","","-30.0","","78","","","","5","","9","","16.1","","98.56","","","","-35","","NA"
"-98.51","58.71","TADOULE LAKE","5062835","2012-02-20 08:00","2012","02","20","08:00","-28.3","","-30.8","","80","","","","4","","5","","16.1","","98.57","","","","-34","","NA"
"-98.51","58.71","TADOULE LAKE","5062835","2012-02-20 09:00","2012","02","20","09:00","-27.7","","-30.3","","79","","","","5","","5","","16.1","","98.59","","","","-33","","NA"
"-98.51","58.71","TADOULE LAKE","5062835","2012-02-20 10:00","2012","02","20","10:00","-26.5","","-29.7","","75","","","","8","","9","","16.1","","98.59","","","","-34","","NA"
"-98.51","58.71","TADOULE LAKE","5062835","2012-02-20 11:00","2012","02","20","11:00","-24.6","","-28.4","","71","","","","11","","5","","16.1","","98.59","","","","-29","","NA"
"-98.51","58.71","TADOULE LAKE","5062835","2012-02-20 12:00","2012","02","20","12:00","-23.2","","-27.4","","69","","","","8","","11","","16.1","","98.59","","","","-31","","NA"
"-98.51","58.71","TADOULE LAKE","5062835","2012-02-20 13:00","2012","02","20","13:00","-22.0","","-26.7","","66","","","","8","","9","","16.1","","98.55","","","","-29","","NA"
"-98.51","58.71","TADOULE LAKE","5062835","2012-02-20 14:00","2012","02","20","14:00","-20.9","","-26.2","","63","","","","6","","11","","16.1","","98.47","","","","-29","","NA"
"-98.51","58.71","TADOULE LAKE","5062835","2012-02-20 15:00","2012","02","20","15:00","-20.3","","-26.0","","61","","","","7","","15","","16.1","","98.45","","","","-29","","NA"
"-98.51","58.71","TADOULE LAKE","5062835","2012-02-20 16:00","2012","02","20","16:00","-20.1","","-25.6","","62","","","","6","","13","","16.1","","98.44","","","","-29","","NA"
"-98.51","58.71","TADOULE LAKE","5062835","2012-02-20 17:00","2012","02","20","17:00","-20.4","","-25.9","","62","","","","7","","13","","16.1","","98.43","","","","-29","","NA"
"-98.51","58.71","TADOULE LAKE","5062835","2012-02-20 18:00","2012","02","20","18:00","-22.1","","-26.7","","67","","","","7","","11","","16.1","","98.42","","","","-30","","NA"
"-98.51","58.71","TADOULE LAKE","5062835","2012-02-20 19:00","2012","02","20","19:00","-23.6","","-27.6","","70","","","","7","","9","","16.1","","98.41","","","","-31","","NA"
"-98.51","58.71","TADOULE LAKE","5062835","2012-02-20 20:00","2012","02","20","20:00","-24.6","","-28.1","","73","","","","10","","11","","16.1","","98.40","","","","-33","","NA"
"-98.51","58.71","TADOULE LAKE","5062835","2012-02-20 21:00","2012","02","20","21:00","-25.0","","-28.2","","76","","","","10","","15","","16.1","","98.39","","","","-35","","NA"
"-98.51","58.71","TADOULE LAKE","5062835","2012-02-20 22:00","2012","02","20","22:00","-26.0","","-28.8","","78","","","","10","","13","","16.1","","98.36","","","","-36","","NA"
"-98.51","58.71","TADOULE LAKE","5062835","2012-02-20 23:00","2012","02","20","23:00","-27.7","","-30.2","","80","","","","9","","11","","16.1","","98.33","","","","-37","","NA"
"-98.51","58.71","TADOULE LAKE","5062835","2012-02-21 00:00","2012","02","21","00:00","-28.2","","-30.5","","81","","","","10","","9","","16.1","","98.23","","","","-36","","NA"
"-98.51","58.71","TADOULE LAKE","5062835","2012-02-21 01:00","2012","02","21","01:00","-27.7","","-30.0","","81","","","","9","","11","","11.3","","98.20","","","","-37","","NA"
"-98.51","58.71","TADOULE LAKE","5062835","2012-02-21 02:00","2012","02","21","02:00","-26.7","","-28.8","","83","","","","9","","13","","16.1","","98.14","","","","-37","","NA"
"-98.51","58.71","TADOULE LAKE","5062835","2012-02-21 03:00","2012","02","21","03:00","-26.4","","-28.5","","83","","","","9","","13","","16.1","","98.12","","","","-36","","NA"
"-98.51","58.71","TADOULE LAKE","5062835","2012-02-21 04:00","2012","02","21","04:00","-25.8","","-27.9","","83","","","","9","","11","","16.1","","98.06","","","","-35","","NA"
"-98.51","58.71","TADOULE LAKE","5062835","2012-02-21 05:00","2012","02","21","05:00","-25.6","","-27.8","","83","","","","10","","17","","16.1","","98.01","","","","-37","","NA"
"-98.51","58.71","TADOULE LAKE","5062835","2012-02-21 06:00","2012","02","21","06:00","-25.6","","-27.8","","82","","","","9","","17","","16.1","","97.92","","","","-37","","NA"
"-98.51","58.71","TADOULE LAKE","5062835","2012-02-21 07:00","2012","02","21","07:00","-24.8","","-26.9","","83","","","","8","","11","","16.1","","97.83","","","","-33","","NA"
"-98.51","58.71","TADOULE LAKE","5062835","2012-02-21 08:00","2012","02","21","08:00","-23.7","","-25.7","","84","","","","10","","11","","16.1","","97.75","","","","-32","","NA"
"-98.51","58.71","TADOULE LAKE","5062835","2012-02-21 09:00","2012","02","21","09:00","-21.5","","-23.4","","85","","","","12","","18","","16.1","","97.71","","","","-32","","NA"
"-98.51","58.71","TADOULE LAKE","5062835","2012-02-21 10:00","2012","02","21","10:00","-20.8","","-23.0","","83","","","","12","","18","","16.1","","97.64","","","","-31","","NA"
"-98.51","58.71","TADOULE LAKE","5062835","2012-02-21 11:00","2012","02","21","11:00","-20.2","","-23.4","","76","","","","12","","21","","16.1","","97.53","","","","-31","","NA"
"-98.51","58.71","TADOULE LAKE","5062835","2012-02-21 12:00","2012","02","21","12:00","-19.4","","-22.9","","74","","","","13","","21","","16.1","","97.48","","","","-30","","NA"
"-98.51","58.71","TADOULE LAKE","5062835","2012-02-21 13:00","2012","02","21","13:00","-18.6","","-21.5","","79","","","","13","","17","","3.6","","97.37","","","","-28","","NA"
"-98.51","58.71","TADOULE LAKE","5062835","2012-02-21 14:00","2012","02","21","14:00","-18.0","","-20.6","","80","","","","13","","18","","6.4","","97.29","","","","-27","","NA"
"-98.51","58.71","TADOULE LAKE","5062835","2012-02-21 15:00","2012","02","21","15:00","-17.6","","-20.0","","82","","","","13","","17","","8.1","","97.23","","","","-27","","NA"
"-98.51","58.71","TADOULE LAKE","5062835","2012-02-21 16:00","2012","02","21","16:00","-17.0","","-19.3","","83","","","","13","","17","","8.1","","97.17","","","","-26","","NA"
"-98.51","58.71","TADOULE LAKE","5062835","2012-02-21 17:00","2012","02","21","17:00","-17.5","","-19.6","","84","","","","13","","15","","16.1","","97.11","","","","-26","","NA"
"-98.51","58.71","TADOULE LAKE","5062835","2012-02-21 18:00","2012","02","21","18:00","-17.1","","-19.5","","82","","","","15","","15","","16.1","","97.09","","","","-26","","NA"
"-98.51","58.71","TADOULE LAKE","5062835","2012-02-21 19:00","2012","02","21","19:00","-17.1","","-19.3","","83","","","","14","","15","","16.1","","97.03","","","","-26","","NA"
"-98.51","58.71","TADOULE LAKE","5062835","2012-02-21 20:00","2012","02","21","20:00","-17.1","","-18.9","","86","","","","14","","15","","4.8","","96.98","","","","-26","","NA"
"-98.51","58.71","TADOULE LAKE","5062835","2012-02-21 21:00","2012","02","21","21:00","-17.1","","-18.9","","86","","","","15","","13","","6.4","","96.93","","","","-25","","NA"
"-98.51","58.71","TADOULE LAKE","5062835","2012-02-21 22:00","2012","02","21","22:00","-17.2","","-18.9","","87","","","","15","","11","","4.8","","96.89","","","","-24","","NA"
"-98.51","58.71","TADOULE LAKE","5062835","2012-02-21 23:00","2012","02","21","23:00","-17.3","","-19.0","","87","","","","14","","11","","6.4","","96.85","","","","-24","","NA"
"-98.51","58.71","TADOULE LAKE","5062835","2012-02-22 00:00","2012","02","22","00:00","-17.3","","-19.0","","87","","","","14","","8","","12.9","","96.83","","","","-23","","NA"
"-98.51","58.71","TADOULE LAKE","5062835","2012-02-22 01:00","2012","02","22","01:00","-17.3","","-19.0","","87","","","","13","","9","","11.3","","96.81","","","","-24","","NA"
"-98.51","58.71","TADOULE LAKE","5062835","2012-02-22 02:00","2012","02","22","02:00","-17.4","","-19.1","","87","","","","13","","11","","14.5","","96.76","","","","-25","","NA"
"-98.51","58.71","TADOULE LAKE","5062835","2012-02-22 03:00","2012","02","22","03:00","-17.6","","-19.3","","87","","","","13","","13","","14.5","","96.72","","","","-25","","NA"
"-98.51","58.71","TADOULE LAKE","5062835","2012-02-22 04:00","2012","02","22","04:00","-17.6","","-19.3","","87","","","","12","","11","","4.8","","96.69","","","","-25","","NA"
"-98.51","58.71","TADOULE LAKE","5062835","2012-02-22 05:00","2012","02","22","05:00","-17.5","","-19.2","","87","","","","14","","8","","12.9","","96.68","","","","-23","","NA"
"-98.51","58.71","TADOULE LAKE","5062835","2012-02-22 06:00","2012","02","22","06:00","-17.7","","-19.4","","87","","","","13","","8","","14.5","","96.64","","","","-24","","NA"
"-98.51","58.71","TADOULE LAKE","5062835","2012-02-22 07:00","2012","02","22","07:00","-17.8","","-19.6","","86","","","","12","","8","","16.1","","96.63","","","","-24","","NA"
"-98.51","58.71","TADOULE LAKE","5062835","2012-02-22 08:00","2012","02","22","08:00","-17.8","","-19.5","","87","","","","12","","9","","16.1","","96.61","","","","-24","","NA"
"-98.51","58.71","TADOULE LAKE","5062835","2012-02-22 09:00","2012","02","22","09:00","-17.6","","-19.4","","86","","","","12","","9","","12.9","","96.58","","","","-24","","NA"
"-98.51","58.71","TADOULE LAKE","5062835","2012-02-22 10:00","2012","02","22","10:00","-17.2","","-19.2","","85","","","","13","","11","","6.4","","96.57","","","","-24","","NA"
"-98.51","58.71","TADOULE LAKE","5062835","2012-02-22 11:00","2012","02","22","11:00","-16.9","","-18.9","","85","","","","11","","8","","4.8","","96.56","","","","-23","","NA"
"-98.51","58.71","TADOULE LAKE","5062835","2012-02-22 12:00","2012","02","22","12:00","-16.7","","-18.8","","84","","","","10","","13","","4.8","","96.52","","","","-24","","NA"
"-98.51","58.71","TADOULE LAKE","5062835","2012-02-22 13:00","2012","02","22","13:00","-16.7","","-18.8","","84","","","","11","","9","","9.7","","96.52","","","","-23","","NA"
"-98.51","58.71","TADOULE LAKE","5062835","2012-02-22 14:00","2012","02","22","14:00","-16.3","","-18.7","","82","","","","11","","13","","16.1","","96.51","","","","-24","","NA"
"-98.51","58.71","TADOULE LAKE","5062835","2012-02-22 15:00","2012","02","22","15:00","-15.8","","-18.6","","80","","","","11","","11","","16.1","","96.53","","","","-23","","NA"
"-98.51","58.71","TADOULE LAKE","5062835","2012-02-22 16:00","2012","02","22","16:00","-15.8","","-18.1","","83","","","","9","","8","","12.9","","96.57","","","","-21","","NA"
"-98.51","58.71","TADOULE LAKE","5062835","2012-02-22 17:00","2012","02","22","17:00","-16.2","","-18.2","","85","","","","7","","8","","16.1","","96.61","","","","-22","","NA"
"-98.51","58.71","TADOULE LAKE","5062835","2012-02-22 18:00","2012","02","22","18:00","-16.1","","-17.9","","86","","","","6","","9","","4.0","","96.65","","","","-22","","NA"
"-98.51","58.71","TADOULE LAKE","5062835","2012-02-22 19:00","2012","02","22","19:00","-16.2","","-17.8","","88","","","","6","","8","","4.0","","96.70","","","","-22","","NA"
"-98.51","58.71","TADOULE LAKE","5062835","2012-02-22 20:00","2012","02","22","20:00","-17.0","","-18.6","","87","","","","7","","9","","9.7","","96.74","","","","-23","","NA"
"-98.51","58.71","TADOULE LAKE","5062835","2012-02-22 21:00","2012","02","22","21:00","-19.7","","-21.1","","89","","","","4","","5","","16.1","","96.77","","","","-24","","NA"
"-98.51","58.71","TADOULE LAKE","5062835","2012-02-22 22:00","2012","02","22","22:00","-21.3","","-22.8","","88","","","","3","","8","","16.1","","96.81","","","","-28","","NA"
"-98.51","58.71","TADOULE LAKE","5062835","2012-02-22 23:00","2012","02","22","23:00","-21.6","","-23.0","","89","","","","5","","8","","16.1","","96.84","","","","-28","","NA"
"-98.51","58.71","TADOULE LAKE","5062835","2012-02-23 00:00","2012","02","23","00:00","-22.2","","-23.7","","88","","","","6","","5","","16.1","","96.92","","","","-27","","NA"
"-98.51","58.71","TADOULE LAKE","5062835","2012-02-23 01:00","2012","02","23","01:00","-22.6","","-24.3","","86","","","","35","","5","","16.1","","96.96","","","","-27","","NA"
"-98.51","58.71","TADOULE LAKE","5062835","2012-02-23 02:00","2012","02","23","02:00","-22.7","","-24.6","","85","","","","35","","8","","16.1","","97.00","","","","-29","","NA"
"-98.51","58.71","TADOULE LAKE","5062835","2012-02-23 03:00","2012","02","23","03:00","-23.5","","-25.6","","83","","","","31","","8","","11.3","","97.06","","","","-30","","NA"
"-98.51","58.71","TADOULE LAKE","5062835","2012-02-23 04:00","2012","02","23","04:00","-24.3","","-26.4","","83","","","","31","","8","","16.1","","97.12","","","","-31","","NA"
"-98.51","58.71","TADOULE LAKE","5062835","2012-02-23 05:00","2012","02","23","05:00","-24.7","","-26.7","","84","","","","32","","8","","16.1","","97.17","","","","-32","","NA"
"-98.51","58.71","TADOULE LAKE","5062835","2012-02-23 06:00","2012","02","23","06:00","-24.4","","-26.3","","85","","","","33","","8","","16.1","","97.24","","","","-31","","NA"
"-98.51","58.71","TADOULE LAKE","5062835","2012-02-23 07:00","2012","02","23","07:00","-23.5","","-25.5","","84","","","","","M","4","","16.1","","97.26","","","","-27","","NA"
"-98.51","58.71","TADOULE LAKE","5062835","2012-02-23 08:00","2012","02","23","08:00","-23.8","","-25.5","","86","","","","35","","8","","16.1","","97.32","","","","-31","","NA"
"-98.51","58.71","TADOULE LAKE","5062835","2012-02-23 09:00","2012","02","23","09:00","-22.7","","-24.5","","86","","","","32","","8","","16.1","","97.37","","","","-29","","NA"
"-98.51","58.71","TADOULE LAKE","5062835","2012-02-23 10:00","2012","02","23","10:00","-20.8","","-22.4","","87","","","","33","","8","","16.1","","97.42","","","","-27","","NA"
"-98.51","58.71","TADOULE LAKE","5062835","2012-02-23 11:00","2012","02","23","11:00","-18.4","","-20.0","","87","","","","","M","4","","16.1","","97.47","","","","-22","","NA"
"-98.51","58.71","TADOULE LAKE","5062835","2012-02-23 12:00","2012","02","23","12:00","-17.4","","-19.5","","84","","","","","","0","","16.1","","97.49","","","","","","NA"
"-98.51","58.71","TADOULE LAKE","5062835","2012-02-23 13:00","2012","02","23","13:00","-15.7","","-18.4","","80","","","","31","","9","","16.1","","97.53","","","","-22","","NA"
"-98.51","58.71","TADOULE LAKE","5062835","2012-02-23 14:00","2012","02","23","14:00","-15.1","","-18.9","","73","","","","34","","13","","16.1","","97.56","","","","-22","","NA"
"-98.51","58.71","TADOULE LAKE","5062835","2012-02-23 15:00","2012","02","23","15:00","-14.9","","-18.1","","77","","","","36","","13","","16.1","","97.61","","","","-22","","NA"
"-98.51","58.71","TADOULE LAKE","5062835","2012-02-23 16:00","2012","02","23","16:00","-14.9","","-17.8","","79","","","","33","","9","","16.1","","97.67","","","","-21","","NA"
"-98.51","58.71","TADOULE LAKE","5062835","2012-02-23 17:00","2012","02","23","17:00","-15.1","","-17.7","","81","","","","34","","13","","16.1","","97.74","","","","-22","","NA"
"-98.51","58.71","TADOULE LAKE","5062835","2012-02-23 18:00","2012","02","23","18:00","-15.3","","-17.7","","82","","","","33","","9","","16.1","","97.79","","","","-21","","NA"
"-98.51","58.71","TADOULE LAKE","5062835","2012-02-23 19:00","2012","02","23","19:00","-15.6","","-17.9","","83","","","","34","","5","","16.1","","97.84","","","","-19","","NA"
"-98.51","58.71","TADOULE LAKE","5062835","2012-02-23 20:00","2012","02","23","20:00","-16.0","","-18.4","","82","","","","36","","9","","16.1","","97.88","","","","-22","","NA"
"-98.51","58.71","TADOULE LAKE","5062835","2012-02-23 21:00","2012","02","23","21:00","-17.3","","-19.5","","83","","","","36","","9","","16.1","","97.94","","","","-24","","NA"
"-98.51","58.71","TADOULE LAKE","5062835","2012-02-23 22:00","2012","02","23","22:00","-18.8","","-20.7","","85","","","","34","","8","","16.1","","97.97","","","","-25","","NA"
"-98.51","58.71","TADOULE LAKE","5062835","2012-02-23 23:00","2012","02","23","23:00","-18.9","","-21.3","","82","","","","35","","8","","16.1","","98.03","","","","-25","","NA"
"-98.51","58.71","TADOULE LAKE","5062835","2012-02-24 00:00","2012","02","24","00:00","-19.3","","-22.1","","79","","","","35","","9","","16.1","","98.06","","","","-26","","NA"
"-98.51","58.71","TADOULE LAKE","5062835","2012-02-24 01:00","2012","02","24","01:00","-19.6","","-22.4","","79","","","","35","","8","","16.1","","98.09","","","","-26","","NA"
"-98.51","58.71","TADOULE LAKE","5062835","2012-02-24 02:00","2012","02","24","02:00","-20.0","","-22.7","","79","","","","","M","4","","16.1","","98.14","","","","-23","","NA"
"-98.51","58.71","TADOULE LAKE","5062835","2012-02-24 03:00","2012","02","24","03:00","-20.3","","-22.6","","82","","","","31","","5","","16.1","","98.18","","","","-25","","NA"
"-98.51","58.71","TADOULE LAKE","5062835","2012-02-24 04:00","2012","02","24","04:00","-19.9","","-22.2","","83","","","","31","","8","","16.1","","98.21","","","","-26","","NA"
"-98.51","58.71","TADOULE LAKE","5062835","2012-02-24 05:00","2012","02","24","05:00","-20.2","","-22.4","","83","","","","28","","5","","16.1","","98.22","","","","-25","","NA"
"-98.51","58.71","TADOULE LAKE","5062835","2012-02-24 06:00","2012","02","24","06:00","-23.7","","-26.6","","77","","","","36","","8","","16.1","","98.31","","","","-31","","NA"
"-98.51","58.71","TADOULE LAKE","5062835","2012-02-24 07:00","2012","02","24","07:00","-25.9","","-28.9","","77","","","","33","","13","","16.1","","98.40","","","","-36","","NA"
"-98.51","58.71","TADOULE LAKE","5062835","2012-02-24 08:00","2012","02","24","08:00","-27.5","","-30.5","","77","","","","34","","11","","16.1","","98.46","","","","-37","","NA"
"-98.51","58.71","TADOULE LAKE","5062835","2012-02-24 09:00","2012","02","24","09:00","-27.9","","-31.5","","72","","","","33","","17","","16.1","","98.50","","","","-40","","NA"
"-98.51","58.71","TADOULE LAKE","5062835","2012-02-24 10:00","2012","02","24","10:00","-27.9","","-32.0","","69","","","","34","","18","","9.7","","98.55","","","","-40","","NA"
"-98.51","58.71","TADOULE LAKE","5062835","2012-02-24 11:00","2012","02","24","11:00","-26.5","","-31.4","","64","","","","33","","13","","16.1","","98.59","","","","-36","","NA"
"-98.51","58.71","TADOULE LAKE","5062835","2012-02-24 12:00","2012","02","24","12:00","-25.8","","-31.0","","63","","","","32","","17","","16.1","","98.62","","","","-37","","NA"
"-98.51","58.71","TADOULE LAKE","5062835","2012-02-24 13:00","2012","02","24","13:00","-25.2","","-30.7","","61","","","","32","","18","","16.1","","98.68","","","","-36","","NA"
"-98.51","58.71","TADOULE LAKE","5062835","2012-02-24 14:00","2012","02","24","14:00","-24.6","","-30.3","","60","","","","31","","13","","16.1","","98.75","","","","-34","","NA"
"-98.51","58.71","TADOULE LAKE","5062835","2012-02-24 15:00","2012","02","24","15:00","-24.2","","-29.9","","60","","","","31","","17","","16.1","","98.79","","","","-35","","NA"
"-98.51","58.71","TADOULE LAKE","5062835","2012-02-24 16:00","2012","02","24","16:00","-23.8","","-29.4","","61","","","","34","","13","","16.1","","98.84","","","","-33","","NA"
"-98.51","58.71","TADOULE LAKE","5062835","2012-02-24 17:00","2012","02","24","17:00","-24.1","","-29.3","","63","","","","33","","11","","16.1","","98.89","","","","-33","","NA"
"-98.51","58.71","TADOULE LAKE","5062835","2012-02-24 18:00","2012","02","24","18:00","-25.3","","-29.6","","68","","","","32","","13","","16.1","","98.92","","","","-35","","NA"
"-98.51","58.71","TADOULE LAKE","5062835","2012-02-24 19:00","2012","02","24","19:00","-26.3","","-30.1","","71","","","","31","","11","","16.1","","98.92","","","","-35","","NA"
"-98.51","58.71","TADOULE LAKE","5062835","2012-02-24 20:00","2012","02","24","20:00","-26.2","","-29.9","","72","","","","32","","15","","16.1","","98.92","","","","-37","","NA"
"-98.51","58.71","TADOULE LAKE","5062835","2012-02-24 21:00","2012","02","24","21:00","-27.0","","-30.3","","74","","","","32","","9","","16.1","","98.94","","","","-35","","NA"
"-98.51","58.71","TADOULE LAKE","5062835","2012-02-24 22:00","2012","02","24","22:00","-27.7","","-30.7","","76","","","","31","","8","","16.1","","98.92","","","","-35","","NA"
"-98.51","58.71","TADOULE LAKE","5062835","2012-02-24 23:00","2012","02","24","23:00","-28.2","","-31.2","","76","","","","31","","8","","16.1","","98.93","","","","-36","","NA"
"-98.51","58.71","TADOULE LAKE","5062835","2012-02-25 00:00","2012","02","25","00:00","-28.9","","-31.9","","76","","","","31","","11","","16.1","","98.93","","","","-38","","NA"
"-98.51","58.71","TADOULE LAKE","5062835","2012-02-25 01:00","2012","02","25","01:00","-29.4","","-32.4","","76","","","","30","","11","","16.1","","98.96","","","","-39","","NA"
"-98.51","58.71","TADOULE LAKE","5062835","2012-02-25 02:00","2012","02","25","02:00","-29.3","","-32.4","","75","","","","31","","13","","16.1","","98.97","","","","-40","","NA"
"-98.51","58.71","TADOULE LAKE","5062835","2012-02-25 03:00","2012","02","25","03:00","-29.7","","-32.7","","76","","","","30","","13","","16.1","","98.96","","","","-40","","NA"
"-98.51","58.71","TADOULE LAKE","5062835","2012-02-25 04:00","2012","02","25","04:00","-30.3","","-33.3","","76","","","","29","","11","","16.1","","98.96","","","","-40","","NA"
"-98.51","58.71","TADOULE LAKE","5062835","2012-02-25 05:00","2012","02","25","05:00","-30.9","","-33.8","","77","","","","30","","8","","16.1","","98.93","","","","-39","","NA"
"-98.51","58.71","TADOULE LAKE","5062835","2012-02-25 06:00","2012","02","25","06:00","-31.3","","-34.1","","77","","","","30","","9","","16.1","","98.95","","","","-40","","NA"
"-98.51","58.71","TADOULE LAKE","5062835","2012-02-25 07:00","2012","02","25","07:00","-31.4","","-34.2","","77","","","","30","","11","","16.1","","98.96","","","","-41","","NA"
"-98.51","58.71","TADOULE LAKE","5062835","2012-02-25 08:00","2012","02","25","08:00","-31.3","","-34.2","","76","","","","30","","15","","16.1","","98.98","","","","-43","","NA"
"-98.51","58.71","TADOULE LAKE","5062835","2012-02-25 09:00","2012","02","25","09:00","-30.2","","-33.4","","74","","","","31","","9","","16.1","","99.00","","","","-39","","NA"
"-98.51","58.71","TADOULE LAKE","5062835","2012-02-25 10:00","2012","02","25","10:00","-28.0","","-31.5","","73","","","","32","","15","","16.1","","99.03","","","","-39","","NA"
"-98.51","58.71","TADOULE LAKE","5062835","2012-02-25 11:00","2012","02","25","11:00","-26.4","","-30.6","","68","","","","35","","13","","16.1","","99.03","","","","-36","","NA"
"-98.51","58.71","TADOULE LAKE","5062835","2012-02-25 12:00","2012","02","25","12:00","-25.0","","-29.6","","66","","","","33","","18","","16.1","","99.04","","","","-36","","NA"
"-98.51","58.71","TADOULE LAKE","5062835","2012-02-25 13:00","2012","02","25","13:00","-23.5","","-28.7","","63","","","","31","","15","","16.1","","99.07","","","","-33","","NA"
"-98.51","58.71","TADOULE LAKE","5062835","2012-02-25 14:00","2012","02","25","14:00","-22.9","","-28.3","","62","","","","31","","15","","16.1","","99.09","","","","-33","","NA"
"-98.51","58.71","TADOULE LAKE","5062835","2012-02-25 15:00","2012","02","25","15:00","-22.1","","-27.9","","60","","","","31","","11","","16.1","","99.10","","","","-30","","NA"
"-98.51","58.71","TADOULE LAKE","5062835","2012-02-25 16:00","2012","02","25","16:00","-22.0","","-27.8","","60","","","","34","","9","","16.1","","99.10","","","","-29","","NA"
"-98.51","58.71","TADOULE LAKE","5062835","2012-02-25 17:00","2012","02","25","17:00","-23.0","","-28.2","","63","","","","35","","9","","16.1","","99.15","","","","-30","","NA"
"-98.51","58.71","TADOULE LAKE","5062835","2012-02-25 18:00","2012","02","25","18:00","-24.5","","-28.8","","68","","","","31","","4","","16.1","","99.17","","","","-28","","NA"
"-98.51","58.71","TADOULE LAKE","5062835","2012-02-25 19:00","2012","02","25","19:00","-25.7","","-29.0","","74","","","","30","","4","","16.1","","99.22","","","","-30","","NA"
"-98.51","58.71","TADOULE LAKE","5062835","2012-02-25 20:00","2012","02","25","20:00","-25.7","","-28.7","","77","","","","29","","5","","16.1","","99.23","","","","-31","","NA"
"-98.51","58.71","TADOULE LAKE","5062835","2012-02-25 21:00","2012","02","25","21:00","-26.3","","-29.1","","78","","","","30","","5","","16.1","","99.26","","","","-31","","NA"
"-98.51","58.71","TADOULE LAKE","5062835","2012-02-25 22:00","2012","02","25","22:00","-25.8","","-28.7","","77","","","","28","","8","","16.1","","99.29","","","","-33","","NA"
"-98.51","58.71","TADOULE LAKE","5062835","2012-02-25 23:00","2012","02","25","23:00","-26.4","","-29.0","","79","","","","30","","9","","16.1","","99.28","","","","-34","","NA"
"-98.51","58.71","TADOULE LAKE","5062835","2012-02-26 00:00","2012","02","26","00:00","-27.9","","-30.0","","83","","","","28","","9","","16.1","","99.31","","","","-36","","NA"
"-98.51","58.71","TADOULE LAKE","5062835","2012-02-26 01:00","2012","02","26","01:00","-27.2","","-29.5","","81","","","","30","","8","","16.1","","99.32","","","","-35","","NA"
"-98.51","58.71","TADOULE LAKE","5062835","2012-02-26 02:00","2012","02","26","02:00","-29.7","","-31.7","","83","","","","","","0","","16.1","","99.35","","","","","","NA"
"-98.51","58.71","TADOULE LAKE","5062835","2012-02-26 03:00","2012","02","26","03:00","-30.3","","-32.6","","81","","","","","","0","","16.1","","99.36","","","","","","NA"
"-98.51","58.71","TADOULE LAKE","5062835","2012-02-26 04:00","2012","02","26","04:00","-30.5","","-32.9","","80","","","","31","","9","","16.1","","99.37","","","","-39","","NA"
"-98.51","58.71","TADOULE LAKE","5062835","2012-02-26 05:00","2012","02","26","05:00","-30.4","","-33.1","","78","","","","31","","5","","16.1","","99.39","","","","-36","","NA"
"-98.51","58.71","TADOULE LAKE","5062835","2012-02-26 06:00","2012","02","26","06:00","-30.0","","-33.2","","74","","","","","M","4","","16.1","","99.40","","","","-35","","NA"
"-98.51","58.71","TADOULE LAKE","5062835","2012-02-26 07:00","2012","02","26","07:00","-31.8","","-34.7","","76","","","","31","","9","","16.1","","99.38","","","","-41","","NA"
"-98.51","58.71","TADOULE LAKE","5062835","2012-02-26 08:00","2012","02","26","08:00","-32.3","","-35.7","","73","","","","","M","4","","16.1","","99.39","","","","-37","","NA"
"-98.51","58.71","TADOULE LAKE","5062835","2012-02-26 09:00","2012","02","26","09:00","-30.6","","-33.6","","76","","","","","","0","","16.1","","99.36","","","","","","NA"
"-98.51","58.71","TADOULE LAKE","5062835","2012-02-26 10:00","2012","02","26","10:00","-29.2","","-32.2","","76","","","","9","","4","","16.1","","99.37","","","","-34","","NA"
"-98.51","58.71","TADOULE LAKE","5062835","2012-02-26 11:00","2012","02","26","11:00","-25.4","","-28.9","","73","","","","8","","5","","16.1","","99.36","","","","-30","","NA"
"-98.51","58.71","TADOULE LAKE","5062835","2012-02-26 12:00","2012","02","26","12:00","-23.4","","-27.8","","68","","","","10","","5","","16.1","","99.34","","","","-28","","NA"
"-98.51","58.71","TADOULE LAKE","5062835","2012-02-26 13:00","2012","02","26","13:00","-21.9","","-27.0","","64","","","","13","","8","","16.1","","99.29","","","","-28","","NA"
"-98.51","58.71","TADOULE LAKE","5062835","2012-02-26 14:00","2012","02","26","14:00","-19.5","","-24.8","","64","","","","","M","4","","16.1","","99.26","","","","-23","","NA"
"-98.51","58.71","TADOULE LAKE","5062835","2012-02-26 15:00","2012","02","26","15:00","-18.1","","-24.3","","59","","","","31","","8","","16.1","","99.25","","","","-24","","NA"
"-98.51","58.71","TADOULE LAKE","5062835","2012-02-26 16:00","2012","02","26","16:00","-17.8","","-24.2","","58","","","","31","","8","","16.1","","99.23","","","","-24","","NA"
"-98.51","58.71","TADOULE LAKE","5062835","2012-02-26 17:00","2012","02","26","17:00","-18.3","","-24.7","","58","","","","28","","8","","16.1","","99.21","","","","-24","","NA"
"-98.51","58.71","TADOULE LAKE","5062835","2012-02-26 18:00","2012","02","26","18:00","-20.1","","-25.2","","65","","","","28","","4","","16.1","","99.19","","","","-24","","NA"
"-98.51","58.71","TADOULE LAKE","5062835","2012-02-26 19:00","2012","02","26","19:00","-23.8","","-27.0","","75","","","","13","","5","","16.1","","99.19","","","","-29","","NA"
"-98.51","58.71","TADOULE LAKE","5062835","2012-02-26 20:00","2012","02","26","20:00","-22.7","","-25.8","","76","","","","20","","5","","16.1","","99.14","","","","-27","","NA"
"-98.51","58.71","TADOULE LAKE","5062835","2012-02-26 21:00","2012","02","26","21:00","-22.2","","-25.5","","75","","","","21","","9","","16.1","","99.11","","","","-29","","NA"
"-98.51","58.71","TADOULE LAKE","5062835","2012-02-26 22:00","2012","02","26","22:00","-23.2","","-26.0","","79","","","","22","","9","","16.1","","99.06","","","","-31","","NA"
"-98.51","58.71","TADOULE LAKE","5062835","2012-02-26 23:00","2012","02","26","23:00","-23.4","","-26.1","","79","","","","23","","9","","16.1","","99.05","","","","-31","","NA"
"-98.51","58.71","TADOULE LAKE","5062835","2012-02-27 00:00","2012","02","27","00:00","-25.5","","-26.8","","90","","","","23","","11","","16.1","","99.03","","","","-34","","NA"
"-98.51","58.71","TADOULE LAKE","5062835","2012-02-27 01:00","2012","02","27","01:00","-24.5","","-28.5","","70","","","","28","","5","","16.1","","98.99","","","","-29","","NA"
"-98.51","58.71","TADOULE LAKE","5062835","2012-02-27 02:00","2012","02","27","02:00","-28.3","","-30.1","","85","","","","32","","4","","16.1","","98.97","","","","-33","","NA"
"-98.51","58.71","TADOULE LAKE","5062835","2012-02-27 03:00","2012","02","27","03:00","","M","","M","","M","","","","M","","M","","M","","M","","","","","NA"
"-98.51","58.71","TADOULE LAKE","5062835","2012-02-27 04:00","2012","02","27","04:00","","M","","M","","M","","","","M","","M","","M","","M","","","","","NA"
"-98.51","58.71","TADOULE LAKE","5062835","2012-02-27 05:00","2012","02","27","05:00","-32.2","","-35.3","","75","","","","","","0","","16.1","","98.91","","","","","","NA"
"-98.51","58.71","TADOULE LAKE","5062835","2012-02-27 06:00","2012","02","27","06:00","-30.2","","-32.3","","82","","","","","","0","","16.1","","98.87","","","","","","NA"
"-98.51","58.71","TADOULE LAKE","5062835","2012-02-27 07:00","2012","02","27","07:00","-32.0","","-34.8","","77","","","","8","","4","","16.1","","98.84","","","","-37","","NA"
"-98.51","58.71","TADOULE LAKE","5062835","2012-02-27 08:00","2012","02","27","08:00","-32.0","","-34.5","","79","","","","11","","4","","16.1","","98.80","","","","-37","","NA"
"-98.51","58.71","TADOULE LAKE","5062835","2012-02-27 09:00","2012","02","27","09:00","-31.9","","-34.5","","78","","","","12","","5","","11.3","","98.77","","","","-38","","NA"
"-98.51","58.71","TADOULE LAKE","5062835","2012-02-27 10:00","2012","02","27","10:00","-27.6","","-29.9","","81","","","","15","","4","","16.1","","98.77","","","","-32","","NA"
"-98.51","58.71","TADOULE LAKE","5062835","2012-02-27 11:00","2012","02","27","11:00","-25.9","","-28.6","","79","","","","9","","5","","16.1","","98.72","","","","-31","","NA"
"-98.51","58.71","TADOULE LAKE","5062835","2012-02-27 12:00","2012","02","27","12:00","-24.5","","-27.7","","75","","","","8","","5","","16.1","","98.66","","","","-29","","NA"
"-98.51","58.71","TADOULE LAKE","5062835","2012-02-27 13:00","2012","02","27","13:00","-21.6","","-25.5","","71","","","","8","","8","","16.1","","98.60","","","","-28","","NA"
"-98.51","58.71","TADOULE LAKE","5062835","2012-02-27 14:00","2012","02","27","14:00","-19.0","","-23.7","","67","","","","12","","13","","16.1","","98.53","","","","-27","","NA"
"-98.51","58.71","TADOULE LAKE","5062835","2012-02-27 15:00","2012","02","27","15:00","-17.8","","-22.7","","66","","","","12","","11","","16.1","","98.46","","","","-25","","NA"
"-98.51","58.71","TADOULE LAKE","5062835","2012-02-27 16:00","2012","02","27","16:00","-18.4","","-23.3","","66","","","","9","","13","","16.1","","98.42","","","","-26","","NA"
"-98.51","58.71","TADOULE LAKE","5062835","2012-02-27 17:00","2012","02","27","17:00","-18.6","","-24.0","","63","","","","9","","9","","16.1","","98.40","","","","-25","","NA"
"-98.51","58.71","TADOULE LAKE","5062835","2012-02-27 18:00","2012","02","27","18:00","-20.4","","-24.7","","69","","","","11","","5","","16.1","","98.40","","","","-25","","NA"
"-98.51","58.71","TADOULE LAKE","5062835","2012-02-27 19:00","2012","02","27","19:00","-21.6","","-25.2","","73","","","","12","","9","","16.1","","98.39","","","","-29","","NA"
"-98.51","58.71","TADOULE LAKE","5062835","2012-02-27 20:00","2012","02","27","20:00","-22.4","","-25.7","","75","","","","10","","11","","16.1","","98.38","","","","-31","","NA"
"-98.51","58.71","TADOULE LAKE","5062835","2012-02-27 21:00","2012","02","27","21:00","-24.1","","-26.9","","78","","","","10","","11","","16.1","","98.36","","","","-33","","NA"
"-98.51","58.71","TADOULE LAKE","5062835","2012-02-27 22:00","2012","02","27","22:00","-24.6","","-27.7","","76","","","","10","","11","","16.1","","98.37","","","","-33","","NA"
"-98.51","58.71","TADOULE LAKE","5062835","2012-02-27 23:00","2012","02","27","23:00","-25.6","","-28.5","","77","","","","10","","13","","16.1","","98.38","","","","-35","","NA"
"-98.51","58.71","TADOULE LAKE","5062835","2012-02-28 00:00","2012","02","28","00:00","-26.0","","-28.8","","78","","","","11","","13","","16.1","","98.38","","","","-36","","NA"
"-98.51","58.71","TADOULE LAKE","5062835","2012-02-28 01:00","2012","02","28","01:00","-26.7","","-29.3","","79","","","","11","","11","","16.1","","98.38","","","","-36","","NA"
"-98.51","58.71","TADOULE LAKE","5062835","2012-02-28 02:00","2012","02","28","02:00","-27.4","","-29.9","","80","","","","11","","9","","16.1","","98.38","","","","-36","","NA"
"-98.51","58.71","TADOULE LAKE","5062835","2012-02-28 03:00","2012","02","28","03:00","-27.9","","-30.2","","81","","","","11","","9","","16.1","","98.38","","","","-36","","NA"
"-98.51","58.71","TADOULE LAKE","5062835","2012-02-28 04:00","2012","02","28","04:00","-29.1","","-31.5","","80","","","","11","","5","","16.1","","98.38","","","","-35","","NA"
"-98.51","58.71","TADOULE LAKE","5062835","2012-02-28 05:00","2012","02","28","05:00","-30.2","","-32.7","","79","","","","10","","5","","16.1","","98.38","","","","-36","","NA"
"-98.51","58.71","TADOULE LAKE","5062835","2012-02-28 06:00","2012","02","28","06:00","-30.8","","-33.3","","79","","","","12","","5","","16.1","","98.41","","","","-37","","NA"
"-98.51","58.71","TADOULE LAKE","5062835","2012-02-28 07:00","2012","02","28","07:00","-29.8","","-32.5","","78","","","","11","","5","","8.1","","98.44","","","","-35","","NA"
"-98.51","58.71","TADOULE LAKE","5062835","2012-02-28 08:00","2012","02","28","08:00","-28.6","","-31.1","","80","","","","13","","5","","8.1","","98.47","","","","-34","","NA"
"-98.51","58.71","TADOULE LAKE","5062835","2012-02-28 09:00","2012","02","28","09:00","-26.9","","-29.4","","80","","","","15","","8","","11.3","","98.48","","","","-34","","NA"
"-98.51","58.71","TADOULE LAKE","5062835","2012-02-28 10:00","2012","02","28","10:00","-24.7","","-27.2","","80","","","","15","","8","","12.9","","98.48","","","","-32","","NA"
"-98.51","58.71","TADOULE LAKE","5062835","2012-02-28 11:00","2012","02","28","11:00","-22.8","","-25.2","","81","","","","14","","5","","6.4","","98.47","","","","-27","","NA"
"-98.51","58.71","TADOULE LAKE","5062835","2012-02-28 12:00","2012","02","28","12:00","-21.0","","-24.5","","74","","","","10","","8","","16.1","","98.46","","","","-27","","NA"
"-98.51","58.71","TADOULE LAKE","5062835","2012-02-28 13:00","2012","02","28","13:00","-17.8","","-21.7","","72","","","","13","","9","","16.1","","98.41","","","","-24","","NA"
"-98.51","58.71","TADOULE LAKE","5062835","2012-02-28 14:00","2012","02","28","14:00","-15.8","","-20.2","","69","","","","13","","9","","16.1","","98.42","","","","-22","","NA"
"-98.51","58.71","TADOULE LAKE","5062835","2012-02-28 15:00","2012","02","28","15:00","-14.9","","-19.6","","68","","","","12","","9","","16.1","","98.41","","","","-21","","NA"
"-98.51","58.71","TADOULE LAKE","5062835","2012-02-28 16:00","2012","02","28","16:00","-14.0","","-19.1","","66","","","","12","","9","","16.1","","98.40","","","","-20","","NA"
"-98.51","58.71","TADOULE LAKE","5062835","2012-02-28 17:00","2012","02","28","17:00","-15.1","","-19.6","","69","","","","12","","9","","16.1","","98.40","","","","-21","","NA"
"-98.51","58.71","TADOULE LAKE","5062835","2012-02-28 18:00","2012","02","28","18:00","-16.0","","-19.4","","75","","","","14","","9","","16.1","","98.36","","","","-22","","NA"
"-98.51","58.71","TADOULE LAKE","5062835","2012-02-28 19:00","2012","02","28","19:00","-17.3","","-20.3","","78","","","","14","","9","","16.1","","98.33","","","","-24","","NA"
"-98.51","58.71","TADOULE LAKE","5062835","2012-02-28 20:00","2012","02","28","20:00","-17.6","","-20.3","","80","","","","16","","8","","16.1","","98.31","","","","-23","","NA"
"-98.51","58.71","TADOULE LAKE","5062835","2012-02-28 21:00","2012","02","28","21:00","-18.3","","-20.5","","83","","","","18","","5","","16.1","","98.31","","","","-22","","NA"
"-98.51","58.71","TADOULE LAKE","5062835","2012-02-28 22:00","2012","02","28","22:00","-19.4","","-21.1","","86","","","","15","","8","","16.1","","98.26","","","","-26","","NA"
"-98.51","58.71","TADOULE LAKE","5062835","2012-02-28 23:00","2012","02","28","23:00","-18.8","","-20.7","","85","","","","19","","9","","16.1","","98.22","","","","-25","","NA"
"-98.51","58.71","TADOULE LAKE","5062835","2012-02-29 00:00","2012","02","29","00:00","-19.2","","-20.9","","87","","","","15","","8","","16.1","","98.14","","","","-25","","NA"
"-98.51","58.71","TADOULE LAKE","5062835","2012-02-29 01:00","2012","02","29","01:00","-19.8","","-21.4","","87","","","","17","","9","","16.1","","98.08","","","","-27","","NA"
"-98.51","58.71","TADOULE LAKE","5062835","2012-02-29 02:00","2012","02","29","02:00","-19.4","","-21.1","","87","","","","17","","8","","16.1","","98.04","","","","-26","","NA"
"-98.51","58.71","TADOULE LAKE","5062835","2012-02-29 03:00","2012","02","29","03:00","-18.4","","-20.1","","87","","","","16","","8","","16.1","","97.99","","","","-24","","NA"
"-98.51","58.71","TADOULE LAKE","5062835","2012-02-29 04:00","2012","02","29","04:00","-17.4","","-18.8","","89","","","","18","","13","","16.1","","97.91","","","","-25","","NA"
"-98.51","58.71","TADOULE LAKE","5062835","2012-02-29 05:00","2012","02","29","05:00","-16.7","","-18.0","","90","","","","18","","11","","16.1","","97.82","","","","-24","","NA"
"-98.51","58.71","TADOULE LAKE","5062835","2012-02-29 06:00","2012","02","29","06:00","-16.5","","-17.8","","90","","","","17","","15","","16.1","","97.74","","","","-25","","NA"
"-98.51","58.71","TADOULE LAKE","5062835","2012-02-29 07:00","2012","02","29","07:00","-16.8","","-18.1","","90","","","","16","","8","","","M","97.68","","","","-22","","NA"
"-98.51","58.71","TADOULE LAKE","5062835","2012-02-29 08:00","2012","02","29","08:00","-16.9","","-18.2","","90","","","","15","","5","","16.1","","97.62","","","","-21","","NA"
"-98.51","58.71","TADOULE LAKE","5062835","2012-02-29 09:00","2012","02","29","09:00","-16.1","","-17.4","","90","","","","16","","8","","16.1","","97.58","","","","-22","","NA"
"-98.51","58.71","TADOULE LAKE","5062835","2012-02-29 10:00","2012","02","29","10:00","-14.6","","-16.7","","85","","","","19","","13","","16.1","","97.51","","","","-22","","NA"
"-98.51","58.71","TADOULE LAKE","5062835","2012-02-29 11:00","2012","02","29","11:00","-12.7","","-15.8","","78","","","","18","","9","","16.1","","97.49","","","","-18","","NA"
"-98.51","58.71","TADOULE LAKE","5062835","2012-02-29 12:00","2012","02","29","12:00","-11.2","","-15.1","","73","","","","19","","9","","16.1","","97.44","","","","-16","","NA"
"-98.51","58.71","TADOULE LAKE","5062835","2012-02-29 13:00","2012","02","29","13:00"
"-98.51","58.71","TADOULE LAKE","5062835","2012-02-29 14:00","2012","02","29","14:00","-8.0","","-13.5","","65","","","","21","","11","","16.1","","97.34","","","","-13","","NA"
"-98.51","58.71","TADOULE LAKE","5062835","2012-02-29 15:00","2012","02","29","15:00","-6.4","","-13.1","","60","","","","21","","15","","16.1","","97.30","","","","-12","","NA"
"-98.51","58.71","TADOULE LAKE","5062835","2012-02-29 16:00","2012","02","29","16:00","-6.1","","-12.9","","59","","","","20","","8","","16.1","","97.27","","","","-10","","NA"
"-98.51","58.71","TADOULE LAKE","5062835","2012-02-29 17:00","2012","02","29","17:00","-6.3","","-13.1","","59","","","","20","","8","","16.1","","97.28","","","","-10","","NA"
"-98.51","58.71","TADOULE LAKE","5062835","2012-02-29 18:00","2012","02","29","18:00","-8.5","","-13.5","","67","","","","","M","8","","16.1","","97.31","","","","-13","","NA"
"-98.51","58.71","TADOULE LAKE","5062835","2012-02-29 19:00","2012","02","29","19:00","-8.9","","-13.2","","71","","","","1","","9","","16.1","","97.36","","","","-14","","NA"
"-98.51","58.71","TADOULE LAKE","5062835","2012-02-29 20:00","2012","02","29","20:00","-9.7","","-12.2","","82","","","","1","","15","","16.1","","97.41","","","","-16","","NA"
"-98.51","58.71","TADOULE LAKE","5062835","2012-02-29 21:00","2012","02","29","21:00","-10.5","","-11.7","","91","","","","35","","9","","11.3","","97.46","","","","-15","","NA"
"-98.51","58.71","TADOULE LAKE","5062835","2012-02-29 22:00","2012","02","29","22:00","-13.6","","-15.2","","88","","","","1","","13","","16.1","","97.54","","","","-21","","NA"
"-98.51","58.71","TADOULE LAKE","5062835","2012-02-29 23:00","2012","02","29","23:00","-15.6","","-17.4","","86","","","","2","","13","","16.1","","97.60","","","","-23","","NA"
