"Longitude (x)","Latitude (y)","Station Name","Climate ID","Date/Time (LST)","Year","Month","Day","Time (LST)","Temp (°C)","Temp Flag","Dew Point Temp (°C)","Dew Point Temp Flag","Rel Hum (%)","Rel Hum Flag","Precip. Amount (mm)","Precip. Amount Flag","Wind Dir (10s deg)","Wind Dir Flag","Wind Spd (km/h)","Wind Spd Flag","Visibility (km)","Visibility Flag","Stn Press (kPa)","Stn Press Flag","Hmdx","Hmdx Flag","Wind Chill","Wind Chill Flag","Weather"
"-91.91","50.11","SIOUX LOOKOUT A","6037776","2019-01-01 00:00","2019","01","01","00:00","-28.5","","-31.3","","78","","","","31","","5","","24.1","","98.01","","","","-34","","Clear"
"-91.91","50.11","SIOUX LOOKOUT A","6037776","2019-01-01 01:00","2019","01","01","01:00","-29.3","","-31.8","","79","","","","30","","7","","24.1","","98.08","","","","-36","","NA"
"-91.91","50.11","SIOUX LOOKOUT A","6037776","2019-01-01 02:00","2019","01","01","02:00","-30.6","","-33.4","","77","","","","29","","4","","24.1","","98.13","","","","-35","","NA"
"-91.91","50.11","SIOUX LOOKOUT A","6037776","2019-01-01 03:00","2019","01","01","03:00","-30.1","","-32.8","","78","","","","28","","5","","24.1","","98.15","","","","-36","","Ice Crystals"
"-91.91","50.11","SIOUX LOOKOUT A","6037776","2019-01-01 04:00","2019","01","01","04:00","-30.9","","-33.6","","77","","","","26","","3","","24.1","","98.10","","","","-34","","Ice Crystals"
"-91.91","50.11","SIOUX LOOKOUT A","6037776","2019-01-01 05:00","2019","01","01","05:00","-30.9","","-33.7","","77","","","","27","","3","","24.1","","98.08","","","","-34","","Ice Crystals"
"-91.91","50.11","SIOUX LOOKOUT A","6037776","2019-01-01 06:00","2019","01","01","06:00","-32.0","","-35.0","","76","","","","22","","4","","24.1","","98.14","","","","-37","","Ice Crystals"
"-91.91","50.11","SIOUX LOOKOUT A","6037776","2019-01-01 07:00","2019","01","01","07:00","-31.9","","-34.8","","76","","","","21","","4","","24.1","","98.16","","","","-37","","NA"
"-91.91","50.11","SIOUX LOOKOUT A","6037776","2019-01-01 08:00","2019","01","01","08:00","-33.1","","-36.2","","74","","","","21","","4","","24.1","","98.20","","","","-38","","NA"
"-91.91","50.11","SIOUX LOOKOUT A","6037776","2019-01-01 09:00","2019","01","01","09:00","-30.6","","-33.3","","77","","","","21","","4","","24.1","","98.21","","","","-35","","Mainly Clear"
"-91.91","50.11","SIOUX LOOKOUT A","6037776","2019-01-01 10:00","2019","01","01","10:00","-28.2","","-31.1","","77","","","","19","","9","","24.1","","98.16","","","","-36","","NA"
"-91.91","50.11","SIOUX LOOKOUT A","6037776","2019-01-01 11:00","2019","01","01","11:00","-25.7","","-28.9","","75","","","","21","","8","","24.1","","98.06","","","","-33","","NA"
"-91.91","50.11","SIOUX LOOKOUT A","6037776","2019-01-01 12:00","2019","01","01","12:00","-23.1","","-27.0","","71","","","","22","","6","","24.1","","97.94","","","","-29","","Clear"
"-91.91","50.11","SIOUX LOOKOUT A","6037776","2019-01-01 13:00","2019","01","01","13:00","-21.5","","-26.3","","66","","","","21","","5","","24.1","","97.85","","","","-26","","NA"
"-91.91","50.11","SIOUX LOOKOUT A","6037776","2019-01-01 14:00","2019","01","01","14:00","-20.0","","-25.5","","62","","","","20","","8","","24.1","","97.77","","","","-26","","NA"
"-91.91","50.11","SIOUX LOOKOUT A","6037776","2019-01-01 15:00","2019","01","01","15:00","-19.8","","-25.3","","63","","","","21","","11","","24.1","","97.73","","","","-27","","Mainly Clear"
"-91.91","50.11","SIOUX LOOKOUT A","6037776","2019-01-01 16:00","2019","01","01","16:00","-20.5","","-25.6","","64","","","","20","","9","","24.1","","97.71","","","","-27","","NA"
"-91.91","50.11","SIOUX LOOKOUT A","6037776","2019-01-01 17:00","2019","01","01","17:00","-22.6","","-26.1","","74","","","","18","","5","","24.1","","97.70","","","","-27","","NA"
"-91.91","50.11","SIOUX LOOKOUT A","6037776","2019-01-01 18:00","2019","01","01","18:00","-23.9","","-26.8","","78","","","","16","","5","","24.1","","97.58","","","","-29","","Mainly Clear"
"-91.91","50.11","SIOUX LOOKOUT A","6037776","2019-01-01 19:00","2019","01","01","19:00","-23.7","","-26.3","","80","","","","18","","10","","24.1","","97.51","","","","-32","","NA"
"-91.91","50.11","SIOUX LOOKOUT A","6037776","2019-01-01 20:00","2019","01","01","20:00","-23.7","","-26.5","","78","","","","18","","12","","24.1","","97.41","","","","-33","","NA"
"-91.91","50.11","SIOUX LOOKOUT A","6037776","2019-01-01 21:00","2019","01","01","21:00","-24.1","","-27.0","","77","","","","17","","13","","24.1","","97.22","","","","-33","","Mainly Clear"
"-91.91","50.11","SIOUX LOOKOUT A","6037776","2019-01-01 22:00","2019","01","01","22:00","-24.1","","-26.9","","78","","","","17","","12","","24.1","","97.09","","","","-33","","NA"
"-91.91","50.11","SIOUX LOOKOUT A","6037776","2019-01-01 23:00","2019","01","01","23:00","-23.9","","-26.8","","78","","","","16","","9","","24.1","","97.02","","","","-31","","NA"
"-91.91","50.11","SIOUX LOOKOUT A","6037776","2019-01-02 00:00","2019","01","02","00:00","-24.1","","-26.8","","79","","","","16","","13","","24.1","","96.90","","","","-33","","Clear"
"-91.91","50.11","SIOUX LOOKOUT A","6037776","2019-01-02 01:00","2019","01","02","01:00","-23.9","","-26.8","","77","","","","16","","10","","24.1","","96.83","","","","-32","","NA"
"-91.91","50.11","SIOUX LOOKOUT A","6037776","2019-01-02 02:00","2019","01","02","02:00","-23.5","","-26.7","","76","","","","16","","11","","24.1","","96.75","","","","-32","","NA"
"-91.91","50.11","SIOUX LOOKOUT A","6037776","2019-01-02 03:00","2019","01","02","03:00","-23.2","","-26.6","","74","","","","15","","14","","24.1","","96.66","","","","-33","","Mostly Cloudy"
"-91.91","50.11","SIOUX LOOKOUT A","6037776","2019-01-02 04:00","2019","01","02","04:00","-22.9","","-26.6","","72","","","","16","","12","","24.1","","96.51","","","","-32","","NA"
"-91.91","50.11","SIOUX LOOKOUT A","6037776","2019-01-02 05:00","2019","01","02","05:00","-21.7","","-25.7","","71","","","","15","","12","","24.1","","96.39","","","","-30","","NA"
"-91.91","50.11","SIOUX LOOKOUT A","6037776","2019-01-02 06:00","2019","01","02","06:00","-20.9","","-24.9","","70","","","","15","","11","","24.1","","96.31","","","","-29","","Cloudy"
"-91.91","50.11","SIOUX LOOKOUT A","6037776","2019-01-02 07:00","2019","01","02","07:00","-20.6","","-24.6","","70","","","","14","","13","","24.1","","96.25","","","","-29","","NA"
"-91.91","50.11","SIOUX LOOKOUT A","6037776","2019-01-02 08:00","2019","01","02","08:00","-19.9","","-24.1","","70","","","","16","","9","","24.1","","96.19","","","","-27","","NA"
"-91.91","50.11","SIOUX LOOKOUT A","6037776","2019-01-02 09:00","2019","01","02","09:00","-18.8","","-23.7","","66","","","","18","","14","","24.1","","96.11","","","","-27","","Mainly Clear"
"-91.91","50.11","SIOUX LOOKOUT A","6037776","2019-01-02 10:00","2019","01","02","10:00","-17.6","","-23.1","","63","","","","19","","10","","24.1","","96.09","","","","-24","","NA"
"-91.91","50.11","SIOUX LOOKOUT A","6037776","2019-01-02 11:00","2019","01","02","11:00","-16.0","","-22.1","","60","","","","18","","16","","24.1","","96.04","","","","-24","","NA"
"-91.91","50.11","SIOUX LOOKOUT A","6037776","2019-01-02 12:00","2019","01","02","12:00","-15.1","","-20.7","","63","","","","22","","12","","24.1","","95.94","","","","-22","","Snow"
"-91.91","50.11","SIOUX LOOKOUT A","6037776","2019-01-02 13:00","2019","01","02","13:00","-14.9","","-19.6","","68","","","","22","","9","","19.3","","95.88","","","","-21","","Snow"
"-91.91","50.11","SIOUX LOOKOUT A","6037776","2019-01-02 14:00","2019","01","02","14:00","-15.0","","-19.1","","71","","","","21","","17","","8.1","","95.87","","","","-23","","Snow"
"-91.91","50.11","SIOUX LOOKOUT A","6037776","2019-01-02 15:00","2019","01","02","15:00","-14.8","","-18.2","","76","","","","26","","12","","9.7","","95.92","","","","-22","","Snow"
"-91.91","50.11","SIOUX LOOKOUT A","6037776","2019-01-02 16:00","2019","01","02","16:00","-14.9","","-18.1","","77","","","","22","","13","","9.7","","95.91","","","","-22","","Snow"
"-91.91","50.11","SIOUX LOOKOUT A","6037776","2019-01-02 17:00","2019","01","02","17:00","-14.8","","-17.5","","80","","","","22","","9","","12.9","","95.88","","","","-21","","Snow"
"-91.91","50.11","SIOUX LOOKOUT A","6037776","2019-01-02 18:00","2019","01","02","18:00","-14.6","","-17.1","","81","","","","21","","9","","6.4","","95.88","","","","-20","","Snow"
"-91.91","50.11","SIOUX LOOKOUT A","6037776","2019-01-02 19:00","2019","01","02","19:00","-14.4","","-16.7","","83","","","","22","","13","","4.8","","95.90","","","","-22","","Snow"
"-91.91","50.11","SIOUX LOOKOUT A","6037776","2019-01-02 20:00","2019","01","02","20:00","-14.3","","-16.4","","84","","","","21","","9","","6.4","","95.88","","","","-20","","Snow"
"-91.91","50.11","SIOUX LOOKOUT A","6037776","2019-01-02 21:00","2019","01","02","21:00","-14.0","","-16.0","","85","","","","22","","12","","16.1","","95.84","","","","-21","","Snow"
"-91.91","50.11","SIOUX LOOKOUT A","6037776","2019-01-02 22:00","2019","01","02","22:00","-13.7","","-15.3","","88","","","","22","","9","","9.7","","95.78","","","","-19","","Snow"
"-91.91","50.11","SIOUX LOOKOUT A","6037776","2019-01-02 23:00","2019","01","02","23:00","-13.3","","-14.9","","88","","","","21","","11","","16.1","","95.72","","","","-20","","Snow"
"-91.91","50.11","SIOUX LOOKOUT A","6037776","2019-01-03 00:00","2019","01","03","00:00","-12.8","","-14.5","","87","","","","22","","9","","16.1","","95.72","","","","-18","","Snow"
"-91.91","50.11","SIOUX LOOKOUT A","6037776","2019-01-03 01:00","2019","01","03","01:00","-12.2","","-13.8","","88","","","","19","","13","","19.3","","95.67","","","","-19","","Snow"
"-91.91","50.11","SIOUX LOOKOUT A","6037776","2019-01-03 02:00","2019","01","03","02:00","-12.0","","-13.5","","89","","","","17","","10","","19.3","","95.61","","","","-18","","Snow"
"-91.91","50.11","SIOUX LOOKOUT A","6037776","2019-01-03 03:00","2019","01","03","03:00","-11.3","","-12.7","","90","","","","17","","13","","6.4","","95.54","","","","-18","","Snow"
"-91.91","50.11","SIOUX LOOKOUT A","6037776","2019-01-03 04:00","2019","01","03","04:00","-10.2","","-11.5","","90","","","","17","","14","","16.1","","95.38","","","","-17","","Snow"
"-91.91","50.11","SIOUX LOOKOUT A","6037776","2019-01-03 05:00","2019","01","03","05:00","-9.6","","-10.8","","91","","","","17","","13","","24.1","","95.26","","","","-16","","NA"
"-91.91","50.11","SIOUX LOOKOUT A","6037776","2019-01-03 06:00","2019","01","03","06:00","-8.8","","-10.1","","91","","","","17","","8","","24.1","","95.25","","","","-13","","Snow"
"-91.91","50.11","SIOUX LOOKOUT A","6037776","2019-01-03 07:00","2019","01","03","07:00","-8.4","","-9.6","","91","","","","17","","11","","24.1","","95.19","","","","-14","","Snow"
"-91.91","50.11","SIOUX LOOKOUT A","6037776","2019-01-03 08:00","2019","01","03","08:00","-7.5","","-8.6","","91","","","","19","","13","","24.1","","95.18","","","","-13","","NA"
"-91.91","50.11","SIOUX LOOKOUT A","6037776","2019-01-03 09:00","2019","01","03","09:00","-6.4","","-7.6","","91","","","","22","","12","","19.3","","95.23","","","","-12","","Cloudy"
"-91.91","50.11","SIOUX LOOKOUT A","6037776","2019-01-03 10:00","2019","01","03","10:00","-5.2","","-6.6","","90","","","","22","","8","","24.1","","95.15","","","","-9","","NA"
"-91.91","50.11","SIOUX LOOKOUT A","6037776","2019-01-03 11:00","2019","01","03","11:00","-3.7","","-5.3","","89","","","","23","","12","","19.3","","95.14","","","","-8","","NA"
"-91.91","50.11","SIOUX LOOKOUT A","6037776","2019-01-03 12:00","2019","01","03","12:00","-2.4","","-4.0","","89","","","","24","","9","","24.1","","95.15","","","","-6","","Cloudy"
"-91.91","50.11","SIOUX LOOKOUT A","6037776","2019-01-03 13:00","2019","01","03","13:00","-1.3","","-3.0","","89","","","","24","","10","","19.3","","95.10","","","","-5","","NA"
"-91.91","50.11","SIOUX LOOKOUT A","6037776","2019-01-03 14:00","2019","01","03","14:00","-0.4","","-2.1","","88","","","","27","","14","","24.1","","95.15","","","","-5","","NA"
"-91.91","50.11","SIOUX LOOKOUT A","6037776","2019-01-03 15:00","2019","01","03","15:00","-0.1","","-1.7","","89","","","","24","","10","","19.3","","95.13","","","","-3","","Mostly Cloudy"
"-91.91","50.11","SIOUX LOOKOUT A","6037776","2019-01-03 16:00","2019","01","03","16:00","-0.1","","-1.4","","91","","","","23","","7","","24.1","","95.14","","","","-3","","NA"
"-91.91","50.11","SIOUX LOOKOUT A","6037776","2019-01-03 17:00","2019","01","03","17:00","-0.7","","-1.6","","94","","","","23","","7","","24.1","","95.22","","","","-3","","NA"
"-91.91","50.11","SIOUX LOOKOUT A","6037776","2019-01-03 18:00","2019","01","03","18:00","-0.6","","-1.4","","94","","","","22","","7","","24.1","","95.19","","","","-3","","Cloudy"
"-91.91","50.11","SIOUX LOOKOUT A","6037776","2019-01-03 19:00","2019","01","03","19:00","-1.6","","-2.0","","97","","","","21","","8","","24.1","","95.20","","","","-5","","NA"
"-91.91","50.11","SIOUX LOOKOUT A","6037776","2019-01-03 20:00","2019","01","03","20:00","-2.2","","-2.4","","98","","","","22","","7","","24.1","","95.21","","","","-5","","NA"
"-91.91","50.11","SIOUX LOOKOUT A","6037776","2019-01-03 21:00","2019","01","03","21:00","-2.1","","-2.4","","98","","","","20","","8","","24.1","","95.17","","","","-5","","Cloudy"
"-91.91","50.11","SIOUX LOOKOUT A","6037776","2019-01-03 22:00","2019","01","03","22:00","-1.4","","-1.9","","97","","","","21","","10","","24.1","","95.15","","","","-5","","NA"
"-91.91","50.11","SIOUX LOOKOUT A","6037776","2019-01-03 23:00","2019","01","03","23:00","-1.1","","-1.6","","96","","","","24","","14","","24.1","","95.20","","","","-6","","NA"
"-91.91","50.11","SIOUX LOOKOUT A","6037776","2019-01-04 00:00","2019","01","04","00:00","-1.1","","-1.7","","95","","","","27","","7","","24.1","","95.26","","","","-4","","Cloudy"
"-91.91","50.11","SIOUX LOOKOUT A","6037776","2019-01-04 01:00","2019","01","04","01:00","-1.0","","-1.9","","94","","","","26","","8","","24.1","","95.27","","","","-4","","NA"
"-91.91","50.11","SIOUX LOOKOUT A","6037776","2019-01-04 02:00","2019","01","04","02:00","-0.7","","-1.7","","93","","","","30","","13","","24.1","","95.37","","","","-5","","NA"
"-91.91","50.11","SIOUX LOOKOUT A","6037776","2019-01-04 03:00","2019","01","04","03:00","-1.0","","-1.7","","95","","","","27","","7","","24.1","","95.39","","","","-4","","Mostly Cloudy"
"-91.91","50.11","SIOUX LOOKOUT A","6037776","2019-01-04 04:00","2019","01","04","04:00","-1.0","","-1.7","","95","","","","25","","12","","24.1","","95.44","","","","-5","","NA"
"-91.91","50.11","SIOUX LOOKOUT A","6037776","2019-01-04 05:00","2019","01","04","05:00","-1.9","","-2.3","","97","","","","27","","11","","19.3","","95.48","","","","-6","","NA"
"-91.91","50.11","SIOUX LOOKOUT A","6037776","2019-01-04 06:00","2019","01","04","06:00","-2.6","","-3.0","","97","","","","29","","10","","19.3","","95.56","","","","-6","","Cloudy"
"-91.91","50.11","SIOUX LOOKOUT A","6037776","2019-01-04 07:00","2019","01","04","07:00","-2.5","","-3.1","","96","","","","28","","12","","19.3","","95.57","","","","-7","","NA"
"-91.91","50.11","SIOUX LOOKOUT A","6037776","2019-01-04 08:00","2019","01","04","08:00","-2.6","","-3.4","","95","","","","27","","9","","19.3","","95.63","","","","-6","","NA"
"-91.91","50.11","SIOUX LOOKOUT A","6037776","2019-01-04 09:00","2019","01","04","09:00","-2.5","","-3.2","","95","","","","23","","16","","24.1","","95.67","","","","-8","","Cloudy"
"-91.91","50.11","SIOUX LOOKOUT A","6037776","2019-01-04 10:00","2019","01","04","10:00","-2.5","","-3.6","","93","","","","22","","10","","24.1","","95.69","","","","-6","","NA"
"-91.91","50.11","SIOUX LOOKOUT A","6037776","2019-01-04 11:00","2019","01","04","11:00","-1.4","","-3.2","","87","","","","22","","11","","24.1","","95.67","","","","-5","","NA"
"-91.91","50.11","SIOUX LOOKOUT A","6037776","2019-01-04 12:00","2019","01","04","12:00","-0.9","","-3.3","","84","","","","23","","10","","24.1","","95.64","","","","-4","","Mainly Clear"
"-91.91","50.11","SIOUX LOOKOUT A","6037776","2019-01-04 13:00","2019","01","04","13:00","-1.3","","-3.4","","86","","","","23","","12","","24.1","","95.62","","","","-5","","NA"
"-91.91","50.11","SIOUX LOOKOUT A","6037776","2019-01-04 14:00","2019","01","04","14:00","0.2","","-3.1","","78","","","","22","","8","","24.1","","95.58","","","","","","NA"
"-91.91","50.11","SIOUX LOOKOUT A","6037776","2019-01-04 15:00","2019","01","04","15:00","0.4","","-3.1","","78","","","","24","","9","","24.1","","95.62","","","","","","Mainly Clear"
"-91.91","50.11","SIOUX LOOKOUT A","6037776","2019-01-04 16:00","2019","01","04","16:00","-1.3","","-3.4","","86","","","","25","","5","","24.1","","95.66","","","","-3","","NA"
"-91.91","50.11","SIOUX LOOKOUT A","6037776","2019-01-04 17:00","2019","01","04","17:00","-3.4","","-4.2","","94","","","","25","","4","","24.1","","95.69","","","","-5","","NA"
"-91.91","50.11","SIOUX LOOKOUT A","6037776","2019-01-04 18:00","2019","01","04","18:00","-3.3","","-3.4","","99","","","","22","","6","","24.1","","95.70","","","","-6","","Mostly Cloudy"
"-91.91","50.11","SIOUX LOOKOUT A","6037776","2019-01-04 19:00","2019","01","04","19:00","-3.1","","-3.5","","97","","","","20","","6","","24.1","","95.72","","","","-6","","NA"
"-91.91","50.11","SIOUX LOOKOUT A","6037776","2019-01-04 20:00","2019","01","04","20:00","-3.5","","-3.8","","98","","","","18","","6","","24.1","","95.72","","","","-6","","NA"
"-91.91","50.11","SIOUX LOOKOUT A","6037776","2019-01-04 21:00","2019","01","04","21:00","-3.5","","-3.7","","98","","","","19","","6","","24.1","","95.72","","","","-6","","Mostly Cloudy"
"-91.91","50.11","SIOUX LOOKOUT A","6037776","2019-01-04 22:00","2019","01","04","22:00","-3.2","","-3.4","","98","","","","17","","4","","24.1","","95.68","","","","-5","","NA"
"-91.91","50.11","SIOUX LOOKOUT A","6037776","2019-01-04 23:00","2019","01","04","23:00","-4.6","","-4.9","","98","","","","20","","4","","24.1","","95.70","","","","-6","","NA"
"-91.91","50.11","SIOUX LOOKOUT A","6037776","2019-01-05 00:00","2019","01","05","00:00","-3.5","","-3.6","","99","","","","16","","3","","16.1","","95.67","","","","-5","","Mostly Cloudy"
"-91.91","50.11","SIOUX LOOKOUT A","6037776","2019-01-05 01:00","2019","01","05","01:00","-3.2","","-3.4","","99","","","","2","","4","","4.8","","95.73","","","","-5","","Snow,Fog"
"-91.91","50.11","SIOUX LOOKOUT A","6037776","2019-01-05 02:00","2019","01","05","02:00","-2.6","","-2.9","","98","","","","36","","2","","4.8","","95.75","","","","-3","","Snow"
"-91.91","50.11","SIOUX LOOKOUT A","6037776","2019-01-05 03:00","2019","01","05","03:00","-3.0","","-3.2","","98","","","","","","0","","4.8","","95.76","","","","","","Snow,Fog"
"-91.91","50.11","SIOUX LOOKOUT A","6037776","2019-01-05 04:00","2019","01","05","04:00","-2.9","","-3.2","","98","","","","1","","3","","4.8","","95.73","","","","-4","","Snow"
"-91.91","50.11","SIOUX LOOKOUT A","6037776","2019-01-05 05:00","2019","01","05","05:00","-3.1","","-3.4","","98","","","","1","","4","","16.1","","95.75","","","","-5","","Snow"
"-91.91","50.11","SIOUX LOOKOUT A","6037776","2019-01-05 06:00","2019","01","05","06:00","-3.6","","-4.0","","98","","","","36","","4","","24.1","","95.81","","","","-5","","Snow"
"-91.91","50.11","SIOUX LOOKOUT A","6037776","2019-01-05 07:00","2019","01","05","07:00","-3.7","","-4.1","","97","","","","35","","7","","4.8","","95.93","","","","-7","","Snow"
"-91.91","50.11","SIOUX LOOKOUT A","6037776","2019-01-05 08:00","2019","01","05","08:00","-4.5","","-5.0","","97","","","","32","","8","","24.1","","96.04","","","","-8","","Snow"
"-91.91","50.11","SIOUX LOOKOUT A","6037776","2019-01-05 09:00","2019","01","05","09:00","-4.3","","-5.1","","94","","","","35","","9","","24.1","","96.20","","","","-8","","Snow"
"-91.91","50.11","SIOUX LOOKOUT A","6037776","2019-01-05 10:00","2019","01","05","10:00","-5.1","","-6.3","","91","","","","36","","10","","24.1","","96.32","","","","-9","","NA"
"-91.91","50.11","SIOUX LOOKOUT A","6037776","2019-01-05 11:00","2019","01","05","11:00","-5.5","","-7.1","","88","","","","34","","13","","24.1","","96.41","","","","-11","","NA"
"-91.91","50.11","SIOUX LOOKOUT A","6037776","2019-01-05 12:00","2019","01","05","12:00","-5.5","","-7.6","","86","","","","33","","13","","24.1","","96.49","","","","-11","","Cloudy"
"-91.91","50.11","SIOUX LOOKOUT A","6037776","2019-01-05 13:00","2019","01","05","13:00","-5.7","","-8.3","","82","","","","33","","12","","24.1","","96.54","","","","-11","","NA"
"-91.91","50.11","SIOUX LOOKOUT A","6037776","2019-01-05 14:00","2019","01","05","14:00","-6.0","","-8.4","","84","","","","33","","18","","24.1","","96.67","","","","-12","","NA"
"-91.91","50.11","SIOUX LOOKOUT A","6037776","2019-01-05 15:00","2019","01","05","15:00","-7.2","","-9.4","","85","","","","35","","10","","24.1","","96.83","","","","-12","","Snow"
"-91.91","50.11","SIOUX LOOKOUT A","6037776","2019-01-05 16:00","2019","01","05","16:00","-7.5","","-9.5","","85","","","","33","","14","","24.1","","96.96","","","","-13","","Snow"
"-91.91","50.11","SIOUX LOOKOUT A","6037776","2019-01-05 17:00","2019","01","05","17:00","-8.6","","-11.7","","79","","","","32","","22","","24.1","","97.09","","","","-16","","Snow"
"-91.91","50.11","SIOUX LOOKOUT A","6037776","2019-01-05 18:00","2019","01","05","18:00","-9.5","","-12.5","","79","","","","35","","14","","19.3","","97.23","","","","-16","","Snow"
"-91.91","50.11","SIOUX LOOKOUT A","6037776","2019-01-05 19:00","2019","01","05","19:00","-9.9","","-13.3","","77","","","","36","","11","","19.3","","97.33","","","","-15","","Snow"
"-91.91","50.11","SIOUX LOOKOUT A","6037776","2019-01-05 20:00","2019","01","05","20:00","-10.2","","-13.7","","76","","","","34","","8","","24.1","","97.42","","","","-15","","Snow"
"-91.91","50.11","SIOUX LOOKOUT A","6037776","2019-01-05 21:00","2019","01","05","21:00","-10.6","","-14.6","","72","","","","34","","13","","24.1","","97.53","","","","-17","","Snow"
"-91.91","50.11","SIOUX LOOKOUT A","6037776","2019-01-05 22:00","2019","01","05","22:00","-10.8","","-14.2","","77","","","","31","","10","","24.1","","97.56","","","","-16","","Snow"
"-91.91","50.11","SIOUX LOOKOUT A","6037776","2019-01-05 23:00","2019","01","05","23:00","-10.6","","-14.5","","74","","","","36","","5","","24.1","","97.58","","","","-14","","Snow"
"-91.91","50.11","SIOUX LOOKOUT A","6037776","2019-01-06 00:00","2019","01","06","00:00","-11.3","","-13.4","","85","","","","36","","3","","24.1","","97.63","","","","-13","","Snow"
"-91.91","50.11","SIOUX LOOKOUT A","6037776","2019-01-06 01:00","2019","01","06","01:00","-11.8","","-13.8","","85","","","","36","","2","","24.1","","97.72","","","","-13","","Snow"
"-91.91","50.11","SIOUX LOOKOUT A","6037776","2019-01-06 02:00","2019","01","06","02:00","-11.2","","-13.3","","84","","","","36","","2","","24.1","","97.77","","","","-12","","Snow"
"-91.91","50.11","SIOUX LOOKOUT A","6037776","2019-01-06 03:00","2019","01","06","03:00","-11.0","","-14.3","","77","","","","36","","2","","24.1","","97.79","","","","-12","","Snow"
"-91.91","50.11","SIOUX LOOKOUT A","6037776","2019-01-06 04:00","2019","01","06","04:00","-11.1","","-14.4","","76","","","","6","","6","","24.1","","97.84","","","","-15","","Snow"
"-91.91","50.11","SIOUX LOOKOUT A","6037776","2019-01-06 05:00","2019","01","06","05:00","-10.9","","-15.2","","71","","","","11","","5","","24.1","","97.85","","","","-14","","Snow"
"-91.91","50.11","SIOUX LOOKOUT A","6037776","2019-01-06 06:00","2019","01","06","06:00","-11.2","","-15.0","","73","","","","17","","4","","24.1","","97.83","","","","-14","","Snow"
"-91.91","50.11","SIOUX LOOKOUT A","6037776","2019-01-06 07:00","2019","01","06","07:00","-11.3","","-14.8","","75","","","","16","","7","","24.1","","97.88","","","","-16","","Snow"
"-91.91","50.11","SIOUX LOOKOUT A","6037776","2019-01-06 08:00","2019","01","06","08:00","-11.5","","-14.6","","78","","","","15","","5","","24.1","","97.88","","","","-15","","Snow"
"-91.91","50.11","SIOUX LOOKOUT A","6037776","2019-01-06 09:00","2019","01","06","09:00","-11.3","","-14.4","","78","","","","16","","14","","24.1","","97.90","","","","-18","","Snow"
"-91.91","50.11","SIOUX LOOKOUT A","6037776","2019-01-06 10:00","2019","01","06","10:00","-10.9","","-14.8","","73","","","","15","","10","","24.1","","97.88","","","","-16","","Snow"
"-91.91","50.11","SIOUX LOOKOUT A","6037776","2019-01-06 11:00","2019","01","06","11:00","-11.0","","-15.1","","72","","","","16","","19","","24.1","","97.88","","","","-19","","Snow"
"-91.91","50.11","SIOUX LOOKOUT A","6037776","2019-01-06 12:00","2019","01","06","12:00","-10.7","","-14.5","","74","","","","16","","15","","24.1","","97.74","","","","-18","","Snow"
"-91.91","50.11","SIOUX LOOKOUT A","6037776","2019-01-06 13:00","2019","01","06","13:00","-10.1","","-14.0","","74","","","","16","","17","","24.1","","97.65","","","","-17","","Snow"
"-91.91","50.11","SIOUX LOOKOUT A","6037776","2019-01-06 14:00","2019","01","06","14:00","-9.9","","-13.5","","75","","","","15","","9","","24.1","","97.58","","","","-15","","Snow"
"-91.91","50.11","SIOUX LOOKOUT A","6037776","2019-01-06 15:00","2019","01","06","15:00","-10.1","","-13.8","","75","","","","17","","17","","24.1","","97.57","","","","-17","","Snow"
"-91.91","50.11","SIOUX LOOKOUT A","6037776","2019-01-06 16:00","2019","01","06","16:00","-10.2","","-13.4","","78","","","","15","","10","","24.1","","97.49","","","","-15","","NA"
"-91.91","50.11","SIOUX LOOKOUT A","6037776","2019-01-06 17:00","2019","01","06","17:00","-10.2","","-13.2","","79","","","","15","","13","","24.1","","97.41","","","","-16","","NA"
"-91.91","50.11","SIOUX LOOKOUT A","6037776","2019-01-06 18:00","2019","01","06","18:00","-10.2","","-13.0","","80","","","","15","","17","","24.1","","97.35","","","","-17","","Cloudy"
"-91.91","50.11","SIOUX LOOKOUT A","6037776","2019-01-06 19:00","2019","01","06","19:00","-9.8","","-12.4","","82","","","","15","","18","","24.1","","97.18","","","","-17","","NA"
"-91.91","50.11","SIOUX LOOKOUT A","6037776","2019-01-06 20:00","2019","01","06","20:00","-9.2","","-11.4","","84","","","","14","","15","","24.1","","97.03","","","","-16","","NA"
"-91.91","50.11","SIOUX LOOKOUT A","6037776","2019-01-06 21:00","2019","01","06","21:00","-8.4","","-10.5","","85","","","","15","","15","","24.1","","96.95","","","","-15","","Cloudy"
"-91.91","50.11","SIOUX LOOKOUT A","6037776","2019-01-06 22:00","2019","01","06","22:00","-7.5","","-9.6","","85","","","","15","","14","","19.3","","96.81","","","","-13","","Snow,Blowing Snow"
"-91.91","50.11","SIOUX LOOKOUT A","6037776","2019-01-06 23:00","2019","01","06","23:00","-6.9","","-8.6","","88","","","","14","","13","","4.0","","96.69","","","","-12","","Snow,Blowing Snow"
"-91.91","50.11","SIOUX LOOKOUT A","6037776","2019-01-07 00:00","2019","01","07","00:00","-6.2","","-8.0","","87","","","","14","","15","","4.8","","96.53","","","","-12","","Snow,Blowing Snow"
"-91.91","50.11","SIOUX LOOKOUT A","6037776","2019-01-07 01:00","2019","01","07","01:00","-5.7","","-7.0","","90","","","","13","","14","","1.6","","96.28","","","","-11","","Snow,Blowing Snow"
"-91.91","50.11","SIOUX LOOKOUT A","6037776","2019-01-07 02:00","2019","01","07","02:00","-5.3","","-6.5","","91","","","","14","","15","","1.6","","96.14","","","","-11","","Snow,Blowing Snow"
"-91.91","50.11","SIOUX LOOKOUT A","6037776","2019-01-07 03:00","2019","01","07","03:00","-4.7","","-5.7","","93","","","","14","","16","","0.8","","95.96","","","","-10","","Moderate Snow,Blowing Snow"
"-91.91","50.11","SIOUX LOOKOUT A","6037776","2019-01-07 04:00","2019","01","07","04:00","-4.0","","-5.0","","93","","","","14","","12","","0.8","","95.79","","","","-9","","Moderate Snow,Blowing Snow"
"-91.91","50.11","SIOUX LOOKOUT A","6037776","2019-01-07 05:00","2019","01","07","05:00","-3.8","","-4.6","","94","","","","14","","17","","0.8","","95.67","","","","-10","","Moderate Snow,Blowing Snow"
"-91.91","50.11","SIOUX LOOKOUT A","6037776","2019-01-07 06:00","2019","01","07","06:00","-3.7","","-4.7","","92","","","","14","","20","","2.4","","95.55","","","","-10","","Snow,Blowing Snow"
"-91.91","50.11","SIOUX LOOKOUT A","6037776","2019-01-07 07:00","2019","01","07","07:00","-3.6","","-4.4","","94","","","","15","","17","","1.6","","95.41","","","","-9","","Snow,Blowing Snow"
"-91.91","50.11","SIOUX LOOKOUT A","6037776","2019-01-07 08:00","2019","01","07","08:00","-3.4","","-4.1","","95","","","","16","","13","","2.4","","95.29","","","","-8","","Snow,Blowing Snow"
"-91.91","50.11","SIOUX LOOKOUT A","6037776","2019-01-07 09:00","2019","01","07","09:00","-3.0","","-3.9","","93","","","","16","","14","","4.0","","95.23","","","","-8","","Snow"
"-91.91","50.11","SIOUX LOOKOUT A","6037776","2019-01-07 10:00","2019","01","07","10:00","-2.5","","-3.5","","93","","","","17","","14","","3.2","","95.14","","","","-7","","Snow,Blowing Snow"
"-91.91","50.11","SIOUX LOOKOUT A","6037776","2019-01-07 11:00","2019","01","07","11:00","-2.2","","-3.2","","93","","","","16","","8","","9.7","","95.02","","","","-5","","Snow,Blowing Snow"
"-91.91","50.11","SIOUX LOOKOUT A","6037776","2019-01-07 12:00","2019","01","07","12:00","-1.9","","-2.7","","94","","","","17","","10","","3.6","","94.88","","","","-6","","Snow"
"-91.91","50.11","SIOUX LOOKOUT A","6037776","2019-01-07 13:00","2019","01","07","13:00","-1.1","","-1.9","","94","","","","17","","8","","3.2","","94.82","","","","-4","","Snow"
"-91.91","50.11","SIOUX LOOKOUT A","6037776","2019-01-07 14:00","2019","01","07","14:00","-0.7","","-1.3","","96","","","","19","","9","","3.2","","94.76","","","","-4","","Snow"
"-91.91","50.11","SIOUX LOOKOUT A","6037776","2019-01-07 15:00","2019","01","07","15:00","-0.5","","-1.3","","95","","","","20","","10","","24.1","","94.76","","","","-4","","Cloudy"
"-91.91","50.11","SIOUX LOOKOUT A","6037776","2019-01-07 16:00","2019","01","07","16:00","-0.6","","-1.2","","95","","","","23","","12","","19.3","","94.77","","","","-5","","Freezing Drizzle"
"-91.91","50.11","SIOUX LOOKOUT A","6037776","2019-01-07 17:00","2019","01","07","17:00","-0.5","","-1.4","","94","","","","23","","10","","24.1","","94.80","","","","-4","","NA"
"-91.91","50.11","SIOUX LOOKOUT A","6037776","2019-01-07 18:00","2019","01","07","18:00","-0.5","","-2.0","","90","","","","24","","14","","24.1","","94.82","","","","-5","","Cloudy"
"-91.91","50.11","SIOUX LOOKOUT A","6037776","2019-01-07 19:00","2019","01","07","19:00","-0.8","","-2.1","","91","","","","23","","13","","24.1","","94.83","","","","-5","","NA"
"-91.91","50.11","SIOUX LOOKOUT A","6037776","2019-01-07 20:00","2019","01","07","20:00","-1.0","","-2.3","","91","","","","23","","9","","24.1","","94.86","","","","-4","","NA"
"-91.91","50.11","SIOUX LOOKOUT A","6037776","2019-01-07 21:00","2019","01","07","21:00","-1.1","","-2.5","","90","","","","22","","13","","24.1","","94.83","","","","-5","","Cloudy"
"-91.91","50.11","SIOUX LOOKOUT A","6037776","2019-01-07 22:00","2019","01","07","22:00","-1.5","","-3.5","","86","","","","25","","15","","24.1","","94.85","","","","-6","","Snow"
"-91.91","50.11","SIOUX LOOKOUT A","6037776","2019-01-07 23:00","2019","01","07","23:00","-1.9","","-3.5","","89","","","","25","","16","","24.1","","94.88","","","","-7","","Snow"
"-91.91","50.11","SIOUX LOOKOUT A","6037776","2019-01-08 00:00","2019","01","08","00:00","-2.2","","-4.0","","88","","","","24","","16","","24.1","","94.89","","","","-7","","Snow"
"-91.91","50.11","SIOUX LOOKOUT A","6037776","2019-01-08 01:00","2019","01","08","01:00","-2.5","","-4.3","","88","","","","25","","19","","19.3","","94.92","","","","-8","","Freezing Drizzle,Snow"
"-91.91","50.11","SIOUX LOOKOUT A","6037776","2019-01-08 02:00","2019","01","08","02:00","-3.8","","-6.4","","82","","","","28","","25","","9.7","","95.02","","","","-11","","Snow,Blowing Snow"
"-91.91","50.11","SIOUX LOOKOUT A","6037776","2019-01-08 03:00","2019","01","08","03:00","-5.0","","-7.0","","85","","","","28","","14","","8.1","","95.10","","","","-10","","Snow,Blowing Snow"
"-91.91","50.11","SIOUX LOOKOUT A","6037776","2019-01-08 04:00","2019","01","08","04:00","-5.3","","-7.2","","86","","","","28","","21","","4.8","","95.12","","","","-12","","Snow,Blowing Snow"
"-91.91","50.11","SIOUX LOOKOUT A","6037776","2019-01-08 05:00","2019","01","08","05:00","-6.4","","-8.8","","83","","","","27","","23","","4.8","","95.15","","","","-14","","Snow,Blowing Snow"
"-91.91","50.11","SIOUX LOOKOUT A","6037776","2019-01-08 06:00","2019","01","08","06:00","-6.9","","-8.9","","86","","","","26","","17","","4.8","","95.23","","","","-13","","Snow,Blowing Snow"
"-91.91","50.11","SIOUX LOOKOUT A","6037776","2019-01-08 07:00","2019","01","08","07:00","-7.6","","-10.0","","83","","","","27","","21","","6.4","","95.31","","","","-15","","Snow,Blowing Snow"
"-91.91","50.11","SIOUX LOOKOUT A","6037776","2019-01-08 08:00","2019","01","08","08:00","-8.0","","-10.1","","85","","","","29","","16","","4.8","","95.38","","","","-15","","Snow,Blowing Snow"
"-91.91","50.11","SIOUX LOOKOUT A","6037776","2019-01-08 09:00","2019","01","08","09:00","-8.6","","-11.3","","81","","","","29","","25","","2.4","","95.49","","","","-17","","Snow,Blowing Snow"
"-91.91","50.11","SIOUX LOOKOUT A","6037776","2019-01-08 10:00","2019","01","08","10:00","-9.1","","-11.9","","80","","","","29","","24","","4.8","","95.57","","","","-17","","Snow,Blowing Snow"
"-91.91","50.11","SIOUX LOOKOUT A","6037776","2019-01-08 11:00","2019","01","08","11:00","-9.3","","-11.9","","82","","","","30","","27","","2.4","","95.63","","","","-18","","Snow,Blowing Snow"
"-91.91","50.11","SIOUX LOOKOUT A","6037776","2019-01-08 12:00","2019","01","08","12:00","-9.4","","-12.1","","81","","","","29","","26","","2.4","","95.70","","","","-18","","Snow,Blowing Snow"
"-91.91","50.11","SIOUX LOOKOUT A","6037776","2019-01-08 13:00","2019","01","08","13:00","-10.0","","-12.8","","80","","","","30","","28","","2.4","","95.79","","","","-19","","Snow,Blowing Snow"
"-91.91","50.11","SIOUX LOOKOUT A","6037776","2019-01-08 14:00","2019","01","08","14:00","-10.1","","-12.8","","81","","","","30","","21","","2.4","","95.92","","","","-18","","Snow,Blowing Snow"
"-91.91","50.11","SIOUX LOOKOUT A","6037776","2019-01-08 15:00","2019","01","08","15:00","-10.4","","-13.6","","78","","","","30","","22","","16.1","","96.07","","","","-19","","Snow,Blowing Snow"
"-91.91","50.11","SIOUX LOOKOUT A","6037776","2019-01-08 16:00","2019","01","08","16:00","-11.0","","-13.9","","79","","","","30","","23","","4.8","","96.19","","","","-20","","Snow,Blowing Snow"
"-91.91","50.11","SIOUX LOOKOUT A","6037776","2019-01-08 17:00","2019","01","08","17:00","-11.4","","-14.1","","81","","","","29","","26","","4.8","","96.28","","","","-21","","Snow,Blowing Snow"
"-91.91","50.11","SIOUX LOOKOUT A","6037776","2019-01-08 18:00","2019","01","08","18:00","-12.0","","-14.7","","81","","","","30","","22","","6.4","","96.41","","","","-21","","Snow,Blowing Snow"
"-91.91","50.11","SIOUX LOOKOUT A","6037776","2019-01-08 19:00","2019","01","08","19:00","-12.3","","-14.8","","82","","","","30","","22","","4.8","","96.54","","","","-21","","Snow,Blowing Snow"
"-91.91","50.11","SIOUX LOOKOUT A","6037776","2019-01-08 20:00","2019","01","08","20:00","-12.3","","-14.8","","81","","","","31","","18","","8.1","","96.64","","","","-20","","Snow,Blowing Snow"
"-91.91","50.11","SIOUX LOOKOUT A","6037776","2019-01-08 21:00","2019","01","08","21:00","-12.8","","-15.9","","78","","","","32","","17","","9.7","","96.72","","","","-21","","Snow,Blowing Snow"
"-91.91","50.11","SIOUX LOOKOUT A","6037776","2019-01-08 22:00","2019","01","08","22:00","-13.3","","-16.4","","78","","","","32","","21","","12.9","","96.85","","","","-22","","Snow,Blowing Snow"
"-91.91","50.11","SIOUX LOOKOUT A","6037776","2019-01-08 23:00","2019","01","08","23:00","-13.6","","-16.5","","79","","","","33","","24","","12.9","","96.95","","","","-23","","Snow,Blowing Snow"
"-91.91","50.11","SIOUX LOOKOUT A","6037776","2019-01-09 00:00","2019","01","09","00:00","-13.6","","-16.8","","77","","","","32","","25","","16.1","","97.03","","","","-23","","Snow,Blowing Snow"
"-91.91","50.11","SIOUX LOOKOUT A","6037776","2019-01-09 01:00","2019","01","09","01:00","-14.2","","-17.3","","78","","","","32","","23","","16.1","","97.13","","","","-24","","Snow,Blowing Snow"
"-91.91","50.11","SIOUX LOOKOUT A","6037776","2019-01-09 02:00","2019","01","09","02:00","-14.9","","-17.9","","78","","","","32","","22","","16.1","","97.28","","","","-24","","Snow,Blowing Snow"
"-91.91","50.11","SIOUX LOOKOUT A","6037776","2019-01-09 03:00","2019","01","09","03:00","-15.0","","-18.1","","78","","","","33","","25","","9.7","","97.42","","","","-25","","Snow,Blowing Snow"
"-91.91","50.11","SIOUX LOOKOUT A","6037776","2019-01-09 04:00","2019","01","09","04:00","-15.0","","-18.1","","78","","","","32","","22","","4.0","","97.49","","","","-25","","Snow,Blowing Snow"
"-91.91","50.11","SIOUX LOOKOUT A","6037776","2019-01-09 05:00","2019","01","09","05:00","-15.8","","-19.3","","74","","","","32","","29","","4.8","","97.57","","","","-27","","Snow,Blowing Snow"
"-91.91","50.11","SIOUX LOOKOUT A","6037776","2019-01-09 06:00","2019","01","09","06:00","-16.8","","-20.1","","75","","","","33","","19","","12.9","","97.70","","","","-26","","Snow,Blowing Snow"
"-91.91","50.11","SIOUX LOOKOUT A","6037776","2019-01-09 07:00","2019","01","09","07:00","-17.1","","-20.1","","78","","","","32","","19","","12.9","","97.81","","","","-27","","Snow,Blowing Snow"
"-91.91","50.11","SIOUX LOOKOUT A","6037776","2019-01-09 08:00","2019","01","09","08:00","-17.4","","-20.4","","78","","","","33","","21","","8.1","","97.92","","","","-27","","Snow,Blowing Snow"
"-91.91","50.11","SIOUX LOOKOUT A","6037776","2019-01-09 09:00","2019","01","09","09:00","-17.7","","-20.8","","77","","","","33","","17","","16.1","","98.03","","","","-27","","Snow,Blowing Snow"
"-91.91","50.11","SIOUX LOOKOUT A","6037776","2019-01-09 10:00","2019","01","09","10:00","-17.8","","-20.8","","78","","","","33","","14","","19.3","","98.11","","","","-26","","Snow,Blowing Snow"
"-91.91","50.11","SIOUX LOOKOUT A","6037776","2019-01-09 11:00","2019","01","09","11:00","-17.9","","-22.2","","69","","","","35","","18","","19.3","","98.16","","","","-27","","Snow,Blowing Snow"
"-91.91","50.11","SIOUX LOOKOUT A","6037776","2019-01-09 12:00","2019","01","09","12:00","-17.5","","-21.8","","70","","","","31","","27","","24.1","","98.21","","","","-29","","Blowing Snow"
"-91.91","50.11","SIOUX LOOKOUT A","6037776","2019-01-09 13:00","2019","01","09","13:00","-16.5","","-21.2","","68","","","","34","","13","","24.1","","98.21","","","","-24","","Blowing Snow"
"-91.91","50.11","SIOUX LOOKOUT A","6037776","2019-01-09 14:00","2019","01","09","14:00","-15.7","","-20.5","","67","","","","34","","14","","24.1","","98.28","","","","-23","","Blowing Snow"
"-91.91","50.11","SIOUX LOOKOUT A","6037776","2019-01-09 15:00","2019","01","09","15:00","-15.8","","-20.3","","69","","","","32","","14","","24.1","","98.36","","","","-24","","Blowing Snow"
"-91.91","50.11","SIOUX LOOKOUT A","6037776","2019-01-09 16:00","2019","01","09","16:00","-16.5","","-20.4","","72","","","","32","","13","","24.1","","98.40","","","","-24","","NA"
"-91.91","50.11","SIOUX LOOKOUT A","6037776","2019-01-09 17:00","2019","01","09","17:00","-18.5","","-21.0","","81","","","","31","","12","","24.1","","98.47","","","","-26","","NA"
"-91.91","50.11","SIOUX LOOKOUT A","6037776","2019-01-09 18:00","2019","01","09","18:00","-19.9","","-21.9","","84","","","","34","","7","","24.1","","98.48","","","","-26","","Clear"
"-91.91","50.11","SIOUX LOOKOUT A","6037776","2019-01-09 19:00","2019","01","09","19:00","-20.6","","-22.4","","86","","","","35","","7","","24.1","","98.53","","","","-26","","NA"
"-91.91","50.11","SIOUX LOOKOUT A","6037776","2019-01-09 20:00","2019","01","09","20:00","-23.0","","-24.9","","84","","","","36","","4","","24.1","","98.54","","","","-27","","NA"
"-91.91","50.11","SIOUX LOOKOUT A","6037776","2019-01-09 21:00","2019","01","09","21:00","-23.0","","-25.0","","84","","","","35","","5","","24.1","","98.56","","","","-28","","Clear"
"-91.91","50.11","SIOUX LOOKOUT A","6037776","2019-01-09 22:00","2019","01","09","22:00","-23.5","","-25.9","","81","","","","36","","5","","24.1","","98.59","","","","-28","","NA"
"-91.91","50.11","SIOUX LOOKOUT A","6037776","2019-01-09 23:00","2019","01","09","23:00","-26.7","","-29.1","","81","","","","33","","4","","24.1","","98.61","","","","-31","","NA"
"-91.91","50.11","SIOUX LOOKOUT A","6037776","2019-01-10 00:00","2019","01","10","00:00","-24.8","","-26.7","","84","","","","36","","5","","24.1","","98.64","","","","-30","","Clear"
"-91.91","50.11","SIOUX LOOKOUT A","6037776","2019-01-10 01:00","2019","01","10","01:00","-25.5","","-28.1","","80","","","","2","","5","","24.1","","98.64","","","","-31","","NA"
"-91.91","50.11","SIOUX LOOKOUT A","6037776","2019-01-10 02:00","2019","01","10","02:00","-28.5","","-31.2","","78","","","","6","","3","","24.1","","98.60","","","","-32","","NA"
"-91.91","50.11","SIOUX LOOKOUT A","6037776","2019-01-10 03:00","2019","01","10","03:00","-26.6","","-28.9","","81","","","","36","","1","","24.1","","98.62","","","","-28","","Mainly Clear"
"-91.91","50.11","SIOUX LOOKOUT A","6037776","2019-01-10 04:00","2019","01","10","04:00","-24.8","","-27.3","","80","","","","36","","3","","24.1","","98.61","","","","-28","","NA"
"-91.91","50.11","SIOUX LOOKOUT A","6037776","2019-01-10 05:00","2019","01","10","05:00","-23.8","","-26.2","","81","","","","36","","1","","24.1","","98.59","","","","-25","","NA"
"-91.91","50.11","SIOUX LOOKOUT A","6037776","2019-01-10 06:00","2019","01","10","06:00","-22.7","","-25.3","","80","","","","36","","2","","24.1","","98.53","","","","-25","","Cloudy"
"-91.91","50.11","SIOUX LOOKOUT A","6037776","2019-01-10 07:00","2019","01","10","07:00","-22.5","","-25.1","","79","","","","16","","6","","24.1","","98.54","","","","-28","","NA"
"-91.91","50.11","SIOUX LOOKOUT A","6037776","2019-01-10 08:00","2019","01","10","08:00","-22.1","","-24.9","","78","","","","36","","1","","24.1","","98.55","","","","-23","","NA"
"-91.91","50.11","SIOUX LOOKOUT A","6037776","2019-01-10 09:00","2019","01","10","09:00","-22.1","","-24.8","","79","","","","12","","3","","24.1","","98.50","","","","-25","","Mostly Cloudy"
"-91.91","50.11","SIOUX LOOKOUT A","6037776","2019-01-10 10:00","2019","01","10","10:00","-21.1","","-24.4","","75","","","","13","","3","","24.1","","98.52","","","","-24","","NA"
"-91.91","50.11","SIOUX LOOKOUT A","6037776","2019-01-10 11:00","2019","01","10","11:00","-19.9","","-23.7","","72","","","","20","","6","","24.1","","98.51","","","","-25","","NA"
"-91.91","50.11","SIOUX LOOKOUT A","6037776","2019-01-10 12:00","2019","01","10","12:00","-18.8","","-23.9","","65","","","","17","","5","","24.1","","98.39","","","","-23","","Cloudy"
"-91.91","50.11","SIOUX LOOKOUT A","6037776","2019-01-10 13:00","2019","01","10","13:00","-17.5","","-23.3","","61","","","","15","","7","","24.1","","98.33","","","","-23","","NA"
"-91.91","50.11","SIOUX LOOKOUT A","6037776","2019-01-10 14:00","2019","01","10","14:00","-16.5","","-21.9","","64","","","","10","","3","","24.1","","98.26","","","","-19","","NA"
"-91.91","50.11","SIOUX LOOKOUT A","6037776","2019-01-10 15:00","2019","01","10","15:00","-16.1","","-21.2","","65","","","","11","","8","","24.1","","98.19","","","","-22","","Cloudy"
"-91.91","50.11","SIOUX LOOKOUT A","6037776","2019-01-10 16:00","2019","01","10","16:00","-16.1","","-21.0","","66","","","","10","","5","","24.1","","98.16","","","","-20","","NA"
"-91.91","50.11","SIOUX LOOKOUT A","6037776","2019-01-10 17:00","2019","01","10","17:00","-15.9","","-20.3","","69","","","","13","","4","","24.1","","98.13","","","","-19","","NA"
"-91.91","50.11","SIOUX LOOKOUT A","6037776","2019-01-10 18:00","2019","01","10","18:00","-15.9","","-19.6","","73","","","","11","","5","","12.9","","98.09","","","","-20","","Snow"
"-91.91","50.11","SIOUX LOOKOUT A","6037776","2019-01-10 19:00","2019","01","10","19:00","-15.8","","-18.7","","79","","","","13","","7","","16.1","","98.08","","","","-21","","Snow"
"-91.91","50.11","SIOUX LOOKOUT A","6037776","2019-01-10 20:00","2019","01","10","20:00","-15.7","","-18.2","","81","","","","10","","9","","4.8","","98.05","","","","-22","","Snow"
"-91.91","50.11","SIOUX LOOKOUT A","6037776","2019-01-10 21:00","2019","01","10","21:00","-15.3","","-17.8","","82","","","","13","","6","","4.0","","98.01","","","","-20","","Snow"
"-91.91","50.11","SIOUX LOOKOUT A","6037776","2019-01-10 22:00","2019","01","10","22:00","-15.2","","-17.4","","83","","","","12","","9","","3.6","","97.95","","","","-21","","Snow"
"-91.91","50.11","SIOUX LOOKOUT A","6037776","2019-01-10 23:00","2019","01","10","23:00","-14.8","","-17.1","","83","","","","14","","7","","4.0","","97.95","","","","-20","","Snow"
"-91.91","50.11","SIOUX LOOKOUT A","6037776","2019-01-11 00:00","2019","01","11","00:00","-14.7","","-16.8","","84","","","","12","","5","","3.2","","97.94","","","","-18","","Snow"
"-91.91","50.11","SIOUX LOOKOUT A","6037776","2019-01-11 01:00","2019","01","11","01:00","-14.5","","-16.5","","85","","","","13","","5","","8.1","","97.95","","","","-18","","Snow"
"-91.91","50.11","SIOUX LOOKOUT A","6037776","2019-01-11 02:00","2019","01","11","02:00","-14.1","","-16.1","","85","","","","12","","8","","2.0","","97.91","","","","-19","","Snow"
"-91.91","50.11","SIOUX LOOKOUT A","6037776","2019-01-11 03:00","2019","01","11","03:00","-13.9","","-15.8","","86","","","","14","","8","","4.8","","97.90","","","","-19","","Snow"
"-91.91","50.11","SIOUX LOOKOUT A","6037776","2019-01-11 04:00","2019","01","11","04:00","-13.8","","-15.8","","85","","","","12","","7","","9.7","","97.87","","","","-18","","Snow"
"-91.91","50.11","SIOUX LOOKOUT A","6037776","2019-01-11 05:00","2019","01","11","05:00","-13.8","","-15.8","","85","","","","13","","5","","12.9","","97.87","","","","-17","","Snow"
"-91.91","50.11","SIOUX LOOKOUT A","6037776","2019-01-11 06:00","2019","01","11","06:00","-13.7","","-15.7","","85","","","","13","","8","","19.3","","97.87","","","","-19","","Snow"
"-91.91","50.11","SIOUX LOOKOUT A","6037776","2019-01-11 07:00","2019","01","11","07:00","-13.6","","-15.6","","85","","","","11","","7","","16.1","","97.87","","","","-18","","Snow"
"-91.91","50.11","SIOUX LOOKOUT A","6037776","2019-01-11 08:00","2019","01","11","08:00","-13.6","","-15.6","","85","","","","11","","8","","16.1","","97.92","","","","-19","","Snow"
"-91.91","50.11","SIOUX LOOKOUT A","6037776","2019-01-11 09:00","2019","01","11","09:00","-13.1","","-15.3","","84","","","","12","","10","","24.1","","97.97","","","","-19","","Snow"
"-91.91","50.11","SIOUX LOOKOUT A","6037776","2019-01-11 10:00","2019","01","11","10:00","-12.4","","-14.8","","83","","","","11","","8","","24.1","","98.02","","","","-17","","Snow"
"-91.91","50.11","SIOUX LOOKOUT A","6037776","2019-01-11 11:00","2019","01","11","11:00","-11.1","","-14.0","","80","","","","12","","10","","24.1","","98.01","","","","-17","","Snow"
"-91.91","50.11","SIOUX LOOKOUT A","6037776","2019-01-11 12:00","2019","01","11","12:00","-9.6","","-12.8","","78","","","","9","","11","","24.1","","98.00","","","","-15","","Snow"
"-91.91","50.11","SIOUX LOOKOUT A","6037776","2019-01-11 13:00","2019","01","11","13:00","-8.4","","-11.8","","77","","","","9","","10","","24.1","","97.99","","","","-13","","NA"
"-91.91","50.11","SIOUX LOOKOUT A","6037776","2019-01-11 14:00","2019","01","11","14:00","-8.3","","-11.0","","81","","","","7","","7","","24.1","","98.03","","","","-12","","Snow"
"-91.91","50.11","SIOUX LOOKOUT A","6037776","2019-01-11 15:00","2019","01","11","15:00","-8.6","","-11.0","","83","","","","5","","5","","24.1","","98.10","","","","-11","","Snow"
"-91.91","50.11","SIOUX LOOKOUT A","6037776","2019-01-11 16:00","2019","01","11","16:00","-9.3","","-11.4","","85","","","","9","","7","","24.1","","98.16","","","","-13","","Snow"
"-91.91","50.11","SIOUX LOOKOUT A","6037776","2019-01-11 17:00","2019","01","11","17:00","-10.8","","-12.3","","88","","","","7","","7","","24.1","","98.22","","","","-15","","NA"
"-91.91","50.11","SIOUX LOOKOUT A","6037776","2019-01-11 18:00","2019","01","11","18:00","-12.0","","-13.4","","90","","","","8","","7","","24.1","","98.28","","","","-16","","Mainly Clear"
"-91.91","50.11","SIOUX LOOKOUT A","6037776","2019-01-11 19:00","2019","01","11","19:00","-12.6","","-14.1","","88","","","","9","","8","","24.1","","98.36","","","","-18","","Snow Showers"
"-91.91","50.11","SIOUX LOOKOUT A","6037776","2019-01-11 20:00","2019","01","11","20:00","-13.2","","-14.9","","87","","","","8","","8","","24.1","","98.42","","","","-18","","Snow"
"-91.91","50.11","SIOUX LOOKOUT A","6037776","2019-01-11 21:00","2019","01","11","21:00","-14.2","","-15.9","","87","","","","7","","7","","24.1","","98.46","","","","-19","","Snow"
"-91.91","50.11","SIOUX LOOKOUT A","6037776","2019-01-11 22:00","2019","01","11","22:00","-14.2","","-16.4","","83","","","","8","","13","","24.1","","98.52","","","","-21","","Snow"
"-91.91","50.11","SIOUX LOOKOUT A","6037776","2019-01-11 23:00","2019","01","11","23:00","-15.3","","-17.9","","81","","","","9","","8","","24.1","","98.57","","","","-21","","NA"
"-91.91","50.11","SIOUX LOOKOUT A","6037776","2019-01-12 00:00","2019","01","12","00:00","-16.1","","-18.6","","81","","","","9","","7","","24.1","","98.63","","","","-21","","Mainly Clear"
"-91.91","50.11","SIOUX LOOKOUT A","6037776","2019-01-12 01:00","2019","01","12","01:00","-16.7","","-19.2","","81","","","","9","","7","","24.1","","98.64","","","","-22","","NA"
"-91.91","50.11","SIOUX LOOKOUT A","6037776","2019-01-12 02:00","2019","01","12","02:00","-17.7","","-19.9","","83","","","","7","","7","","24.1","","98.66","","","","-23","","NA"
"-91.91","50.11","SIOUX LOOKOUT A","6037776","2019-01-12 03:00","2019","01","12","03:00","-18.3","","-20.7","","82","","","","9","","8","","24.1","","98.67","","","","-24","","Clear"
"-91.91","50.11","SIOUX LOOKOUT A","6037776","2019-01-12 04:00","2019","01","12","04:00","-19.3","","-21.5","","83","","","","8","","3","","24.1","","98.70","","","","-22","","NA"
"-91.91","50.11","SIOUX LOOKOUT A","6037776","2019-01-12 05:00","2019","01","12","05:00","-20.0","","-22.2","","83","","","","7","","7","","24.1","","98.73","","","","-26","","NA"
"-91.91","50.11","SIOUX LOOKOUT A","6037776","2019-01-12 06:00","2019","01","12","06:00","-20.9","","-23.1","","83","","","","8","","4","","24.1","","98.70","","","","-24","","Clear"
"-91.91","50.11","SIOUX LOOKOUT A","6037776","2019-01-12 07:00","2019","01","12","07:00","-20.2","","-22.5","","82","","","","9","","5","","24.1","","98.76","","","","-25","","NA"
"-91.91","50.11","SIOUX LOOKOUT A","6037776","2019-01-12 08:00","2019","01","12","08:00","-20.6","","-22.9","","82","","","","11","","7","","24.1","","98.79","","","","-26","","NA"
"-91.91","50.11","SIOUX LOOKOUT A","6037776","2019-01-12 09:00","2019","01","12","09:00","-19.3","","-22.0","","80","","","","14","","6","","24.1","","98.84","","","","-24","","Mainly Clear"
"-91.91","50.11","SIOUX LOOKOUT A","6037776","2019-01-12 10:00","2019","01","12","10:00","-16.7","","-20.5","","73","","","","15","","12","","24.1","","98.85","","","","-24","","NA"
"-91.91","50.11","SIOUX LOOKOUT A","6037776","2019-01-12 11:00","2019","01","12","11:00","-14.0","","-18.6","","69","","","","17","","10","","24.1","","98.84","","","","-20","","NA"
"-91.91","50.11","SIOUX LOOKOUT A","6037776","2019-01-12 12:00","2019","01","12","12:00","-11.7","","-17.2","","64","","","","16","","8","","24.1","","98.78","","","","-16","","Mainly Clear"
"-91.91","50.11","SIOUX LOOKOUT A","6037776","2019-01-12 13:00","2019","01","12","13:00","-10.2","","-15.4","","66","","","","18","","10","","24.1","","98.70","","","","-15","","NA"
"-91.91","50.11","SIOUX LOOKOUT A","6037776","2019-01-12 14:00","2019","01","12","14:00","-9.7","","-14.2","","70","","","","17","","7","","24.1","","98.63","","","","-14","","NA"
"-91.91","50.11","SIOUX LOOKOUT A","6037776","2019-01-12 15:00","2019","01","12","15:00","-9.2","","-13.0","","74","","","","12","","5","","24.1","","98.59","","","","-12","","Cloudy"
"-91.91","50.11","SIOUX LOOKOUT A","6037776","2019-01-12 16:00","2019","01","12","16:00","-9.2","","-12.4","","77","","","","15","","7","","24.1","","98.59","","","","-13","","NA"
"-91.91","50.11","SIOUX LOOKOUT A","6037776","2019-01-12 17:00","2019","01","12","17:00","-9.3","","-12.2","","79","","","","16","","8","","24.1","","98.59","","","","-14","","Snow"
"-91.91","50.11","SIOUX LOOKOUT A","6037776","2019-01-12 18:00","2019","01","12","18:00","-9.5","","-12.0","","82","","","","15","","6","","24.1","","98.57","","","","-13","","Snow"
"-91.91","50.11","SIOUX LOOKOUT A","6037776","2019-01-12 19:00","2019","01","12","19:00","-9.3","","-11.8","","83","","","","14","","8","","24.1","","98.55","","","","-14","","Snow"
"-91.91","50.11","SIOUX LOOKOUT A","6037776","2019-01-12 20:00","2019","01","12","20:00","-9.2","","-11.4","","84","","","","16","","9","","24.1","","98.51","","","","-14","","Snow"
"-91.91","50.11","SIOUX LOOKOUT A","6037776","2019-01-12 21:00","2019","01","12","21:00","-8.9","","-11.0","","85","","","","16","","12","","24.1","","98.41","","","","-15","","Snow"
"-91.91","50.11","SIOUX LOOKOUT A","6037776","2019-01-12 22:00","2019","01","12","22:00","-8.7","","-10.5","","87","","","","17","","13","","24.1","","98.36","","","","-15","","Snow"
"-91.91","50.11","SIOUX LOOKOUT A","6037776","2019-01-12 23:00","2019","01","12","23:00","-8.3","","-9.8","","89","","","","18","","10","","24.1","","98.31","","","","-13","","Snow"
"-91.91","50.11","SIOUX LOOKOUT A","6037776","2019-01-13 00:00","2019","01","13","00:00","-8.1","","-9.4","","90","","","","18","","10","","24.1","","98.23","","","","-13","","Snow"
"-91.91","50.11","SIOUX LOOKOUT A","6037776","2019-01-13 01:00","2019","01","13","01:00","-7.7","","-8.7","","93","","","","18","","8","","24.1","","98.19","","","","-12","","Snow"
"-91.91","50.11","SIOUX LOOKOUT A","6037776","2019-01-13 02:00","2019","01","13","02:00","-6.9","","-7.7","","94","","","","19","","10","","24.1","","98.16","","","","-12","","Snow"
"-91.91","50.11","SIOUX LOOKOUT A","6037776","2019-01-13 03:00","2019","01","13","03:00","-6.2","","-7.0","","94","","","","20","","14","","19.3","","98.10","","","","-12","","Freezing Drizzle,Snow"
"-91.91","50.11","SIOUX LOOKOUT A","6037776","2019-01-13 04:00","2019","01","13","04:00","-6.0","","-6.8","","94","","","","20","","10","","19.3","","98.05","","","","-10","","Freezing Drizzle"
"-91.91","50.11","SIOUX LOOKOUT A","6037776","2019-01-13 05:00","2019","01","13","05:00","-5.5","","-6.5","","93","","","","21","","10","","24.1","","97.97","","","","-10","","Snow"
"-91.91","50.11","SIOUX LOOKOUT A","6037776","2019-01-13 06:00","2019","01","13","06:00","-5.3","","-6.4","","92","","","","20","","15","","24.1","","97.89","","","","-11","","Cloudy"
"-91.91","50.11","SIOUX LOOKOUT A","6037776","2019-01-13 07:00","2019","01","13","07:00","-5.1","","-6.4","","91","","","","21","","14","","24.1","","97.83","","","","-10","","NA"
"-91.91","50.11","SIOUX LOOKOUT A","6037776","2019-01-13 08:00","2019","01","13","08:00","-5.0","","-6.3","","91","","","","21","","14","","19.3","","97.77","","","","-10","","NA"
"-91.91","50.11","SIOUX LOOKOUT A","6037776","2019-01-13 09:00","2019","01","13","09:00","-4.8","","-6.2","","91","","","","21","","11","","19.3","","97.78","","","","-9","","Cloudy"
"-91.91","50.11","SIOUX LOOKOUT A","6037776","2019-01-13 10:00","2019","01","13","10:00","-4.4","","-5.8","","91","","","","22","","15","","8.1","","97.74","","","","-10","","Snow,Fog"
"-91.91","50.11","SIOUX LOOKOUT A","6037776","2019-01-13 11:00","2019","01","13","11:00","-4.1","","-5.4","","90","","","","23","","19","","8.1","","97.67","","","","-10","","Snow,Fog"
"-91.91","50.11","SIOUX LOOKOUT A","6037776","2019-01-13 12:00","2019","01","13","12:00","-4.0","","-5.4","","90","","","","24","","16","","8.1","","97.60","","","","-10","","Snow,Fog"
"-91.91","50.11","SIOUX LOOKOUT A","6037776","2019-01-13 13:00","2019","01","13","13:00","-3.9","","-5.8","","87","","","","25","","17","","8.1","","97.59","","","","-10","","Snow,Fog"
"-91.91","50.11","SIOUX LOOKOUT A","6037776","2019-01-13 14:00","2019","01","13","14:00","-3.8","","-5.7","","87","","","","25","","19","","8.1","","97.51","","","","-10","","Snow,Fog"
"-91.91","50.11","SIOUX LOOKOUT A","6037776","2019-01-13 15:00","2019","01","13","15:00","-4.0","","-5.6","","89","","","","24","","15","","8.1","","97.47","","","","-9","","Snow,Fog"
"-91.91","50.11","SIOUX LOOKOUT A","6037776","2019-01-13 16:00","2019","01","13","16:00","-4.1","","-5.5","","90","","","","24","","11","","8.1","","97.45","","","","-9","","Fog"
"-91.91","50.11","SIOUX LOOKOUT A","6037776","2019-01-13 17:00","2019","01","13","17:00","-4.1","","-5.5","","90","","","","28","","12","","8.1","","97.51","","","","-9","","Fog"
"-91.91","50.11","SIOUX LOOKOUT A","6037776","2019-01-13 18:00","2019","01","13","18:00","-4.2","","-5.4","","91","","","","28","","17","","6.4","","97.52","","","","-10","","Snow,Fog"
"-91.91","50.11","SIOUX LOOKOUT A","6037776","2019-01-13 19:00","2019","01","13","19:00","-4.4","","-5.3","","93","","","","27","","13","","8.1","","97.54","","","","-9","","Snow,Fog"
"-91.91","50.11","SIOUX LOOKOUT A","6037776","2019-01-13 20:00","2019","01","13","20:00","-4.5","","-5.3","","95","","","","29","","16","","6.4","","97.52","","","","-10","","Freezing Drizzle,Snow,Fog"
"-91.91","50.11","SIOUX LOOKOUT A","6037776","2019-01-13 21:00","2019","01","13","21:00","-4.7","","-5.2","","96","","","","28","","9","","4.8","","97.50","","","","-9","","Freezing Drizzle,Fog"
"-91.91","50.11","SIOUX LOOKOUT A","6037776","2019-01-13 22:00","2019","01","13","22:00","-4.9","","-5.2","","97","","","","27","","11","","3.2","","97.47","","","","-9","","Freezing Drizzle,Snow,Fog"
"-91.91","50.11","SIOUX LOOKOUT A","6037776","2019-01-13 23:00","2019","01","13","23:00","-4.9","","-5.1","","98","","","","29","","10","","1.6","","97.50","","","","-9","","Freezing Drizzle,Fog"
"-91.91","50.11","SIOUX LOOKOUT A","6037776","2019-01-14 00:00","2019","01","14","00:00","-4.9","","-5.4","","96","","","","31","","17","","4.8","","97.47","","","","-11","","Freezing Drizzle,Fog"
"-91.91","50.11","SIOUX LOOKOUT A","6037776","2019-01-14 01:00","2019","01","14","01:00","-5.0","","-5.5","","97","","","","32","","14","","4.8","","97.47","","","","-10","","Freezing Drizzle,Fog"
"-91.91","50.11","SIOUX LOOKOUT A","6037776","2019-01-14 02:00","2019","01","14","02:00","-5.2","","-5.6","","97","","","","32","","14","","4.8","","97.52","","","","-11","","Fog"
"-91.91","50.11","SIOUX LOOKOUT A","6037776","2019-01-14 03:00","2019","01","14","03:00","-5.4","","-6.2","","94","","","","32","","13","","8.1","","97.56","","","","-11","","Fog"
"-91.91","50.11","SIOUX LOOKOUT A","6037776","2019-01-14 04:00","2019","01","14","04:00","-5.8","","-6.6","","94","","","","33","","13","","9.7","","97.56","","","","-11","","Fog"
"-91.91","50.11","SIOUX LOOKOUT A","6037776","2019-01-14 05:00","2019","01","14","05:00","-5.9","","-6.7","","94","","","","32","","14","","9.7","","97.55","","","","-11","","Fog"
"-91.91","50.11","SIOUX LOOKOUT A","6037776","2019-01-14 06:00","2019","01","14","06:00","-6.0","","-6.7","","95","","","","35","","8","","16.1","","97.57","","","","-10","","Cloudy"
"-91.91","50.11","SIOUX LOOKOUT A","6037776","2019-01-14 07:00","2019","01","14","07:00","-6.7","","-7.9","","91","","","","36","","10","","19.3","","97.63","","","","-11","","Snow"
"-91.91","50.11","SIOUX LOOKOUT A","6037776","2019-01-14 08:00","2019","01","14","08:00","-7.8","","-9.5","","88","","","","36","","7","","24.1","","97.69","","","","-11","","Snow"
"-91.91","50.11","SIOUX LOOKOUT A","6037776","2019-01-14 09:00","2019","01","14","09:00","-8.1","","-10.4","","84","","","","35","","11","","19.3","","97.74","","","","-13","","Snow"
"-91.91","50.11","SIOUX LOOKOUT A","6037776","2019-01-14 10:00","2019","01","14","10:00","-8.4","","-11.5","","78","","","","35","","9","","24.1","","97.75","","","","-13","","Snow"
"-91.91","50.11","SIOUX LOOKOUT A","6037776","2019-01-14 11:00","2019","01","14","11:00","-8.4","","-11.9","","76","","","","35","","6","","24.1","","97.78","","","","-12","","Snow"
"-91.91","50.11","SIOUX LOOKOUT A","6037776","2019-01-14 12:00","2019","01","14","12:00","-8.2","","-12.2","","73","","","","1","","9","","19.3","","97.74","","","","-13","","Snow"
"-91.91","50.11","SIOUX LOOKOUT A","6037776","2019-01-14 13:00","2019","01","14","13:00","-8.3","","-12.1","","74","","","","35","","9","","24.1","","97.72","","","","-13","","Snow"
"-91.91","50.11","SIOUX LOOKOUT A","6037776","2019-01-14 14:00","2019","01","14","14:00","-8.8","","-12.5","","75","","","","1","","9","","19.3","","97.74","","","","-13","","Snow"
"-91.91","50.11","SIOUX LOOKOUT A","6037776","2019-01-14 15:00","2019","01","14","15:00","-9.1","","-12.7","","75","","","","34","","6","","24.1","","97.73","","","","-12","","Snow"
"-91.91","50.11","SIOUX LOOKOUT A","6037776","2019-01-14 16:00","2019","01","14","16:00","-9.3","","-12.6","","77","","","","2","","5","","24.1","","97.73","","","","-12","","NA"
"-91.91","50.11","SIOUX LOOKOUT A","6037776","2019-01-14 17:00","2019","01","14","17:00","-10.6","","-13.2","","81","","","","35","","4","","24.1","","97.73","","","","-13","","Snow"
"-91.91","50.11","SIOUX LOOKOUT A","6037776","2019-01-14 18:00","2019","01","14","18:00","-12.4","","-14.0","","88","","","","22","","4","","24.1","","97.68","","","","-15","","Snow"
"-91.91","50.11","SIOUX LOOKOUT A","6037776","2019-01-14 19:00","2019","01","14","19:00","-15.1","","-16.3","","90","","","","36","","3","","24.1","","97.62","","","","-17","","NA"
"-91.91","50.11","SIOUX LOOKOUT A","6037776","2019-01-14 20:00","2019","01","14","20:00","-17.0","","-18.9","","86","","","","17","","3","","24.1","","97.55","","","","-19","","NA"
"-91.91","50.11","SIOUX LOOKOUT A","6037776","2019-01-14 21:00","2019","01","14","21:00","-16.0","","-17.6","","88","","","","17","","5","","24.1","","97.49","","","","-20","","Mostly Cloudy"
"-91.91","50.11","SIOUX LOOKOUT A","6037776","2019-01-14 22:00","2019","01","14","22:00","-14.0","","-15.2","","90","","","","17","","5","","24.1","","97.43","","","","-17","","NA"
"-91.91","50.11","SIOUX LOOKOUT A","6037776","2019-01-14 23:00","2019","01","14","23:00","-13.3","","-14.6","","90","","","","17","","8","","24.1","","97.31","","","","-18","","NA"
"-91.91","50.11","SIOUX LOOKOUT A","6037776","2019-01-15 00:00","2019","01","15","00:00","-12.3","","-13.7","","89","","","","18","","9","","24.1","","97.17","","","","-18","","Cloudy"
"-91.91","50.11","SIOUX LOOKOUT A","6037776","2019-01-15 01:00","2019","01","15","01:00","-10.8","","-12.2","","89","","","","20","","10","","24.1","","97.03","","","","-16","","NA"
"-91.91","50.11","SIOUX LOOKOUT A","6037776","2019-01-15 02:00","2019","01","15","02:00","-10.1","","-11.6","","89","","","","17","","13","","24.1","","96.87","","","","-16","","NA"
"-91.91","50.11","SIOUX LOOKOUT A","6037776","2019-01-15 03:00","2019","01","15","03:00","-9.5","","-11.1","","88","","","","19","","16","","24.1","","96.69","","","","-16","","Cloudy"
"-91.91","50.11","SIOUX LOOKOUT A","6037776","2019-01-15 04:00","2019","01","15","04:00","-8.4","","-10.6","","84","","","","18","","18","","24.1","","96.51","","","","-15","","NA"
"-91.91","50.11","SIOUX LOOKOUT A","6037776","2019-01-15 05:00","2019","01","15","05:00","-7.8","","-11.0","","78","","","","19","","16","","24.1","","96.34","","","","-14","","NA"
"-91.91","50.11","SIOUX LOOKOUT A","6037776","2019-01-15 06:00","2019","01","15","06:00","-7.2","","-11.7","","71","","","","19","","18","","24.1","","96.10","","","","-14","","Cloudy"
"-91.91","50.11","SIOUX LOOKOUT A","6037776","2019-01-15 07:00","2019","01","15","07:00","-6.0","","-10.8","","69","","","","20","","19","","24.1","","95.86","","","","-13","","Blowing Snow"
"-91.91","50.11","SIOUX LOOKOUT A","6037776","2019-01-15 08:00","2019","01","15","08:00","-6.0","","-9.4","","77","","","","24","","16","","24.1","","95.83","","","","-12","","Snow,Blowing Snow"
"-91.91","50.11","SIOUX LOOKOUT A","6037776","2019-01-15 09:00","2019","01","15","09:00","-6.3","","-8.6","","84","","","","26","","18","","4.0","","95.85","","","","-13","","Snow,Blowing Snow"
"-91.91","50.11","SIOUX LOOKOUT A","6037776","2019-01-15 10:00","2019","01","15","10:00","-6.7","","-8.3","","88","","","","25","","18","","1.6","","95.85","","","","-13","","Snow,Blowing Snow"
"-91.91","50.11","SIOUX LOOKOUT A","6037776","2019-01-15 11:00","2019","01","15","11:00","-6.8","","-8.7","","86","","","","27","","17","","4.8","","95.85","","","","-13","","Freezing Drizzle,Snow,Blowing Snow"
"-91.91","50.11","SIOUX LOOKOUT A","6037776","2019-01-15 12:00","2019","01","15","12:00","-6.4","","-8.1","","88","","","","28","","16","","4.8","","95.82","","","","-13","","Snow,Blowing Snow"
"-91.91","50.11","SIOUX LOOKOUT A","6037776","2019-01-15 13:00","2019","01","15","13:00","-5.9","","-7.8","","86","","","","28","","18","","4.8","","95.84","","","","-12","","Snow,Blowing Snow"
"-91.91","50.11","SIOUX LOOKOUT A","6037776","2019-01-15 14:00","2019","01","15","14:00","-8.1","","-11.5","","77","","","","34","","31","","3.2","","96.00","","","","-17","","Snow,Blowing Snow"
"-91.91","50.11","SIOUX LOOKOUT A","6037776","2019-01-15 15:00","2019","01","15","15:00","-13.4","","-17.1","","74","","","","35","","25","","6.4","","96.36","","","","-23","","Snow,Blowing Snow"
"-91.91","50.11","SIOUX LOOKOUT A","6037776","2019-01-15 16:00","2019","01","15","16:00","-15.6","","-19.4","","73","","","","35","","18","","24.1","","96.63","","","","-24","","Snow,Blowing Snow"
"-91.91","50.11","SIOUX LOOKOUT A","6037776","2019-01-15 17:00","2019","01","15","17:00","-16.0","","-19.9","","73","","","","34","","21","","24.1","","96.89","","","","-26","","Snow"
"-91.91","50.11","SIOUX LOOKOUT A","6037776","2019-01-15 18:00","2019","01","15","18:00","-17.2","","-20.7","","75","","","","34","","10","","24.1","","97.07","","","","-24","","Snow,Blowing Snow"
"-91.91","50.11","SIOUX LOOKOUT A","6037776","2019-01-15 19:00","2019","01","15","19:00","-17.8","","-21.3","","74","","","","34","","19","","24.1","","97.21","","","","-27","","Snow"
"-91.91","50.11","SIOUX LOOKOUT A","6037776","2019-01-15 20:00","2019","01","15","20:00","-19.1","","-22.3","","76","","","","34","","18","","24.1","","97.35","","","","-29","","NA"
"-91.91","50.11","SIOUX LOOKOUT A","6037776","2019-01-15 21:00","2019","01","15","21:00","-20.2","","-23.7","","74","","","","33","","23","","24.1","","97.45","","","","-31","","Mainly Clear"
"-91.91","50.11","SIOUX LOOKOUT A","6037776","2019-01-15 22:00","2019","01","15","22:00","-22.0","","-24.7","","79","","","","33","","10","","24.1","","97.52","","","","-30","","NA"
"-91.91","50.11","SIOUX LOOKOUT A","6037776","2019-01-15 23:00","2019","01","15","23:00","-22.7","","-26.3","","73","","","","34","","12","","24.1","","97.63","","","","-31","","NA"
"-91.91","50.11","SIOUX LOOKOUT A","6037776","2019-01-16 00:00","2019","01","16","00:00","-24.2","","-27.4","","75","","","","33","","9","","24.1","","97.68","","","","-32","","Clear"
"-91.91","50.11","SIOUX LOOKOUT A","6037776","2019-01-16 01:00","2019","01","16","01:00","-25.1","","-27.9","","78","","","","34","","8","","24.1","","97.74","","","","-32","","NA"
"-91.91","50.11","SIOUX LOOKOUT A","6037776","2019-01-16 02:00","2019","01","16","02:00","-25.9","","-28.6","","79","","","","34","","9","","24.1","","97.81","","","","-34","","NA"
"-91.91","50.11","SIOUX LOOKOUT A","6037776","2019-01-16 03:00","2019","01","16","03:00","-27.1","","-29.7","","79","","","","34","","6","","24.1","","97.85","","","","-33","","Clear"
"-91.91","50.11","SIOUX LOOKOUT A","6037776","2019-01-16 04:00","2019","01","16","04:00","-27.8","","-30.4","","79","","","","32","","9","","24.1","","97.89","","","","-36","","NA"
"-91.91","50.11","SIOUX LOOKOUT A","6037776","2019-01-16 05:00","2019","01","16","05:00","-31.6","","-34.4","","77","","","","31","","3","","24.1","","97.91","","","","-35","","NA"
"-91.91","50.11","SIOUX LOOKOUT A","6037776","2019-01-16 06:00","2019","01","16","06:00","-31.9","","-34.8","","76","","","","36","","1","","24.1","","97.96","","","","-33","","Clear"
"-91.91","50.11","SIOUX LOOKOUT A","6037776","2019-01-16 07:00","2019","01","16","07:00","-30.2","","-32.7","","80","","","","34","","5","","24.1","","97.98","","","","-36","","NA"
"-91.91","50.11","SIOUX LOOKOUT A","6037776","2019-01-16 08:00","2019","01","16","08:00","-32.1","","-34.9","","77","","","","26","","4","","24.1","","98.03","","","","-37","","Ice Crystals"
"-91.91","50.11","SIOUX LOOKOUT A","6037776","2019-01-16 09:00","2019","01","16","09:00","-28.9","","-31.5","","79","","","","29","","4","","24.1","","98.05","","","","-33","","Mainly Clear"
"-91.91","50.11","SIOUX LOOKOUT A","6037776","2019-01-16 10:00","2019","01","16","10:00","-26.8","","-29.7","","77","","","","28","","7","","24.1","","98.11","","","","-34","","NA"
"-91.91","50.11","SIOUX LOOKOUT A","6037776","2019-01-16 11:00","2019","01","16","11:00","-24.9","","-28.9","","70","","","","31","","7","","24.1","","98.09","","","","-31","","NA"
"-91.91","50.11","SIOUX LOOKOUT A","6037776","2019-01-16 12:00","2019","01","16","12:00","-23.8","","-28.7","","64","","","","26","","8","","24.1","","98.03","","","","-31","","Clear"
"-91.91","50.11","SIOUX LOOKOUT A","6037776","2019-01-16 13:00","2019","01","16","13:00","-22.7","","-28.5","","60","","","","32","","8","","24.1","","97.93","","","","-29","","NA"
"-91.91","50.11","SIOUX LOOKOUT A","6037776","2019-01-16 14:00","2019","01","16","14:00","-21.7","","-27.9","","58","","","","29","","9","","24.1","","97.90","","","","-29","","NA"
"-91.91","50.11","SIOUX LOOKOUT A","6037776","2019-01-16 15:00","2019","01","16","15:00","-20.5","","-26.8","","58","","","","23","","7","","24.1","","97.87","","","","-26","","Mostly Cloudy"
"-91.91","50.11","SIOUX LOOKOUT A","6037776","2019-01-16 16:00","2019","01","16","16:00","-20.9","","-26.7","","61","","","","26","","7","","24.1","","97.86","","","","-27","","NA"
"-91.91","50.11","SIOUX LOOKOUT A","6037776","2019-01-16 17:00","2019","01","16","17:00","-22.4","","-26.9","","67","","","","22","","6","","24.1","","97.83","","","","-28","","NA"
"-91.91","50.11","SIOUX LOOKOUT A","6037776","2019-01-16 18:00","2019","01","16","18:00","-21.7","","-25.9","","69","","","","23","","7","","24.1","","97.82","","","","-28","","Mostly Cloudy"
"-91.91","50.11","SIOUX LOOKOUT A","6037776","2019-01-16 19:00","2019","01","16","19:00","-21.6","","-26.0","","68","","","","24","","10","","24.1","","97.79","","","","-29","","NA"
"-91.91","50.11","SIOUX LOOKOUT A","6037776","2019-01-16 20:00","2019","01","16","20:00","-22.0","","-26.4","","68","","","","27","","8","","24.1","","97.77","","","","-29","","NA"
"-91.91","50.11","SIOUX LOOKOUT A","6037776","2019-01-16 21:00","2019","01","16","21:00","-24.4","","-27.8","","74","","","","26","","6","","24.1","","97.73","","","","-30","","Mainly Clear"
"-91.91","50.11","SIOUX LOOKOUT A","6037776","2019-01-16 22:00","2019","01","16","22:00","-24.1","","-27.0","","78","","","","21","","6","","24.1","","97.67","","","","-30","","NA"
"-91.91","50.11","SIOUX LOOKOUT A","6037776","2019-01-16 23:00","2019","01","16","23:00","-26.3","","-28.9","","79","","","","0","","1","","24.1","","97.67","","","","-27","","NA"
"-91.91","50.11","SIOUX LOOKOUT A","6037776","2019-01-17 00:00","2019","01","17","00:00","-25.6","","-27.9","","81","","","","20","","5","","24.1","","97.63","","","","-31","","Mostly Cloudy"
"-91.91","50.11","SIOUX LOOKOUT A","6037776","2019-01-17 01:00","2019","01","17","01:00","-24.0","","-26.7","","79","","","","36","","2","","24.1","","97.56","","","","-26","","NA"
"-91.91","50.11","SIOUX LOOKOUT A","6037776","2019-01-17 02:00","2019","01","17","02:00","-23.3","","-26.0","","79","","","","20","","3","","24.1","","97.54","","","","-26","","NA"
"-91.91","50.11","SIOUX LOOKOUT A","6037776","2019-01-17 03:00","2019","01","17","03:00","-22.8","","-25.6","","79","","","","18","","3","","24.1","","97.51","","","","-26","","Snow"
"-91.91","50.11","SIOUX LOOKOUT A","6037776","2019-01-17 04:00","2019","01","17","04:00","-22.9","","-25.3","","81","","","","22","","6","","19.3","","97.46","","","","-28","","Snow"
"-91.91","50.11","SIOUX LOOKOUT A","6037776","2019-01-17 05:00","2019","01","17","05:00","-21.8","","-24.9","","77","","","","25","","5","","19.3","","97.45","","","","-26","","Snow"
"-91.91","50.11","SIOUX LOOKOUT A","6037776","2019-01-17 06:00","2019","01","17","06:00","-21.4","","-24.6","","76","","","","23","","5","","19.3","","97.37","","","","-26","","Snow"
"-91.91","50.11","SIOUX LOOKOUT A","6037776","2019-01-17 07:00","2019","01","17","07:00","-21.2","","-24.3","","77","","","","29","","8","","9.7","","97.34","","","","-28","","Snow"
"-91.91","50.11","SIOUX LOOKOUT A","6037776","2019-01-17 08:00","2019","01","17","08:00","-21.1","","-24.0","","78","","","","28","","10","","4.8","","97.33","","","","-29","","Snow"
"-91.91","50.11","SIOUX LOOKOUT A","6037776","2019-01-17 09:00","2019","01","17","09:00","-20.8","","-23.8","","77","","","","28","","12","","6.4","","97.28","","","","-29","","Snow"
"-91.91","50.11","SIOUX LOOKOUT A","6037776","2019-01-17 10:00","2019","01","17","10:00","-20.2","","-23.7","","74","","","","29","","8","","24.1","","97.28","","","","-26","","NA"
"-91.91","50.11","SIOUX LOOKOUT A","6037776","2019-01-17 11:00","2019","01","17","11:00","-18.9","","-23.2","","70","","","","28","","16","","24.1","","97.25","","","","-28","","NA"
"-91.91","50.11","SIOUX LOOKOUT A","6037776","2019-01-17 12:00","2019","01","17","12:00","-17.9","","-22.7","","66","","","","30","","19","","24.1","","97.17","","","","-28","","Mainly Clear"
"-91.91","50.11","SIOUX LOOKOUT A","6037776","2019-01-17 13:00","2019","01","17","13:00","-16.7","","-22.1","","64","","","","29","","14","","24.1","","97.07","","","","-25","","NA"
"-91.91","50.11","SIOUX LOOKOUT A","6037776","2019-01-17 14:00","2019","01","17","14:00","-15.6","","-21.4","","62","","","","26","","9","","24.1","","97.01","","","","-22","","NA"
"-91.91","50.11","SIOUX LOOKOUT A","6037776","2019-01-17 15:00","2019","01","17","15:00","-15.3","","-21.4","","61","","","","26","","11","","24.1","","96.99","","","","-22","","Clear"
"-91.91","50.11","SIOUX LOOKOUT A","6037776","2019-01-17 16:00","2019","01","17","16:00","-16.2","","-21.5","","65","","","","26","","10","","24.1","","96.96","","","","-23","","NA"
"-91.91","50.11","SIOUX LOOKOUT A","6037776","2019-01-17 17:00","2019","01","17","17:00","-17.8","","-22.6","","66","","","","27","","10","","24.1","","96.98","","","","-25","","NA"
"-91.91","50.11","SIOUX LOOKOUT A","6037776","2019-01-17 18:00","2019","01","17","18:00","-18.4","","-22.6","","70","","","","28","","16","","24.1","","97.05","","","","-27","","Clear"
"-91.91","50.11","SIOUX LOOKOUT A","6037776","2019-01-17 19:00","2019","01","17","19:00","-19.3","","-23.0","","73","","","","29","","15","","24.1","","97.08","","","","-28","","NA"
"-91.91","50.11","SIOUX LOOKOUT A","6037776","2019-01-17 20:00","2019","01","17","20:00","-20.4","","-24.3","","72","","","","31","","21","","24.1","","97.10","","","","-31","","NA"
"-91.91","50.11","SIOUX LOOKOUT A","6037776","2019-01-17 21:00","2019","01","17","21:00","-21.9","","-25.7","","72","","","","31","","18","","24.1","","97.13","","","","-32","","Mainly Clear"
"-91.91","50.11","SIOUX LOOKOUT A","6037776","2019-01-17 22:00","2019","01","17","22:00","-23.6","","-27.1","","73","","","","33","","13","","24.1","","97.23","","","","-33","","Ice Crystals"
"-91.91","50.11","SIOUX LOOKOUT A","6037776","2019-01-17 23:00","2019","01","17","23:00","-24.8","","-28.2","","74","","","","32","","17","","24.1","","97.32","","","","-36","","Ice Crystals"
"-91.91","50.11","SIOUX LOOKOUT A","6037776","2019-01-18 00:00","2019","01","18","00:00","-26.1","","-29.4","","74","","","","34","","13","","24.1","","97.36","","","","-36","","Ice Crystals"
"-91.91","50.11","SIOUX LOOKOUT A","6037776","2019-01-18 01:00","2019","01","18","01:00","-27.9","","-31.1","","75","","","","34","","10","","19.3","","97.41","","","","-37","","Ice Crystals"
"-91.91","50.11","SIOUX LOOKOUT A","6037776","2019-01-18 02:00","2019","01","18","02:00","-28.9","","-31.9","","76","","","","32","","13","","24.1","","97.48","","","","-39","","NA"
"-91.91","50.11","SIOUX LOOKOUT A","6037776","2019-01-18 03:00","2019","01","18","03:00","-29.8","","-33.0","","75","","","","32","","9","","24.1","","97.57","","","","-38","","Clear"
"-91.91","50.11","SIOUX LOOKOUT A","6037776","2019-01-18 04:00","2019","01","18","04:00","-30.4","","-33.3","","77","","","","32","","13","","24.1","","97.63","","","","-41","","NA"
"-91.91","50.11","SIOUX LOOKOUT A","6037776","2019-01-18 05:00","2019","01","18","05:00","-31.1","","-34.1","","76","","","","33","","10","","24.1","","97.69","","","","-40","","NA"
"-91.91","50.11","SIOUX LOOKOUT A","6037776","2019-01-18 06:00","2019","01","18","06:00","-32.3","","-35.2","","76","","","","31","","9","","24.1","","97.78","","","","-41","","Clear"
"-91.91","50.11","SIOUX LOOKOUT A","6037776","2019-01-18 07:00","2019","01","18","07:00","-32.9","","-36.0","","75","","","","33","","8","","24.1","","97.85","","","","-41","","NA"
"-91.91","50.11","SIOUX LOOKOUT A","6037776","2019-01-18 08:00","2019","01","18","08:00","-35.6","","-38.9","","73","","","","31","","6","","24.1","","97.96","","","","-43","","NA"
"-91.91","50.11","SIOUX LOOKOUT A","6037776","2019-01-18 09:00","2019","01","18","09:00","-32.5","","-35.5","","75","","","","32","","9","","24.1","","98.04","","","","-42","","Mainly Clear"
"-91.91","50.11","SIOUX LOOKOUT A","6037776","2019-01-18 10:00","2019","01","18","10:00","-30.9","","-34.4","","72","","","","32","","12","","24.1","","98.16","","","","-41","","NA"
"-91.91","50.11","SIOUX LOOKOUT A","6037776","2019-01-18 11:00","2019","01","18","11:00","-29.9","","-34.4","","66","","","","29","","8","","24.1","","98.24","","","","-38","","NA"
"-91.91","50.11","SIOUX LOOKOUT A","6037776","2019-01-18 12:00","2019","01","18","12:00","-28.6","","-34.3","","59","","","","32","","5","","24.1","","98.24","","","","-34","","Mainly Clear"
"-91.91","50.11","SIOUX LOOKOUT A","6037776","2019-01-18 13:00","2019","01","18","13:00","-27.6","","-33.7","","57","","","","30","","12","","24.1","","98.25","","","","-37","","NA"
"-91.91","50.11","SIOUX LOOKOUT A","6037776","2019-01-18 14:00","2019","01","18","14:00","-26.5","","-33.0","","55","","","","32","","13","","24.1","","98.25","","","","-36","","NA"
"-91.91","50.11","SIOUX LOOKOUT A","6037776","2019-01-18 15:00","2019","01","18","15:00","-26.2","","-32.8","","54","","","","30","","6","","24.1","","98.28","","","","-32","","Mainly Clear"
"-91.91","50.11","SIOUX LOOKOUT A","6037776","2019-01-18 16:00","2019","01","18","16:00","-26.4","","-33.4","","53","","","","32","","12","","24.1","","98.28","","","","-36","","NA"
"-91.91","50.11","SIOUX LOOKOUT A","6037776","2019-01-18 17:00","2019","01","18","17:00","-30.4","","-34.6","","68","","","","27","","3","","24.1","","98.32","","","","-34","","NA"
"-91.91","50.11","SIOUX LOOKOUT A","6037776","2019-01-18 18:00","2019","01","18","18:00","-32.7","","-35.8","","75","","","","36","","1","","24.1","","98.35","","","","-34","","Mainly Clear"
"-91.91","50.11","SIOUX LOOKOUT A","6037776","2019-01-18 19:00","2019","01","18","19:00","-33.9","","-36.9","","75","","","","36","","2","","24.1","","98.33","","","","-36","","NA"
"-91.91","50.11","SIOUX LOOKOUT A","6037776","2019-01-18 20:00","2019","01","18","20:00","-35.5","","-38.8","","73","","","","36","","1","","24.1","","98.32","","","","-37","","NA"
"-91.91","50.11","SIOUX LOOKOUT A","6037776","2019-01-18 21:00","2019","01","18","21:00","-35.2","","-38.4","","74","","","","17","","5","","24.1","","98.29","","","","-42","","Clear"
"-91.91","50.11","SIOUX LOOKOUT A","6037776","2019-01-18 22:00","2019","01","18","22:00","-34.9","","-38.1","","73","","","","17","","5","","24.1","","98.32","","","","-41","","NA"
"-91.91","50.11","SIOUX LOOKOUT A","6037776","2019-01-18 23:00","2019","01","18","23:00","-36.7","","-40.1","","72","","","","17","","5","","24.1","","98.37","","","","-43","","NA"
"-91.91","50.11","SIOUX LOOKOUT A","6037776","2019-01-19 00:00","2019","01","19","00:00","-35.6","","-38.7","","74","","","","18","","4","","24.1","","98.38","","","","-41","","Clear"
"-91.91","50.11","SIOUX LOOKOUT A","6037776","2019-01-19 01:00","2019","01","19","01:00","-37.7","","-41.2","","71","","","","36","","1","","24.1","","98.37","","","","-39","","NA"
"-91.91","50.11","SIOUX LOOKOUT A","6037776","2019-01-19 02:00","2019","01","19","02:00","-38.6","","-42.2","","70","","","","0","","1","","24.1","","98.34","","","","-40","","NA"
"-91.91","50.11","SIOUX LOOKOUT A","6037776","2019-01-19 03:00","2019","01","19","03:00","-38.2","","-41.7","","71","","","","36","","2","","24.1","","98.32","","","","-41","","Clear"
"-91.91","50.11","SIOUX LOOKOUT A","6037776","2019-01-19 04:00","2019","01","19","04:00","-39.0","","-42.5","","70","","","","36","","1","","24.1","","98.27","","","","-40","","NA"
"-91.91","50.11","SIOUX LOOKOUT A","6037776","2019-01-19 05:00","2019","01","19","05:00","-38.3","","-41.7","","71","","","","18","","5","","24.1","","98.28","","","","-45","","NA"
"-91.91","50.11","SIOUX LOOKOUT A","6037776","2019-01-19 06:00","2019","01","19","06:00","-37.1","","-40.4","","72","","","","17","","4","","24.1","","98.25","","","","-42","","Clear"
"-91.91","50.11","SIOUX LOOKOUT A","6037776","2019-01-19 07:00","2019","01","19","07:00","-39.3","","-43.0","","69","","","","17","","5","","24.1","","98.23","","","","-46","","NA"
"-91.91","50.11","SIOUX LOOKOUT A","6037776","2019-01-19 08:00","2019","01","19","08:00","-39.7","","-43.3","","70","","","","17","","3","","24.1","","98.23","","","","-44","","NA"
"-91.91","50.11","SIOUX LOOKOUT A","6037776","2019-01-19 09:00","2019","01","19","09:00","-34.6","","-37.8","","74","","","","19","","5","","19.3","","98.25","","","","-41","","Ice Crystals"
"-91.91","50.11","SIOUX LOOKOUT A","6037776","2019-01-19 10:00","2019","01","19","10:00","-30.9","","-34.2","","74","","","","31","","7","","24.1","","98.25","","","","-38","","NA"
"-91.91","50.11","SIOUX LOOKOUT A","6037776","2019-01-19 11:00","2019","01","19","11:00","-28.8","","-32.4","","72","","","","28","","8","","24.1","","98.24","","","","-37","","NA"
"-91.91","50.11","SIOUX LOOKOUT A","6037776","2019-01-19 12:00","2019","01","19","12:00","-27.3","","-31.7","","67","","","","29","","7","","19.3","","98.14","","","","-34","","Ice Crystals"
"-91.91","50.11","SIOUX LOOKOUT A","6037776","2019-01-19 13:00","2019","01","19","13:00","-25.7","","-30.6","","64","","","","29","","9","","19.3","","98.09","","","","-33","","Ice Crystals"
"-91.91","50.11","SIOUX LOOKOUT A","6037776","2019-01-19 14:00","2019","01","19","14:00","-25.2","","-30.9","","60","","","","29","","11","","24.1","","98.08","","","","-34","","Ice Crystals"
"-91.91","50.11","SIOUX LOOKOUT A","6037776","2019-01-19 15:00","2019","01","19","15:00","-25.1","","-31.1","","58","","","","31","","17","","24.1","","98.12","","","","-36","","Mainly Clear"
"-91.91","50.11","SIOUX LOOKOUT A","6037776","2019-01-19 16:00","2019","01","19","16:00","-25.7","","-31.3","","61","","","","32","","14","","24.1","","98.16","","","","-36","","NA"
"-91.91","50.11","SIOUX LOOKOUT A","6037776","2019-01-19 17:00","2019","01","19","17:00","-28.6","","-32.5","","70","","","","32","","8","","24.1","","98.18","","","","-36","","NA"
"-91.91","50.11","SIOUX LOOKOUT A","6037776","2019-01-19 18:00","2019","01","19","18:00","-29.0","","-32.3","","74","","","","34","","7","","24.1","","98.22","","","","-36","","Clear"
"-91.91","50.11","SIOUX LOOKOUT A","6037776","2019-01-19 19:00","2019","01","19","19:00","-30.5","","-33.4","","77","","","","34","","7","","24.1","","98.24","","","","-38","","NA"
"-91.91","50.11","SIOUX LOOKOUT A","6037776","2019-01-19 20:00","2019","01","19","20:00","-32.5","","-35.3","","77","","","","35","","5","","24.1","","98.28","","","","-38","","NA"
"-91.91","50.11","SIOUX LOOKOUT A","6037776","2019-01-19 21:00","2019","01","19","21:00","-36.3","","-39.7","","72","","","","34","","5","","24.1","","98.28","","","","-43","","Clear"
"-91.91","50.11","SIOUX LOOKOUT A","6037776","2019-01-19 22:00","2019","01","19","22:00","-37.4","","-40.8","","71","","","","2","","3","","24.1","","98.31","","","","-41","","NA"
"-91.91","50.11","SIOUX LOOKOUT A","6037776","2019-01-19 23:00","2019","01","19","23:00","-36.7","","-40.0","","72","","","","36","","7","","24.1","","98.35","","","","-45","","NA"
"-91.91","50.11","SIOUX LOOKOUT A","6037776","2019-01-20 00:00","2019","01","20","00:00","-37.7","","-41.2","","71","","","","36","","1","","24.1","","98.42","","","","-39","","Clear"
"-91.91","50.11","SIOUX LOOKOUT A","6037776","2019-01-20 01:00","2019","01","20","01:00","-37.5","","-40.9","","71","","","","36","","2","","24.1","","98.47","","","","-40","","NA"
"-91.91","50.11","SIOUX LOOKOUT A","6037776","2019-01-20 02:00","2019","01","20","02:00","-37.4","","-41.0","","71","","","","36","","4","","24.1","","98.56","","","","-43","","NA"
"-91.91","50.11","SIOUX LOOKOUT A","6037776","2019-01-20 03:00","2019","01","20","03:00","-38.9","","-42.5","","70","","","","36","","4","","24.1","","98.55","","","","-44","","Clear"
"-91.91","50.11","SIOUX LOOKOUT A","6037776","2019-01-20 04:00","2019","01","20","04:00","-40.3","","-44.0","","69","","","","1","","4","","24.1","","98.59","","","","-46","","NA"
"-91.91","50.11","SIOUX LOOKOUT A","6037776","2019-01-20 05:00","2019","01","20","05:00","-40.0","","-43.6","","69","","","","4","","5","","24.1","","98.62","","","","-47","","NA"
"-91.91","50.11","SIOUX LOOKOUT A","6037776","2019-01-20 06:00","2019","01","20","06:00","-40.8","","-44.5","","68","","","","3","","3","","24.1","","98.64","","","","-45","","Clear"
"-91.91","50.11","SIOUX LOOKOUT A","6037776","2019-01-20 07:00","2019","01","20","07:00","-41.1","","-44.9","","68","","","","2","","3","","24.1","","98.66","","","","-45","","Ice Crystals"
"-91.91","50.11","SIOUX LOOKOUT A","6037776","2019-01-20 08:00","2019","01","20","08:00","-41.3","","-45.1","","68","","","","2","","4","","24.1","","98.72","","","","-47","","NA"
"-91.91","50.11","SIOUX LOOKOUT A","6037776","2019-01-20 09:00","2019","01","20","09:00","-38.3","","-41.9","","70","","","","35","","3","","24.1","","98.77","","","","-42","","Clear"
"-91.91","50.11","SIOUX LOOKOUT A","6037776","2019-01-20 10:00","2019","01","20","10:00","-33.0","","-36.3","","73","","","","36","","2","","24.1","","98.81","","","","-35","","NA"
"-91.91","50.11","SIOUX LOOKOUT A","6037776","2019-01-20 11:00","2019","01","20","11:00","-29.9","","-33.9","","69","","","","27","","4","","24.1","","98.81","","","","-34","","NA"
"-91.91","50.11","SIOUX LOOKOUT A","6037776","2019-01-20 12:00","2019","01","20","12:00","-28.6","","-33.4","","64","","","","36","","1","","24.1","","98.78","","","","-30","","Clear"
"-91.91","50.11","SIOUX LOOKOUT A","6037776","2019-01-20 13:00","2019","01","20","13:00","-26.7","","-32.5","","59","","","","36","","3","","24.1","","98.76","","","","-30","","NA"
"-91.91","50.11","SIOUX LOOKOUT A","6037776","2019-01-20 14:00","2019","01","20","14:00","-24.9","","-31.7","","54","","","","26","","3","","24.1","","98.71","","","","-28","","NA"
"-91.91","50.11","SIOUX LOOKOUT A","6037776","2019-01-20 15:00","2019","01","20","15:00","-24.1","","-31.7","","50","","","","23","","5","","24.1","","98.68","","","","-29","","Clear"
"-91.91","50.11","SIOUX LOOKOUT A","6037776","2019-01-20 16:00","2019","01","20","16:00","-24.5","","-31.7","","52","","","","17","","4","","24.1","","98.64","","","","-28","","NA"
"-91.91","50.11","SIOUX LOOKOUT A","6037776","2019-01-20 17:00","2019","01","20","17:00","-29.0","","-33.3","","67","","","","36","","1","","24.1","","98.62","","","","-30","","NA"
"-91.91","50.11","SIOUX LOOKOUT A","6037776","2019-01-20 18:00","2019","01","20","18:00","-31.7","","-34.7","","76","","","","36","","1","","24.1","","98.57","","","","-33","","Clear"
"-91.91","50.11","SIOUX LOOKOUT A","6037776","2019-01-20 19:00","2019","01","20","19:00","-32.9","","-35.8","","76","","","","15","","5","","24.1","","98.50","","","","-39","","NA"
"-91.91","50.11","SIOUX LOOKOUT A","6037776","2019-01-20 20:00","2019","01","20","20:00","-32.5","","-35.4","","76","","","","19","","4","","24.1","","98.46","","","","-37","","NA"
"-91.91","50.11","SIOUX LOOKOUT A","6037776","2019-01-20 21:00","2019","01","20","21:00","-32.1","","-35.2","","75","","","","16","","8","","24.1","","98.43","","","","-40","","Clear"
"-91.91","50.11","SIOUX LOOKOUT A","6037776","2019-01-20 22:00","2019","01","20","22:00","-31.7","","-34.8","","75","","","","16","","5","","24.1","","98.42","","","","-38","","NA"
"-91.91","50.11","SIOUX LOOKOUT A","6037776","2019-01-20 23:00","2019","01","20","23:00","-29.0","","-31.8","","77","","","","14","","12","","24.1","","98.32","","","","-39","","NA"
"-91.91","50.11","SIOUX LOOKOUT A","6037776","2019-01-21 00:00","2019","01","21","00:00","-31.2","","-34.4","","74","","","","16","","8","","24.1","","98.27","","","","-39","","Clear"
"-91.91","50.11","SIOUX LOOKOUT A","6037776","2019-01-21 01:00","2019","01","21","01:00","-31.8","","-34.8","","75","","","","18","","7","","24.1","","98.25","","","","-39","","NA"
"-91.91","50.11","SIOUX LOOKOUT A","6037776","2019-01-21 02:00","2019","01","21","02:00","-30.3","","-33.5","","74","","","","16","","10","","24.1","","98.19","","","","-40","","NA"
"-91.91","50.11","SIOUX LOOKOUT A","6037776","2019-01-21 03:00","2019","01","21","03:00","-29.4","","-32.7","","73","","","","17","","10","","24.1","","98.15","","","","-38","","Clear"
"-91.91","50.11","SIOUX LOOKOUT A","6037776","2019-01-21 04:00","2019","01","21","04:00","-29.4","","-32.9","","72","","","","14","","9","","24.1","","98.10","","","","-38","","NA"
"-91.91","50.11","SIOUX LOOKOUT A","6037776","2019-01-21 05:00","2019","01","21","05:00","-29.4","","-32.8","","73","","","","14","","10","","24.1","","98.06","","","","-38","","NA"
"-91.91","50.11","SIOUX LOOKOUT A","6037776","2019-01-21 06:00","2019","01","21","06:00","-29.4","","-32.4","","76","","","","17","","10","","24.1","","98.02","","","","-38","","Clear"
"-91.91","50.11","SIOUX LOOKOUT A","6037776","2019-01-21 07:00","2019","01","21","07:00","-27.9","","-30.5","","79","","","","16","","9","","19.3","","97.97","","","","-36","","Snow"
"-91.91","50.11","SIOUX LOOKOUT A","6037776","2019-01-21 08:00","2019","01","21","08:00","-26.6","","-29.0","","80","","","","15","","10","","24.1","","97.90","","","","-35","","NA"
"-91.91","50.11","SIOUX LOOKOUT A","6037776","2019-01-21 09:00","2019","01","21","09:00","-23.1","","-25.4","","82","","","","16","","8","","24.1","","97.83","","","","-30","","Mainly Clear"
"-91.91","50.11","SIOUX LOOKOUT A","6037776","2019-01-21 10:00","2019","01","21","10:00","-19.8","","-22.5","","79","","","","17","","12","","24.1","","97.80","","","","-28","","NA"
"-91.91","50.11","SIOUX LOOKOUT A","6037776","2019-01-21 11:00","2019","01","21","11:00","-15.9","","-21.2","","64","","","","18","","17","","24.1","","97.73","","","","-25","","NA"
"-91.91","50.11","SIOUX LOOKOUT A","6037776","2019-01-21 12:00","2019","01","21","12:00","-15.1","","-21.4","","60","","","","20","","15","","24.1","","97.67","","","","-23","","Mostly Cloudy"
"-91.91","50.11","SIOUX LOOKOUT A","6037776","2019-01-21 13:00","2019","01","21","13:00","-14.8","","-21.1","","59","","","","18","","14","","24.1","","97.60","","","","-22","","NA"
"-91.91","50.11","SIOUX LOOKOUT A","6037776","2019-01-21 14:00","2019","01","21","14:00","-14.2","","-21.4","","55","","","","18","","17","","24.1","","97.54","","","","-22","","NA"
"-91.91","50.11","SIOUX LOOKOUT A","6037776","2019-01-21 15:00","2019","01","21","15:00","-13.8","","-21.1","","54","","","","19","","20","","24.1","","97.51","","","","-23","","Cloudy"
"-91.91","50.11","SIOUX LOOKOUT A","6037776","2019-01-21 16:00","2019","01","21","16:00","-13.5","","-20.7","","55","","","","19","","12","","24.1","","97.47","","","","-20","","Snow"
"-91.91","50.11","SIOUX LOOKOUT A","6037776","2019-01-21 17:00","2019","01","21","17:00","-13.5","","-20.3","","57","","","","19","","15","","24.1","","97.43","","","","-21","","Snow"
"-91.91","50.11","SIOUX LOOKOUT A","6037776","2019-01-21 18:00","2019","01","21","18:00","-13.5","","-19.8","","59","","","","19","","14","","24.1","","97.37","","","","-21","","Snow"
"-91.91","50.11","SIOUX LOOKOUT A","6037776","2019-01-21 19:00","2019","01","21","19:00","-13.3","","-19.7","","59","","","","20","","12","","24.1","","97.40","","","","-20","","Snow"
"-91.91","50.11","SIOUX LOOKOUT A","6037776","2019-01-21 20:00","2019","01","21","20:00","-13.1","","-19.1","","61","","","","19","","10","","24.1","","97.37","","","","-19","","Snow"
"-91.91","50.11","SIOUX LOOKOUT A","6037776","2019-01-21 21:00","2019","01","21","21:00","-12.7","","-18.6","","62","","","","20","","14","","24.1","","97.34","","","","-20","","Snow"
"-91.91","50.11","SIOUX LOOKOUT A","6037776","2019-01-21 22:00","2019","01","21","22:00","-12.6","","-17.3","","68","","","","21","","13","","16.1","","97.36","","","","-19","","Snow"
"-91.91","50.11","SIOUX LOOKOUT A","6037776","2019-01-21 23:00","2019","01","21","23:00","-12.4","","-17.0","","69","","","","20","","13","","24.1","","97.34","","","","-19","","Snow"
"-91.91","50.11","SIOUX LOOKOUT A","6037776","2019-01-22 00:00","2019","01","22","00:00","-12.3","","-16.3","","73","","","","21","","14","","24.1","","97.35","","","","-19","","Snow"
"-91.91","50.11","SIOUX LOOKOUT A","6037776","2019-01-22 01:00","2019","01","22","01:00","-12.4","","-15.9","","75","","","","21","","13","","24.1","","97.34","","","","-19","","Snow"
"-91.91","50.11","SIOUX LOOKOUT A","6037776","2019-01-22 02:00","2019","01","22","02:00","-12.4","","-15.6","","77","","","","21","","8","","24.1","","97.34","","","","-17","","Snow"
"-91.91","50.11","SIOUX LOOKOUT A","6037776","2019-01-22 03:00","2019","01","22","03:00","-12.7","","-15.1","","82","","","","21","","10","","4.8","","97.30","","","","-18","","Snow"
"-91.91","50.11","SIOUX LOOKOUT A","6037776","2019-01-22 04:00","2019","01","22","04:00","-12.9","","-14.7","","87","","","","18","","7","","4.8","","97.21","","","","-17","","Snow"
"-91.91","50.11","SIOUX LOOKOUT A","6037776","2019-01-22 05:00","2019","01","22","05:00","-12.9","","-14.7","","87","","","","18","","8","","4.8","","97.15","","","","-18","","Snow"
"-91.91","50.11","SIOUX LOOKOUT A","6037776","2019-01-22 06:00","2019","01","22","06:00","-12.9","","-14.5","","88","","","","17","","5","","4.8","","97.12","","","","-16","","Snow"
"-91.91","50.11","SIOUX LOOKOUT A","6037776","2019-01-22 07:00","2019","01","22","07:00","-12.9","","-14.4","","88","","","","19","","4","","4.8","","97.08","","","","-16","","Snow"
"-91.91","50.11","SIOUX LOOKOUT A","6037776","2019-01-22 08:00","2019","01","22","08:00","-12.8","","-14.4","","88","","","","21","","7","","3.2","","97.07","","","","-17","","Snow"
"-91.91","50.11","SIOUX LOOKOUT A","6037776","2019-01-22 09:00","2019","01","22","09:00","-12.6","","-14.6","","85","","","","25","","4","","4.0","","97.03","","","","-15","","Snow"
"-91.91","50.11","SIOUX LOOKOUT A","6037776","2019-01-22 10:00","2019","01","22","10:00","-12.2","","-14.5","","83","","","","26","","7","","3.2","","97.01","","","","-17","","Snow"
"-91.91","50.11","SIOUX LOOKOUT A","6037776","2019-01-22 11:00","2019","01","22","11:00","-11.9","","-15.0","","78","","","","31","","10","","3.2","","97.00","","","","-18","","Snow"
"-91.91","50.11","SIOUX LOOKOUT A","6037776","2019-01-22 12:00","2019","01","22","12:00","-11.4","","-15.0","","75","","","","36","","2","","24.1","","96.92","","","","-13","","Snow"
"-91.91","50.11","SIOUX LOOKOUT A","6037776","2019-01-22 13:00","2019","01","22","13:00","-11.0","","-14.2","","78","","","","30","","9","","6.4","","96.90","","","","-16","","Snow"
"-91.91","50.11","SIOUX LOOKOUT A","6037776","2019-01-22 14:00","2019","01","22","14:00","-11.2","","-14.1","","79","","","","30","","9","","4.8","","96.85","","","","-16","","Snow"
"-91.91","50.11","SIOUX LOOKOUT A","6037776","2019-01-22 15:00","2019","01","22","15:00","-11.0","","-13.6","","81","","","","31","","10","","4.8","","96.84","","","","-16","","Snow"
"-91.91","50.11","SIOUX LOOKOUT A","6037776","2019-01-22 16:00","2019","01","22","16:00","-11.1","","-13.7","","82","","","","31","","9","","9.7","","96.82","","","","-16","","Snow"
"-91.91","50.11","SIOUX LOOKOUT A","6037776","2019-01-22 17:00","2019","01","22","17:00","-11.3","","-13.5","","84","","","","29","","7","","16.1","","96.84","","","","-16","","Snow"
"-91.91","50.11","SIOUX LOOKOUT A","6037776","2019-01-22 18:00","2019","01","22","18:00","-11.3","","-13.2","","86","","","","28","","5","","16.1","","96.82","","","","-14","","Snow"
"-91.91","50.11","SIOUX LOOKOUT A","6037776","2019-01-22 19:00","2019","01","22","19:00","-11.4","","-13.1","","88","","","","25","","5","","16.1","","96.81","","","","-15","","Snow"
"-91.91","50.11","SIOUX LOOKOUT A","6037776","2019-01-22 20:00","2019","01","22","20:00","-11.5","","-13.1","","88","","","","29","","7","","19.3","","96.82","","","","-16","","Snow"
"-91.91","50.11","SIOUX LOOKOUT A","6037776","2019-01-22 21:00","2019","01","22","21:00","-11.4","","-13.2","","87","","","","29","","7","","19.3","","96.80","","","","-16","","Snow"
"-91.91","50.11","SIOUX LOOKOUT A","6037776","2019-01-22 22:00","2019","01","22","22:00","-11.6","","-13.3","","87","","","","29","","7","","19.3","","96.76","","","","-16","","Snow"
"-91.91","50.11","SIOUX LOOKOUT A","6037776","2019-01-22 23:00","2019","01","22","23:00","-11.6","","-13.4","","86","","","","30","","7","","24.1","","96.79","","","","-16","","Snow"
"-91.91","50.11","SIOUX LOOKOUT A","6037776","2019-01-23 00:00","2019","01","23","00:00","-11.7","","-13.7","","86","","","","30","","10","","19.3","","96.81","","","","-17","","Snow"
"-91.91","50.11","SIOUX LOOKOUT A","6037776","2019-01-23 01:00","2019","01","23","01:00","-11.9","","-13.8","","86","","","","29","","4","","19.3","","96.79","","","","-14","","Snow"
"-91.91","50.11","SIOUX LOOKOUT A","6037776","2019-01-23 02:00","2019","01","23","02:00","-12.3","","-14.4","","85","","","","30","","8","","19.3","","96.76","","","","-17","","Snow"
"-91.91","50.11","SIOUX LOOKOUT A","6037776","2019-01-23 03:00","2019","01","23","03:00","-13.2","","-15.2","","85","","","","31","","5","","24.1","","96.72","","","","-17","","Snow"
"-91.91","50.11","SIOUX LOOKOUT A","6037776","2019-01-23 04:00","2019","01","23","04:00","-13.2","","-14.9","","87","","","","30","","4","","24.1","","96.64","","","","-16","","Snow"
"-91.91","50.11","SIOUX LOOKOUT A","6037776","2019-01-23 05:00","2019","01","23","05:00","-13.4","","-15.3","","86","","","","32","","6","","24.1","","96.56","","","","-17","","Snow"
"-91.91","50.11","SIOUX LOOKOUT A","6037776","2019-01-23 06:00","2019","01","23","06:00","-13.5","","-15.3","","87","","","","33","","5","","24.1","","96.58","","","","-17","","Snow"
"-91.91","50.11","SIOUX LOOKOUT A","6037776","2019-01-23 07:00","2019","01","23","07:00","-13.5","","-15.2","","87","","","","31","","7","","24.1","","96.54","","","","-18","","Snow"
"-91.91","50.11","SIOUX LOOKOUT A","6037776","2019-01-23 08:00","2019","01","23","08:00","-13.9","","-15.4","","88","","","","29","","4","","16.1","","96.54","","","","-17","","Snow"
"-91.91","50.11","SIOUX LOOKOUT A","6037776","2019-01-23 09:00","2019","01","23","09:00","-13.2","","-15.9","","80","","","","21","","4","","16.1","","96.54","","","","-16","","Snow"
"-91.91","50.11","SIOUX LOOKOUT A","6037776","2019-01-23 10:00","2019","01","23","10:00","-13.1","","-16.2","","78","","","","18","","4","","4.8","","96.53","","","","-16","","Snow,Fog"
"-91.91","50.11","SIOUX LOOKOUT A","6037776","2019-01-23 11:00","2019","01","23","11:00","-13.0","","-16.6","","75","","","","26","","4","","16.1","","96.46","","","","-16","","NA"
"-91.91","50.11","SIOUX LOOKOUT A","6037776","2019-01-23 12:00","2019","01","23","12:00","-12.3","","-16.6","","71","","","","25","","6","","24.1","","96.36","","","","-16","","Cloudy"
"-91.91","50.11","SIOUX LOOKOUT A","6037776","2019-01-23 13:00","2019","01","23","13:00","-11.8","","-16.2","","70","","","","24","","7","","24.1","","96.25","","","","-16","","NA"
"-91.91","50.11","SIOUX LOOKOUT A","6037776","2019-01-23 14:00","2019","01","23","14:00","-11.5","","-15.9","","70","","","","24","","8","","24.1","","96.18","","","","-16","","NA"
"-91.91","50.11","SIOUX LOOKOUT A","6037776","2019-01-23 15:00","2019","01","23","15:00","-11.5","","-15.9","","70","","","","22","","9","","24.1","","96.17","","","","-17","","Cloudy"
"-91.91","50.11","SIOUX LOOKOUT A","6037776","2019-01-23 16:00","2019","01","23","16:00","-11.5","","-15.4","","73","","","","20","","7","","4.8","","96.17","","","","-16","","Snow"
"-91.91","50.11","SIOUX LOOKOUT A","6037776","2019-01-23 17:00","2019","01","23","17:00","-12.1","","-14.8","","80","","","","18","","3","","16.1","","96.16","","","","-14","","Snow"
"-91.91","50.11","SIOUX LOOKOUT A","6037776","2019-01-23 18:00","2019","01","23","18:00","-12.6","","-14.4","","86","","","","17","","4","","9.7","","96.16","","","","-15","","Snow"
"-91.91","50.11","SIOUX LOOKOUT A","6037776","2019-01-23 19:00","2019","01","23","19:00","-12.6","","-14.3","","88","","","","36","","3","","16.1","","96.13","","","","-15","","Snow"
"-91.91","50.11","SIOUX LOOKOUT A","6037776","2019-01-23 20:00","2019","01","23","20:00","-12.3","","-13.9","","88","","","","18","","5","","4.8","","96.08","","","","-16","","Snow"
"-91.91","50.11","SIOUX LOOKOUT A","6037776","2019-01-23 21:00","2019","01","23","21:00","-12.1","","-13.7","","88","","","","36","","2","","3.2","","96.11","","","","-13","","Snow"
"-91.91","50.11","SIOUX LOOKOUT A","6037776","2019-01-23 22:00","2019","01","23","22:00","-12.3","","-13.7","","89","","","","36","","4","","4.0","","96.11","","","","-15","","Snow"
"-91.91","50.11","SIOUX LOOKOUT A","6037776","2019-01-23 23:00","2019","01","23","23:00","-12.7","","-14.0","","90","","","","35","","4","","4.0","","96.10","","","","-15","","Snow"
"-91.91","50.11","SIOUX LOOKOUT A","6037776","2019-01-24 00:00","2019","01","24","00:00","-12.7","","-14.1","","90","","","","34","","6","","4.8","","96.14","","","","-17","","Snow"
"-91.91","50.11","SIOUX LOOKOUT A","6037776","2019-01-24 01:00","2019","01","24","01:00","-12.9","","-14.7","","87","","","","35","","10","","4.8","","96.18","","","","-19","","Snow,Blowing Snow"
"-91.91","50.11","SIOUX LOOKOUT A","6037776","2019-01-24 02:00","2019","01","24","02:00","-14.4","","-16.7","","83","","","","35","","20","","4.8","","96.26","","","","-23","","Snow,Blowing Snow"
"-91.91","50.11","SIOUX LOOKOUT A","6037776","2019-01-24 03:00","2019","01","24","03:00","-16.3","","-18.9","","80","","","","35","","18","","4.8","","96.35","","","","-25","","Snow,Blowing Snow"
"-91.91","50.11","SIOUX LOOKOUT A","6037776","2019-01-24 04:00","2019","01","24","04:00","-18.5","","-21.1","","80","","","","34","","19","","19.3","","96.47","","","","-28","","Snow,Blowing Snow"
"-91.91","50.11","SIOUX LOOKOUT A","6037776","2019-01-24 05:00","2019","01","24","05:00","-19.4","","-22.2","","78","","","","35","","16","","19.3","","96.59","","","","-29","","Snow,Blowing Snow"
"-91.91","50.11","SIOUX LOOKOUT A","6037776","2019-01-24 06:00","2019","01","24","06:00","-20.5","","-23.9","","75","","","","34","","26","","16.1","","96.71","","","","-32","","Snow,Blowing Snow"
"-91.91","50.11","SIOUX LOOKOUT A","6037776","2019-01-24 07:00","2019","01","24","07:00","-21.3","","-24.5","","76","","","","36","","16","","9.7","","96.82","","","","-31","","Snow,Blowing Snow"
"-91.91","50.11","SIOUX LOOKOUT A","6037776","2019-01-24 08:00","2019","01","24","08:00","-22.5","","-25.9","","74","","","","36","","14","","9.7","","96.92","","","","-32","","Snow,Blowing Snow"
"-91.91","50.11","SIOUX LOOKOUT A","6037776","2019-01-24 09:00","2019","01","24","09:00","-22.4","","-26.1","","72","","","","35","","14","","6.4","","96.96","","","","-32","","Snow,Fog,Blowing Snow"
"-91.91","50.11","SIOUX LOOKOUT A","6037776","2019-01-24 10:00","2019","01","24","10:00","-23.0","","-27.0","","71","","","","34","","16","","12.9","","97.02","","","","-33","","Snow,Blowing Snow"
"-91.91","50.11","SIOUX LOOKOUT A","6037776","2019-01-24 11:00","2019","01","24","11:00","-23.6","","-28.4","","66","","","","33","","23","","16.1","","97.08","","","","-36","","Ice Crystals,Blowing Snow"
"-91.91","50.11","SIOUX LOOKOUT A","6037776","2019-01-24 12:00","2019","01","24","12:00","-23.6","","-28.9","","62","","","","35","","12","","24.1","","97.07","","","","-32","","Ice Crystals,Blowing Snow"
"-91.91","50.11","SIOUX LOOKOUT A","6037776","2019-01-24 13:00","2019","01","24","13:00","-23.0","","-28.8","","60","","","","34","","14","","16.1","","97.04","","","","-32","","Ice Crystals,Blowing Snow"
"-91.91","50.11","SIOUX LOOKOUT A","6037776","2019-01-24 14:00","2019","01","24","14:00","-23.4","","-28.7","","62","","","","33","","18","","9.7","","97.01","","","","-34","","Ice Crystals,Blowing Snow"
"-91.91","50.11","SIOUX LOOKOUT A","6037776","2019-01-24 15:00","2019","01","24","15:00","-23.9","","-29.4","","62","","","","33","","18","","9.7","","97.01","","","","-35","","Ice Crystals,Blowing Snow"
"-91.91","50.11","SIOUX LOOKOUT A","6037776","2019-01-24 16:00","2019","01","24","16:00","-24.9","","-29.6","","66","","","","30","","19","","24.1","","97.06","","","","-36","","Ice Crystals"
"-91.91","50.11","SIOUX LOOKOUT A","6037776","2019-01-24 17:00","2019","01","24","17:00","-26.4","","-30.5","","69","","","","31","","16","","24.1","","97.10","","","","-37","","NA"
"-91.91","50.11","SIOUX LOOKOUT A","6037776","2019-01-24 18:00","2019","01","24","18:00","-27.5","","-31.3","","71","","","","32","","11","","24.1","","97.12","","","","-37","","Mainly Clear"
"-91.91","50.11","SIOUX LOOKOUT A","6037776","2019-01-24 19:00","2019","01","24","19:00","-28.7","","-32.1","","73","","","","33","","7","","19.3","","97.13","","","","-36","","Ice Crystals"
"-91.91","50.11","SIOUX LOOKOUT A","6037776","2019-01-24 20:00","2019","01","24","20:00","-32.1","","-35.0","","76","","","","30","","4","","24.1","","97.09","","","","-37","","NA"
"-91.91","50.11","SIOUX LOOKOUT A","6037776","2019-01-24 21:00","2019","01","24","21:00","-32.5","","-35.5","","76","","","","34","","4","","24.1","","97.08","","","","-37","","Mainly Clear"
"-91.91","50.11","SIOUX LOOKOUT A","6037776","2019-01-24 22:00","2019","01","24","22:00","-33.2","","-36.2","","75","","","","34","","3","","16.1","","97.07","","","","-37","","Ice Crystals"
"-91.91","50.11","SIOUX LOOKOUT A","6037776","2019-01-24 23:00","2019","01","24","23:00","-32.3","","-35.3","","75","","","","36","","2","","16.1","","97.06","","","","-35","","Ice Crystals"
"-91.91","50.11","SIOUX LOOKOUT A","6037776","2019-01-25 00:00","2019","01","25","00:00","-31.5","","-34.6","","75","","","","33","","4","","19.3","","97.04","","","","-36","","Ice Crystals"
"-91.91","50.11","SIOUX LOOKOUT A","6037776","2019-01-25 01:00","2019","01","25","01:00","-32.8","","-35.9","","75","","","","33","","5","","19.3","","97.02","","","","-39","","Ice Crystals"
"-91.91","50.11","SIOUX LOOKOUT A","6037776","2019-01-25 02:00","2019","01","25","02:00","-34.9","","-38.2","","73","","","","36","","2","","24.1","","97.02","","","","-37","","Ice Crystals"
"-91.91","50.11","SIOUX LOOKOUT A","6037776","2019-01-25 03:00","2019","01","25","03:00","-37.0","","-40.4","","71","","","","33","","3","","24.1","","97.01","","","","-41","","Ice Crystals"
"-91.91","50.11","SIOUX LOOKOUT A","6037776","2019-01-25 04:00","2019","01","25","04:00","-37.8","","-41.2","","71","","","","35","","3","","24.1","","96.99","","","","-42","","Ice Crystals"
"-91.91","50.11","SIOUX LOOKOUT A","6037776","2019-01-25 05:00","2019","01","25","05:00","-39.0","","-42.6","","70","","","","1","","3","","24.1","","97.01","","","","-43","","Ice Crystals"
"-91.91","50.11","SIOUX LOOKOUT A","6037776","2019-01-25 06:00","2019","01","25","06:00","-39.8","","-43.4","","70","","","","35","","5","","24.1","","97.06","","","","-47","","Ice Crystals"
"-91.91","50.11","SIOUX LOOKOUT A","6037776","2019-01-25 07:00","2019","01","25","07:00","-40.7","","-44.3","","69","","","","35","","3","","24.1","","97.12","","","","-45","","NA"
"-91.91","50.11","SIOUX LOOKOUT A","6037776","2019-01-25 08:00","2019","01","25","08:00","-40.9","","-44.6","","69","","","","1","","3","","24.1","","97.19","","","","-45","","Ice Crystals"
"-91.91","50.11","SIOUX LOOKOUT A","6037776","2019-01-25 09:00","2019","01","25","09:00","-36.1","","-39.4","","73","","","","35","","3","","24.1","","97.21","","","","-40","","Clear"
"-91.91","50.11","SIOUX LOOKOUT A","6037776","2019-01-25 10:00","2019","01","25","10:00","-32.4","","-35.7","","73","","","","33","","6","","24.1","","97.22","","","","-39","","NA"
"-91.91","50.11","SIOUX LOOKOUT A","6037776","2019-01-25 11:00","2019","01","25","11:00","-30.2","","-34.0","","70","","","","30","","9","","24.1","","97.26","","","","-39","","NA"
"-91.91","50.11","SIOUX LOOKOUT A","6037776","2019-01-25 12:00","2019","01","25","12:00","-28.5","","-33.3","","64","","","","33","","9","","24.1","","97.25","","","","-37","","Clear"
"-91.91","50.11","SIOUX LOOKOUT A","6037776","2019-01-25 13:00","2019","01","25","13:00","-27.9","","-33.6","","59","","","","30","","14","","24.1","","97.24","","","","-38","","NA"
"-91.91","50.11","SIOUX LOOKOUT A","6037776","2019-01-25 14:00","2019","01","25","14:00","-27.2","","-33.1","","58","","","","30","","14","","24.1","","97.26","","","","-38","","NA"
"-91.91","50.11","SIOUX LOOKOUT A","6037776","2019-01-25 15:00","2019","01","25","15:00","-26.8","","-33.2","","56","","","","30","","15","","24.1","","97.26","","","","-37","","Clear"
"-91.91","50.11","SIOUX LOOKOUT A","6037776","2019-01-25 16:00","2019","01","25","16:00","-27.0","","-32.8","","59","","","","31","","10","","24.1","","97.24","","","","-36","","NA"
"-91.91","50.11","SIOUX LOOKOUT A","6037776","2019-01-25 17:00","2019","01","25","17:00","-30.2","","-34.1","","70","","","","27","","4","","24.1","","97.23","","","","-35","","NA"
"-91.91","50.11","SIOUX LOOKOUT A","6037776","2019-01-25 18:00","2019","01","25","18:00","-32.0","","-35.0","","76","","","","28","","4","","24.1","","97.19","","","","-37","","Clear"
"-91.91","50.11","SIOUX LOOKOUT A","6037776","2019-01-25 19:00","2019","01","25","19:00","-32.7","","-35.9","","74","","","","20","","5","","24.1","","97.17","","","","-39","","NA"
"-91.91","50.11","SIOUX LOOKOUT A","6037776","2019-01-25 20:00","2019","01","25","20:00","-30.4","","-33.7","","74","","","","26","","5","","24.1","","97.12","","","","-36","","NA"
"-91.91","50.11","SIOUX LOOKOUT A","6037776","2019-01-25 21:00","2019","01","25","21:00","-30.9","","-34.0","","75","","","","21","","4","","24.1","","97.06","","","","-35","","Mainly Clear"
"-91.91","50.11","SIOUX LOOKOUT A","6037776","2019-01-25 22:00","2019","01","25","22:00","-31.2","","-34.2","","76","","","","20","","7","","24.1","","97.00","","","","-39","","NA"
"-91.91","50.11","SIOUX LOOKOUT A","6037776","2019-01-25 23:00","2019","01","25","23:00","-31.1","","-34.1","","76","","","","22","","7","","24.1","","96.99","","","","-39","","NA"
"-91.91","50.11","SIOUX LOOKOUT A","6037776","2019-01-26 00:00","2019","01","26","00:00","-30.2","","-33.3","","75","","","","23","","8","","24.1","","96.98","","","","-38","","Cloudy"
"-91.91","50.11","SIOUX LOOKOUT A","6037776","2019-01-26 01:00","2019","01","26","01:00","-30.7","","-33.8","","75","","","","18","","7","","24.1","","96.89","","","","-38","","NA"
"-91.91","50.11","SIOUX LOOKOUT A","6037776","2019-01-26 02:00","2019","01","26","02:00","-30.7","","-33.7","","76","","","","20","","7","","24.1","","96.83","","","","-38","","NA"
"-91.91","50.11","SIOUX LOOKOUT A","6037776","2019-01-26 03:00","2019","01","26","03:00","-30.3","","-33.3","","76","","","","22","","8","","24.1","","96.73","","","","-38","","Cloudy"
"-91.91","50.11","SIOUX LOOKOUT A","6037776","2019-01-26 04:00","2019","01","26","04:00","-30.5","","-33.6","","75","","","","24","","7","","24.1","","96.68","","","","-38","","Ice Crystals"
"-91.91","50.11","SIOUX LOOKOUT A","6037776","2019-01-26 05:00","2019","01","26","05:00","-30.5","","-33.5","","75","","","","21","","5","","24.1","","96.64","","","","-36","","Snow"
"-91.91","50.11","SIOUX LOOKOUT A","6037776","2019-01-26 06:00","2019","01","26","06:00","-30.6","","-33.7","","75","","","","36","","2","","8.1","","96.62","","","","-33","","Snow"
"-91.91","50.11","SIOUX LOOKOUT A","6037776","2019-01-26 07:00","2019","01","26","07:00","-31.2","","-34.4","","74","","","","36","","2","","16.1","","96.62","","","","-34","","Snow"
"-91.91","50.11","SIOUX LOOKOUT A","6037776","2019-01-26 08:00","2019","01","26","08:00","-33.3","","-36.5","","73","","","","36","","2","","19.3","","96.62","","","","-36","","Snow"
"-91.91","50.11","SIOUX LOOKOUT A","6037776","2019-01-26 09:00","2019","01","26","09:00","-31.0","","-34.0","","76","","","","28","","3","","4.8","","96.59","","","","-34","","Snow,Ice Crystals"
"-91.91","50.11","SIOUX LOOKOUT A","6037776","2019-01-26 10:00","2019","01","26","10:00","-28.8","","-32.1","","74","","","","33","","10","","9.7","","96.62","","","","-38","","Snow,Ice Crystals"
"-91.91","50.11","SIOUX LOOKOUT A","6037776","2019-01-26 11:00","2019","01","26","11:00","-27.4","","-31.6","","69","","","","34","","12","","19.3","","96.66","","","","-37","","Ice Crystals"
"-91.91","50.11","SIOUX LOOKOUT A","6037776","2019-01-26 12:00","2019","01","26","12:00","-26.8","","-32.0","","63","","","","33","","18","","19.3","","96.67","","","","-38","","Ice Crystals"
"-91.91","50.11","SIOUX LOOKOUT A","6037776","2019-01-26 13:00","2019","01","26","13:00","-25.6","","-31.6","","58","","","","36","","7","","19.3","","96.71","","","","-32","","Ice Crystals"
"-91.91","50.11","SIOUX LOOKOUT A","6037776","2019-01-26 14:00","2019","01","26","14:00","-25.5","","-31.7","","57","","","","35","","12","","16.1","","96.75","","","","-35","","Ice Crystals"
"-91.91","50.11","SIOUX LOOKOUT A","6037776","2019-01-26 15:00","2019","01","26","15:00","-25.8","","-31.5","","60","","","","35","","12","","19.3","","96.80","","","","-35","","Ice Crystals"
"-91.91","50.11","SIOUX LOOKOUT A","6037776","2019-01-26 16:00","2019","01","26","16:00","-26.2","","-32.9","","54","","","","32","","20","","19.3","","96.86","","","","-38","","Ice Crystals"
"-91.91","50.11","SIOUX LOOKOUT A","6037776","2019-01-26 17:00","2019","01","26","17:00","-28.1","","-33.5","","61","","","","33","","9","","24.1","","96.95","","","","-36","","NA"
"-91.91","50.11","SIOUX LOOKOUT A","6037776","2019-01-26 18:00","2019","01","26","18:00","-29.5","","-34.2","","65","","","","35","","7","","24.1","","97.02","","","","-37","","Clear"
"-91.91","50.11","SIOUX LOOKOUT A","6037776","2019-01-26 19:00","2019","01","26","19:00","-32.8","","-35.9","","74","","","","33","","5","","24.1","","97.09","","","","-39","","NA"
"-91.91","50.11","SIOUX LOOKOUT A","6037776","2019-01-26 20:00","2019","01","26","20:00","-30.9","","-34.7","","70","","","","33","","9","","24.1","","97.14","","","","-40","","NA"
"-91.91","50.11","SIOUX LOOKOUT A","6037776","2019-01-26 21:00","2019","01","26","21:00","-31.3","","-35.0","","71","","","","35","","8","","24.1","","97.16","","","","-40","","Clear"
"-91.91","50.11","SIOUX LOOKOUT A","6037776","2019-01-26 22:00","2019","01","26","22:00","-31.9","","-35.4","","72","","","","36","","7","","24.1","","97.16","","","","-39","","NA"
"-91.91","50.11","SIOUX LOOKOUT A","6037776","2019-01-26 23:00","2019","01","26","23:00","-33.5","","-36.7","","74","","","","34","","7","","24.1","","97.17","","","","-41","","NA"
"-91.91","50.11","SIOUX LOOKOUT A","6037776","2019-01-27 00:00","2019","01","27","00:00","-37.2","","-40.5","","72","","","","33","","5","","16.1","","97.16","","","","-44","","Clear"
"-91.91","50.11","SIOUX LOOKOUT A","6037776","2019-01-27 01:00","2019","01","27","01:00","-38.2","","-41.6","","71","","","","36","","3","","24.1","","97.15","","","","-42","","NA"
"-91.91","50.11","SIOUX LOOKOUT A","6037776","2019-01-27 02:00","2019","01","27","02:00","-39.6","","-43.2","","70","","","","36","","5","","24.1","","97.16","","","","-47","","NA"
"-91.91","50.11","SIOUX LOOKOUT A","6037776","2019-01-27 03:00","2019","01","27","03:00","-41.4","","-45.1","","68","","","","36","","2","","24.1","","97.14","","","","-44","","Clear"
"-91.91","50.11","SIOUX LOOKOUT A","6037776","2019-01-27 04:00","2019","01","27","04:00","-41.1","","-44.8","","69","","","","1","","3","","24.1","","97.13","","","","-45","","NA"
"-91.91","50.11","SIOUX LOOKOUT A","6037776","2019-01-27 05:00","2019","01","27","05:00","-41.9","","-45.6","","68","","","","36","","3","","24.1","","97.13","","","","-46","","NA"
"-91.91","50.11","SIOUX LOOKOUT A","6037776","2019-01-27 06:00","2019","01","27","06:00","-41.9","","-45.6","","68","","","","36","","2","","24.1","","97.22","","","","-45","","Clear"
"-91.91","50.11","SIOUX LOOKOUT A","6037776","2019-01-27 07:00","2019","01","27","07:00","-43.2","","-47.1","","67","","","","7","","4","","24.1","","97.17","","","","-49","","NA"
"-91.91","50.11","SIOUX LOOKOUT A","6037776","2019-01-27 08:00","2019","01","27","08:00","-43.1","","-47.0","","67","","","","36","","2","","24.1","","97.09","","","","-46","","NA"
"-91.91","50.11","SIOUX LOOKOUT A","6037776","2019-01-27 09:00","2019","01","27","09:00","-38.0","","-41.6","","70","","","","19","","6","","4.8","","97.04","","","","-46","","Fog"
"-91.91","50.11","SIOUX LOOKOUT A","6037776","2019-01-27 10:00","2019","01","27","10:00","-34.1","","-37.5","","72","","","","18","","4","","4.8","","97.01","","","","-39","","Fog"
"-91.91","50.11","SIOUX LOOKOUT A","6037776","2019-01-27 11:00","2019","01","27","11:00","-31.6","","-35.8","","67","","","","22","","8","","24.1","","97.05","","","","-40","","NA"
"-91.91","50.11","SIOUX LOOKOUT A","6037776","2019-01-27 12:00","2019","01","27","12:00","-29.1","","-34.0","","64","","","","19","","7","","24.1","","96.93","","","","-36","","Mainly Clear"
"-91.91","50.11","SIOUX LOOKOUT A","6037776","2019-01-27 13:00","2019","01","27","13:00","-28.2","","-34.1","","58","","","","18","","8","","24.1","","96.91","","","","-36","","NA"
"-91.91","50.11","SIOUX LOOKOUT A","6037776","2019-01-27 14:00","2019","01","27","14:00","-27.0","","-33.1","","57","","","","16","","8","","24.1","","96.83","","","","-34","","NA"
"-91.91","50.11","SIOUX LOOKOUT A","6037776","2019-01-27 15:00","2019","01","27","15:00","-26.0","","-32.3","","56","","","","16","","7","","24.1","","96.83","","","","-33","","Mostly Cloudy"
"-91.91","50.11","SIOUX LOOKOUT A","6037776","2019-01-27 16:00","2019","01","27","16:00","-26.5","","-32.1","","60","","","","15","","9","","24.1","","96.79","","","","-34","","NA"
"-91.91","50.11","SIOUX LOOKOUT A","6037776","2019-01-27 17:00","2019","01","27","17:00","-27.9","","-32.4","","66","","","","10","","8","","24.1","","96.75","","","","-36","","NA"
"-91.91","50.11","SIOUX LOOKOUT A","6037776","2019-01-27 18:00","2019","01","27","18:00","-28.4","","-32.8","","67","","","","11","","5","","24.1","","96.76","","","","-34","","Mostly Cloudy"
"-91.91","50.11","SIOUX LOOKOUT A","6037776","2019-01-27 19:00","2019","01","27","19:00","-28.6","","-32.9","","68","","","","11","","4","","24.1","","96.79","","","","-33","","NA"
"-91.91","50.11","SIOUX LOOKOUT A","6037776","2019-01-27 20:00","2019","01","27","20:00","-28.9","","-33.3","","67","","","","11","","8","","24.1","","96.80","","","","-37","","NA"
"-91.91","50.11","SIOUX LOOKOUT A","6037776","2019-01-27 21:00","2019","01","27","21:00","-29.3","","-33.5","","68","","","","13","","8","","24.1","","96.85","","","","-37","","Mostly Cloudy"
"-91.91","50.11","SIOUX LOOKOUT A","6037776","2019-01-27 22:00","2019","01","27","22:00","-29.8","","-33.8","","69","","","","12","","7","","24.1","","96.86","","","","-37","","NA"
"-91.91","50.11","SIOUX LOOKOUT A","6037776","2019-01-27 23:00","2019","01","27","23:00","-30.4","","-34.2","","70","","","","9","","7","","24.1","","96.88","","","","-38","","NA"
"-91.91","50.11","SIOUX LOOKOUT A","6037776","2019-01-28 00:00","2019","01","28","00:00","-31.2","","-34.9","","71","","","","11","","6","","24.1","","96.92","","","","-38","","Clear"
"-91.91","50.11","SIOUX LOOKOUT A","6037776","2019-01-28 01:00","2019","01","28","01:00","-31.5","","-35.3","","70","","","","12","","6","","24.1","","96.93","","","","-38","","NA"
"-91.91","50.11","SIOUX LOOKOUT A","6037776","2019-01-28 02:00","2019","01","28","02:00","-31.5","","-35.4","","69","","","","13","","8","","24.1","","96.95","","","","-40","","NA"
"-91.91","50.11","SIOUX LOOKOUT A","6037776","2019-01-28 03:00","2019","01","28","03:00","-31.3","","-35.3","","69","","","","15","","5","","24.1","","96.98","","","","-37","","Mostly Cloudy"
"-91.91","50.11","SIOUX LOOKOUT A","6037776","2019-01-28 04:00","2019","01","28","04:00","-31.5","","-35.4","","69","","","","14","","8","","24.1","","96.99","","","","-40","","NA"
"-91.91","50.11","SIOUX LOOKOUT A","6037776","2019-01-28 05:00","2019","01","28","05:00","-31.4","","-35.2","","69","","","","15","","9","","24.1","","96.98","","","","-40","","NA"
"-91.91","50.11","SIOUX LOOKOUT A","6037776","2019-01-28 06:00","2019","01","28","06:00","-31.4","","-35.2","","70","","","","17","","7","","24.1","","96.97","","","","-39","","Mainly Clear"
"-91.91","50.11","SIOUX LOOKOUT A","6037776","2019-01-28 07:00","2019","01","28","07:00","-31.8","","-35.5","","70","","","","16","","8","","24.1","","96.98","","","","-40","","NA"
"-91.91","50.11","SIOUX LOOKOUT A","6037776","2019-01-28 08:00","2019","01","28","08:00","-31.8","","-35.6","","70","","","","16","","10","","24.1","","96.97","","","","-41","","NA"
"-91.91","50.11","SIOUX LOOKOUT A","6037776","2019-01-28 09:00","2019","01","28","09:00","-29.9","","-34.2","","68","","","","17","","11","","24.1","","96.93","","","","-40","","Cloudy"
"-91.91","50.11","SIOUX LOOKOUT A","6037776","2019-01-28 10:00","2019","01","28","10:00","-27.9","","-32.0","","68","","","","17","","13","","4.8","","96.90","","","","-38","","Snow"
"-91.91","50.11","SIOUX LOOKOUT A","6037776","2019-01-28 11:00","2019","01","28","11:00","-24.4","","-28.4","","70","","","","17","","7","","6.4","","96.86","","","","-31","","Snow"
"-91.91","50.11","SIOUX LOOKOUT A","6037776","2019-01-28 12:00","2019","01","28","12:00","-22.1","","-25.9","","72","","","","28","","8","","4.8","","96.75","","","","-29","","Snow"
"-91.91","50.11","SIOUX LOOKOUT A","6037776","2019-01-28 13:00","2019","01","28","13:00","-21.2","","-24.7","","74","","","","33","","4","","4.0","","96.70","","","","-25","","Snow"
"-91.91","50.11","SIOUX LOOKOUT A","6037776","2019-01-28 14:00","2019","01","28","14:00","-19.4","","-23.5","","71","","","","27","","7","","4.8","","96.63","","","","-25","","Snow"
"-91.91","50.11","SIOUX LOOKOUT A","6037776","2019-01-28 15:00","2019","01","28","15:00","-19.8","","-23.3","","74","","","","29","","14","","4.8","","96.62","","","","-29","","Snow"
"-91.91","50.11","SIOUX LOOKOUT A","6037776","2019-01-28 16:00","2019","01","28","16:00","-20.4","","-23.9","","74","","","","28","","10","","2.4","","96.62","","","","-28","","Snow"
"-91.91","50.11","SIOUX LOOKOUT A","6037776","2019-01-28 17:00","2019","01","28","17:00","-20.8","","-23.8","","77","","","","29","","10","","2.4","","96.67","","","","-28","","Snow"
"-91.91","50.11","SIOUX LOOKOUT A","6037776","2019-01-28 18:00","2019","01","28","18:00","-21.0","","-23.7","","80","","","","31","","7","","4.8","","96.68","","","","-27","","Snow"
"-91.91","50.11","SIOUX LOOKOUT A","6037776","2019-01-28 19:00","2019","01","28","19:00","-21.6","","-24.0","","81","","","","34","","3","","4.8","","96.68","","","","-24","","Snow"
"-91.91","50.11","SIOUX LOOKOUT A","6037776","2019-01-28 20:00","2019","01","28","20:00","-21.8","","-24.2","","81","","","","32","","10","","9.7","","96.67","","","","-29","","Snow"
"-91.91","50.11","SIOUX LOOKOUT A","6037776","2019-01-28 21:00","2019","01","28","21:00","-23.6","","-26.4","","78","","","","32","","10","","16.1","","96.66","","","","-32","","Snow"
"-91.91","50.11","SIOUX LOOKOUT A","6037776","2019-01-28 22:00","2019","01","28","22:00","-25.0","","-27.6","","80","","","","34","","9","","16.1","","96.61","","","","-33","","Snow"
"-91.91","50.11","SIOUX LOOKOUT A","6037776","2019-01-28 23:00","2019","01","28","23:00","-26.3","","-28.9","","79","","","","34","","7","","19.3","","96.59","","","","-33","","Snow"
"-91.91","50.11","SIOUX LOOKOUT A","6037776","2019-01-29 00:00","2019","01","29","00:00","-27.2","","-29.8","","79","","","","34","","7","","19.3","","96.57","","","","-34","","Snow"
"-91.91","50.11","SIOUX LOOKOUT A","6037776","2019-01-29 01:00","2019","01","29","01:00","-27.8","","-30.5","","78","","","","34","","7","","19.3","","96.56","","","","-35","","Snow"
"-91.91","50.11","SIOUX LOOKOUT A","6037776","2019-01-29 02:00","2019","01","29","02:00","-28.1","","-30.9","","78","","","","33","","11","","6.4","","96.56","","","","-37","","Snow"
"-91.91","50.11","SIOUX LOOKOUT A","6037776","2019-01-29 03:00","2019","01","29","03:00","-29.8","","-32.7","","77","","","","33","","9","","19.3","","96.54","","","","-38","","Ice Crystals"
"-91.91","50.11","SIOUX LOOKOUT A","6037776","2019-01-29 04:00","2019","01","29","04:00","-30.6","","-33.5","","76","","","","34","","10","","19.3","","96.53","","","","-40","","Ice Crystals"
"-91.91","50.11","SIOUX LOOKOUT A","6037776","2019-01-29 05:00","2019","01","29","05:00","-31.2","","-34.2","","76","","","","34","","9","","19.3","","96.55","","","","-40","","Ice Crystals"
"-91.91","50.11","SIOUX LOOKOUT A","6037776","2019-01-29 06:00","2019","01","29","06:00","-31.1","","-34.2","","75","","","","34","","8","","12.9","","96.58","","","","-39","","Snow,Ice Crystals"
"-91.91","50.11","SIOUX LOOKOUT A","6037776","2019-01-29 07:00","2019","01","29","07:00","-32.0","","-35.1","","74","","","","34","","10","","19.3","","96.63","","","","-42","","Snow,Ice Crystals"
"-91.91","50.11","SIOUX LOOKOUT A","6037776","2019-01-29 08:00","2019","01","29","08:00","-32.3","","-35.5","","74","","","","34","","12","","16.1","","96.67","","","","-43","","Ice Crystals"
"-91.91","50.11","SIOUX LOOKOUT A","6037776","2019-01-29 09:00","2019","01","29","09:00","-31.7","","-35.0","","73","","","","34","","14","","24.1","","96.70","","","","-43","","Ice Crystals,Blowing Snow"
"-91.91","50.11","SIOUX LOOKOUT A","6037776","2019-01-29 10:00","2019","01","29","10:00","-32.0","","-35.6","","71","","","","34","","19","","4.8","","96.74","","","","-45","","Ice Crystals,Blowing Snow"
"-91.91","50.11","SIOUX LOOKOUT A","6037776","2019-01-29 11:00","2019","01","29","11:00","-31.6","","-35.4","","70","","","","35","","15","","6.4","","96.77","","","","-43","","Ice Crystals,Blowing Snow"
"-91.91","50.11","SIOUX LOOKOUT A","6037776","2019-01-29 12:00","2019","01","29","12:00","-31.2","","-35.4","","67","","","","34","","22","","4.8","","96.78","","","","-45","","Ice Crystals,Blowing Snow"
"-91.91","50.11","SIOUX LOOKOUT A","6037776","2019-01-29 13:00","2019","01","29","13:00","-30.8","","-35.2","","66","","","","34","","19","","4.8","","96.80","","","","-44","","Ice Crystals,Blowing Snow"
"-91.91","50.11","SIOUX LOOKOUT A","6037776","2019-01-29 14:00","2019","01","29","14:00","-30.5","","-35.5","","63","","","","36","","17","","9.7","","96.83","","","","-43","","Ice Crystals"
"-91.91","50.11","SIOUX LOOKOUT A","6037776","2019-01-29 15:00","2019","01","29","15:00","-30.3","","-35.1","","64","","","","34","","18","","6.4","","96.86","","","","-43","","Ice Crystals,Blowing Snow"
"-91.91","50.11","SIOUX LOOKOUT A","6037776","2019-01-29 16:00","2019","01","29","16:00","-30.6","","-35.2","","65","","","","35","","15","","8.1","","96.94","","","","-42","","Ice Crystals,Blowing Snow"
"-91.91","50.11","SIOUX LOOKOUT A","6037776","2019-01-29 17:00","2019","01","29","17:00","-30.5","","-34.6","","68","","","","34","","21","","4.8","","96.99","","","","-44","","Ice Crystals,Blowing Snow"
"-91.91","50.11","SIOUX LOOKOUT A","6037776","2019-01-29 18:00","2019","01","29","18:00","-30.8","","-34.8","","69","","","","35","","17","","9.7","","97.08","","","","-43","","Ice Crystals,Blowing Snow"
"-91.91","50.11","SIOUX LOOKOUT A","6037776","2019-01-29 19:00","2019","01","29","19:00","-31.1","","-35.1","","69","","","","34","","18","","9.7","","97.10","","","","-44","","Snow,Ice Crystals,Blowing Snow"
"-91.91","50.11","SIOUX LOOKOUT A","6037776","2019-01-29 20:00","2019","01","29","20:00","-31.3","","-35.2","","69","","","","34","","14","","4.8","","97.12","","","","-43","","Snow,Ice Crystals,Blowing Snow"
"-91.91","50.11","SIOUX LOOKOUT A","6037776","2019-01-29 21:00","2019","01","29","21:00","-31.6","","-35.5","","70","","","","34","","23","","8.1","","97.14","","","","-46","","Snow,Ice Crystals,Blowing Snow"
"-91.91","50.11","SIOUX LOOKOUT A","6037776","2019-01-29 22:00","2019","01","29","22:00","-31.9","","-35.9","","69","","","","34","","16","","8.1","","97.17","","","","-44","","Snow,Ice Crystals,Blowing Snow"
"-91.91","50.11","SIOUX LOOKOUT A","6037776","2019-01-29 23:00","2019","01","29","23:00","-32.2","","-36.1","","70","","","","34","","15","","8.1","","97.17","","","","-44","","Snow,Ice Crystals,Blowing Snow"
"-91.91","50.11","SIOUX LOOKOUT A","6037776","2019-01-30 00:00","2019","01","30","00:00","-32.7","","-36.5","","70","","","","34","","16","","12.9","","97.16","","","","-45","","Snow,Ice Crystals,Blowing Snow"
"-91.91","50.11","SIOUX LOOKOUT A","6037776","2019-01-30 01:00","2019","01","30","01:00","-33.4","","-37.0","","71","","","","33","","15","","16.1","","97.13","","","","-46","","Ice Crystals,Blowing Snow"
"-91.91","50.11","SIOUX LOOKOUT A","6037776","2019-01-30 02:00","2019","01","30","02:00","-33.9","","-37.5","","71","","","","33","","16","","8.1","","97.14","","","","-47","","Ice Crystals,Blowing Snow"
"-91.91","50.11","SIOUX LOOKOUT A","6037776","2019-01-30 03:00","2019","01","30","03:00","-34.4","","-38.0","","71","","","","33","","17","","19.3","","97.16","","","","-48","","Ice Crystals"
"-91.91","50.11","SIOUX LOOKOUT A","6037776","2019-01-30 04:00","2019","01","30","04:00","-34.6","","-38.3","","70","","","","33","","15","","19.3","","97.14","","","","-47","","Ice Crystals"
"-91.91","50.11","SIOUX LOOKOUT A","6037776","2019-01-30 05:00","2019","01","30","05:00","-35.2","","-38.9","","70","","","","33","","15","","19.3","","97.16","","","","-48","","Ice Crystals"
"-91.91","50.11","SIOUX LOOKOUT A","6037776","2019-01-30 06:00","2019","01","30","06:00","-36.0","","-39.5","","71","","","","33","","14","","19.3","","97.18","","","","-48","","Ice Crystals"
"-91.91","50.11","SIOUX LOOKOUT A","6037776","2019-01-30 07:00","2019","01","30","07:00","-36.5","","-40.0","","70","","","","33","","11","","19.3","","97.20","","","","-47","","Snow,Ice Crystals"
"-91.91","50.11","SIOUX LOOKOUT A","6037776","2019-01-30 08:00","2019","01","30","08:00","-36.9","","-40.5","","70","","","","33","","15","","24.1","","97.24","","","","-50","","NA"
"-91.91","50.11","SIOUX LOOKOUT A","6037776","2019-01-30 09:00","2019","01","30","09:00","-36.6","","-40.5","","68","","","","33","","13","","24.1","","97.26","","","","-49","","Mainly Clear"
"-91.91","50.11","SIOUX LOOKOUT A","6037776","2019-01-30 10:00","2019","01","30","10:00","-34.8","","-39.4","","64","","","","34","","11","","24.1","","97.26","","","","-45","","NA"
"-91.91","50.11","SIOUX LOOKOUT A","6037776","2019-01-30 11:00","2019","01","30","11:00","-34.0","","-38.7","","63","","","","32","","13","","24.1","","97.24","","","","-45","","NA"
"-91.91","50.11","SIOUX LOOKOUT A","6037776","2019-01-30 12:00","2019","01","30","12:00","-33.4","","-38.4","","62","","","","31","","13","","24.1","","97.20","","","","-45","","Mostly Cloudy"
"-91.91","50.11","SIOUX LOOKOUT A","6037776","2019-01-30 13:00","2019","01","30","13:00","-32.1","","-37.3","","61","","","","29","","12","","24.1","","97.18","","","","-43","","NA"
"-91.91","50.11","SIOUX LOOKOUT A","6037776","2019-01-30 14:00","2019","01","30","14:00","-31.8","","-37.0","","61","","","","29","","15","","24.1","","97.17","","","","-44","","Ice Crystals"
"-91.91","50.11","SIOUX LOOKOUT A","6037776","2019-01-30 15:00","2019","01","30","15:00","-31.1","","-36.5","","60","","","","30","","19","","24.1","","97.17","","","","-44","","Mainly Clear"
"-91.91","50.11","SIOUX LOOKOUT A","6037776","2019-01-30 16:00","2019","01","30","16:00","-31.1","","-36.1","","62","","","","31","","18","","24.1","","97.21","","","","-44","","Ice Crystals"
"-91.91","50.11","SIOUX LOOKOUT A","6037776","2019-01-30 17:00","2019","01","30","17:00","-31.8","","-36.1","","66","","","","32","","14","","16.1","","97.23","","","","-43","","Ice Crystals"
"-91.91","50.11","SIOUX LOOKOUT A","6037776","2019-01-30 18:00","2019","01","30","18:00","-32.5","","-36.4","","69","","","","30","","12","","24.1","","97.28","","","","-43","","Ice Crystals"
"-91.91","50.11","SIOUX LOOKOUT A","6037776","2019-01-30 19:00","2019","01","30","19:00","-33.0","","-36.7","","70","","","","31","","11","","24.1","","97.30","","","","-43","","Ice Crystals"
"-91.91","50.11","SIOUX LOOKOUT A","6037776","2019-01-30 20:00","2019","01","30","20:00","-33.9","","-37.3","","72","","","","31","","7","","24.1","","97.32","","","","-42","","Ice Crystals"
"-91.91","50.11","SIOUX LOOKOUT A","6037776","2019-01-30 21:00","2019","01","30","21:00","-34.4","","-37.7","","73","","","","31","","10","","24.1","","97.32","","","","-44","","Ice Crystals"
"-91.91","50.11","SIOUX LOOKOUT A","6037776","2019-01-30 22:00","2019","01","30","22:00","-36.1","","-39.4","","72","","","","32","","7","","24.1","","97.30","","","","-44","","Ice Crystals"
"-91.91","50.11","SIOUX LOOKOUT A","6037776","2019-01-30 23:00","2019","01","30","23:00","-37.8","","-41.1","","72","","","","30","","5","","24.1","","97.28","","","","-44","","Ice Crystals"
"-91.91","50.11","SIOUX LOOKOUT A","6037776","2019-01-31 00:00","2019","01","31","00:00","-37.4","","-40.7","","72","","","","36","","3","","24.1","","97.31","","","","-41","","Ice Crystals"
"-91.91","50.11","SIOUX LOOKOUT A","6037776","2019-01-31 01:00","2019","01","31","01:00","-38.1","","-41.6","","71","","","","36","","1","","24.1","","97.33","","","","-39","","Ice Crystals"
"-91.91","50.11","SIOUX LOOKOUT A","6037776","2019-01-31 02:00","2019","01","31","02:00","-38.9","","-42.5","","70","","","","36","","1","","24.1","","97.35","","","","-40","","Ice Crystals"
"-91.91","50.11","SIOUX LOOKOUT A","6037776","2019-01-31 03:00","2019","01","31","03:00","-39.6","","-43.2","","69","","","","36","","1","","24.1","","97.38","","","","-41","","Ice Crystals"
"-91.91","50.11","SIOUX LOOKOUT A","6037776","2019-01-31 04:00","2019","01","31","04:00","-39.4","","-42.9","","70","","","","32","","3","","24.1","","97.39","","","","-44","","Ice Crystals"
"-91.91","50.11","SIOUX LOOKOUT A","6037776","2019-01-31 05:00","2019","01","31","05:00","-37.7","","-41.1","","71","","","","32","","5","","24.1","","97.41","","","","-44","","Ice Crystals"
"-91.91","50.11","SIOUX LOOKOUT A","6037776","2019-01-31 06:00","2019","01","31","06:00","-39.5","","-43.1","","69","","","","29","","3","","24.1","","97.40","","","","-44","","Ice Crystals"
"-91.91","50.11","SIOUX LOOKOUT A","6037776","2019-01-31 07:00","2019","01","31","07:00","-40.7","","-44.5","","68","","","","36","","1","","24.1","","97.41","","","","-42","","Ice Crystals"
"-91.91","50.11","SIOUX LOOKOUT A","6037776","2019-01-31 08:00","2019","01","31","08:00","-41.1","","-45.0","","68","","","","36","","1","","19.3","","97.43","","","","-43","","Ice Crystals"
"-91.91","50.11","SIOUX LOOKOUT A","6037776","2019-01-31 09:00","2019","01","31","09:00","-36.3","","-39.8","","71","","","","20","","5","","8.1","","97.49","","","","-43","","Ice Crystals,Fog"
"-91.91","50.11","SIOUX LOOKOUT A","6037776","2019-01-31 10:00","2019","01","31","10:00","-34.0","","-37.7","","70","","","","36","","1","","19.3","","97.51","","","","-35","","Ice Crystals"
"-91.91","50.11","SIOUX LOOKOUT A","6037776","2019-01-31 11:00","2019","01","31","11:00","-31.1","","-35.8","","64","","","","21","","6","","24.1","","97.55","","","","-38","","NA"
"-91.91","50.11","SIOUX LOOKOUT A","6037776","2019-01-31 12:00","2019","01","31","12:00","-29.1","","-34.2","","62","","","","24","","7","","24.1","","97.49","","","","-36","","Ice Crystals"
"-91.91","50.11","SIOUX LOOKOUT A","6037776","2019-01-31 13:00","2019","01","31","13:00","-27.7","","-33.4","","59","","","","23","","7","","24.1","","97.50","","","","-35","","Ice Crystals"
"-91.91","50.11","SIOUX LOOKOUT A","6037776","2019-01-31 14:00","2019","01","31","14:00","-26.4","","-32.4","","58","","","","22","","10","","24.1","","97.46","","","","-35","","Ice Crystals"
"-91.91","50.11","SIOUX LOOKOUT A","6037776","2019-01-31 15:00","2019","01","31","15:00","-25.8","","-32.0","","57","","","","21","","8","","24.1","","97.47","","","","-33","","Ice Crystals"
"-91.91","50.11","SIOUX LOOKOUT A","6037776","2019-01-31 16:00","2019","01","31","16:00","-26.3","","-31.9","","60","","","","20","","7","","24.1","","97.46","","","","-33","","Ice Crystals"
"-91.91","50.11","SIOUX LOOKOUT A","6037776","2019-01-31 17:00","2019","01","31","17:00","-27.2","","-31.7","","66","","","","18","","6","","24.1","","97.39","","","","-33","","Ice Crystals"
"-91.91","50.11","SIOUX LOOKOUT A","6037776","2019-01-31 18:00","2019","01","31","18:00","-28.6","","-32.2","","72","","","","22","","4","","24.1","","97.42","","","","-33","","Ice Crystals"
"-91.91","50.11","SIOUX LOOKOUT A","6037776","2019-01-31 19:00","2019","01","31","19:00","-31.0","","-33.9","","76","","","","36","","1","","24.1","","97.40","","","","-32","","Ice Crystals"
"-91.91","50.11","SIOUX LOOKOUT A","6037776","2019-01-31 20:00","2019","01","31","20:00","-32.0","","-35.1","","75","","","","19","","3","","24.1","","97.42","","","","-36","","NA"
"-91.91","50.11","SIOUX LOOKOUT A","6037776","2019-01-31 21:00","2019","01","31","21:00","-31.7","","-34.6","","76","","","","16","","9","","24.1","","97.36","","","","-41","","Mainly Clear"
"-91.91","50.11","SIOUX LOOKOUT A","6037776","2019-01-31 22:00","2019","01","31","22:00","-29.6","","-32.7","","75","","","","16","","8","","24.1","","97.34","","","","-38","","NA"
"-91.91","50.11","SIOUX LOOKOUT A","6037776","2019-01-31 23:00","2019","01","31","23:00","-30.3","","-33.3","","75","","","","16","","8","","24.1","","97.34","","","","-38","","NA"
