"Longitude (x)","Latitude (y)","Station Name","Climate ID","Date/Time (LST)","Year","Month","Day","Time (LST)","Temp (°C)","Temp Flag","Dew Point Temp (°C)","Dew Point Temp Flag","Rel Hum (%)","Rel Hum Flag","Precip. Amount (mm)","Precip. Amount Flag","Wind Dir (10s deg)","Wind Dir Flag","Wind Spd (km/h)","Wind Spd Flag","Visibility (km)","Visibility Flag","Stn Press (kPa)","Stn Press Flag","Hmdx","Hmdx Flag","Wind Chill","Wind Chill Flag","Weather"
"-126.80","65.28","NORMAN WELLS A","2202801","2018-01-01 00:00","2018","01","01","00:00","-27.6","","-31.5","","70","","","","8","","4","","48.3","","101.41","","","","-32","","NA"
"-126.80","65.28","NORMAN WELLS A","2202801","2018-01-01 01:00","2018","01","01","01:00","-27.2","","-31.3","","69","","","","36","","2","","48.3","","101.43","","","","-29","","NA"
"-126.80","65.28","NORMAN WELLS A","2202801","2018-01-01 02:00","2018","01","01","02:00","-26.9","","-31.1","","68","","","","0","","1","","48.3","","101.42","","","","-28","","Mostly Cloudy"
"-126.80","65.28","NORMAN WELLS A","2202801","2018-01-01 03:00","2018","01","01","03:00","-26.5","","-30.7","","68","","","","12","","5","","48.3","","101.36","","","","-32","","NA"
"-126.80","65.28","NORMAN WELLS A","2202801","2018-01-01 04:00","2018","01","01","04:00","-26.2","","-30.1","","70","","","","6","","5","","48.3","","101.28","","","","-31","","NA"
"-126.80","65.28","NORMAN WELLS A","2202801","2018-01-01 05:00","2018","01","01","05:00","-26.0","","-29.6","","72","","","","7","","5","","48.3","","101.21","","","","-31","","Mostly Cloudy"
"-126.80","65.28","NORMAN WELLS A","2202801","2018-01-01 06:00","2018","01","01","06:00","-25.2","","-29.5","","68","","","","12","","5","","48.3","","101.18","","","","-30","","NA"
"-126.80","65.28","NORMAN WELLS A","2202801","2018-01-01 07:00","2018","01","01","07:00","-25.0","","-29.3","","68","","","","11","","7","","48.3","","101.10","","","","-31","","NA"
"-126.80","65.28","NORMAN WELLS A","2202801","2018-01-01 08:00","2018","01","01","08:00","-24.9","","-29.3","","68","","","","16","","6","","48.3","","101.07","","","","-31","","Cloudy"
"-126.80","65.28","NORMAN WELLS A","2202801","2018-01-01 09:00","2018","01","01","09:00","-24.8","","-28.8","","70","","","","36","","2","","48.3","","101.05","","","","-27","","NA"
"-126.80","65.28","NORMAN WELLS A","2202801","2018-01-01 10:00","2018","01","01","10:00","-24.4","","-28.8","","68","","","","15","","5","","48.3","","101.04","","","","-29","","NA"
"-126.80","65.28","NORMAN WELLS A","2202801","2018-01-01 11:00","2018","01","01","11:00","-23.9","","-28.2","","68","","","","36","","1","","48.3","","101.08","","","","-25","","Cloudy"
"-126.80","65.28","NORMAN WELLS A","2202801","2018-01-01 12:00","2018","01","01","12:00","-23.7","","-27.6","","71","","","","27","","7","","24.1","","101.14","","","","-30","","NA"
"-126.80","65.28","NORMAN WELLS A","2202801","2018-01-01 13:00","2018","01","01","13:00","-23.5","","-27.3","","72","","","","27","","11","","9.7","","101.25","","","","-32","","Snow"
"-126.80","65.28","NORMAN WELLS A","2202801","2018-01-01 14:00","2018","01","01","14:00","-23.7","","-27.5","","72","","","","28","","8","","12.9","","101.29","","","","-31","","Snow"
"-126.80","65.28","NORMAN WELLS A","2202801","2018-01-01 15:00","2018","01","01","15:00","-23.5","","-27.3","","72","","","","29","","7","","9.7","","101.34","","","","-30","","Snow"
"-126.80","65.28","NORMAN WELLS A","2202801","2018-01-01 16:00","2018","01","01","16:00","-23.3","","-27.1","","72","","","","28","","7","","9.7","","101.44","","","","-29","","Snow"
"-126.80","65.28","NORMAN WELLS A","2202801","2018-01-01 17:00","2018","01","01","17:00","-23.1","","-26.7","","73","","","","30","","4","","6.4","","101.50","","","","-27","","Snow"
"-126.80","65.28","NORMAN WELLS A","2202801","2018-01-01 18:00","2018","01","01","18:00","-23.4","","-26.8","","74","","","","15","","4","","32.2","","101.52","","","","-27","","Snow"
"-126.80","65.28","NORMAN WELLS A","2202801","2018-01-01 19:00","2018","01","01","19:00","-24.3","","-27.5","","75","","","","9","","7","","32.2","","101.50","","","","-31","","Snow"
"-126.80","65.28","NORMAN WELLS A","2202801","2018-01-01 20:00","2018","01","01","20:00","-25.6","","-28.9","","74","","","","13","","9","","48.3","","101.51","","","","-33","","Mainly Clear"
"-126.80","65.28","NORMAN WELLS A","2202801","2018-01-01 21:00","2018","01","01","21:00","-25.5","","-28.9","","74","","","","9","","8","","48.3","","101.45","","","","-33","","NA"
"-126.80","65.28","NORMAN WELLS A","2202801","2018-01-01 22:00","2018","01","01","22:00","-24.9","","-28.2","","74","","","","10","","12","","48.3","","101.39","","","","-34","","NA"
"-126.80","65.28","NORMAN WELLS A","2202801","2018-01-01 23:00","2018","01","01","23:00","-24.6","","-28.1","","73","","","","11","","13","","48.3","","101.34","","","","-34","","Clear"
"-126.80","65.28","NORMAN WELLS A","2202801","2018-01-02 00:00","2018","01","02","00:00","-23.0","","-26.4","","74","","","","10","","16","","48.3","","101.29","","","","-33","","Blowing Snow"
"-126.80","65.28","NORMAN WELLS A","2202801","2018-01-02 01:00","2018","01","02","01:00","-23.3","","-27.0","","72","","","","12","","23","","48.3","","101.23","","","","-35","","NA"
"-126.80","65.28","NORMAN WELLS A","2202801","2018-01-02 02:00","2018","01","02","02:00","-23.0","","-26.6","","72","","","","10","","16","","48.3","","101.15","","","","-33","","Mainly Clear"
"-126.80","65.28","NORMAN WELLS A","2202801","2018-01-02 03:00","2018","01","02","03:00","-21.9","","-25.7","","72","","","","9","","12","","48.3","","101.00","","","","-30","","Blowing Snow"
"-126.80","65.28","NORMAN WELLS A","2202801","2018-01-02 04:00","2018","01","02","04:00","-20.1","","-24.5","","69","","","","10","","15","","48.3","","100.90","","","","-29","","Blowing Snow"
"-126.80","65.28","NORMAN WELLS A","2202801","2018-01-02 05:00","2018","01","02","05:00","-18.8","","-23.4","","67","","","","12","","34","","24.1","","100.77","","","","-32","","Blowing Snow"
"-126.80","65.28","NORMAN WELLS A","2202801","2018-01-02 06:00","2018","01","02","06:00","-17.9","","-22.9","","66","","","","12","","34","","24.1","","100.56","","","","-30","","Blowing Snow"
"-126.80","65.28","NORMAN WELLS A","2202801","2018-01-02 07:00","2018","01","02","07:00","-17.4","","-22.7","","64","","","","12","","33","","48.3","","100.49","","","","-30","","Blowing Snow"
"-126.80","65.28","NORMAN WELLS A","2202801","2018-01-02 08:00","2018","01","02","08:00","-18.0","","-21.5","","74","","","","12","","26","","6.4","","100.38","","","","-29","","Snow,Blowing Snow"
"-126.80","65.28","NORMAN WELLS A","2202801","2018-01-02 09:00","2018","01","02","09:00","-17.6","","-20.7","","77","","","","11","","16","","4.8","","100.36","","","","-26","","Snow,Blowing Snow"
"-126.80","65.28","NORMAN WELLS A","2202801","2018-01-02 10:00","2018","01","02","10:00","-17.0","","-20.5","","75","","","","12","","14","","4.8","","100.36","","","","-25","","Snow,Blowing Snow"
"-126.80","65.28","NORMAN WELLS A","2202801","2018-01-02 11:00","2018","01","02","11:00","-17.2","","-20.9","","74","","","","11","","10","","4.8","","100.47","","","","-24","","Snow"
"-126.80","65.28","NORMAN WELLS A","2202801","2018-01-02 12:00","2018","01","02","12:00","-16.9","","-20.6","","73","","","","11","","9","","4.8","","100.54","","","","-23","","Snow"
"-126.80","65.28","NORMAN WELLS A","2202801","2018-01-02 13:00","2018","01","02","13:00","-17.2","","-20.6","","75","","","","11","","12","","24.1","","100.58","","","","-25","","Snow"
"-126.80","65.28","NORMAN WELLS A","2202801","2018-01-02 14:00","2018","01","02","14:00","-17.0","","-20.9","","72","","","","11","","13","","48.3","","100.60","","","","-25","","Mostly Cloudy"
"-126.80","65.28","NORMAN WELLS A","2202801","2018-01-02 15:00","2018","01","02","15:00","-17.9","","-21.8","","72","","","","12","","20","","48.3","","100.60","","","","-28","","Blowing Snow"
"-126.80","65.28","NORMAN WELLS A","2202801","2018-01-02 16:00","2018","01","02","16:00","-18.7","","-22.2","","74","","","","11","","11","","48.3","","100.64","","","","-26","","NA"
"-126.80","65.28","NORMAN WELLS A","2202801","2018-01-02 17:00","2018","01","02","17:00","-18.9","","-22.4","","74","","","","9","","7","","48.3","","100.68","","","","-24","","Mostly Cloudy"
"-126.80","65.28","NORMAN WELLS A","2202801","2018-01-02 18:00","2018","01","02","18:00","-18.7","","-22.6","","72","","","","11","","16","","48.3","","100.61","","","","-28","","NA"
"-126.80","65.28","NORMAN WELLS A","2202801","2018-01-02 19:00","2018","01","02","19:00","-19.2","","-22.9","","73","","","","10","","10","","48.3","","100.64","","","","-26","","NA"
"-126.80","65.28","NORMAN WELLS A","2202801","2018-01-02 20:00","2018","01","02","20:00","-19.9","","-23.4","","74","","","","8","","8","","48.3","","100.69","","","","-26","","Mostly Cloudy"
"-126.80","65.28","NORMAN WELLS A","2202801","2018-01-02 21:00","2018","01","02","21:00","-20.1","","-23.9","","72","","","","10","","10","","48.3","","100.66","","","","-27","","NA"
"-126.80","65.28","NORMAN WELLS A","2202801","2018-01-02 22:00","2018","01","02","22:00","-20.3","","-24.2","","71","","","","11","","15","","48.3","","100.64","","","","-29","","NA"
"-126.80","65.28","NORMAN WELLS A","2202801","2018-01-02 23:00","2018","01","02","23:00","-21.1","","-24.7","","73","","","","10","","7","","48.3","","100.65","","","","-27","","Mainly Clear"
"-126.80","65.28","NORMAN WELLS A","2202801","2018-01-03 00:00","2018","01","03","00:00","-21.4","","-24.9","","74","","","","10","","11","","48.3","","100.64","","","","-29","","NA"
"-126.80","65.28","NORMAN WELLS A","2202801","2018-01-03 01:00","2018","01","03","01:00","-21.5","","-25.1","","74","","","","11","","12","","48.3","","100.67","","","","-30","","NA"
"-126.80","65.28","NORMAN WELLS A","2202801","2018-01-03 02:00","2018","01","03","02:00","-22.0","","-25.3","","75","","","","9","","8","","48.3","","100.67","","","","-29","","Clear"
"-126.80","65.28","NORMAN WELLS A","2202801","2018-01-03 03:00","2018","01","03","03:00","-22.2","","-25.6","","75","","","","9","","8","","48.3","","100.72","","","","-29","","NA"
"-126.80","65.28","NORMAN WELLS A","2202801","2018-01-03 04:00","2018","01","03","04:00","-22.5","","-25.8","","75","","","","8","","8","","48.3","","100.74","","","","-29","","NA"
"-126.80","65.28","NORMAN WELLS A","2202801","2018-01-03 05:00","2018","01","03","05:00","-22.3","","-25.7","","74","","","","9","","8","","48.3","","100.75","","","","-29","","Clear"
"-126.80","65.28","NORMAN WELLS A","2202801","2018-01-03 06:00","2018","01","03","06:00","-22.1","","-25.6","","74","","","","8","","7","","48.3","","100.72","","","","-28","","NA"
"-126.80","65.28","NORMAN WELLS A","2202801","2018-01-03 07:00","2018","01","03","07:00","-21.6","","-25.2","","73","","","","9","","9","","48.3","","100.69","","","","-29","","NA"
"-126.80","65.28","NORMAN WELLS A","2202801","2018-01-03 08:00","2018","01","03","08:00","-21.9","","-25.2","","75","","","","8","","7","","48.3","","100.62","","","","-28","","Mainly Clear"
"-126.80","65.28","NORMAN WELLS A","2202801","2018-01-03 09:00","2018","01","03","09:00","-21.8","","-25.2","","75","","","","8","","8","","48.3","","100.62","","","","-28","","NA"
"-126.80","65.28","NORMAN WELLS A","2202801","2018-01-03 10:00","2018","01","03","10:00","-21.6","","-25.0","","75","","","","8","","7","","48.3","","100.65","","","","-28","","NA"
"-126.80","65.28","NORMAN WELLS A","2202801","2018-01-03 11:00","2018","01","03","11:00","-21.8","","-25.1","","75","","","","8","","7","","48.3","","100.63","","","","-28","","Mainly Clear"
"-126.80","65.28","NORMAN WELLS A","2202801","2018-01-03 12:00","2018","01","03","12:00","-21.9","","-25.2","","75","","","","8","","8","","48.3","","100.66","","","","-28","","NA"
"-126.80","65.28","NORMAN WELLS A","2202801","2018-01-03 13:00","2018","01","03","13:00","-21.3","","-24.7","","74","","","","10","","7","","48.3","","100.59","","","","-27","","NA"
"-126.80","65.28","NORMAN WELLS A","2202801","2018-01-03 14:00","2018","01","03","14:00","-21.2","","-24.6","","74","","","","8","","6","","48.3","","100.55","","","","-26","","Mostly Cloudy"
"-126.80","65.28","NORMAN WELLS A","2202801","2018-01-03 15:00","2018","01","03","15:00","-20.4","","-23.8","","74","","","","8","","6","","48.3","","100.54","","","","-25","","NA"
"-126.80","65.28","NORMAN WELLS A","2202801","2018-01-03 16:00","2018","01","03","16:00","-19.8","","-23.4","","73","","","","10","","5","","48.3","","100.57","","","","-24","","NA"
"-126.80","65.28","NORMAN WELLS A","2202801","2018-01-03 17:00","2018","01","03","17:00","-19.5","","-23.3","","73","","","","12","","8","","48.3","","100.58","","","","-26","","Mostly Cloudy"
"-126.80","65.28","NORMAN WELLS A","2202801","2018-01-03 18:00","2018","01","03","18:00","-19.2","","-22.8","","74","","","","11","","13","","48.3","","100.57","","","","-27","","NA"
"-126.80","65.28","NORMAN WELLS A","2202801","2018-01-03 19:00","2018","01","03","19:00","-19.2","","-22.7","","74","","","","8","","5","","48.3","","100.58","","","","-23","","NA"
"-126.80","65.28","NORMAN WELLS A","2202801","2018-01-03 20:00","2018","01","03","20:00","-18.9","","-22.6","","73","","","","10","","7","","48.3","","100.57","","","","-24","","Mostly Cloudy"
"-126.80","65.28","NORMAN WELLS A","2202801","2018-01-03 21:00","2018","01","03","21:00","-19.1","","-22.7","","73","","","","12","","10","","48.3","","100.58","","","","-26","","NA"
"-126.80","65.28","NORMAN WELLS A","2202801","2018-01-03 22:00","2018","01","03","22:00","-19.1","","-22.5","","75","","","","10","","5","","48.3","","100.56","","","","-23","","NA"
"-126.80","65.28","NORMAN WELLS A","2202801","2018-01-03 23:00","2018","01","03","23:00","-19.2","","-22.8","","73","","","","10","","5","","48.3","","100.65","","","","-23","","Mostly Cloudy"
"-126.80","65.28","NORMAN WELLS A","2202801","2018-01-04 00:00","2018","01","04","00:00","-19.4","","-22.9","","74","","","","10","","7","","48.3","","100.63","","","","-25","","NA"
"-126.80","65.28","NORMAN WELLS A","2202801","2018-01-04 01:00","2018","01","04","01:00","-20.1","","-23.2","","76","","","","8","","7","","48.3","","100.65","","","","-26","","NA"
"-126.80","65.28","NORMAN WELLS A","2202801","2018-01-04 02:00","2018","01","04","02:00","-20.6","","-24.0","","74","","","","10","","5","","48.3","","100.66","","","","-25","","Mostly Cloudy"
"-126.80","65.28","NORMAN WELLS A","2202801","2018-01-04 03:00","2018","01","04","03:00","-19.0","","-22.3","","76","","","","7","","4","","48.3","","100.69","","","","-22","","NA"
"-126.80","65.28","NORMAN WELLS A","2202801","2018-01-04 04:00","2018","01","04","04:00","-18.7","","-22.3","","74","","","","9","","7","","48.3","","100.70","","","","-24","","NA"
"-126.80","65.28","NORMAN WELLS A","2202801","2018-01-04 05:00","2018","01","04","05:00","-17.6","","-21.5","","72","","","","10","","8","","48.3","","100.66","","","","-23","","Mostly Cloudy"
"-126.80","65.28","NORMAN WELLS A","2202801","2018-01-04 06:00","2018","01","04","06:00","-17.4","","-21.1","","73","","","","9","","7","","48.3","","100.70","","","","-23","","NA"
"-126.80","65.28","NORMAN WELLS A","2202801","2018-01-04 07:00","2018","01","04","07:00","-18.2","","-21.4","","76","","","","36","","2","","48.3","","100.75","","","","-20","","NA"
"-126.80","65.28","NORMAN WELLS A","2202801","2018-01-04 08:00","2018","01","04","08:00","-19.7","","-22.4","","79","","","","10","","6","","48.3","","100.71","","","","-25","","Mostly Cloudy"
"-126.80","65.28","NORMAN WELLS A","2202801","2018-01-04 09:00","2018","01","04","09:00","-18.1","","-21.1","","77","","","","11","","7","","48.3","","100.74","","","","-23","","NA"
"-126.80","65.28","NORMAN WELLS A","2202801","2018-01-04 10:00","2018","01","04","10:00","-17.4","","-20.6","","76","","","","11","","8","","48.3","","100.79","","","","-23","","NA"
"-126.80","65.28","NORMAN WELLS A","2202801","2018-01-04 11:00","2018","01","04","11:00","-17.3","","-20.4","","77","","","","13","","5","","48.3","","100.81","","","","-21","","Mostly Cloudy"
"-126.80","65.28","NORMAN WELLS A","2202801","2018-01-04 12:00","2018","01","04","12:00","-17.3","","-20.5","","77","","","","11","","5","","48.3","","100.82","","","","-21","","NA"
"-126.80","65.28","NORMAN WELLS A","2202801","2018-01-04 13:00","2018","01","04","13:00","-17.1","","-20.3","","77","","","","11","","5","","48.3","","100.84","","","","-21","","NA"
"-126.80","65.28","NORMAN WELLS A","2202801","2018-01-04 14:00","2018","01","04","14:00","-17.1","","-20.5","","75","","","","12","","10","","48.3","","100.84","","","","-24","","Mostly Cloudy"
"-126.80","65.28","NORMAN WELLS A","2202801","2018-01-04 15:00","2018","01","04","15:00","-16.9","","-20.4","","75","","","","12","","11","","48.3","","100.92","","","","-24","","NA"
"-126.80","65.28","NORMAN WELLS A","2202801","2018-01-04 16:00","2018","01","04","16:00","-17.1","","-20.7","","74","","","","15","","7","","48.3","","100.99","","","","-22","","NA"
"-126.80","65.28","NORMAN WELLS A","2202801","2018-01-04 17:00","2018","01","04","17:00","-17.0","","-20.5","","75","","","","12","","9","","48.3","","100.97","","","","-23","","Mostly Cloudy"
"-126.80","65.28","NORMAN WELLS A","2202801","2018-01-04 18:00","2018","01","04","18:00","-16.9","","-20.3","","75","","","","11","","12","","48.3","","100.96","","","","-24","","NA"
"-126.80","65.28","NORMAN WELLS A","2202801","2018-01-04 19:00","2018","01","04","19:00","-16.8","","-20.4","","74","","","","11","","10","","48.3","","101.00","","","","-23","","NA"
"-126.80","65.28","NORMAN WELLS A","2202801","2018-01-04 20:00","2018","01","04","20:00","-16.7","","-20.1","","75","","","","12","","12","","48.3","","100.98","","","","-24","","Mostly Cloudy"
"-126.80","65.28","NORMAN WELLS A","2202801","2018-01-04 21:00","2018","01","04","21:00","-16.9","","-20.5","","74","","","","12","","10","","48.3","","101.01","","","","-24","","NA"
"-126.80","65.28","NORMAN WELLS A","2202801","2018-01-04 22:00","2018","01","04","22:00","-16.9","","-20.5","","74","","","","12","","9","","48.3","","101.00","","","","-23","","NA"
"-126.80","65.28","NORMAN WELLS A","2202801","2018-01-04 23:00","2018","01","04","23:00","-16.9","","-20.5","","74","","","","11","","8","","48.3","","101.04","","","","-23","","Cloudy"
"-126.80","65.28","NORMAN WELLS A","2202801","2018-01-05 00:00","2018","01","05","00:00","-17.3","","-20.6","","76","","","","12","","7","","48.3","","101.04","","","","-23","","NA"
"-126.80","65.28","NORMAN WELLS A","2202801","2018-01-05 01:00","2018","01","05","01:00","-17.8","","-20.8","","78","","","","9","","5","","48.3","","101.04","","","","-22","","NA"
"-126.80","65.28","NORMAN WELLS A","2202801","2018-01-05 02:00","2018","01","05","02:00","-17.8","","-21.0","","77","","","","10","","5","","48.3","","101.02","","","","-22","","Cloudy"
"-126.80","65.28","NORMAN WELLS A","2202801","2018-01-05 03:00","2018","01","05","03:00","-17.4","","-20.7","","76","","","","8","","5","","48.3","","101.00","","","","-21","","NA"
"-126.80","65.28","NORMAN WELLS A","2202801","2018-01-05 04:00","2018","01","05","04:00","-16.8","","-20.4","","74","","","","9","","7","","48.3","","100.98","","","","-22","","NA"
"-126.80","65.28","NORMAN WELLS A","2202801","2018-01-05 05:00","2018","01","05","05:00","-16.6","","-20.2","","74","","","","9","","5","","48.3","","100.95","","","","-20","","Cloudy"
"-126.80","65.28","NORMAN WELLS A","2202801","2018-01-05 06:00","2018","01","05","06:00","-16.4","","-20.1","","74","","","","9","","5","","48.3","","100.89","","","","-20","","NA"
"-126.80","65.28","NORMAN WELLS A","2202801","2018-01-05 07:00","2018","01","05","07:00","-16.1","","-20.0","","72","","","","11","","9","","48.3","","100.86","","","","-22","","NA"
"-126.80","65.28","NORMAN WELLS A","2202801","2018-01-05 08:00","2018","01","05","08:00","-16.0","","-19.7","","74","","","","10","","6","","48.3","","100.83","","","","-20","","Cloudy"
"-126.80","65.28","NORMAN WELLS A","2202801","2018-01-05 09:00","2018","01","05","09:00","-15.6","","-19.2","","74","","","","10","","5","","24.1","","100.79","","","","-19","","Snow"
"-126.80","65.28","NORMAN WELLS A","2202801","2018-01-05 10:00","2018","01","05","10:00","-15.3","","-18.4","","77","","","","11","","8","","9.7","","100.77","","","","-21","","Snow"
"-126.80","65.28","NORMAN WELLS A","2202801","2018-01-05 11:00","2018","01","05","11:00","-15.2","","-18.2","","78","","","","10","","7","","12.9","","100.78","","","","-20","","Snow"
"-126.80","65.28","NORMAN WELLS A","2202801","2018-01-05 12:00","2018","01","05","12:00","-15.1","","-18.1","","78","","","","8","","7","","12.9","","100.77","","","","-20","","Snow"
"-126.80","65.28","NORMAN WELLS A","2202801","2018-01-05 13:00","2018","01","05","13:00","-14.8","","-18.0","","77","","","","9","","6","","24.1","","100.72","","","","-19","","Snow"
"-126.80","65.28","NORMAN WELLS A","2202801","2018-01-05 14:00","2018","01","05","14:00","-14.7","","-17.8","","78","","","","11","","7","","16.1","","100.67","","","","-19","","Snow"
"-126.80","65.28","NORMAN WELLS A","2202801","2018-01-05 15:00","2018","01","05","15:00","-14.9","","-17.7","","79","","","","10","","4","","24.1","","100.66","","","","-18","","Snow"
"-126.80","65.28","NORMAN WELLS A","2202801","2018-01-05 16:00","2018","01","05","16:00","-15.8","","-18.3","","82","","","","6","","5","","24.1","","100.65","","","","-20","","Snow"
"-126.80","65.28","NORMAN WELLS A","2202801","2018-01-05 17:00","2018","01","05","17:00","-16.7","","-18.9","","83","","","","4","","4","","32.2","","100.65","","","","-20","","Snow"
"-126.80","65.28","NORMAN WELLS A","2202801","2018-01-05 18:00","2018","01","05","18:00","-16.3","","-18.8","","81","","","","5","","5","","32.2","","100.64","","","","-20","","Snow"
"-126.80","65.28","NORMAN WELLS A","2202801","2018-01-05 19:00","2018","01","05","19:00","-15.2","","-17.6","","82","","","","5","","5","","32.2","","100.61","","","","-19","","Snow"
"-126.80","65.28","NORMAN WELLS A","2202801","2018-01-05 20:00","2018","01","05","20:00","-14.3","","-17.2","","79","","","","36","","1","","32.2","","100.55","","","","-15","","Snow"
"-126.80","65.28","NORMAN WELLS A","2202801","2018-01-05 21:00","2018","01","05","21:00","-13.9","","-16.8","","79","","","","0","","1","","32.2","","100.55","","","","-15","","Snow"
"-126.80","65.28","NORMAN WELLS A","2202801","2018-01-05 22:00","2018","01","05","22:00","-14.1","","-16.9","","80","","","","24","","7","","16.1","","100.49","","","","-19","","Snow"
"-126.80","65.28","NORMAN WELLS A","2202801","2018-01-05 23:00","2018","01","05","23:00","-14.2","","-16.9","","80","","","","28","","7","","48.3","","100.51","","","","-19","","Snow"
"-126.80","65.28","NORMAN WELLS A","2202801","2018-01-06 00:00","2018","01","06","00:00","-14.2","","-16.9","","80","","","","28","","12","","48.3","","100.44","","","","-21","","Snow"
"-126.80","65.28","NORMAN WELLS A","2202801","2018-01-06 01:00","2018","01","06","01:00","-14.2","","-15.9","","87","","","","27","","10","","9.7","","100.42","","","","-20","","Snow"
"-126.80","65.28","NORMAN WELLS A","2202801","2018-01-06 02:00","2018","01","06","02:00","-14.2","","-15.8","","88","","","","27","","5","","24.1","","100.39","","","","-18","","Snow"
"-126.80","65.28","NORMAN WELLS A","2202801","2018-01-06 03:00","2018","01","06","03:00","-14.2","","-15.8","","87","","","","36","","1","","24.1","","100.35","","","","-15","","Snow"
"-126.80","65.28","NORMAN WELLS A","2202801","2018-01-06 04:00","2018","01","06","04:00","-14.2","","-16.1","","86","","","","6","","4","","32.2","","100.32","","","","-17","","Snow"
"-126.80","65.28","NORMAN WELLS A","2202801","2018-01-06 05:00","2018","01","06","05:00","-14.1","","-16.1","","85","","","","36","","2","","24.1","","100.27","","","","-15","","Snow"
"-126.80","65.28","NORMAN WELLS A","2202801","2018-01-06 06:00","2018","01","06","06:00","-14.1","","-16.1","","85","","","","36","","2","","24.1","","100.24","","","","-15","","Snow"
"-126.80","65.28","NORMAN WELLS A","2202801","2018-01-06 07:00","2018","01","06","07:00","-14.0","","-16.0","","85","","","","36","","2","","24.1","","100.19","","","","-15","","Snow"
"-126.80","65.28","NORMAN WELLS A","2202801","2018-01-06 08:00","2018","01","06","08:00","-14.0","","-15.9","","85","","","","9","","3","","24.1","","100.19","","","","-16","","Snow"
"-126.80","65.28","NORMAN WELLS A","2202801","2018-01-06 09:00","2018","01","06","09:00","-13.7","","-15.7","","85","","","","36","","1","","24.1","","100.16","","","","-14","","Snow"
"-126.80","65.28","NORMAN WELLS A","2202801","2018-01-06 10:00","2018","01","06","10:00","-12.9","","-14.8","","86","","","","29","","15","","24.1","","100.19","","","","-20","","Snow"
"-126.80","65.28","NORMAN WELLS A","2202801","2018-01-06 11:00","2018","01","06","11:00","-13.2","","-15.1","","86","","","","28","","26","","24.1","","100.20","","","","-23","","Snow"
"-126.80","65.28","NORMAN WELLS A","2202801","2018-01-06 12:00","2018","01","06","12:00","-13.5","","-15.5","","85","","","","28","","26","","9.7","","100.23","","","","-23","","Snow"
"-126.80","65.28","NORMAN WELLS A","2202801","2018-01-06 13:00","2018","01","06","13:00","-13.7","","-15.8","","84","","","","28","","22","","9.7","","100.21","","","","-23","","Snow"
"-126.80","65.28","NORMAN WELLS A","2202801","2018-01-06 14:00","2018","01","06","14:00","-13.9","","-16.2","","83","","","","28","","27","","8.1","","100.21","","","","-24","","Snow"
"-126.80","65.28","NORMAN WELLS A","2202801","2018-01-06 15:00","2018","01","06","15:00","-14.1","","-16.6","","81","","","","28","","23","","6.4","","100.22","","","","-24","","Snow"
"-126.80","65.28","NORMAN WELLS A","2202801","2018-01-06 16:00","2018","01","06","16:00","-14.2","","-17.1","","79","","","","29","","21","","6.4","","100.24","","","","-23","","Snow"
"-126.80","65.28","NORMAN WELLS A","2202801","2018-01-06 17:00","2018","01","06","17:00","-14.3","","-17.1","","80","","","","28","","27","","6.4","","100.29","","","","-25","","Snow"
"-126.80","65.28","NORMAN WELLS A","2202801","2018-01-06 18:00","2018","01","06","18:00","-14.2","","-17.0","","79","","","","28","","22","","9.7","","100.30","","","","-24","","Snow"
"-126.80","65.28","NORMAN WELLS A","2202801","2018-01-06 19:00","2018","01","06","19:00","-14.2","","-16.9","","80","","","","29","","22","","4.8","","100.31","","","","-24","","Snow"
"-126.80","65.28","NORMAN WELLS A","2202801","2018-01-06 20:00","2018","01","06","20:00","-14.1","","-16.9","","80","","","","28","","25","","4.8","","100.32","","","","-24","","Snow"
"-126.80","65.28","NORMAN WELLS A","2202801","2018-01-06 21:00","2018","01","06","21:00","-14.0","","-16.7","","81","","","","28","","26","","4.8","","100.33","","","","-24","","Snow"
"-126.80","65.28","NORMAN WELLS A","2202801","2018-01-06 22:00","2018","01","06","22:00","-13.9","","-16.7","","80","","","","28","","23","","8.1","","100.36","","","","-23","","Snow"
"-126.80","65.28","NORMAN WELLS A","2202801","2018-01-06 23:00","2018","01","06","23:00","-13.8","","-16.5","","80","","","","28","","30","","8.1","","100.39","","","","-24","","Snow"
"-126.80","65.28","NORMAN WELLS A","2202801","2018-01-07 00:00","2018","01","07","00:00","-13.8","","-16.3","","81","","","","28","","24","","6.4","","100.42","","","","-23","","Snow,Blowing Snow"
"-126.80","65.28","NORMAN WELLS A","2202801","2018-01-07 01:00","2018","01","07","01:00","-13.8","","-16.3","","81","","","","28","","25","","8.1","","100.44","","","","-24","","Snow,Blowing Snow"
"-126.80","65.28","NORMAN WELLS A","2202801","2018-01-07 02:00","2018","01","07","02:00","-13.7","","-16.4","","80","","","","28","","24","","9.7","","100.50","","","","-23","","Snow,Blowing Snow"
"-126.80","65.28","NORMAN WELLS A","2202801","2018-01-07 03:00","2018","01","07","03:00","-13.9","","-16.5","","81","","","","29","","22","","12.9","","100.54","","","","-23","","Snow,Blowing Snow"
"-126.80","65.28","NORMAN WELLS A","2202801","2018-01-07 04:00","2018","01","07","04:00","-14.1","","-16.8","","80","","","","29","","19","","9.7","","100.58","","","","-23","","Snow,Blowing Snow"
"-126.80","65.28","NORMAN WELLS A","2202801","2018-01-07 05:00","2018","01","07","05:00","-14.2","","-17.2","","79","","","","29","","26","","9.7","","100.62","","","","-24","","Snow,Blowing Snow"
"-126.80","65.28","NORMAN WELLS A","2202801","2018-01-07 06:00","2018","01","07","06:00","-14.5","","-17.5","","78","","","","29","","26","","9.7","","100.64","","","","-25","","Snow,Blowing Snow"
"-126.80","65.28","NORMAN WELLS A","2202801","2018-01-07 07:00","2018","01","07","07:00","-15.0","","-18.8","","73","","","","29","","26","","12.9","","100.69","","","","-25","","Snow,Blowing Snow"
"-126.80","65.28","NORMAN WELLS A","2202801","2018-01-07 08:00","2018","01","07","08:00","-16.1","","-20.0","","73","","","","28","","30","","16.1","","100.73","","","","-27","","Snow,Blowing Snow"
"-126.80","65.28","NORMAN WELLS A","2202801","2018-01-07 09:00","2018","01","07","09:00","-17.2","","-20.7","","75","","","","28","","31","","16.1","","100.78","","","","-29","","Snow,Blowing Snow"
"-126.80","65.28","NORMAN WELLS A","2202801","2018-01-07 10:00","2018","01","07","10:00","-17.7","","-21.1","","76","","","","28","","24","","16.1","","100.84","","","","-28","","Snow,Blowing Snow"
"-126.80","65.28","NORMAN WELLS A","2202801","2018-01-07 11:00","2018","01","07","11:00","-18.3","","-22.4","","71","","","","31","","20","","16.1","","100.93","","","","-28","","Snow,Blowing Snow"
"-126.80","65.28","NORMAN WELLS A","2202801","2018-01-07 12:00","2018","01","07","12:00","-18.7","","-23.3","","67","","","","30","","29","","16.1","","101.04","","","","-31","","Snow,Blowing Snow"
"-126.80","65.28","NORMAN WELLS A","2202801","2018-01-07 13:00","2018","01","07","13:00","-18.6","","-23.5","","66","","","","30","","18","","16.1","","101.11","","","","-28","","Snow,Blowing Snow"
"-126.80","65.28","NORMAN WELLS A","2202801","2018-01-07 14:00","2018","01","07","14:00","-18.6","","-23.8","","64","","","","30","","18","","16.1","","101.12","","","","-28","","Snow,Blowing Snow"
"-126.80","65.28","NORMAN WELLS A","2202801","2018-01-07 15:00","2018","01","07","15:00","-18.5","","-22.2","","73","","","","29","","18","","6.4","","101.18","","","","-28","","Snow,Blowing Snow"
"-126.80","65.28","NORMAN WELLS A","2202801","2018-01-07 16:00","2018","01","07","16:00","-18.1","","-22.6","","68","","","","29","","20","","8.1","","101.25","","","","-28","","Snow,Blowing Snow"
"-126.80","65.28","NORMAN WELLS A","2202801","2018-01-07 17:00","2018","01","07","17:00","-19.1","","-22.7","","73","","","","29","","31","","4.8","","101.33","","","","-32","","Snow,Blowing Snow"
"-126.80","65.28","NORMAN WELLS A","2202801","2018-01-07 18:00","2018","01","07","18:00","-20.1","","-24.9","","66","","","","31","","16","","6.4","","101.43","","","","-30","","Snow,Blowing Snow"
"-126.80","65.28","NORMAN WELLS A","2202801","2018-01-07 19:00","2018","01","07","19:00","-21.0","","-25.1","","70","","","","30","","19","","8.1","","101.51","","","","-31","","Snow,Blowing Snow"
"-126.80","65.28","NORMAN WELLS A","2202801","2018-01-07 20:00","2018","01","07","20:00","-21.6","","-25.9","","69","","","","29","","30","","9.7","","101.57","","","","-35","","Snow,Blowing Snow"
"-126.80","65.28","NORMAN WELLS A","2202801","2018-01-07 21:00","2018","01","07","21:00","-22.2","","-26.1","","71","","","","29","","23","","16.1","","101.67","","","","-34","","Snow,Blowing Snow"
"-126.80","65.28","NORMAN WELLS A","2202801","2018-01-07 22:00","2018","01","07","22:00","-22.3","","-26.9","","67","","","","29","","30","","16.1","","101.75","","","","-36","","Snow,Blowing Snow"
"-126.80","65.28","NORMAN WELLS A","2202801","2018-01-07 23:00","2018","01","07","23:00","-22.7","","-26.7","","70","","","","28","","28","","24.1","","101.79","","","","-36","","Snow,Blowing Snow"
"-126.80","65.28","NORMAN WELLS A","2202801","2018-01-08 00:00","2018","01","08","00:00","-22.9","","-27.2","","69","","","","27","","28","","24.1","","101.87","","","","-36","","Snow,Blowing Snow"
"-126.80","65.28","NORMAN WELLS A","2202801","2018-01-08 01:00","2018","01","08","01:00","-23.5","","-28.1","","66","","","","29","","14","","32.2","","101.92","","","","-33","","Snow,Blowing Snow"
"-126.80","65.28","NORMAN WELLS A","2202801","2018-01-08 02:00","2018","01","08","02:00","-24.1","","-28.3","","69","","","","28","","19","","32.2","","101.96","","","","-35","","Snow,Blowing Snow"
"-126.80","65.28","NORMAN WELLS A","2202801","2018-01-08 03:00","2018","01","08","03:00","-23.9","","-27.9","","70","","","","28","","23","","32.2","","101.99","","","","-36","","Snow,Blowing Snow"
"-126.80","65.28","NORMAN WELLS A","2202801","2018-01-08 04:00","2018","01","08","04:00","-23.9","","-27.6","","72","","","","28","","27","","24.1","","102.01","","","","-37","","Snow,Blowing Snow"
"-126.80","65.28","NORMAN WELLS A","2202801","2018-01-08 05:00","2018","01","08","05:00","-23.7","","-27.5","","71","","","","28","","26","","24.1","","102.04","","","","-37","","Snow,Blowing Snow"
"-126.80","65.28","NORMAN WELLS A","2202801","2018-01-08 06:00","2018","01","08","06:00","-23.6","","-27.6","","71","","","","28","","20","","16.1","","102.08","","","","-35","","Snow,Blowing Snow"
"-126.80","65.28","NORMAN WELLS A","2202801","2018-01-08 07:00","2018","01","08","07:00","-23.6","","-27.6","","70","","","","27","","27","","16.1","","102.09","","","","-37","","Snow,Blowing Snow"
"-126.80","65.28","NORMAN WELLS A","2202801","2018-01-08 08:00","2018","01","08","08:00","-23.6","","-27.5","","71","","","","28","","27","","12.9","","102.10","","","","-37","","Snow,Blowing Snow"
"-126.80","65.28","NORMAN WELLS A","2202801","2018-01-08 09:00","2018","01","08","09:00","-23.5","","-27.2","","72","","","","28","","27","","16.1","","102.11","","","","-37","","Snow,Blowing Snow"
"-126.80","65.28","NORMAN WELLS A","2202801","2018-01-08 10:00","2018","01","08","10:00","-23.3","","-27.2","","71","","","","28","","24","","16.1","","102.16","","","","-36","","Snow,Blowing Snow"
"-126.80","65.28","NORMAN WELLS A","2202801","2018-01-08 11:00","2018","01","08","11:00","-23.3","","-27.0","","72","","","","29","","17","","8.1","","102.20","","","","-34","","Snow,Blowing Snow"
"-126.80","65.28","NORMAN WELLS A","2202801","2018-01-08 12:00","2018","01","08","12:00","-23.2","","-26.9","","72","","","","28","","22","","9.7","","102.22","","","","-35","","Snow,Blowing Snow"
"-126.80","65.28","NORMAN WELLS A","2202801","2018-01-08 13:00","2018","01","08","13:00","-23.1","","-27.0","","71","","","","29","","20","","12.9","","102.24","","","","-34","","Snow,Blowing Snow"
"-126.80","65.28","NORMAN WELLS A","2202801","2018-01-08 14:00","2018","01","08","14:00","-23.8","","-27.4","","72","","","","29","","19","","24.1","","102.27","","","","-35","","Snow"
"-126.80","65.28","NORMAN WELLS A","2202801","2018-01-08 15:00","2018","01","08","15:00","-24.9","","-28.2","","74","","","","27","","16","","32.2","","102.31","","","","-35","","NA"
"-126.80","65.28","NORMAN WELLS A","2202801","2018-01-08 16:00","2018","01","08","16:00","-26.2","","-29.4","","75","","","","30","","12","","32.2","","102.35","","","","-36","","NA"
"-126.80","65.28","NORMAN WELLS A","2202801","2018-01-08 17:00","2018","01","08","17:00","-25.7","","-29.0","","75","","","","29","","21","","32.2","","102.37","","","","-38","","Mostly Cloudy"
"-126.80","65.28","NORMAN WELLS A","2202801","2018-01-08 18:00","2018","01","08","18:00","-26.2","","-29.7","","72","","","","29","","22","","32.2","","102.42","","","","-39","","NA"
"-126.80","65.28","NORMAN WELLS A","2202801","2018-01-08 19:00","2018","01","08","19:00","-25.8","","-29.7","","70","","","","28","","25","","24.1","","102.49","","","","-39","","NA"
"-126.80","65.28","NORMAN WELLS A","2202801","2018-01-08 20:00","2018","01","08","20:00","-26.6","","-30.4","","71","","","","29","","24","","24.1","","102.55","","","","-40","","Snow,Blowing Snow"
"-126.80","65.28","NORMAN WELLS A","2202801","2018-01-08 21:00","2018","01","08","21:00","-27.1","","-31.1","","70","","","","28","","30","","24.1","","102.58","","","","-42","","Snow,Blowing Snow"
"-126.80","65.28","NORMAN WELLS A","2202801","2018-01-08 22:00","2018","01","08","22:00","-27.9","","-31.9","","69","","","","28","","31","","24.1","","102.65","","","","-43","","Snow,Blowing Snow"
"-126.80","65.28","NORMAN WELLS A","2202801","2018-01-08 23:00","2018","01","08","23:00","-28.4","","-32.5","","69","","","","28","","29","","32.2","","102.68","","","","-43","","Snow,Blowing Snow"
"-126.80","65.28","NORMAN WELLS A","2202801","2018-01-09 00:00","2018","01","09","00:00","-28.9","","-33.1","","67","","","","28","","23","","32.2","","102.73","","","","-43","","Snow,Blowing Snow"
"-126.80","65.28","NORMAN WELLS A","2202801","2018-01-09 01:00","2018","01","09","01:00","-29.5","","-33.7","","68","","","","29","","18","","32.2","","102.76","","","","-42","","Snow,Blowing Snow"
"-126.80","65.28","NORMAN WELLS A","2202801","2018-01-09 02:00","2018","01","09","02:00","-30.3","","-34.3","","69","","","","29","","21","","32.2","","102.78","","","","-44","","Snow,Blowing Snow"
"-126.80","65.28","NORMAN WELLS A","2202801","2018-01-09 03:00","2018","01","09","03:00","-30.9","","-34.9","","69","","","","28","","19","","32.2","","102.81","","","","-44","","Snow,Blowing Snow"
"-126.80","65.28","NORMAN WELLS A","2202801","2018-01-09 04:00","2018","01","09","04:00","-31.8","","-35.6","","70","","","","29","","12","","8.1","","102.83","","","","-42","","Snow,Fog,Blowing Snow"
"-126.80","65.28","NORMAN WELLS A","2202801","2018-01-09 05:00","2018","01","09","05:00","-32.7","","-36.4","","70","","","","29","","9","","9.7","","102.86","","","","-42","","Snow,Fog"
"-126.80","65.28","NORMAN WELLS A","2202801","2018-01-09 06:00","2018","01","09","06:00","-33.9","","-37.8","","69","","","","28","","8","","24.1","","102.87","","","","-43","","Ice Crystals"
"-126.80","65.28","NORMAN WELLS A","2202801","2018-01-09 07:00","2018","01","09","07:00","-34.2","","-38.0","","69","","","","28","","5","","8.1","","102.90","","","","-40","","Ice Crystals,Fog"
"-126.80","65.28","NORMAN WELLS A","2202801","2018-01-09 08:00","2018","01","09","08:00","-35.5","","-39.4","","68","","","","30","","7","","16.1","","102.89","","","","-44","","Ice Crystals"
"-126.80","65.28","NORMAN WELLS A","2202801","2018-01-09 09:00","2018","01","09","09:00","-36.6","","-40.7","","67","","","","27","","3","","12.9","","102.87","","","","-41","","Ice Crystals"
"-126.80","65.28","NORMAN WELLS A","2202801","2018-01-09 10:00","2018","01","09","10:00","-35.1","","-38.8","","69","","","","29","","6","","32.2","","102.88","","","","-42","","Ice Crystals"
"-126.80","65.28","NORMAN WELLS A","2202801","2018-01-09 11:00","2018","01","09","11:00","-38.4","","-42.4","","67","","","","35","","5","","40.2","","102.84","","","","-45","","Ice Crystals"
"-126.80","65.28","NORMAN WELLS A","2202801","2018-01-09 12:00","2018","01","09","12:00","-38.8","","-42.9","","66","","","","36","","3","","48.3","","102.83","","","","-43","","NA"
"-126.80","65.28","NORMAN WELLS A","2202801","2018-01-09 13:00","2018","01","09","13:00","-37.3","","-41.4","","67","","","","36","","2","","48.3","","102.79","","","","-40","","Ice Crystals"
"-126.80","65.28","NORMAN WELLS A","2202801","2018-01-09 14:00","2018","01","09","14:00","-33.2","","-37.1","","69","","","","20","","3","","48.3","","102.75","","","","-37","","Ice Crystals"
"-126.80","65.28","NORMAN WELLS A","2202801","2018-01-09 15:00","2018","01","09","15:00","-34.3","","-38.1","","69","","","","36","","3","","48.3","","102.74","","","","-38","","Ice Crystals"
"-126.80","65.28","NORMAN WELLS A","2202801","2018-01-09 16:00","2018","01","09","16:00","-35.3","","-39.3","","68","","","","11","","3","","48.3","","102.74","","","","-39","","Ice Crystals"
"-126.80","65.28","NORMAN WELLS A","2202801","2018-01-09 17:00","2018","01","09","17:00","-38.1","","-42.3","","66","","","","6","","7","","48.3","","102.72","","","","-47","","Ice Crystals"
"-126.80","65.28","NORMAN WELLS A","2202801","2018-01-09 18:00","2018","01","09","18:00","-37.0","","-41.0","","68","","","","18","","4","","48.3","","102.70","","","","-42","","Ice Crystals"
"-126.80","65.28","NORMAN WELLS A","2202801","2018-01-09 19:00","2018","01","09","19:00","-37.9","","-42.0","","66","","","","12","","8","","40.2","","102.71","","","","-47","","Ice Crystals"
"-126.80","65.28","NORMAN WELLS A","2202801","2018-01-09 20:00","2018","01","09","20:00","-39.0","","-43.1","","66","","","","3","","3","","48.3","","102.64","","","","-43","","Ice Crystals"
"-126.80","65.28","NORMAN WELLS A","2202801","2018-01-09 21:00","2018","01","09","21:00","-40.3","","-44.6","","65","","","","7","","5","","40.2","","102.59","","","","-47","","Ice Crystals"
"-126.80","65.28","NORMAN WELLS A","2202801","2018-01-09 22:00","2018","01","09","22:00","-37.4","","-41.5","","67","","","","11","","10","","24.1","","102.61","","","","-48","","Ice Crystals"
"-126.80","65.28","NORMAN WELLS A","2202801","2018-01-09 23:00","2018","01","09","23:00","-36.7","","-40.8","","67","","","","10","","8","","24.1","","102.59","","","","-46","","Ice Crystals"
"-126.80","65.28","NORMAN WELLS A","2202801","2018-01-10 00:00","2018","01","10","00:00","-39.1","","-43.2","","66","","","","14","","4","","24.1","","102.56","","","","-45","","Ice Crystals"
"-126.80","65.28","NORMAN WELLS A","2202801","2018-01-10 01:00","2018","01","10","01:00","-40.7","","-45.0","","65","","","","36","","2","","24.1","","102.54","","","","-44","","Ice Crystals"
"-126.80","65.28","NORMAN WELLS A","2202801","2018-01-10 02:00","2018","01","10","02:00","-40.1","","-44.3","","65","","","","10","","6","","24.1","","102.52","","","","-48","","Ice Crystals"
"-126.80","65.28","NORMAN WELLS A","2202801","2018-01-10 03:00","2018","01","10","03:00","-40.3","","-44.6","","65","","","","","","0","","24.1","","102.48","","","","","","Ice Crystals"
"-126.80","65.28","NORMAN WELLS A","2202801","2018-01-10 04:00","2018","01","10","04:00","-40.3","","-44.6","","65","","","","11","","4","","24.1","","102.44","","","","-46","","Ice Crystals"
"-126.80","65.28","NORMAN WELLS A","2202801","2018-01-10 05:00","2018","01","10","05:00","-39.4","","-43.6","","65","","","","11","","7","","24.1","","102.42","","","","-48","","Ice Crystals"
"-126.80","65.28","NORMAN WELLS A","2202801","2018-01-10 06:00","2018","01","10","06:00","-40.7","","-45.0","","64","","","","36","","1","","24.1","","102.37","","","","-42","","Ice Crystals"
"-126.80","65.28","NORMAN WELLS A","2202801","2018-01-10 07:00","2018","01","10","07:00","-39.9","","-44.1","","65","","","","11","","3","","24.1","","102.34","","","","-44","","NA"
"-126.80","65.28","NORMAN WELLS A","2202801","2018-01-10 08:00","2018","01","10","08:00","-40.3","","-44.6","","64","","","","36","","1","","48.3","","102.31","","","","-42","","Mainly Clear"
"-126.80","65.28","NORMAN WELLS A","2202801","2018-01-10 09:00","2018","01","10","09:00","-38.7","","-42.9","","66","","","","12","","5","","48.3","","102.26","","","","-45","","NA"
"-126.80","65.28","NORMAN WELLS A","2202801","2018-01-10 10:00","2018","01","10","10:00","-38.0","","-42.1","","66","","","","8","","6","","48.3","","102.26","","","","-46","","NA"
"-126.80","65.28","NORMAN WELLS A","2202801","2018-01-10 11:00","2018","01","10","11:00","-36.4","","-40.4","","67","","","","12","","5","","48.3","","102.21","","","","-43","","Mainly Clear"
"-126.80","65.28","NORMAN WELLS A","2202801","2018-01-10 12:00","2018","01","10","12:00","-36.4","","-40.5","","67","","","","15","","6","","48.3","","102.22","","","","-44","","NA"
"-126.80","65.28","NORMAN WELLS A","2202801","2018-01-10 13:00","2018","01","10","13:00","-35.8","","-39.9","","67","","","","36","","2","","48.3","","102.18","","","","-38","","NA"
"-126.80","65.28","NORMAN WELLS A","2202801","2018-01-10 14:00","2018","01","10","14:00","-33.0","","-36.9","","69","","","","13","","4","","48.3","","102.15","","","","-38","","Mostly Cloudy"
"-126.80","65.28","NORMAN WELLS A","2202801","2018-01-10 15:00","2018","01","10","15:00","-33.0","","-36.9","","69","","","","13","","5","","48.3","","102.13","","","","-39","","NA"
"-126.80","65.28","NORMAN WELLS A","2202801","2018-01-10 16:00","2018","01","10","16:00","-34.1","","-38.0","","68","","","","9","","8","","48.3","","102.12","","","","-43","","NA"
"-126.80","65.28","NORMAN WELLS A","2202801","2018-01-10 17:00","2018","01","10","17:00","-32.3","","-36.2","","69","","","","8","","9","","48.3","","102.10","","","","-41","","Clear"
"-126.80","65.28","NORMAN WELLS A","2202801","2018-01-10 18:00","2018","01","10","18:00","-31.8","","-35.7","","69","","","","9","","7","","48.3","","102.09","","","","-39","","NA"
"-126.80","65.28","NORMAN WELLS A","2202801","2018-01-10 19:00","2018","01","10","19:00","-32.0","","-36.0","","69","","","","10","","8","","48.3","","102.10","","","","-40","","NA"
"-126.80","65.28","NORMAN WELLS A","2202801","2018-01-10 20:00","2018","01","10","20:00","-31.6","","-35.5","","69","","","","10","","8","","48.3","","102.11","","","","-40","","Clear"
"-126.80","65.28","NORMAN WELLS A","2202801","2018-01-10 21:00","2018","01","10","21:00","-31.8","","-35.8","","69","","","","10","","9","","48.3","","102.10","","","","-41","","NA"
"-126.80","65.28","NORMAN WELLS A","2202801","2018-01-10 22:00","2018","01","10","22:00","-31.8","","-35.8","","69","","","","9","","9","","48.3","","102.08","","","","-41","","NA"
"-126.80","65.28","NORMAN WELLS A","2202801","2018-01-10 23:00","2018","01","10","23:00","-31.9","","-35.9","","68","","","","11","","9","","48.3","","102.06","","","","-41","","Clear"
"-126.80","65.28","NORMAN WELLS A","2202801","2018-01-11 00:00","2018","01","11","00:00","-32.6","","-36.5","","68","","","","10","","8","","48.3","","102.07","","","","-41","","NA"
"-126.80","65.28","NORMAN WELLS A","2202801","2018-01-11 01:00","2018","01","11","01:00","-34.1","","-38.2","","68","","","","11","","8","","48.3","","102.08","","","","-43","","NA"
"-126.80","65.28","NORMAN WELLS A","2202801","2018-01-11 02:00","2018","01","11","02:00","-34.2","","-38.2","","68","","","","11","","9","","48.3","","102.08","","","","-44","","Clear"
"-126.80","65.28","NORMAN WELLS A","2202801","2018-01-11 03:00","2018","01","11","03:00","-34.9","","-38.9","","68","","","","12","","10","","48.3","","102.07","","","","-45","","NA"
"-126.80","65.28","NORMAN WELLS A","2202801","2018-01-11 04:00","2018","01","11","04:00","-32.3","","-36.3","","69","","","","9","","10","","48.3","","102.05","","","","-42","","NA"
"-126.80","65.28","NORMAN WELLS A","2202801","2018-01-11 05:00","2018","01","11","05:00","-31.4","","-35.4","","69","","","","10","","12","","48.3","","102.02","","","","-42","","Clear"
"-126.80","65.28","NORMAN WELLS A","2202801","2018-01-11 06:00","2018","01","11","06:00","-30.7","","-34.7","","69","","","","10","","12","","48.3","","102.00","","","","-41","","NA"
"-126.80","65.28","NORMAN WELLS A","2202801","2018-01-11 07:00","2018","01","11","07:00","-30.6","","-34.5","","69","","","","12","","15","","48.3","","102.01","","","","-42","","Ice Crystals"
"-126.80","65.28","NORMAN WELLS A","2202801","2018-01-11 08:00","2018","01","11","08:00","-30.6","","-34.4","","70","","","","10","","15","","48.3","","101.98","","","","-42","","Clear"
"-126.80","65.28","NORMAN WELLS A","2202801","2018-01-11 09:00","2018","01","11","09:00","-30.8","","-34.8","","69","","","","11","","17","","48.3","","101.94","","","","-43","","NA"
"-126.80","65.28","NORMAN WELLS A","2202801","2018-01-11 10:00","2018","01","11","10:00","-31.1","","-35.0","","69","","","","10","","14","","48.3","","101.92","","","","-42","","NA"
"-126.80","65.28","NORMAN WELLS A","2202801","2018-01-11 11:00","2018","01","11","11:00","-30.9","","-34.9","","69","","","","10","","12","","48.3","","101.93","","","","-41","","Clear"
"-126.80","65.28","NORMAN WELLS A","2202801","2018-01-11 12:00","2018","01","11","12:00","-30.1","","-34.1","","69","","","","10","","17","","48.3","","101.90","","","","-42","","NA"
"-126.80","65.28","NORMAN WELLS A","2202801","2018-01-11 13:00","2018","01","11","13:00","-29.7","","-33.7","","69","","","","10","","14","","48.3","","101.87","","","","-41","","NA"
"-126.80","65.28","NORMAN WELLS A","2202801","2018-01-11 14:00","2018","01","11","14:00","-29.9","","-33.9","","69","","","","9","","11","","48.3","","101.86","","","","-40","","Clear"
"-126.80","65.28","NORMAN WELLS A","2202801","2018-01-11 15:00","2018","01","11","15:00","-29.8","","-33.8","","69","","","","8","","11","","48.3","","101.86","","","","-39","","NA"
"-126.80","65.28","NORMAN WELLS A","2202801","2018-01-11 16:00","2018","01","11","16:00","-29.5","","-33.6","","69","","","","10","","18","","48.3","","101.77","","","","-42","","NA"
"-126.80","65.28","NORMAN WELLS A","2202801","2018-01-11 17:00","2018","01","11","17:00","-29.2","","-33.2","","69","","","","9","","12","","48.3","","101.77","","","","-39","","Blowing Snow"
"-126.80","65.28","NORMAN WELLS A","2202801","2018-01-11 18:00","2018","01","11","18:00","-28.5","","-32.6","","68","","","","9","","16","","48.3","","101.74","","","","-40","","Blowing Snow"
"-126.80","65.28","NORMAN WELLS A","2202801","2018-01-11 19:00","2018","01","11","19:00","-29.0","","-33.1","","69","","","","10","","12","","48.3","","101.71","","","","-39","","NA"
"-126.80","65.28","NORMAN WELLS A","2202801","2018-01-11 20:00","2018","01","11","20:00","-28.5","","-32.6","","69","","","","8","","13","","48.3","","101.66","","","","-39","","Clear"
"-126.80","65.28","NORMAN WELLS A","2202801","2018-01-11 21:00","2018","01","11","21:00","-29.0","","-33.0","","69","","","","9","","12","","48.3","","101.61","","","","-39","","NA"
"-126.80","65.28","NORMAN WELLS A","2202801","2018-01-11 22:00","2018","01","11","22:00","-28.8","","-32.9","","68","","","","10","","16","","48.3","","101.51","","","","-40","","NA"
"-126.80","65.28","NORMAN WELLS A","2202801","2018-01-11 23:00","2018","01","11","23:00","-28.9","","-33.0","","69","","","","8","","11","","48.3","","101.51","","","","-38","","Clear"
"-126.80","65.28","NORMAN WELLS A","2202801","2018-01-12 00:00","2018","01","12","00:00","-28.9","","-33.0","","68","","","","10","","9","","48.3","","101.52","","","","-37","","NA"
"-126.80","65.28","NORMAN WELLS A","2202801","2018-01-12 01:00","2018","01","12","01:00","-31.9","","-35.7","","70","","","","35","","4","","48.3","","101.54","","","","-37","","NA"
"-126.80","65.28","NORMAN WELLS A","2202801","2018-01-12 02:00","2018","01","12","02:00","-32.3","","-36.1","","70","","","","27","","10","","48.3","","101.51","","","","-42","","Clear"
"-126.80","65.28","NORMAN WELLS A","2202801","2018-01-12 03:00","2018","01","12","03:00","-33.8","","-37.7","","69","","","","27","","5","","48.3","","101.48","","","","-40","","NA"
"-126.80","65.28","NORMAN WELLS A","2202801","2018-01-12 04:00","2018","01","12","04:00","-35.5","","-39.5","","68","","","","34","","6","","48.3","","101.49","","","","-43","","NA"
"-126.80","65.28","NORMAN WELLS A","2202801","2018-01-12 05:00","2018","01","12","05:00","-37.5","","-41.6","","66","","","","0","","1","","48.3","","101.47","","","","-39","","Clear"
"-126.80","65.28","NORMAN WELLS A","2202801","2018-01-12 06:00","2018","01","12","06:00","-37.6","","-41.8","","66","","","","35","","5","","48.3","","101.47","","","","-44","","NA"
"-126.80","65.28","NORMAN WELLS A","2202801","2018-01-12 07:00","2018","01","12","07:00","-38.3","","-42.4","","66","","","","36","","2","","48.3","","101.45","","","","-41","","NA"
"-126.80","65.28","NORMAN WELLS A","2202801","2018-01-12 08:00","2018","01","12","08:00","-37.3","","-41.4","","66","","","","4","","5","","48.3","","101.44","","","","-44","","Clear"
"-126.80","65.28","NORMAN WELLS A","2202801","2018-01-12 09:00","2018","01","12","09:00","-38.5","","-42.7","","65","","","","4","","4","","48.3","","101.39","","","","-44","","NA"
"-126.80","65.28","NORMAN WELLS A","2202801","2018-01-12 10:00","2018","01","12","10:00","-38.9","","-43.2","","65","","","","8","","4","","48.3","","101.40","","","","-44","","NA"
"-126.80","65.28","NORMAN WELLS A","2202801","2018-01-12 11:00","2018","01","12","11:00","-35.1","","-38.9","","69","","","","12","","6","","48.3","","101.37","","","","-42","","Clear"
"-126.80","65.28","NORMAN WELLS A","2202801","2018-01-12 12:00","2018","01","12","12:00","-37.0","","-41.1","","67","","","","8","","6","","48.3","","101.36","","","","-45","","NA"
"-126.80","65.28","NORMAN WELLS A","2202801","2018-01-12 13:00","2018","01","12","13:00","-35.2","","-39.2","","68","","","","8","","5","","48.3","","101.35","","","","-42","","NA"
"-126.80","65.28","NORMAN WELLS A","2202801","2018-01-12 14:00","2018","01","12","14:00","-32.9","","-36.8","","69","","","","6","","4","","48.3","","101.33","","","","-38","","Clear"
"-126.80","65.28","NORMAN WELLS A","2202801","2018-01-12 15:00","2018","01","12","15:00","-31.9","","-35.8","","69","","","","10","","4","","48.3","","101.31","","","","-37","","NA"
"-126.80","65.28","NORMAN WELLS A","2202801","2018-01-12 16:00","2018","01","12","16:00","-32.0","","-36.1","","68","","","","8","","8","","48.3","","101.31","","","","-40","","NA"
"-126.80","65.28","NORMAN WELLS A","2202801","2018-01-12 17:00","2018","01","12","17:00","-33.4","","-37.3","","69","","","","6","","8","","48.3","","101.30","","","","-42","","Clear"
"-126.80","65.28","NORMAN WELLS A","2202801","2018-01-12 18:00","2018","01","12","18:00","-37.5","","-41.8","","65","","","","36","","2","","48.3","","101.26","","","","-40","","NA"
"-126.80","65.28","NORMAN WELLS A","2202801","2018-01-12 19:00","2018","01","12","19:00","-37.0","","-41.1","","67","","","","5","","5","","48.3","","101.21","","","","-44","","NA"
"-126.80","65.28","NORMAN WELLS A","2202801","2018-01-12 20:00","2018","01","12","20:00","-38.6","","-42.8","","65","","","","2","","4","","48.3","","101.22","","","","-44","","Clear"
"-126.80","65.28","NORMAN WELLS A","2202801","2018-01-12 21:00","2018","01","12","21:00","-37.7","","-41.9","","66","","","","9","","3","","48.3","","101.25","","","","-42","","NA"
"-126.80","65.28","NORMAN WELLS A","2202801","2018-01-12 22:00","2018","01","12","22:00","-38.2","","-42.4","","66","","","","3","","4","","48.3","","101.26","","","","-44","","NA"
"-126.80","65.28","NORMAN WELLS A","2202801","2018-01-12 23:00","2018","01","12","23:00","-37.6","","-41.7","","66","","","","8","","7","","48.3","","101.30","","","","-46","","Clear"
"-126.80","65.28","NORMAN WELLS A","2202801","2018-01-13 00:00","2018","01","13","00:00","-37.6","","-41.8","","66","","","","10","","5","","48.3","","101.33","","","","-44","","NA"
"-126.80","65.28","NORMAN WELLS A","2202801","2018-01-13 01:00","2018","01","13","01:00","-38.3","","-42.6","","65","","","","7","","4","","48.3","","101.37","","","","-44","","NA"
"-126.80","65.28","NORMAN WELLS A","2202801","2018-01-13 02:00","2018","01","13","02:00","-38.7","","-42.9","","65","","","","0","","1","","48.3","","101.38","","","","-40","","Clear"
"-126.80","65.28","NORMAN WELLS A","2202801","2018-01-13 03:00","2018","01","13","03:00","-39.1","","-43.4","","65","","","","5","","5","","48.3","","101.44","","","","-46","","NA"
"-126.80","65.28","NORMAN WELLS A","2202801","2018-01-13 04:00","2018","01","13","04:00","-38.2","","-42.5","","66","","","","12","","4","","48.3","","101.53","","","","-44","","NA"
"-126.80","65.28","NORMAN WELLS A","2202801","2018-01-13 05:00","2018","01","13","05:00","-37.7","","-41.9","","66","","","","36","","3","","48.3","","101.55","","","","-42","","Clear"
"-126.80","65.28","NORMAN WELLS A","2202801","2018-01-13 06:00","2018","01","13","06:00","-39.5","","-43.8","","65","","","","7","","7","","48.3","","101.61","","","","-48","","Ice Crystals"
"-126.80","65.28","NORMAN WELLS A","2202801","2018-01-13 07:00","2018","01","13","07:00","-39.9","","-44.3","","64","","","","36","","1","","48.3","","101.71","","","","-41","","NA"
"-126.80","65.28","NORMAN WELLS A","2202801","2018-01-13 08:00","2018","01","13","08:00","-39.1","","-43.4","","65","","","","12","","6","","48.3","","101.78","","","","-47","","Clear"
"-126.80","65.28","NORMAN WELLS A","2202801","2018-01-13 09:00","2018","01","13","09:00","-39.7","","-44.0","","64","","","","8","","5","","48.3","","101.90","","","","-47","","NA"
"-126.80","65.28","NORMAN WELLS A","2202801","2018-01-13 10:00","2018","01","13","10:00","-40.1","","-44.5","","64","","","","5","","3","","48.3","","102.00","","","","-44","","NA"
"-126.80","65.28","NORMAN WELLS A","2202801","2018-01-13 11:00","2018","01","13","11:00","-38.6","","-42.9","","65","","","","11","","5","","48.3","","102.08","","","","-45","","Clear"
"-126.80","65.28","NORMAN WELLS A","2202801","2018-01-13 12:00","2018","01","13","12:00","-37.6","","-41.8","","66","","","","11","","3","","48.3","","102.18","","","","-42","","NA"
"-126.80","65.28","NORMAN WELLS A","2202801","2018-01-13 13:00","2018","01","13","13:00","-35.0","","-39.1","","68","","","","11","","8","","48.3","","102.24","","","","-44","","NA"
"-126.80","65.28","NORMAN WELLS A","2202801","2018-01-13 14:00","2018","01","13","14:00","-35.4","","-39.6","","66","","","","14","","5","","48.3","","102.31","","","","-42","","Clear"
"-126.80","65.28","NORMAN WELLS A","2202801","2018-01-13 15:00","2018","01","13","15:00","-35.0","","-39.2","","67","","","","11","","7","","48.3","","102.35","","","","-43","","NA"
"-126.80","65.28","NORMAN WELLS A","2202801","2018-01-13 16:00","2018","01","13","16:00","-34.7","","-38.9","","67","","","","7","","8","","48.3","","102.36","","","","-43","","NA"
"-126.80","65.28","NORMAN WELLS A","2202801","2018-01-13 17:00","2018","01","13","17:00","-34.8","","-39.0","","67","","","","9","","7","","48.3","","102.36","","","","-43","","Mainly Clear"
"-126.80","65.28","NORMAN WELLS A","2202801","2018-01-13 18:00","2018","01","13","18:00","-34.8","","-39.0","","66","","","","7","","13","","48.3","","102.40","","","","-46","","NA"
"-126.80","65.28","NORMAN WELLS A","2202801","2018-01-13 19:00","2018","01","13","19:00","-33.8","","-38.0","","66","","","","12","","17","","48.3","","102.37","","","","-47","","NA"
"-126.80","65.28","NORMAN WELLS A","2202801","2018-01-13 20:00","2018","01","13","20:00","-31.6","","-35.8","","67","","","","11","","19","","48.3","","102.29","","","","-45","","Blowing Snow"
"-126.80","65.28","NORMAN WELLS A","2202801","2018-01-13 21:00","2018","01","13","21:00","-31.5","","-35.8","","67","","","","11","","26","","16.1","","102.21","","","","-47","","Blowing Snow"
"-126.80","65.28","NORMAN WELLS A","2202801","2018-01-13 22:00","2018","01","13","22:00","-31.5","","-35.7","","67","","","","10","","18","","24.1","","102.13","","","","-44","","Blowing Snow"
"-126.80","65.28","NORMAN WELLS A","2202801","2018-01-13 23:00","2018","01","13","23:00","-30.2","","-34.4","","68","","","","10","","21","","24.1","","101.97","","","","-44","","Blowing Snow"
"-126.80","65.28","NORMAN WELLS A","2202801","2018-01-14 00:00","2018","01","14","00:00","-28.3","","-32.4","","69","","","","10","","19","","24.1","","101.88","","","","-41","","NA"
"-126.80","65.28","NORMAN WELLS A","2202801","2018-01-14 01:00","2018","01","14","01:00","-26.8","","-30.7","","70","","","","10","","20","","32.2","","101.73","","","","-39","","Blowing Snow"
"-126.80","65.28","NORMAN WELLS A","2202801","2018-01-14 02:00","2018","01","14","02:00","-23.9","","-27.9","","70","","","","10","","24","","32.2","","101.61","","","","-36","","Blowing Snow"
"-126.80","65.28","NORMAN WELLS A","2202801","2018-01-14 03:00","2018","01","14","03:00","-19.7","","-24.4","","66","","","","12","","46","","32.2","","101.45","","","","-35","","Blowing Snow"
"-126.80","65.28","NORMAN WELLS A","2202801","2018-01-14 04:00","2018","01","14","04:00","-14.4","","-20.6","","60","","","","11","","43","","32.2","","101.28","","","","-27","","Blowing Snow"
"-126.80","65.28","NORMAN WELLS A","2202801","2018-01-14 05:00","2018","01","14","05:00","-14.0","","-19.6","","63","","","","11","","49","","32.2","","101.15","","","","-27","","Blowing Snow"
"-126.80","65.28","NORMAN WELLS A","2202801","2018-01-14 06:00","2018","01","14","06:00","-13.7","","-18.8","","66","","","","12","","49","","32.2","","101.01","","","","-27","","Blowing Snow"
"-126.80","65.28","NORMAN WELLS A","2202801","2018-01-14 07:00","2018","01","14","07:00","-11.3","","-18.4","","56","","","","11","","44","","32.2","","100.83","","","","-23","","Blowing Snow"
"-126.80","65.28","NORMAN WELLS A","2202801","2018-01-14 08:00","2018","01","14","08:00","-11.4","","-17.4","","62","","","","11","","35","","32.2","","100.67","","","","-22","","Blowing Snow"
"-126.80","65.28","NORMAN WELLS A","2202801","2018-01-14 09:00","2018","01","14","09:00","-10.7","","-17.4","","58","","","","11","","39","","32.2","","100.57","","","","-22","","Blowing Snow"
"-126.80","65.28","NORMAN WELLS A","2202801","2018-01-14 10:00","2018","01","14","10:00","-10.8","","-15.5","","69","","","","12","","46","","48.3","","100.39","","","","-22","","Blowing Snow"
"-126.80","65.28","NORMAN WELLS A","2202801","2018-01-14 11:00","2018","01","14","11:00","-11.7","","-15.5","","73","","","","12","","43","","48.3","","100.30","","","","-23","","Blowing Snow"
"-126.80","65.28","NORMAN WELLS A","2202801","2018-01-14 12:00","2018","01","14","12:00","-10.9","","-14.6","","75","","","","12","","39","","48.3","","100.18","","","","-22","","Blowing Snow"
"-126.80","65.28","NORMAN WELLS A","2202801","2018-01-14 13:00","2018","01","14","13:00","-9.6","","-13.4","","74","","","","13","","28","","48.3","","100.07","","","","-19","","Blowing Snow"
"-126.80","65.28","NORMAN WELLS A","2202801","2018-01-14 14:00","2018","01","14","14:00","-9.9","","-13.9","","73","","","","13","","13","","48.3","","100.10","","","","-16","","Blowing Snow"
"-126.80","65.28","NORMAN WELLS A","2202801","2018-01-14 15:00","2018","01","14","15:00","-10.4","","-13.9","","76","","","","12","","11","","48.3","","100.01","","","","-16","","NA"
"-126.80","65.28","NORMAN WELLS A","2202801","2018-01-14 16:00","2018","01","14","16:00","-9.6","","-13.6","","73","","","","10","","9","","48.3","","99.91","","","","-14","","NA"
"-126.80","65.28","NORMAN WELLS A","2202801","2018-01-14 17:00","2018","01","14","17:00","-10.0","","-13.9","","73","","","","11","","19","","48.3","","99.90","","","","-18","","Mostly Cloudy"
"-126.80","65.28","NORMAN WELLS A","2202801","2018-01-14 18:00","2018","01","14","18:00","-9.8","","-13.8","","73","","","","12","","15","","48.3","","99.87","","","","-16","","NA"
"-126.80","65.28","NORMAN WELLS A","2202801","2018-01-14 19:00","2018","01","14","19:00","-10.1","","-13.9","","74","","","","9","","11","","48.3","","99.81","","","","-16","","NA"
"-126.80","65.28","NORMAN WELLS A","2202801","2018-01-14 20:00","2018","01","14","20:00","-9.6","","-13.3","","75","","","","8","","10","","48.3","","99.80","","","","-15","","Mostly Cloudy"
"-126.80","65.28","NORMAN WELLS A","2202801","2018-01-14 21:00","2018","01","14","21:00","-9.6","","-13.4","","74","","","","9","","9","","48.3","","99.81","","","","-14","","NA"
"-126.80","65.28","NORMAN WELLS A","2202801","2018-01-14 22:00","2018","01","14","22:00","-9.6","","-13.4","","74","","","","10","","13","","48.3","","99.76","","","","-16","","NA"
"-126.80","65.28","NORMAN WELLS A","2202801","2018-01-14 23:00","2018","01","14","23:00","-9.7","","-13.4","","74","","","","12","","20","","48.3","","99.66","","","","-17","","Mainly Clear"
"-126.80","65.28","NORMAN WELLS A","2202801","2018-01-15 00:00","2018","01","15","00:00","-8.8","","-12.7","","73","","","","9","","12","","48.3","","99.71","","","","-14","","NA"
"-126.80","65.28","NORMAN WELLS A","2202801","2018-01-15 01:00","2018","01","15","01:00","-8.3","","-12.3","","74","","","","8","","12","","48.3","","99.69","","","","-14","","NA"
"-126.80","65.28","NORMAN WELLS A","2202801","2018-01-15 02:00","2018","01","15","02:00","-7.3","","-11.5","","72","","","","11","","13","","48.3","","99.66","","","","-13","","Mostly Cloudy"
"-126.80","65.28","NORMAN WELLS A","2202801","2018-01-15 03:00","2018","01","15","03:00","-5.7","","-10.1","","71","","","","9","","16","","48.3","","99.64","","","","-12","","NA"
"-126.80","65.28","NORMAN WELLS A","2202801","2018-01-15 04:00","2018","01","15","04:00","-5.2","","-9.6","","71","","","","12","","23","","48.3","","99.62","","","","-12","","NA"
"-126.80","65.28","NORMAN WELLS A","2202801","2018-01-15 05:00","2018","01","15","05:00","-4.9","","-9.0","","73","","","","11","","14","","48.3","","99.56","","","","-10","","Mostly Cloudy"
"-126.80","65.28","NORMAN WELLS A","2202801","2018-01-15 06:00","2018","01","15","06:00","-3.5","","-7.6","","73","","","","11","","17","","48.3","","99.47","","","","-9","","NA"
"-126.80","65.28","NORMAN WELLS A","2202801","2018-01-15 07:00","2018","01","15","07:00","-2.1","","-6.8","","70","","","","9","","12","","48.3","","99.43","","","","-6","","NA"
"-126.80","65.28","NORMAN WELLS A","2202801","2018-01-15 08:00","2018","01","15","08:00","-2.3","","-6.8","","71","","","","9","","16","","48.3","","99.32","","","","-7","","Mostly Cloudy"
"-126.80","65.28","NORMAN WELLS A","2202801","2018-01-15 09:00","2018","01","15","09:00","-1.6","","-6.0","","72","","","","9","","17","","48.3","","99.20","","","","-7","","NA"
"-126.80","65.28","NORMAN WELLS A","2202801","2018-01-15 10:00","2018","01","15","10:00","2.7","","-3.3","","65","","","","10","","16","","48.3","","99.19","","","","","","NA"
"-126.80","65.28","NORMAN WELLS A","2202801","2018-01-15 11:00","2018","01","15","11:00","3.7","","-2.3","","65","","","","10","","13","","48.3","","99.17","","","","","","Mostly Cloudy"
"-126.80","65.28","NORMAN WELLS A","2202801","2018-01-15 12:00","2018","01","15","12:00","1.8","","-2.6","","72","","","","11","","14","","48.3","","99.15","","","","","","NA"
"-126.80","65.28","NORMAN WELLS A","2202801","2018-01-15 13:00","2018","01","15","13:00","3.3","","-2.7","","65","","","","8","","8","","48.3","","99.19","","","","","","NA"
"-126.80","65.28","NORMAN WELLS A","2202801","2018-01-15 14:00","2018","01","15","14:00","4.7","","-2.1","","62","","","","13","","20","","48.3","","99.22","","","","","","Mostly Cloudy"
"-126.80","65.28","NORMAN WELLS A","2202801","2018-01-15 15:00","2018","01","15","15:00","2.7","","-2.4","","69","","","","12","","21","","48.3","","99.24","","","","","","NA"
"-126.80","65.28","NORMAN WELLS A","2202801","2018-01-15 16:00","2018","01","15","16:00","2.4","","-3.2","","67","","","","6","","9","","48.3","","99.29","","","","","","NA"
"-126.80","65.28","NORMAN WELLS A","2202801","2018-01-15 17:00","2018","01","15","17:00","-0.4","","-4.4","","74","","","","33","","3","","48.3","","99.42","","","","-1","","Mainly Clear"
"-126.80","65.28","NORMAN WELLS A","2202801","2018-01-15 18:00","2018","01","15","18:00","-2.0","","-6.8","","70","","","","11","","12","","48.3","","99.44","","","","-6","","NA"
"-126.80","65.28","NORMAN WELLS A","2202801","2018-01-15 19:00","2018","01","15","19:00","-2.0","","-6.9","","69","","","","10","","9","","48.3","","99.50","","","","-5","","NA"
"-126.80","65.28","NORMAN WELLS A","2202801","2018-01-15 20:00","2018","01","15","20:00","-3.1","","-7.9","","70","","","","9","","7","","48.3","","99.60","","","","-6","","Mainly Clear"
"-126.80","65.28","NORMAN WELLS A","2202801","2018-01-15 21:00","2018","01","15","21:00","-6.1","","-10.0","","74","","","","13","","13","","48.3","","99.64","","","","-11","","NA"
"-126.80","65.28","NORMAN WELLS A","2202801","2018-01-15 22:00","2018","01","15","22:00","-8.1","","-11.0","","80","","","","12","","8","","48.3","","99.70","","","","-12","","NA"
"-126.80","65.28","NORMAN WELLS A","2202801","2018-01-15 23:00","2018","01","15","23:00","-9.7","","-12.2","","82","","","","36","","3","","48.3","","99.76","","","","-11","","Clear"
"-126.80","65.28","NORMAN WELLS A","2202801","2018-01-16 00:00","2018","01","16","00:00","-7.6","","-10.9","","78","","","","11","","12","","48.3","","99.81","","","","-13","","NA"
"-126.80","65.28","NORMAN WELLS A","2202801","2018-01-16 01:00","2018","01","16","01:00","-9.5","","-11.9","","83","","","","12","","5","","48.3","","99.83","","","","-12","","NA"
"-126.80","65.28","NORMAN WELLS A","2202801","2018-01-16 02:00","2018","01","16","02:00","-11.1","","-13.3","","84","","","","10","","4","","48.3","","99.85","","","","-14","","Clear"
"-126.80","65.28","NORMAN WELLS A","2202801","2018-01-16 03:00","2018","01","16","03:00","-11.1","","-12.2","","91","","","","36","","3","","48.3","","99.88","","","","-13","","NA"
"-126.80","65.28","NORMAN WELLS A","2202801","2018-01-16 04:00","2018","01","16","04:00","-13.0","","-14.9","","86","","","","9","","5","","48.3","","99.92","","","","-16","","NA"
"-126.80","65.28","NORMAN WELLS A","2202801","2018-01-16 05:00","2018","01","16","05:00","-8.3","","-10.7","","83","","","","10","","11","","48.3","","99.94","","","","-14","","Clear"
"-126.80","65.28","NORMAN WELLS A","2202801","2018-01-16 06:00","2018","01","16","06:00","-9.8","","-11.9","","85","","","","10","","8","","48.3","","99.94","","","","-14","","NA"
"-126.80","65.28","NORMAN WELLS A","2202801","2018-01-16 07:00","2018","01","16","07:00","-9.0","","-11.1","","85","","","","9","","8","","48.3","","99.93","","","","-13","","NA"
"-126.80","65.28","NORMAN WELLS A","2202801","2018-01-16 08:00","2018","01","16","08:00","-11.3","","-13.1","","87","","","","12","","7","","48.3","","99.88","","","","-16","","Mainly Clear"
"-126.80","65.28","NORMAN WELLS A","2202801","2018-01-16 09:00","2018","01","16","09:00","-12.9","","-15.2","","83","","","","1","","4","","48.3","","99.84","","","","-16","","NA"
"-126.80","65.28","NORMAN WELLS A","2202801","2018-01-16 10:00","2018","01","16","10:00","-8.3","","-10.6","","84","","","","9","","10","","48.3","","99.84","","","","-13","","NA"
"-126.80","65.28","NORMAN WELLS A","2202801","2018-01-16 11:00","2018","01","16","11:00","-7.6","","-10.4","","81","","","","10","","13","","48.3","","99.77","","","","-13","","Mainly Clear"
"-126.80","65.28","NORMAN WELLS A","2202801","2018-01-16 12:00","2018","01","16","12:00","-6.8","","-10.0","","78","","","","11","","17","","48.3","","99.74","","","","-13","","NA"
"-126.80","65.28","NORMAN WELLS A","2202801","2018-01-16 13:00","2018","01","16","13:00","-7.2","","-10.6","","77","","","","12","","12","","48.3","","99.71","","","","-13","","NA"
"-126.80","65.28","NORMAN WELLS A","2202801","2018-01-16 14:00","2018","01","16","14:00","-5.8","","-9.6","","75","","","","11","","14","","48.3","","99.61","","","","-11","","Mostly Cloudy"
"-126.80","65.28","NORMAN WELLS A","2202801","2018-01-16 15:00","2018","01","16","15:00","-5.2","","-8.9","","75","","","","10","","10","","48.3","","99.56","","","","-10","","NA"
"-126.80","65.28","NORMAN WELLS A","2202801","2018-01-16 16:00","2018","01","16","16:00","-4.9","","-8.3","","77","","","","9","","12","","48.3","","99.55","","","","-10","","NA"
"-126.80","65.28","NORMAN WELLS A","2202801","2018-01-16 17:00","2018","01","16","17:00","-5.4","","-8.4","","79","","","","10","","15","","48.3","","99.50","","","","-11","","Mostly Cloudy"
"-126.80","65.28","NORMAN WELLS A","2202801","2018-01-16 18:00","2018","01","16","18:00","-5.5","","-8.2","","81","","","","9","","16","","48.3","","99.47","","","","-11","","NA"
"-126.80","65.28","NORMAN WELLS A","2202801","2018-01-16 19:00","2018","01","16","19:00","-5.4","","-8.1","","82","","","","10","","13","","48.3","","99.45","","","","-11","","NA"
"-126.80","65.28","NORMAN WELLS A","2202801","2018-01-16 20:00","2018","01","16","20:00","-5.0","","-7.8","","81","","","","10","","13","","48.3","","99.41","","","","-10","","Mainly Clear"
"-126.80","65.28","NORMAN WELLS A","2202801","2018-01-16 21:00","2018","01","16","21:00","-4.6","","-7.8","","79","","","","10","","17","","48.3","","99.33","","","","-10","","NA"
"-126.80","65.28","NORMAN WELLS A","2202801","2018-01-16 22:00","2018","01","16","22:00","-5.5","","-8.5","","80","","","","11","","14","","48.3","","99.32","","","","-11","","NA"
"-126.80","65.28","NORMAN WELLS A","2202801","2018-01-16 23:00","2018","01","16","23:00","-8.5","","-10.2","","88","","","","20","","5","","48.3","","99.34","","","","-11","","Clear"
"-126.80","65.28","NORMAN WELLS A","2202801","2018-01-17 00:00","2018","01","17","00:00","-9.7","","-11.1","","90","","","","29","","7","","48.3","","99.38","","","","-14","","NA"
"-126.80","65.28","NORMAN WELLS A","2202801","2018-01-17 01:00","2018","01","17","01:00","-11.5","","-13.0","","89","","","","29","","3","","48.3","","99.43","","","","-13","","NA"
"-126.80","65.28","NORMAN WELLS A","2202801","2018-01-17 02:00","2018","01","17","02:00","-11.4","","-12.6","","91","","","","36","","1","","48.3","","99.45","","","","-12","","Mainly Clear"
"-126.80","65.28","NORMAN WELLS A","2202801","2018-01-17 03:00","2018","01","17","03:00","-9.9","","-11.1","","91","","","","32","","8","","48.3","","99.57","","","","-14","","NA"
"-126.80","65.28","NORMAN WELLS A","2202801","2018-01-17 04:00","2018","01","17","04:00","-9.9","","-11.4","","89","","","","35","","8","","48.3","","99.59","","","","-14","","NA"
"-126.80","65.28","NORMAN WELLS A","2202801","2018-01-17 05:00","2018","01","17","05:00","-11.1","","-12.8","","88","","","","30","","8","","48.3","","99.61","","","","-16","","Mostly Cloudy"
"-126.80","65.28","NORMAN WELLS A","2202801","2018-01-17 06:00","2018","01","17","06:00","-10.7","","-12.4","","87","","","","36","","3","","48.3","","99.61","","","","-13","","NA"
"-126.80","65.28","NORMAN WELLS A","2202801","2018-01-17 07:00","2018","01","17","07:00","-11.1","","-12.8","","88","","","","36","","2","","48.3","","99.60","","","","-12","","NA"
"-126.80","65.28","NORMAN WELLS A","2202801","2018-01-17 08:00","2018","01","17","08:00","-11.1","","-12.8","","88","","","","7","","4","","48.3","","99.55","","","","-14","","Mainly Clear"
"-126.80","65.28","NORMAN WELLS A","2202801","2018-01-17 09:00","2018","01","17","09:00","-11.3","","-13.0","","87","","","","8","","3","","48.3","","99.55","","","","-13","","NA"
"-126.80","65.28","NORMAN WELLS A","2202801","2018-01-17 10:00","2018","01","17","10:00","-10.1","","-11.7","","89","","","","11","","5","","48.3","","99.50","","","","-13","","NA"
"-126.80","65.28","NORMAN WELLS A","2202801","2018-01-17 11:00","2018","01","17","11:00","-9.8","","-11.3","","89","","","","11","","4","","48.3","","99.51","","","","-12","","Cloudy"
"-126.80","65.28","NORMAN WELLS A","2202801","2018-01-17 12:00","2018","01","17","12:00","-9.0","","-10.7","","88","","","","13","","9","","48.3","","99.43","","","","-14","","NA"
"-126.80","65.28","NORMAN WELLS A","2202801","2018-01-17 13:00","2018","01","17","13:00","-8.5","","-10.4","","86","","","","13","","3","","48.3","","99.35","","","","-10","","NA"
"-126.80","65.28","NORMAN WELLS A","2202801","2018-01-17 14:00","2018","01","17","14:00","-8.0","","-10.1","","85","","","","12","","9","","48.3","","99.31","","","","-13","","Cloudy"
"-126.80","65.28","NORMAN WELLS A","2202801","2018-01-17 15:00","2018","01","17","15:00","-7.8","","-10.2","","83","","","","10","","7","","48.3","","99.28","","","","-11","","NA"
"-126.80","65.28","NORMAN WELLS A","2202801","2018-01-17 16:00","2018","01","17","16:00","-7.7","","-10.1","","83","","","","12","","9","","24.1","","99.21","","","","-12","","Snow"
"-126.80","65.28","NORMAN WELLS A","2202801","2018-01-17 17:00","2018","01","17","17:00","-7.5","","-10.0","","83","","","","9","","8","","6.4","","99.20","","","","-12","","Snow"
"-126.80","65.28","NORMAN WELLS A","2202801","2018-01-17 18:00","2018","01","17","18:00","-7.5","","-10.2","","82","","","","10","","5","","16.1","","99.14","","","","-10","","Snow"
"-126.80","65.28","NORMAN WELLS A","2202801","2018-01-17 19:00","2018","01","17","19:00","-8.1","","-9.9","","86","","","","11","","9","","4.8","","99.07","","","","-13","","Snow"
"-126.80","65.28","NORMAN WELLS A","2202801","2018-01-17 20:00","2018","01","17","20:00","-8.1","","-9.9","","87","","","","4","","4","","4.8","","99.02","","","","-10","","Snow"
"-126.80","65.28","NORMAN WELLS A","2202801","2018-01-17 21:00","2018","01","17","21:00","-8.1","","-9.5","","90","","","","6","","5","","1.6","","98.96","","","","-11","","Snow"
"-126.80","65.28","NORMAN WELLS A","2202801","2018-01-17 22:00","2018","01","17","22:00","-7.8","","-9.2","","90","","","","8","","4","","1.6","","98.91","","","","-10","","Snow"
"-126.80","65.28","NORMAN WELLS A","2202801","2018-01-17 23:00","2018","01","17","23:00","-7.8","","-9.0","","91","","","","5","","3","","1.6","","98.85","","","","-9","","Snow"
"-126.80","65.28","NORMAN WELLS A","2202801","2018-01-18 00:00","2018","01","18","00:00","-8.4","","-9.8","","90","","","","14","","7","","1.0","","98.81","","","","-12","","Snow"
"-126.80","65.28","NORMAN WELLS A","2202801","2018-01-18 01:00","2018","01","18","01:00","-8.0","","-9.3","","91","","","","8","","4","","1.0","","98.77","","","","-10","","Snow"
"-126.80","65.28","NORMAN WELLS A","2202801","2018-01-18 02:00","2018","01","18","02:00","-7.9","","-9.1","","91","","","","8","","4","","1.6","","98.71","","","","-10","","Snow"
"-126.80","65.28","NORMAN WELLS A","2202801","2018-01-18 03:00","2018","01","18","03:00","-8.5","","-9.8","","90","","","","15","","4","","2.0","","98.66","","","","-11","","Snow"
"-126.80","65.28","NORMAN WELLS A","2202801","2018-01-18 04:00","2018","01","18","04:00","-8.6","","-9.9","","90","","","","9","","3","","3.2","","98.64","","","","-10","","Snow"
"-126.80","65.28","NORMAN WELLS A","2202801","2018-01-18 05:00","2018","01","18","05:00","-8.7","","-10.0","","90","","","","12","","4","","3.2","","98.61","","","","-11","","Snow"
"-126.80","65.28","NORMAN WELLS A","2202801","2018-01-18 06:00","2018","01","18","06:00","-8.5","","-9.8","","90","","","","7","","4","","2.0","","98.60","","","","-11","","Snow"
"-126.80","65.28","NORMAN WELLS A","2202801","2018-01-18 07:00","2018","01","18","07:00","-8.3","","-9.7","","90","","","","7","","5","","1.6","","98.58","","","","-11","","Snow"
"-126.80","65.28","NORMAN WELLS A","2202801","2018-01-18 08:00","2018","01","18","08:00","-8.4","","-9.9","","89","","","","11","","6","","3.2","","98.56","","","","-12","","Snow"
"-126.80","65.28","NORMAN WELLS A","2202801","2018-01-18 09:00","2018","01","18","09:00","-9.1","","-10.8","","88","","","","11","","8","","4.8","","98.56","","","","-13","","Snow"
"-126.80","65.28","NORMAN WELLS A","2202801","2018-01-18 10:00","2018","01","18","10:00","-9.3","","-10.8","","89","","","","9","","4","","4.8","","98.58","","","","-12","","Snow"
"-126.80","65.28","NORMAN WELLS A","2202801","2018-01-18 11:00","2018","01","18","11:00","-9.5","","-11.1","","88","","","","9","","3","","16.1","","98.59","","","","-11","","Snow"
"-126.80","65.28","NORMAN WELLS A","2202801","2018-01-18 12:00","2018","01","18","12:00","-9.4","","-11.3","","86","","","","10","","7","","24.1","","98.60","","","","-13","","Snow"
"-126.80","65.28","NORMAN WELLS A","2202801","2018-01-18 13:00","2018","01","18","13:00","-9.3","","-11.4","","85","","","","10","","11","","4.8","","98.63","","","","-15","","Snow"
"-126.80","65.28","NORMAN WELLS A","2202801","2018-01-18 14:00","2018","01","18","14:00","-9.4","","-11.5","","85","","","","10","","10","","8.1","","98.64","","","","-15","","Snow"
"-126.80","65.28","NORMAN WELLS A","2202801","2018-01-18 15:00","2018","01","18","15:00","-12.0","","-13.7","","88","","","","13","","11","","24.1","","98.65","","","","-18","","Snow"
"-126.80","65.28","NORMAN WELLS A","2202801","2018-01-18 16:00","2018","01","18","16:00","-12.2","","-13.8","","87","","","","7","","4","","24.1","","98.72","","","","-15","","NA"
"-126.80","65.28","NORMAN WELLS A","2202801","2018-01-18 17:00","2018","01","18","17:00","-11.3","","-13.1","","87","","","","10","","9","","12.9","","98.78","","","","-16","","Snow"
"-126.80","65.28","NORMAN WELLS A","2202801","2018-01-18 18:00","2018","01","18","18:00","-11.2","","-13.2","","86","","","","12","","5","","9.7","","98.83","","","","-14","","Snow"
"-126.80","65.28","NORMAN WELLS A","2202801","2018-01-18 19:00","2018","01","18","19:00","-10.9","","-12.9","","85","","","","11","","7","","24.1","","98.83","","","","-15","","Snow"
"-126.80","65.28","NORMAN WELLS A","2202801","2018-01-18 20:00","2018","01","18","20:00","-11.1","","-13.1","","86","","","","8","","6","","32.2","","98.86","","","","-15","","Snow"
"-126.80","65.28","NORMAN WELLS A","2202801","2018-01-18 21:00","2018","01","18","21:00","-11.6","","-13.9","","83","","","","11","","7","","32.2","","98.91","","","","-16","","Snow"
"-126.80","65.28","NORMAN WELLS A","2202801","2018-01-18 22:00","2018","01","18","22:00","-11.8","","-13.9","","85","","","","9","","8","","48.3","","98.95","","","","-17","","Snow"
"-126.80","65.28","NORMAN WELLS A","2202801","2018-01-18 23:00","2018","01","18","23:00","-12.2","","-14.2","","86","","","","8","","8","","48.3","","99.03","","","","-17","","Snow"
"-126.80","65.28","NORMAN WELLS A","2202801","2018-01-19 00:00","2018","01","19","00:00","-11.0","","-13.0","","85","","","","9","","7","","48.3","","99.10","","","","-15","","Snow"
"-126.80","65.28","NORMAN WELLS A","2202801","2018-01-19 01:00","2018","01","19","01:00","-10.0","","-12.2","","84","","","","9","","7","","48.3","","99.19","","","","-14","","Snow"
"-126.80","65.28","NORMAN WELLS A","2202801","2018-01-19 02:00","2018","01","19","02:00","-9.7","","-11.9","","84","","","","11","","7","","48.3","","99.25","","","","-14","","Snow"
"-126.80","65.28","NORMAN WELLS A","2202801","2018-01-19 03:00","2018","01","19","03:00","-9.5","","-11.7","","84","","","","11","","7","","48.3","","99.33","","","","-13","","Snow"
"-126.80","65.28","NORMAN WELLS A","2202801","2018-01-19 04:00","2018","01","19","04:00","-9.6","","-11.6","","85","","","","7","","3","","48.3","","99.39","","","","-11","","Snow"
"-126.80","65.28","NORMAN WELLS A","2202801","2018-01-19 05:00","2018","01","19","05:00","-9.3","","-11.6","","84","","","","8","","4","","48.3","","99.44","","","","-12","","Snow"
"-126.80","65.28","NORMAN WELLS A","2202801","2018-01-19 06:00","2018","01","19","06:00","-9.7","","-11.7","","85","","","","36","","2","","24.1","","99.48","","","","-11","","Snow"
"-126.80","65.28","NORMAN WELLS A","2202801","2018-01-19 07:00","2018","01","19","07:00","-10.1","","-12.0","","86","","","","25","","4","","48.3","","99.54","","","","-12","","Snow"
"-126.80","65.28","NORMAN WELLS A","2202801","2018-01-19 08:00","2018","01","19","08:00","-10.1","","-11.8","","87","","","","29","","5","","16.1","","99.60","","","","-13","","Snow"
"-126.80","65.28","NORMAN WELLS A","2202801","2018-01-19 09:00","2018","01","19","09:00","-10.2","","-11.8","","88","","","","29","","4","","24.1","","99.66","","","","-13","","Snow"
"-126.80","65.28","NORMAN WELLS A","2202801","2018-01-19 10:00","2018","01","19","10:00","-10.0","","-11.8","","87","","","","26","","5","","40.2","","99.73","","","","-13","","Snow"
"-126.80","65.28","NORMAN WELLS A","2202801","2018-01-19 11:00","2018","01","19","11:00","-9.9","","-11.8","","86","","","","22","","3","","48.3","","99.79","","","","-12","","Snow"
"-126.80","65.28","NORMAN WELLS A","2202801","2018-01-19 12:00","2018","01","19","12:00","-10.1","","-11.8","","87","","","","36","","2","","48.3","","99.87","","","","-11","","Snow"
"-126.80","65.28","NORMAN WELLS A","2202801","2018-01-19 13:00","2018","01","19","13:00","-9.8","","-11.8","","86","","","","36","","1","","48.3","","99.95","","","","-10","","Snow"
"-126.80","65.28","NORMAN WELLS A","2202801","2018-01-19 14:00","2018","01","19","14:00","-9.7","","-11.7","","85","","","","36","","2","","48.3","","100.01","","","","-11","","Snow"
"-126.80","65.28","NORMAN WELLS A","2202801","2018-01-19 15:00","2018","01","19","15:00","-9.5","","-11.7","","84","","","","36","","1","","48.3","","100.05","","","","-10","","Snow"
"-126.80","65.28","NORMAN WELLS A","2202801","2018-01-19 16:00","2018","01","19","16:00","-9.5","","-11.5","","85","","","","36","","2","","48.3","","100.10","","","","-11","","NA"
"-126.80","65.28","NORMAN WELLS A","2202801","2018-01-19 17:00","2018","01","19","17:00","-9.8","","-11.4","","88","","","","24","","5","","48.3","","100.15","","","","-13","","Mostly Cloudy"
"-126.80","65.28","NORMAN WELLS A","2202801","2018-01-19 18:00","2018","01","19","18:00","-10.4","","-11.9","","89","","","","34","","4","","48.3","","100.20","","","","-13","","NA"
"-126.80","65.28","NORMAN WELLS A","2202801","2018-01-19 19:00","2018","01","19","19:00","-11.5","","-13.4","","86","","","","28","","5","","48.3","","100.22","","","","-15","","NA"
"-126.80","65.28","NORMAN WELLS A","2202801","2018-01-19 20:00","2018","01","19","20:00","-9.7","","-11.7","","85","","","","29","","14","","48.3","","100.27","","","","-16","","Mostly Cloudy"
"-126.80","65.28","NORMAN WELLS A","2202801","2018-01-19 21:00","2018","01","19","21:00","-10.3","","-12.3","","85","","","","27","","10","","48.3","","100.33","","","","-16","","NA"
"-126.80","65.28","NORMAN WELLS A","2202801","2018-01-19 22:00","2018","01","19","22:00","-10.7","","-12.6","","86","","","","27","","17","","48.3","","100.40","","","","-18","","NA"
"-126.80","65.28","NORMAN WELLS A","2202801","2018-01-19 23:00","2018","01","19","23:00","-11.8","","-14.1","","84","","","","28","","20","","48.3","","100.49","","","","-20","","Mostly Cloudy"
"-126.80","65.28","NORMAN WELLS A","2202801","2018-01-20 00:00","2018","01","20","00:00","-12.3","","-14.6","","84","","","","28","","23","","48.3","","100.53","","","","-21","","NA"
"-126.80","65.28","NORMAN WELLS A","2202801","2018-01-20 01:00","2018","01","20","01:00","-12.6","","-15.1","","82","","","","29","","18","","48.3","","100.60","","","","-21","","NA"
"-126.80","65.28","NORMAN WELLS A","2202801","2018-01-20 02:00","2018","01","20","02:00","-12.3","","-15.0","","81","","","","27","","25","","48.3","","100.65","","","","-22","","Mostly Cloudy"
"-126.80","65.28","NORMAN WELLS A","2202801","2018-01-20 03:00","2018","01","20","03:00","-12.8","","-15.4","","81","","","","28","","26","","24.1","","100.73","","","","-23","","Snow"
"-126.80","65.28","NORMAN WELLS A","2202801","2018-01-20 04:00","2018","01","20","04:00","-13.2","","-15.9","","81","","","","28","","25","","48.3","","100.76","","","","-23","","Snow"
"-126.80","65.28","NORMAN WELLS A","2202801","2018-01-20 05:00","2018","01","20","05:00","-13.7","","-16.4","","80","","","","28","","26","","24.1","","100.82","","","","-24","","Snow"
"-126.80","65.28","NORMAN WELLS A","2202801","2018-01-20 06:00","2018","01","20","06:00","-14.3","","-17.5","","77","","","","29","","27","","16.1","","100.88","","","","-25","","Snow"
"-126.80","65.28","NORMAN WELLS A","2202801","2018-01-20 07:00","2018","01","20","07:00","-15.0","","-18.3","","76","","","","28","","26","","24.1","","100.95","","","","-25","","Snow"
"-126.80","65.28","NORMAN WELLS A","2202801","2018-01-20 08:00","2018","01","20","08:00","-15.5","","-18.8","","76","","","","29","","27","","16.1","","100.96","","","","-26","","Snow"
"-126.80","65.28","NORMAN WELLS A","2202801","2018-01-20 09:00","2018","01","20","09:00","-15.9","","-19.1","","77","","","","28","","21","","16.1","","101.01","","","","-26","","Snow"
"-126.80","65.28","NORMAN WELLS A","2202801","2018-01-20 10:00","2018","01","20","10:00","-16.2","","-19.6","","76","","","","28","","21","","12.9","","101.06","","","","-26","","Snow"
"-126.80","65.28","NORMAN WELLS A","2202801","2018-01-20 11:00","2018","01","20","11:00","-16.5","","-19.9","","75","","","","28","","23","","12.9","","101.10","","","","-27","","Snow"
"-126.80","65.28","NORMAN WELLS A","2202801","2018-01-20 12:00","2018","01","20","12:00","-16.6","","-20.2","","74","","","","28","","18","","12.9","","101.17","","","","-26","","Snow"
"-126.80","65.28","NORMAN WELLS A","2202801","2018-01-20 13:00","2018","01","20","13:00","-16.8","","-20.2","","75","","","","29","","19","","12.9","","101.18","","","","-26","","Snow,Blowing Snow"
"-126.80","65.28","NORMAN WELLS A","2202801","2018-01-20 14:00","2018","01","20","14:00","-16.9","","-20.4","","75","","","","28","","21","","12.9","","101.22","","","","-27","","Snow,Blowing Snow"
"-126.80","65.28","NORMAN WELLS A","2202801","2018-01-20 15:00","2018","01","20","15:00","-17.3","","-20.7","","75","","","","28","","17","","9.7","","101.28","","","","-26","","Snow,Blowing Snow"
"-126.80","65.28","NORMAN WELLS A","2202801","2018-01-20 16:00","2018","01","20","16:00","-17.9","","-21.0","","77","","","","29","","24","","9.7","","101.33","","","","-29","","Snow,Blowing Snow"
"-126.80","65.28","NORMAN WELLS A","2202801","2018-01-20 17:00","2018","01","20","17:00","-18.4","","-21.6","","76","","","","29","","18","","11.3","","101.35","","","","-28","","Snow,Blowing Snow"
"-126.80","65.28","NORMAN WELLS A","2202801","2018-01-20 18:00","2018","01","20","18:00","-18.9","","-22.1","","76","","","","28","","21","","9.7","","101.37","","","","-29","","Snow"
"-126.80","65.28","NORMAN WELLS A","2202801","2018-01-20 19:00","2018","01","20","19:00","-19.2","","-22.5","","76","","","","28","","20","","9.7","","101.39","","","","-29","","Snow"
"-126.80","65.28","NORMAN WELLS A","2202801","2018-01-20 20:00","2018","01","20","20:00","-19.5","","-22.6","","77","","","","28","","18","","9.7","","101.41","","","","-29","","Snow"
"-126.80","65.28","NORMAN WELLS A","2202801","2018-01-20 21:00","2018","01","20","21:00","-20.0","","-23.2","","76","","","","29","","17","","12.9","","101.40","","","","-30","","Snow"
"-126.80","65.28","NORMAN WELLS A","2202801","2018-01-20 22:00","2018","01","20","22:00","-20.2","","-23.6","","74","","","","29","","15","","16.1","","101.42","","","","-29","","Snow"
"-126.80","65.28","NORMAN WELLS A","2202801","2018-01-20 23:00","2018","01","20","23:00","-20.4","","-23.8","","75","","","","28","","14","","6.4","","101.44","","","","-29","","Snow"
"-126.80","65.28","NORMAN WELLS A","2202801","2018-01-21 00:00","2018","01","21","00:00","-20.6","","-23.8","","76","","","","28","","9","","9.7","","101.44","","","","-27","","Snow"
"-126.80","65.28","NORMAN WELLS A","2202801","2018-01-21 01:00","2018","01","21","01:00","-20.8","","-24.0","","76","","","","28","","11","","16.1","","101.44","","","","-29","","Snow"
"-126.80","65.28","NORMAN WELLS A","2202801","2018-01-21 02:00","2018","01","21","02:00","-21.0","","-24.0","","77","","","","28","","9","","16.1","","101.44","","","","-28","","Snow"
"-126.80","65.28","NORMAN WELLS A","2202801","2018-01-21 03:00","2018","01","21","03:00","-21.3","","-23.7","","81","","","","29","","8","","9.7","","101.43","","","","-28","","Snow"
"-126.80","65.28","NORMAN WELLS A","2202801","2018-01-21 04:00","2018","01","21","04:00","-21.4","","-23.7","","83","","","","29","","8","","6.4","","101.42","","","","-28","","Snow"
"-126.80","65.28","NORMAN WELLS A","2202801","2018-01-21 05:00","2018","01","21","05:00","-21.6","","-23.8","","82","","","","28","","8","","8.1","","101.40","","","","-28","","Snow"
"-126.80","65.28","NORMAN WELLS A","2202801","2018-01-21 06:00","2018","01","21","06:00","-21.7","","-24.0","","82","","","","28","","9","","6.4","","101.36","","","","-29","","Snow"
"-126.80","65.28","NORMAN WELLS A","2202801","2018-01-21 07:00","2018","01","21","07:00","-21.8","","-24.1","","82","","","","28","","9","","9.7","","101.33","","","","-29","","Snow"
"-126.80","65.28","NORMAN WELLS A","2202801","2018-01-21 08:00","2018","01","21","08:00","-21.9","","-24.4","","81","","","","28","","9","","12.9","","101.27","","","","-29","","Snow"
"-126.80","65.28","NORMAN WELLS A","2202801","2018-01-21 09:00","2018","01","21","09:00","-22.1","","-24.7","","79","","","","28","","8","","8.1","","101.25","","","","-29","","Snow"
"-126.80","65.28","NORMAN WELLS A","2202801","2018-01-21 10:00","2018","01","21","10:00","-22.2","","-25.0","","79","","","","29","","8","","12.9","","101.23","","","","-29","","Snow"
"-126.80","65.28","NORMAN WELLS A","2202801","2018-01-21 11:00","2018","01","21","11:00","-22.3","","-25.1","","79","","","","28","","11","","12.9","","101.25","","","","-30","","Snow"
"-126.80","65.28","NORMAN WELLS A","2202801","2018-01-21 12:00","2018","01","21","12:00","-22.4","","-25.2","","78","","","","28","","11","","12.9","","101.23","","","","-31","","Snow"
"-126.80","65.28","NORMAN WELLS A","2202801","2018-01-21 13:00","2018","01","21","13:00","-22.5","","-25.4","","78","","","","28","","13","","9.7","","101.21","","","","-31","","Snow"
"-126.80","65.28","NORMAN WELLS A","2202801","2018-01-21 14:00","2018","01","21","14:00","-22.6","","-25.6","","77","","","","28","","13","","9.7","","101.19","","","","-32","","Snow"
"-126.80","65.28","NORMAN WELLS A","2202801","2018-01-21 15:00","2018","01","21","15:00","-22.7","","-25.8","","76","","","","29","","16","","9.7","","101.20","","","","-33","","Snow"
"-126.80","65.28","NORMAN WELLS A","2202801","2018-01-21 16:00","2018","01","21","16:00","-22.9","","-26.0","","76","","","","29","","11","","12.9","","101.20","","","","-31","","Snow"
"-126.80","65.28","NORMAN WELLS A","2202801","2018-01-21 17:00","2018","01","21","17:00","-23.1","","-26.3","","75","","","","29","","14","","8.1","","101.19","","","","-33","","Snow"
"-126.80","65.28","NORMAN WELLS A","2202801","2018-01-21 18:00","2018","01","21","18:00","-23.2","","-26.4","","75","","","","30","","12","","8.1","","101.20","","","","-32","","Snow"
"-126.80","65.28","NORMAN WELLS A","2202801","2018-01-21 19:00","2018","01","21","19:00","-23.2","","-26.6","","75","","","","28","","12","","9.7","","101.20","","","","-32","","Snow"
"-126.80","65.28","NORMAN WELLS A","2202801","2018-01-21 20:00","2018","01","21","20:00","-23.3","","-26.7","","75","","","","28","","12","","9.7","","101.21","","","","-32","","Snow"
"-126.80","65.28","NORMAN WELLS A","2202801","2018-01-21 21:00","2018","01","21","21:00","-23.4","","-26.9","","74","","","","28","","16","","9.7","","101.20","","","","-34","","Snow"
"-126.80","65.28","NORMAN WELLS A","2202801","2018-01-21 22:00","2018","01","21","22:00","-23.4","","-26.9","","74","","","","29","","9","","16.1","","101.22","","","","-31","","Snow"
"-126.80","65.28","NORMAN WELLS A","2202801","2018-01-21 23:00","2018","01","21","23:00","-23.4","","-27.0","","73","","","","28","","10","","24.1","","101.23","","","","-31","","Snow"
"-126.80","65.28","NORMAN WELLS A","2202801","2018-01-22 00:00","2018","01","22","00:00","-23.6","","-27.1","","73","","","","29","","10","","24.1","","101.23","","","","-32","","Snow"
"-126.80","65.28","NORMAN WELLS A","2202801","2018-01-22 01:00","2018","01","22","01:00","-23.6","","-27.1","","73","","","","28","","7","","24.1","","101.24","","","","-30","","Snow"
"-126.80","65.28","NORMAN WELLS A","2202801","2018-01-22 02:00","2018","01","22","02:00","-23.5","","-27.1","","73","","","","29","","10","","24.1","","101.24","","","","-31","","Snow"
"-126.80","65.28","NORMAN WELLS A","2202801","2018-01-22 03:00","2018","01","22","03:00","-23.6","","-27.2","","73","","","","28","","6","","24.1","","101.24","","","","-29","","Snow"
"-126.80","65.28","NORMAN WELLS A","2202801","2018-01-22 04:00","2018","01","22","04:00","-23.6","","-27.1","","74","","","","29","","5","","24.1","","101.27","","","","-28","","Snow"
"-126.80","65.28","NORMAN WELLS A","2202801","2018-01-22 05:00","2018","01","22","05:00","-23.6","","-27.0","","74","","","","28","","8","","24.1","","101.28","","","","-30","","Snow"
"-126.80","65.28","NORMAN WELLS A","2202801","2018-01-22 06:00","2018","01","22","06:00","-23.6","","-27.1","","74","","","","29","","6","","24.1","","101.28","","","","-29","","Snow"
"-126.80","65.28","NORMAN WELLS A","2202801","2018-01-22 07:00","2018","01","22","07:00","-23.6","","-27.1","","74","","","","29","","7","","24.1","","101.28","","","","-30","","Snow"
"-126.80","65.28","NORMAN WELLS A","2202801","2018-01-22 08:00","2018","01","22","08:00","-23.8","","-27.2","","74","","","","28","","6","","24.1","","101.27","","","","-29","","Snow"
"-126.80","65.28","NORMAN WELLS A","2202801","2018-01-22 09:00","2018","01","22","09:00","-23.9","","-27.4","","74","","","","28","","4","","40.2","","101.27","","","","-28","","Snow"
"-126.80","65.28","NORMAN WELLS A","2202801","2018-01-22 10:00","2018","01","22","10:00","-24.0","","-27.3","","74","","","","31","","3","","24.1","","101.26","","","","-27","","Snow"
"-126.80","65.28","NORMAN WELLS A","2202801","2018-01-22 11:00","2018","01","22","11:00","-24.0","","-27.4","","74","","","","30","","4","","32.2","","101.27","","","","-28","","Snow"
"-126.80","65.28","NORMAN WELLS A","2202801","2018-01-22 12:00","2018","01","22","12:00","-24.4","","-27.8","","74","","","","30","","5","","40.2","","101.25","","","","-29","","Snow"
"-126.80","65.28","NORMAN WELLS A","2202801","2018-01-22 13:00","2018","01","22","13:00","-24.8","","-28.0","","75","","","","29","","5","","40.2","","101.24","","","","-30","","NA"
"-126.80","65.28","NORMAN WELLS A","2202801","2018-01-22 14:00","2018","01","22","14:00","-25.2","","-28.5","","74","","","","25","","6","","40.2","","101.27","","","","-31","","Mostly Cloudy"
"-126.80","65.28","NORMAN WELLS A","2202801","2018-01-22 15:00","2018","01","22","15:00","-25.8","","-29.1","","75","","","","30","","5","","32.2","","101.28","","","","-31","","NA"
"-126.80","65.28","NORMAN WELLS A","2202801","2018-01-22 16:00","2018","01","22","16:00","-26.1","","-29.2","","75","","","","28","","3","","48.3","","101.27","","","","-29","","NA"
"-126.80","65.28","NORMAN WELLS A","2202801","2018-01-22 17:00","2018","01","22","17:00","-27.2","","-30.4","","75","","","","36","","2","","48.3","","101.27","","","","-29","","Mostly Cloudy"
"-126.80","65.28","NORMAN WELLS A","2202801","2018-01-22 18:00","2018","01","22","18:00","-28.0","","-31.3","","74","","","","36","","1","","48.3","","101.26","","","","-29","","NA"
"-126.80","65.28","NORMAN WELLS A","2202801","2018-01-22 19:00","2018","01","22","19:00","-29.2","","-32.8","","72","","","","30","","5","","48.3","","101.26","","","","-35","","NA"
"-126.80","65.28","NORMAN WELLS A","2202801","2018-01-22 20:00","2018","01","22","20:00","-28.9","","-32.4","","72","","","","23","","3","","48.3","","101.28","","","","-32","","Mostly Cloudy"
"-126.80","65.28","NORMAN WELLS A","2202801","2018-01-22 21:00","2018","01","22","21:00","-27.9","","-31.4","","73","","","","31","","6","","24.1","","101.27","","","","-34","","Snow"
"-126.80","65.28","NORMAN WELLS A","2202801","2018-01-22 22:00","2018","01","22","22:00","-26.0","","-29.4","","74","","","","36","","2","","24.1","","101.25","","","","-28","","Snow"
"-126.80","65.28","NORMAN WELLS A","2202801","2018-01-22 23:00","2018","01","22","23:00","-26.3","","-29.5","","74","","","","16","","4","","12.9","","101.25","","","","-30","","Snow"
"-126.80","65.28","NORMAN WELLS A","2202801","2018-01-23 00:00","2018","01","23","00:00","-26.6","","-29.9","","74","","","","10","","4","","16.1","","101.27","","","","-31","","Snow"
"-126.80","65.28","NORMAN WELLS A","2202801","2018-01-23 01:00","2018","01","23","01:00","-26.4","","-29.7","","74","","","","13","","3","","16.1","","101.28","","","","-29","","Snow"
"-126.80","65.28","NORMAN WELLS A","2202801","2018-01-23 02:00","2018","01","23","02:00","-25.9","","-29.1","","75","","","","0","","1","","16.1","","101.32","","","","-27","","Snow"
"-126.80","65.28","NORMAN WELLS A","2202801","2018-01-23 03:00","2018","01","23","03:00","-25.3","","-28.6","","74","","","","28","","5","","24.1","","101.36","","","","-30","","Snow"
"-126.80","65.28","NORMAN WELLS A","2202801","2018-01-23 04:00","2018","01","23","04:00","-25.1","","-28.5","","74","","","","29","","9","","24.1","","101.35","","","","-33","","Snow"
"-126.80","65.28","NORMAN WELLS A","2202801","2018-01-23 05:00","2018","01","23","05:00","-25.1","","-28.6","","73","","","","29","","8","","24.1","","101.36","","","","-32","","Snow"
"-126.80","65.28","NORMAN WELLS A","2202801","2018-01-23 06:00","2018","01","23","06:00","-25.2","","-28.6","","73","","","","28","","6","","9.7","","101.34","","","","-31","","Snow"
"-126.80","65.28","NORMAN WELLS A","2202801","2018-01-23 07:00","2018","01","23","07:00","-25.4","","-28.8","","74","","","","25","","9","","4.0","","101.35","","","","-33","","Snow"
"-126.80","65.28","NORMAN WELLS A","2202801","2018-01-23 08:00","2018","01","23","08:00","-25.6","","-29.1","","73","","","","28","","5","","6.4","","101.35","","","","-31","","Snow"
"-126.80","65.28","NORMAN WELLS A","2202801","2018-01-23 09:00","2018","01","23","09:00","-25.9","","-29.5","","73","","","","29","","7","","9.7","","101.34","","","","-33","","Snow"
"-126.80","65.28","NORMAN WELLS A","2202801","2018-01-23 10:00","2018","01","23","10:00","-26.9","","-30.4","","73","","","","28","","7","","24.1","","101.35","","","","-34","","Snow"
"-126.80","65.28","NORMAN WELLS A","2202801","2018-01-23 11:00","2018","01","23","11:00","-27.8","","-31.2","","73","","","","28","","3","","24.1","","101.36","","","","-31","","Snow"
"-126.80","65.28","NORMAN WELLS A","2202801","2018-01-23 12:00","2018","01","23","12:00","-29.5","","-33.0","","72","","","","27","","3","","24.1","","101.36","","","","-33","","Snow"
"-126.80","65.28","NORMAN WELLS A","2202801","2018-01-23 13:00","2018","01","23","13:00","-27.0","","-30.3","","74","","","","36","","2","","24.1","","101.35","","","","-29","","Snow"
"-126.80","65.28","NORMAN WELLS A","2202801","2018-01-23 14:00","2018","01","23","14:00","-26.1","","-29.6","","73","","","","28","","8","","8.1","","101.33","","","","-33","","Snow"
"-126.80","65.28","NORMAN WELLS A","2202801","2018-01-23 15:00","2018","01","23","15:00","-25.5","","-29.1","","72","","","","30","","6","","9.7","","101.32","","","","-31","","Snow"
"-126.80","65.28","NORMAN WELLS A","2202801","2018-01-23 16:00","2018","01","23","16:00","-25.7","","-29.3","","73","","","","21","","3","","16.1","","101.32","","","","-29","","Snow"
"-126.80","65.28","NORMAN WELLS A","2202801","2018-01-23 17:00","2018","01","23","17:00","-26.4","","-29.6","","75","","","","36","","3","","9.7","","101.33","","","","-29","","Snow"
"-126.80","65.28","NORMAN WELLS A","2202801","2018-01-23 18:00","2018","01","23","18:00","-27.1","","-30.4","","74","","","","8","","4","","9.7","","101.33","","","","-31","","Snow"
"-126.80","65.28","NORMAN WELLS A","2202801","2018-01-23 19:00","2018","01","23","19:00","-27.6","","-31.0","","73","","","","6","","4","","16.1","","101.33","","","","-32","","Snow"
"-126.80","65.28","NORMAN WELLS A","2202801","2018-01-23 20:00","2018","01","23","20:00","-26.9","","-30.4","","73","","","","9","","7","","9.7","","101.32","","","","-34","","Snow"
"-126.80","65.28","NORMAN WELLS A","2202801","2018-01-23 21:00","2018","01","23","21:00","-26.9","","-30.3","","73","","","","7","","4","","9.7","","101.33","","","","-31","","Snow"
"-126.80","65.28","NORMAN WELLS A","2202801","2018-01-23 22:00","2018","01","23","22:00","-27.0","","-30.4","","73","","","","36","","2","","9.7","","101.33","","","","-29","","Snow"
"-126.80","65.28","NORMAN WELLS A","2202801","2018-01-23 23:00","2018","01","23","23:00","-26.7","","-30.1","","74","","","","36","","1","","12.9","","101.32","","","","-28","","Snow"
"-126.80","65.28","NORMAN WELLS A","2202801","2018-01-24 00:00","2018","01","24","00:00","-26.9","","-30.2","","74","","","","7","","3","","12.9","","101.32","","","","-30","","Snow"
"-126.80","65.28","NORMAN WELLS A","2202801","2018-01-24 01:00","2018","01","24","01:00","-27.7","","-31.2","","73","","","","10","","3","","24.1","","101.32","","","","-31","","Snow"
"-126.80","65.28","NORMAN WELLS A","2202801","2018-01-24 02:00","2018","01","24","02:00","-26.1","","-29.4","","74","","","","10","","3","","24.1","","101.33","","","","-29","","Snow"
"-126.80","65.28","NORMAN WELLS A","2202801","2018-01-24 03:00","2018","01","24","03:00","-25.2","","-28.6","","74","","","","36","","2","","24.1","","101.35","","","","-27","","Snow"
"-126.80","65.28","NORMAN WELLS A","2202801","2018-01-24 04:00","2018","01","24","04:00","-24.7","","-28.1","","73","","","","11","","3","","48.3","","101.36","","","","-28","","Snow"
"-126.80","65.28","NORMAN WELLS A","2202801","2018-01-24 05:00","2018","01","24","05:00","-24.3","","-27.8","","73","","","","9","","3","","24.1","","101.37","","","","-27","","Snow"
"-126.80","65.28","NORMAN WELLS A","2202801","2018-01-24 06:00","2018","01","24","06:00","-24.0","","-27.5","","73","","","","10","","4","","16.1","","101.37","","","","-28","","Snow"
"-126.80","65.28","NORMAN WELLS A","2202801","2018-01-24 07:00","2018","01","24","07:00","-23.8","","-27.3","","73","","","","12","","4","","24.1","","101.36","","","","-28","","Snow"
"-126.80","65.28","NORMAN WELLS A","2202801","2018-01-24 08:00","2018","01","24","08:00","-23.5","","-26.9","","74","","","","36","","3","","24.1","","101.35","","","","-26","","Snow"
"-126.80","65.28","NORMAN WELLS A","2202801","2018-01-24 09:00","2018","01","24","09:00","-23.1","","-26.5","","74","","","","36","","1","","24.1","","101.34","","","","-24","","Snow"
"-126.80","65.28","NORMAN WELLS A","2202801","2018-01-24 10:00","2018","01","24","10:00","-22.8","","-26.2","","74","","","","36","","2","","24.1","","101.35","","","","-25","","Snow"
"-126.80","65.28","NORMAN WELLS A","2202801","2018-01-24 11:00","2018","01","24","11:00","-22.6","","-26.0","","74","","","","36","","2","","32.2","","101.36","","","","-24","","Snow"
"-126.80","65.28","NORMAN WELLS A","2202801","2018-01-24 12:00","2018","01","24","12:00","-22.2","","-25.6","","74","","","","36","","2","","32.2","","101.38","","","","-24","","Snow"
"-126.80","65.28","NORMAN WELLS A","2202801","2018-01-24 13:00","2018","01","24","13:00","-21.9","","-25.5","","73","","","","28","","4","","16.1","","101.38","","","","-26","","Snow"
"-126.80","65.28","NORMAN WELLS A","2202801","2018-01-24 14:00","2018","01","24","14:00","-21.6","","-25.4","","72","","","","31","","3","","16.1","","101.40","","","","-24","","Snow"
"-126.80","65.28","NORMAN WELLS A","2202801","2018-01-24 15:00","2018","01","24","15:00","-21.4","","-25.3","","71","","","","29","","7","","24.1","","101.40","","","","-27","","Snow"
"-126.80","65.28","NORMAN WELLS A","2202801","2018-01-24 16:00","2018","01","24","16:00","-21.3","","-25.2","","72","","","","29","","4","","24.1","","101.42","","","","-25","","Snow"
"-126.80","65.28","NORMAN WELLS A","2202801","2018-01-24 17:00","2018","01","24","17:00","-21.2","","-25.1","","72","","","","29","","7","","9.7","","101.43","","","","-27","","Snow"
"-126.80","65.28","NORMAN WELLS A","2202801","2018-01-24 18:00","2018","01","24","18:00","-21.2","","-24.9","","73","","","","29","","7","","9.7","","101.45","","","","-27","","Snow"
"-126.80","65.28","NORMAN WELLS A","2202801","2018-01-24 19:00","2018","01","24","19:00","-21.1","","-24.8","","73","","","","28","","8","","9.7","","101.46","","","","-28","","Snow"
"-126.80","65.28","NORMAN WELLS A","2202801","2018-01-24 20:00","2018","01","24","20:00","-21.1","","-24.7","","74","","","","29","","7","","9.7","","101.48","","","","-27","","Snow"
"-126.80","65.28","NORMAN WELLS A","2202801","2018-01-24 21:00","2018","01","24","21:00","-21.1","","-24.5","","74","","","","27","","5","","16.1","","101.48","","","","-26","","Snow"
"-126.80","65.28","NORMAN WELLS A","2202801","2018-01-24 22:00","2018","01","24","22:00","-21.1","","-24.6","","74","","","","29","","5","","9.7","","101.50","","","","-26","","Snow"
"-126.80","65.28","NORMAN WELLS A","2202801","2018-01-24 23:00","2018","01","24","23:00","-21.1","","-24.5","","75","","","","27","","5","","9.7","","101.52","","","","-26","","Snow"
"-126.80","65.28","NORMAN WELLS A","2202801","2018-01-25 00:00","2018","01","25","00:00","-21.2","","-24.6","","75","","","","28","","6","","12.9","","101.55","","","","-26","","Snow"
"-126.80","65.28","NORMAN WELLS A","2202801","2018-01-25 01:00","2018","01","25","01:00","-21.2","","-24.5","","75","","","","27","","5","","9.7","","101.54","","","","-26","","Snow"
"-126.80","65.28","NORMAN WELLS A","2202801","2018-01-25 02:00","2018","01","25","02:00","-21.3","","-24.5","","76","","","","29","","3","","12.9","","101.57","","","","-24","","Snow"
"-126.80","65.28","NORMAN WELLS A","2202801","2018-01-25 03:00","2018","01","25","03:00","-21.9","","-25.1","","76","","","","26","","4","","8.1","","101.59","","","","-26","","Snow"
"-126.80","65.28","NORMAN WELLS A","2202801","2018-01-25 04:00","2018","01","25","04:00","-22.8","","-25.8","","77","","","","27","","5","","16.1","","101.60","","","","-27","","Snow"
"-126.80","65.28","NORMAN WELLS A","2202801","2018-01-25 05:00","2018","01","25","05:00","-23.8","","-26.8","","77","","","","26","","4","","16.1","","101.63","","","","-28","","Snow"
"-126.80","65.28","NORMAN WELLS A","2202801","2018-01-25 06:00","2018","01","25","06:00","-24.6","","-27.5","","77","","","","28","","3","","24.1","","101.65","","","","-28","","Snow"
"-126.80","65.28","NORMAN WELLS A","2202801","2018-01-25 07:00","2018","01","25","07:00","-27.8","","-31.1","","74","","","","36","","1","","24.1","","101.65","","","","-29","","Snow"
"-126.80","65.28","NORMAN WELLS A","2202801","2018-01-25 08:00","2018","01","25","08:00","-29.8","","-33.3","","72","","","","36","","1","","40.2","","101.65","","","","-31","","Snow"
"-126.80","65.28","NORMAN WELLS A","2202801","2018-01-25 09:00","2018","01","25","09:00","-31.5","","-35.1","","71","","","","8","","4","","32.2","","101.66","","","","-36","","Snow"
"-126.80","65.28","NORMAN WELLS A","2202801","2018-01-25 10:00","2018","01","25","10:00","-32.6","","-36.4","","70","","","","36","","2","","48.3","","101.69","","","","-35","","NA"
"-126.80","65.28","NORMAN WELLS A","2202801","2018-01-25 11:00","2018","01","25","11:00","-32.5","","-36.2","","70","","","","36","","1","","48.3","","101.71","","","","-34","","Ice Crystals"
"-126.80","65.28","NORMAN WELLS A","2202801","2018-01-25 12:00","2018","01","25","12:00","-31.4","","-35.1","","71","","","","36","","2","","48.3","","101.74","","","","-34","","NA"
"-126.80","65.28","NORMAN WELLS A","2202801","2018-01-25 13:00","2018","01","25","13:00","-29.1","","-32.5","","73","","","","2","","4","","48.3","","101.76","","","","-34","","NA"
"-126.80","65.28","NORMAN WELLS A","2202801","2018-01-25 14:00","2018","01","25","14:00","-27.9","","-31.6","","71","","","","20","","5","","48.3","","101.77","","","","-33","","Clear"
"-126.80","65.28","NORMAN WELLS A","2202801","2018-01-25 15:00","2018","01","25","15:00","-27.7","","-31.1","","74","","","","36","","1","","48.3","","101.80","","","","-29","","Ice Crystals"
"-126.80","65.28","NORMAN WELLS A","2202801","2018-01-25 16:00","2018","01","25","16:00","-27.4","","-30.7","","74","","","","36","","1","","48.3","","101.84","","","","-28","","Ice Crystals"
"-126.80","65.28","NORMAN WELLS A","2202801","2018-01-25 17:00","2018","01","25","17:00","-31.0","","-34.6","","71","","","","36","","4","","32.2","","101.91","","","","-36","","Ice Crystals"
"-126.80","65.28","NORMAN WELLS A","2202801","2018-01-25 18:00","2018","01","25","18:00","-32.7","","-36.5","","70","","","","14","","3","","32.2","","101.93","","","","-36","","Ice Crystals"
"-126.80","65.28","NORMAN WELLS A","2202801","2018-01-25 19:00","2018","01","25","19:00","-34.6","","-38.5","","69","","","","34","","4","","32.2","","101.97","","","","-40","","Ice Crystals"
"-126.80","65.28","NORMAN WELLS A","2202801","2018-01-25 20:00","2018","01","25","20:00","-33.4","","-37.1","","70","","","","36","","2","","48.3","","102.03","","","","-36","","Ice Crystals"
"-126.80","65.28","NORMAN WELLS A","2202801","2018-01-25 21:00","2018","01","25","21:00","-35.6","","-39.6","","67","","","","36","","2","","48.3","","102.08","","","","-38","","Ice Crystals"
"-126.80","65.28","NORMAN WELLS A","2202801","2018-01-25 22:00","2018","01","25","22:00","-35.5","","-39.5","","68","","","","36","","2","","48.3","","102.09","","","","-38","","Ice Crystals"
"-126.80","65.28","NORMAN WELLS A","2202801","2018-01-25 23:00","2018","01","25","23:00","-36.1","","-40.1","","67","","","","4","","5","","48.3","","102.16","","","","-43","","Ice Crystals"
"-126.80","65.28","NORMAN WELLS A","2202801","2018-01-26 00:00","2018","01","26","00:00","-35.4","","-39.4","","68","","","","12","","3","","48.3","","102.21","","","","-39","","Ice Crystals"
"-126.80","65.28","NORMAN WELLS A","2202801","2018-01-26 01:00","2018","01","26","01:00","-35.9","","-39.9","","68","","","","36","","1","","48.3","","102.27","","","","-37","","Ice Crystals"
"-126.80","65.28","NORMAN WELLS A","2202801","2018-01-26 02:00","2018","01","26","02:00","-32.8","","-36.4","","71","","","","4","","3","","48.3","","102.33","","","","-36","","Ice Crystals"
"-126.80","65.28","NORMAN WELLS A","2202801","2018-01-26 03:00","2018","01","26","03:00","-31.0","","-34.7","","70","","","","36","","3","","48.3","","102.38","","","","-34","","Ice Crystals"
"-126.80","65.28","NORMAN WELLS A","2202801","2018-01-26 04:00","2018","01","26","04:00","-30.6","","-34.2","","72","","","","24","","5","","40.2","","102.44","","","","-36","","Snow"
"-126.80","65.28","NORMAN WELLS A","2202801","2018-01-26 05:00","2018","01","26","05:00","-29.6","","-33.2","","72","","","","36","","1","","40.2","","102.48","","","","-31","","Snow"
"-126.80","65.28","NORMAN WELLS A","2202801","2018-01-26 06:00","2018","01","26","06:00","-29.2","","-32.7","","72","","","","36","","1","","40.2","","102.52","","","","-30","","Snow"
"-126.80","65.28","NORMAN WELLS A","2202801","2018-01-26 07:00","2018","01","26","07:00","-28.9","","-32.6","","72","","","","36","","2","","48.3","","102.57","","","","-31","","Snow"
"-126.80","65.28","NORMAN WELLS A","2202801","2018-01-26 08:00","2018","01","26","08:00","-30.1","","-33.7","","72","","","","0","","1","","48.3","","102.60","","","","-31","","Snow"
"-126.80","65.28","NORMAN WELLS A","2202801","2018-01-26 09:00","2018","01","26","09:00","-32.9","","-36.7","","70","","","","36","","2","","48.3","","102.63","","","","-35","","Ice Crystals"
"-126.80","65.28","NORMAN WELLS A","2202801","2018-01-26 10:00","2018","01","26","10:00","-35.2","","-39.2","","68","","","","4","","4","","48.3","","102.65","","","","-40","","Ice Crystals"
"-126.80","65.28","NORMAN WELLS A","2202801","2018-01-26 11:00","2018","01","26","11:00","-35.9","","-39.9","","68","","","","3","","3","","48.3","","102.70","","","","-40","","Ice Crystals"
"-126.80","65.28","NORMAN WELLS A","2202801","2018-01-26 12:00","2018","01","26","12:00","-36.2","","-40.2","","67","","","","36","","2","","48.3","","102.73","","","","-39","","Ice Crystals"
"-126.80","65.28","NORMAN WELLS A","2202801","2018-01-26 13:00","2018","01","26","13:00","-35.0","","-39.0","","68","","","","36","","2","","48.3","","102.80","","","","-38","","Ice Crystals"
"-126.80","65.28","NORMAN WELLS A","2202801","2018-01-26 14:00","2018","01","26","14:00","-32.1","","-35.8","","70","","","","24","","4","","48.3","","102.85","","","","-37","","Ice Crystals"
"-126.80","65.28","NORMAN WELLS A","2202801","2018-01-26 15:00","2018","01","26","15:00","-31.7","","-35.5","","70","","","","36","","1","","32.2","","102.88","","","","-33","","Ice Crystals"
"-126.80","65.28","NORMAN WELLS A","2202801","2018-01-26 16:00","2018","01","26","16:00","-30.4","","-34.1","","70","","","","21","","3","","32.2","","102.93","","","","-34","","Ice Crystals"
"-126.80","65.28","NORMAN WELLS A","2202801","2018-01-26 17:00","2018","01","26","17:00","-31.6","","-35.4","","70","","","","1","","4","","24.1","","102.97","","","","-36","","Ice Crystals"
"-126.80","65.28","NORMAN WELLS A","2202801","2018-01-26 18:00","2018","01","26","18:00","-32.3","","-36.1","","70","","","","36","","1","","16.1","","103.01","","","","-33","","Ice Crystals"
"-126.80","65.28","NORMAN WELLS A","2202801","2018-01-26 19:00","2018","01","26","19:00","-33.4","","-37.3","","69","","","","36","","3","","24.1","","103.03","","","","-37","","Ice Crystals"
"-126.80","65.28","NORMAN WELLS A","2202801","2018-01-26 20:00","2018","01","26","20:00","-35.1","","-39.1","","68","","","","9","","4","","32.2","","103.05","","","","-40","","Ice Crystals"
"-126.80","65.28","NORMAN WELLS A","2202801","2018-01-26 21:00","2018","01","26","21:00","-35.9","","-39.9","","68","","","","9","","5","","32.2","","103.09","","","","-42","","Ice Crystals"
"-126.80","65.28","NORMAN WELLS A","2202801","2018-01-26 22:00","2018","01","26","22:00","-36.4","","-40.4","","67","","","","36","","2","","32.2","","103.13","","","","-39","","Ice Crystals"
"-126.80","65.28","NORMAN WELLS A","2202801","2018-01-26 23:00","2018","01","26","23:00","-35.5","","-39.5","","68","","","","6","","3","","40.2","","103.17","","","","-39","","Ice Crystals"
"-126.80","65.28","NORMAN WELLS A","2202801","2018-01-27 00:00","2018","01","27","00:00","-32.9","","-36.7","","70","","","","36","","2","","40.2","","103.18","","","","-35","","Ice Crystals"
"-126.80","65.28","NORMAN WELLS A","2202801","2018-01-27 01:00","2018","01","27","01:00","-32.3","","-36.1","","70","","","","36","","1","","32.2","","103.19","","","","-33","","Ice Crystals"
"-126.80","65.28","NORMAN WELLS A","2202801","2018-01-27 02:00","2018","01","27","02:00","-31.7","","-35.5","","70","","","","36","","1","","32.2","","103.24","","","","-33","","Snow"
"-126.80","65.28","NORMAN WELLS A","2202801","2018-01-27 03:00","2018","01","27","03:00","-31.4","","-35.3","","70","","","","36","","2","","32.2","","103.26","","","","-34","","Snow"
"-126.80","65.28","NORMAN WELLS A","2202801","2018-01-27 04:00","2018","01","27","04:00","-31.4","","-35.2","","70","","","","36","","2","","32.2","","103.33","","","","-34","","Snow"
"-126.80","65.28","NORMAN WELLS A","2202801","2018-01-27 05:00","2018","01","27","05:00","-30.9","","-34.6","","71","","","","36","","1","","32.2","","103.35","","","","-32","","Snow"
"-126.80","65.28","NORMAN WELLS A","2202801","2018-01-27 06:00","2018","01","27","06:00","-30.2","","-33.9","","71","","","","19","","4","","32.2","","103.33","","","","-35","","Snow"
"-126.80","65.28","NORMAN WELLS A","2202801","2018-01-27 07:00","2018","01","27","07:00","-30.4","","-34.1","","71","","","","36","","2","","32.2","","103.35","","","","-33","","Snow"
"-126.80","65.28","NORMAN WELLS A","2202801","2018-01-27 08:00","2018","01","27","08:00","-30.0","","-33.7","","71","","","","36","","1","","32.2","","103.37","","","","-31","","Snow"
"-126.80","65.28","NORMAN WELLS A","2202801","2018-01-27 09:00","2018","01","27","09:00","-29.9","","-33.6","","71","","","","36","","3","","32.2","","103.39","","","","-33","","Snow"
"-126.80","65.28","NORMAN WELLS A","2202801","2018-01-27 10:00","2018","01","27","10:00","-29.9","","-33.6","","71","","","","36","","1","","24.1","","103.39","","","","-31","","Snow"
"-126.80","65.28","NORMAN WELLS A","2202801","2018-01-27 11:00","2018","01","27","11:00","-29.9","","-33.6","","71","","","","27","","3","","24.1","","103.41","","","","-33","","Snow"
"-126.80","65.28","NORMAN WELLS A","2202801","2018-01-27 12:00","2018","01","27","12:00","-30.1","","-33.8","","71","","","","36","","3","","24.1","","103.42","","","","-33","","Snow"
"-126.80","65.28","NORMAN WELLS A","2202801","2018-01-27 13:00","2018","01","27","13:00","-29.7","","-33.3","","71","","","","36","","3","","24.1","","103.39","","","","-33","","Snow"
"-126.80","65.28","NORMAN WELLS A","2202801","2018-01-27 14:00","2018","01","27","14:00","-29.4","","-33.1","","71","","","","16","","4","","24.1","","103.41","","","","-34","","Snow"
"-126.80","65.28","NORMAN WELLS A","2202801","2018-01-27 15:00","2018","01","27","15:00","-29.1","","-32.8","","71","","","","36","","1","","24.1","","103.42","","","","-30","","Snow"
"-126.80","65.28","NORMAN WELLS A","2202801","2018-01-27 16:00","2018","01","27","16:00","-29.2","","-32.8","","72","","","","36","","2","","24.1","","103.45","","","","-31","","Snow"
"-126.80","65.28","NORMAN WELLS A","2202801","2018-01-27 17:00","2018","01","27","17:00","-30.0","","-33.6","","72","","","","33","","5","","32.2","","103.46","","","","-36","","Snow"
"-126.80","65.28","NORMAN WELLS A","2202801","2018-01-27 18:00","2018","01","27","18:00","-31.8","","-35.6","","70","","","","36","","3","","32.2","","103.49","","","","-35","","Snow"
"-126.80","65.28","NORMAN WELLS A","2202801","2018-01-27 19:00","2018","01","27","19:00","-33.1","","-37.0","","69","","","","36","","3","","48.3","","103.49","","","","-37","","Snow"
"-126.80","65.28","NORMAN WELLS A","2202801","2018-01-27 20:00","2018","01","27","20:00","-35.8","","-39.8","","68","","","","36","","3","","48.3","","103.54","","","","-40","","Snow"
"-126.80","65.28","NORMAN WELLS A","2202801","2018-01-27 21:00","2018","01","27","21:00","-36.2","","-40.2","","68","","","","3","","3","","48.3","","103.54","","","","-40","","Ice Crystals"
"-126.80","65.28","NORMAN WELLS A","2202801","2018-01-27 22:00","2018","01","27","22:00","-37.0","","-41.1","","66","","","","36","","1","","48.3","","103.55","","","","-38","","Ice Crystals"
"-126.80","65.28","NORMAN WELLS A","2202801","2018-01-27 23:00","2018","01","27","23:00","-37.7","","-41.9","","66","","","","36","","1","","48.3","","103.55","","","","-39","","Ice Crystals"
"-126.80","65.28","NORMAN WELLS A","2202801","2018-01-28 00:00","2018","01","28","00:00","-38.1","","-42.2","","66","","","","7","","3","","48.3","","103.54","","","","-42","","Ice Crystals"
"-126.80","65.28","NORMAN WELLS A","2202801","2018-01-28 01:00","2018","01","28","01:00","-38.2","","-42.4","","66","","","","13","","5","","48.3","","103.52","","","","-45","","Ice Crystals"
"-126.80","65.28","NORMAN WELLS A","2202801","2018-01-28 02:00","2018","01","28","02:00","-36.2","","-40.3","","67","","","","16","","4","","48.3","","103.52","","","","-41","","Ice Crystals"
"-126.80","65.28","NORMAN WELLS A","2202801","2018-01-28 03:00","2018","01","28","03:00","-36.3","","-40.3","","67","","","","36","","1","","48.3","","103.53","","","","-38","","Ice Crystals"
"-126.80","65.28","NORMAN WELLS A","2202801","2018-01-28 04:00","2018","01","28","04:00","-35.5","","-39.5","","68","","","","36","","4","","32.2","","103.54","","","","-41","","Snow"
"-126.80","65.28","NORMAN WELLS A","2202801","2018-01-28 05:00","2018","01","28","05:00","-34.5","","-38.5","","68","","","","36","","2","","32.2","","103.52","","","","-37","","Snow"
"-126.80","65.28","NORMAN WELLS A","2202801","2018-01-28 06:00","2018","01","28","06:00","-33.1","","-36.9","","69","","","","36","","1","","24.1","","103.49","","","","-34","","Snow"
"-126.80","65.28","NORMAN WELLS A","2202801","2018-01-28 07:00","2018","01","28","07:00","-32.5","","-36.3","","70","","","","7","","3","","24.1","","103.45","","","","-36","","Snow"
"-126.80","65.28","NORMAN WELLS A","2202801","2018-01-28 08:00","2018","01","28","08:00","-32.0","","-35.8","","70","","","","36","","2","","24.1","","103.40","","","","-34","","Snow"
"-126.80","65.28","NORMAN WELLS A","2202801","2018-01-28 09:00","2018","01","28","09:00","-31.1","","-34.9","","70","","","","36","","3","","24.1","","103.38","","","","-35","","Snow"
"-126.80","65.28","NORMAN WELLS A","2202801","2018-01-28 10:00","2018","01","28","10:00","-31.0","","-34.7","","71","","","","36","","2","","24.1","","103.32","","","","-33","","Snow"
"-126.80","65.28","NORMAN WELLS A","2202801","2018-01-28 11:00","2018","01","28","11:00","-31.1","","-34.8","","70","","","","6","","3","","24.1","","103.29","","","","-35","","Snow"
"-126.80","65.28","NORMAN WELLS A","2202801","2018-01-28 12:00","2018","01","28","12:00","-31.1","","-34.9","","70","","","","13","","7","","24.1","","103.22","","","","-39","","Snow"
"-126.80","65.28","NORMAN WELLS A","2202801","2018-01-28 13:00","2018","01","28","13:00","-30.4","","-34.2","","70","","","","14","","7","","24.1","","103.18","","","","-38","","Snow"
"-126.80","65.28","NORMAN WELLS A","2202801","2018-01-28 14:00","2018","01","28","14:00","-30.1","","-33.5","","73","","","","12","","6","","24.1","","103.11","","","","-37","","Snow"
"-126.80","65.28","NORMAN WELLS A","2202801","2018-01-28 15:00","2018","01","28","15:00","-30.2","","-33.4","","74","","","","12","","8","","16.1","","103.08","","","","-38","","Snow"
"-126.80","65.28","NORMAN WELLS A","2202801","2018-01-28 16:00","2018","01","28","16:00","-30.0","","-33.5","","73","","","","36","","2","","48.3","","103.01","","","","-32","","NA"
"-126.80","65.28","NORMAN WELLS A","2202801","2018-01-28 17:00","2018","01","28","17:00","-31.8","","-35.5","","70","","","","35","","4","","48.3","","103.01","","","","-36","","Mainly Clear"
"-126.80","65.28","NORMAN WELLS A","2202801","2018-01-28 18:00","2018","01","28","18:00","-33.4","","-37.3","","69","","","","18","","7","","48.3","","102.98","","","","-41","","NA"
"-126.80","65.28","NORMAN WELLS A","2202801","2018-01-28 19:00","2018","01","28","19:00","-34.6","","-38.5","","69","","","","8","","7","","48.3","","102.94","","","","-43","","NA"
"-126.80","65.28","NORMAN WELLS A","2202801","2018-01-28 20:00","2018","01","28","20:00","-35.8","","-39.8","","68","","","","9","","7","","48.3","","102.90","","","","-44","","Ice Crystals"
"-126.80","65.28","NORMAN WELLS A","2202801","2018-01-28 21:00","2018","01","28","21:00","-33.5","","-37.2","","70","","","","8","","8","","48.3","","102.82","","","","-42","","Ice Crystals"
"-126.80","65.28","NORMAN WELLS A","2202801","2018-01-28 22:00","2018","01","28","22:00","-34.6","","-38.4","","69","","","","13","","4","","48.3","","102.78","","","","-40","","NA"
"-126.80","65.28","NORMAN WELLS A","2202801","2018-01-28 23:00","2018","01","28","23:00","-36.8","","-40.8","","68","","","","10","","4","","48.3","","102.70","","","","-42","","Ice Crystals"
"-126.80","65.28","NORMAN WELLS A","2202801","2018-01-29 00:00","2018","01","29","00:00","-37.8","","-42.0","","66","","","","25","","3","","48.3","","102.63","","","","-42","","NA"
"-126.80","65.28","NORMAN WELLS A","2202801","2018-01-29 01:00","2018","01","29","01:00","-37.4","","-41.5","","67","","","","7","","4","","48.3","","102.55","","","","-43","","Ice Crystals"
"-126.80","65.28","NORMAN WELLS A","2202801","2018-01-29 02:00","2018","01","29","02:00","-32.6","","-36.3","","71","","","","9","","7","","48.3","","102.49","","","","-40","","Ice Crystals"
"-126.80","65.28","NORMAN WELLS A","2202801","2018-01-29 03:00","2018","01","29","03:00","-33.6","","-37.3","","70","","","","7","","8","","48.3","","102.38","","","","-42","","Ice Crystals"
"-126.80","65.28","NORMAN WELLS A","2202801","2018-01-29 04:00","2018","01","29","04:00","-34.1","","-37.8","","70","","","","7","","9","","48.3","","102.33","","","","-43","","Ice Crystals"
"-126.80","65.28","NORMAN WELLS A","2202801","2018-01-29 05:00","2018","01","29","05:00","-32.7","","-36.5","","70","","","","9","","9","","48.3","","102.22","","","","-42","","Ice Crystals"
"-126.80","65.28","NORMAN WELLS A","2202801","2018-01-29 06:00","2018","01","29","06:00","-33.3","","-37.1","","69","","","","8","","6","","48.3","","102.09","","","","-40","","Ice Crystals"
"-126.80","65.28","NORMAN WELLS A","2202801","2018-01-29 07:00","2018","01","29","07:00","-33.0","","-36.8","","69","","","","12","","9","","48.3","","102.05","","","","-42","","Ice Crystals"
"-126.80","65.28","NORMAN WELLS A","2202801","2018-01-29 08:00","2018","01","29","08:00","-34.4","","-38.2","","69","","","","10","","5","","48.3","","101.94","","","","-41","","Ice Crystals"
"-126.80","65.28","NORMAN WELLS A","2202801","2018-01-29 09:00","2018","01","29","09:00","-36.8","","-40.9","","67","","","","4","","5","","48.3","","101.88","","","","-43","","Ice Crystals"
"-126.80","65.28","NORMAN WELLS A","2202801","2018-01-29 10:00","2018","01","29","10:00","-37.4","","-41.5","","67","","","","33","","4","","48.3","","101.81","","","","-43","","Ice Crystals"
"-126.80","65.28","NORMAN WELLS A","2202801","2018-01-29 11:00","2018","01","29","11:00","-35.5","","-39.5","","68","","","","36","","3","","48.3","","101.74","","","","-39","","Ice Crystals"
"-126.80","65.28","NORMAN WELLS A","2202801","2018-01-29 12:00","2018","01","29","12:00","-34.0","","-38.0","","68","","","","36","","2","","48.3","","101.70","","","","-36","","Snow"
"-126.80","65.28","NORMAN WELLS A","2202801","2018-01-29 13:00","2018","01","29","13:00","-32.0","","-35.8","","70","","","","36","","2","","48.3","","101.63","","","","-34","","Snow"
"-126.80","65.28","NORMAN WELLS A","2202801","2018-01-29 14:00","2018","01","29","14:00","-33.2","","-37.0","","69","","","","36","","4","","48.3","","101.58","","","","-38","","Mainly Clear"
"-126.80","65.28","NORMAN WELLS A","2202801","2018-01-29 15:00","2018","01","29","15:00","-30.5","","-34.2","","71","","","","31","","4","","48.3","","101.52","","","","-35","","Snow"
"-126.80","65.28","NORMAN WELLS A","2202801","2018-01-29 16:00","2018","01","29","16:00","-30.9","","-34.6","","71","","","","27","","4","","16.1","","101.49","","","","-35","","Snow"
"-126.80","65.28","NORMAN WELLS A","2202801","2018-01-29 17:00","2018","01","29","17:00","-31.6","","-35.4","","70","","","","36","","2","","40.2","","101.45","","","","-34","","Snow"
"-126.80","65.28","NORMAN WELLS A","2202801","2018-01-29 18:00","2018","01","29","18:00","-32.0","","-35.8","","70","","","","27","","4","","40.2","","101.43","","","","-37","","Snow"
"-126.80","65.28","NORMAN WELLS A","2202801","2018-01-29 19:00","2018","01","29","19:00","-33.6","","-37.5","","69","","","","34","","3","","40.2","","101.43","","","","-37","","Ice Crystals"
"-126.80","65.28","NORMAN WELLS A","2202801","2018-01-29 20:00","2018","01","29","20:00","-34.0","","-38.0","","68","","","","32","","5","","12.9","","101.44","","","","-40","","Ice Crystals"
"-126.80","65.28","NORMAN WELLS A","2202801","2018-01-29 21:00","2018","01","29","21:00","-31.7","","-35.5","","70","","","","36","","2","","9.7","","101.44","","","","-34","","Snow,Ice Crystals"
"-126.80","65.28","NORMAN WELLS A","2202801","2018-01-29 22:00","2018","01","29","22:00","-31.4","","-35.3","","70","","","","23","","7","","16.1","","101.44","","","","-39","","Ice Crystals"
"-126.80","65.28","NORMAN WELLS A","2202801","2018-01-29 23:00","2018","01","29","23:00","-32.1","","-36.0","","70","","","","28","","5","","16.1","","101.47","","","","-38","","Ice Crystals"
"-126.80","65.28","NORMAN WELLS A","2202801","2018-01-30 00:00","2018","01","30","00:00","-31.1","","-34.9","","70","","","","29","","4","","8.1","","101.48","","","","-36","","Ice Crystals"
"-126.80","65.28","NORMAN WELLS A","2202801","2018-01-30 01:00","2018","01","30","01:00","-30.8","","-34.5","","70","","","","29","","4","","4.8","","101.56","","","","-35","","Snow"
"-126.80","65.28","NORMAN WELLS A","2202801","2018-01-30 02:00","2018","01","30","02:00","-30.7","","-34.5","","70","","","","24","","4","","12.9","","101.56","","","","-35","","NA"
"-126.80","65.28","NORMAN WELLS A","2202801","2018-01-30 03:00","2018","01","30","03:00","-30.7","","-34.5","","70","","","","28","","5","","16.1","","101.61","","","","-36","","Snow"
"-126.80","65.28","NORMAN WELLS A","2202801","2018-01-30 04:00","2018","01","30","04:00","-30.6","","-34.3","","70","","","","27","","3","","16.1","","101.67","","","","-34","","Snow"
"-126.80","65.28","NORMAN WELLS A","2202801","2018-01-30 05:00","2018","01","30","05:00","-30.1","","-33.9","","71","","","","36","","3","","16.1","","101.71","","","","-33","","Snow"
"-126.80","65.28","NORMAN WELLS A","2202801","2018-01-30 06:00","2018","01","30","06:00","-29.9","","-33.7","","71","","","","29","","6","","16.1","","101.79","","","","-36","","Snow"
"-126.80","65.28","NORMAN WELLS A","2202801","2018-01-30 07:00","2018","01","30","07:00","-29.7","","-33.5","","71","","","","29","","7","","8.1","","101.83","","","","-37","","Snow"
"-126.80","65.28","NORMAN WELLS A","2202801","2018-01-30 08:00","2018","01","30","08:00","-29.8","","-33.6","","70","","","","29","","9","","6.4","","101.92","","","","-38","","Snow"
"-126.80","65.28","NORMAN WELLS A","2202801","2018-01-30 09:00","2018","01","30","09:00","-30.3","","-34.1","","70","","","","29","","7","","6.4","","101.95","","","","-38","","Snow"
"-126.80","65.28","NORMAN WELLS A","2202801","2018-01-30 10:00","2018","01","30","10:00","-30.8","","-34.5","","70","","","","27","","9","","9.7","","102.04","","","","-40","","Snow"
"-126.80","65.28","NORMAN WELLS A","2202801","2018-01-30 11:00","2018","01","30","11:00","-31.2","","-35.0","","70","","","","30","","4","","12.9","","102.12","","","","-36","","Snow"
"-126.80","65.28","NORMAN WELLS A","2202801","2018-01-30 12:00","2018","01","30","12:00","-31.0","","-34.8","","70","","","","36","","1","","32.2","","102.21","","","","-32","","Snow"
"-126.80","65.28","NORMAN WELLS A","2202801","2018-01-30 13:00","2018","01","30","13:00","-30.3","","-34.1","","70","","","","36","","2","","16.1","","102.25","","","","-33","","Snow"
"-126.80","65.28","NORMAN WELLS A","2202801","2018-01-30 14:00","2018","01","30","14:00","-29.8","","-33.6","","70","","","","22","","3","","12.9","","102.31","","","","-33","","Snow"
"-126.80","65.28","NORMAN WELLS A","2202801","2018-01-30 15:00","2018","01","30","15:00","-29.5","","-33.3","","70","","","","24","","7","","32.2","","102.37","","","","-37","","Snow"
"-126.80","65.28","NORMAN WELLS A","2202801","2018-01-30 16:00","2018","01","30","16:00","-29.6","","-33.4","","70","","","","24","","4","","16.1","","102.43","","","","-34","","Snow"
"-126.80","65.28","NORMAN WELLS A","2202801","2018-01-30 17:00","2018","01","30","17:00","-30.4","","-34.1","","71","","","","29","","5","","16.1","","102.51","","","","-36","","Snow"
"-126.80","65.28","NORMAN WELLS A","2202801","2018-01-30 18:00","2018","01","30","18:00","-30.5","","-34.1","","71","","","","24","","3","","24.1","","102.59","","","","-34","","Snow"
"-126.80","65.28","NORMAN WELLS A","2202801","2018-01-30 19:00","2018","01","30","19:00","-32.2","","-36.0","","70","","","","4","","3","","24.1","","102.67","","","","-36","","Snow"
"-126.80","65.28","NORMAN WELLS A","2202801","2018-01-30 20:00","2018","01","30","20:00","-32.0","","-35.8","","70","","","","36","","2","","24.1","","102.74","","","","-34","","Snow"
"-126.80","65.28","NORMAN WELLS A","2202801","2018-01-30 21:00","2018","01","30","21:00","-30.8","","-34.5","","71","","","","0","","1","","8.1","","102.80","","","","-32","","Snow"
"-126.80","65.28","NORMAN WELLS A","2202801","2018-01-30 22:00","2018","01","30","22:00","-31.1","","-34.8","","70","","","","36","","1","","9.7","","102.85","","","","-32","","Snow"
"-126.80","65.28","NORMAN WELLS A","2202801","2018-01-30 23:00","2018","01","30","23:00","-34.0","","-37.9","","68","","","","","","0","","24.1","","102.92","","","","","","Snow"
"-126.80","65.28","NORMAN WELLS A","2202801","2018-01-31 00:00","2018","01","31","00:00","-36.2","","-40.2","","67","","","","3","","3","","24.1","","102.98","","","","-40","","Snow"
"-126.80","65.28","NORMAN WELLS A","2202801","2018-01-31 01:00","2018","01","31","01:00","-37.1","","-41.2","","67","","","","36","","1","","24.1","","103.04","","","","-38","","Snow"
"-126.80","65.28","NORMAN WELLS A","2202801","2018-01-31 02:00","2018","01","31","02:00","-37.2","","-41.3","","67","","","","36","","3","","24.1","","103.12","","","","-41","","Snow"
"-126.80","65.28","NORMAN WELLS A","2202801","2018-01-31 03:00","2018","01","31","03:00","-36.8","","-40.9","","67","","","","","","0","","24.1","","103.20","","","","","","Snow"
"-126.80","65.28","NORMAN WELLS A","2202801","2018-01-31 04:00","2018","01","31","04:00","-36.8","","-40.9","","67","","","","36","","3","","24.1","","103.25","","","","-41","","Snow"
"-126.80","65.28","NORMAN WELLS A","2202801","2018-01-31 05:00","2018","01","31","05:00","-37.1","","-41.2","","67","","","","36","","2","","48.3","","103.30","","","","-40","","Snow"
"-126.80","65.28","NORMAN WELLS A","2202801","2018-01-31 06:00","2018","01","31","06:00","-36.5","","-40.6","","67","","","","8","","4","","32.2","","103.36","","","","-42","","Snow"
"-126.80","65.28","NORMAN WELLS A","2202801","2018-01-31 07:00","2018","01","31","07:00","-36.6","","-40.7","","67","","","","12","","4","","32.2","","103.41","","","","-42","","Snow"
"-126.80","65.28","NORMAN WELLS A","2202801","2018-01-31 08:00","2018","01","31","08:00","-37.3","","-41.4","","66","","","","36","","3","","32.2","","103.44","","","","-41","","Snow"
"-126.80","65.28","NORMAN WELLS A","2202801","2018-01-31 09:00","2018","01","31","09:00","-38.4","","-42.6","","66","","","","36","","1","","48.3","","103.49","","","","-40","","Ice Crystals"
"-126.80","65.28","NORMAN WELLS A","2202801","2018-01-31 10:00","2018","01","31","10:00","-38.9","","-43.1","","65","","","","36","","2","","24.1","","103.53","","","","-42","","Ice Crystals"
"-126.80","65.28","NORMAN WELLS A","2202801","2018-01-31 11:00","2018","01","31","11:00","-38.0","","-42.2","","66","","","","3","","3","","32.2","","103.58","","","","-42","","Ice Crystals"
"-126.80","65.28","NORMAN WELLS A","2202801","2018-01-31 12:00","2018","01","31","12:00","-36.0","","-40.1","","67","","","","36","","2","","32.2","","103.62","","","","-39","","Ice Crystals"
"-126.80","65.28","NORMAN WELLS A","2202801","2018-01-31 13:00","2018","01","31","13:00","-34.6","","-38.5","","68","","","","7","","3","","32.2","","103.63","","","","-38","","Ice Crystals"
"-126.80","65.28","NORMAN WELLS A","2202801","2018-01-31 14:00","2018","01","31","14:00","-35.1","","-39.2","","67","","","","14","","4","","48.3","","103.67","","","","-40","","Ice Crystals"
"-126.80","65.28","NORMAN WELLS A","2202801","2018-01-31 15:00","2018","01","31","15:00","-33.9","","-37.8","","69","","","","36","","2","","48.3","","103.66","","","","-36","","Ice Crystals"
"-126.80","65.28","NORMAN WELLS A","2202801","2018-01-31 16:00","2018","01","31","16:00","-32.9","","-36.8","","69","","","","36","","2","","24.1","","103.67","","","","-35","","Ice Crystals"
"-126.80","65.28","NORMAN WELLS A","2202801","2018-01-31 17:00","2018","01","31","17:00","-33.5","","-37.4","","69","","","","16","","3","","32.2","","103.71","","","","-37","","Ice Crystals"
"-126.80","65.28","NORMAN WELLS A","2202801","2018-01-31 18:00","2018","01","31","18:00","-36.0","","-40.0","","67","","","","6","","6","","40.2","","103.70","","","","-43","","Ice Crystals"
"-126.80","65.28","NORMAN WELLS A","2202801","2018-01-31 19:00","2018","01","31","19:00","-37.6","","-41.8","","66","","","","15","","4","","40.2","","103.70","","","","-43","","Ice Crystals"
"-126.80","65.28","NORMAN WELLS A","2202801","2018-01-31 20:00","2018","01","31","20:00","-37.0","","-41.1","","67","","","","14","","4","","24.1","","103.70","","","","-42","","Ice Crystals"
"-126.80","65.28","NORMAN WELLS A","2202801","2018-01-31 21:00","2018","01","31","21:00","-36.6","","-40.6","","67","","","","6","","4","","24.1","","103.67","","","","-42","","Ice Crystals"
"-126.80","65.28","NORMAN WELLS A","2202801","2018-01-31 22:00","2018","01","31","22:00","-36.1","","-40.1","","67","","","","0","","1","","16.1","","103.68","","","","-37","","Ice Crystals"
"-126.80","65.28","NORMAN WELLS A","2202801","2018-01-31 23:00","2018","01","31","23:00","-37.0","","-41.2","","67","","","","36","","4","","16.1","","103.67","","","","-42","","Ice Crystals"
