"Longitude (x)","Latitude (y)","Station Name","Climate ID","Date/Time (LST)","Year","Month","Day","Time (LST)","Temp (°C)","Temp Flag","Dew Point Temp (°C)","Dew Point Temp Flag","Rel Hum (%)","Rel Hum Flag","Precip. Amount (mm)","Precip. Amount Flag","Wind Dir (10s deg)","Wind Dir Flag","Wind Spd (km/h)","Wind Spd Flag","Visibility (km)","Visibility Flag","Stn Press (kPa)","Stn Press Flag","Hmdx","Hmdx Flag","Wind Chill","Wind Chill Flag","Weather"
"-123.44","63.21","WRIGLEY A","2204005","2019-02-01 00:00","2019","02","01","00:00","-21.7","","-25.5","","71","","","M","33","","14","","","M","101.12","","","","-31","","NA"
"-123.44","63.21","WRIGLEY A","2204005","2019-02-01 01:00","2019","02","01","01:00","-22.3","","-25.6","","76","","","M","31","","10","","","M","101.18","","","","-30","","NA"
"-123.44","63.21","WRIGLEY A","2204005","2019-02-01 02:00","2019","02","01","02:00","-21.7","","-25.4","","73","","","M","32","","8","","","M","101.18","","","","-28","","NA"
"-123.44","63.21","WRIGLEY A","2204005","2019-02-01 03:00","2019","02","01","03:00","-21.8","","-25.5","","72","","","M","33","","9","","","M","101.24","","","","-29","","NA"
"-123.44","63.21","WRIGLEY A","2204005","2019-02-01 04:00","2019","02","01","04:00","-21.9","","-25.7","","72","","","M","33","","10","","","M","101.28","","","","-29","","NA"
"-123.44","63.21","WRIGLEY A","2204005","2019-02-01 05:00","2019","02","01","05:00","-22.1","","-25.8","","72","","","M","32","","12","","","M","101.32","","","","-31","","NA"
"-123.44","63.21","WRIGLEY A","2204005","2019-02-01 06:00","2019","02","01","06:00","-22.5","","-26.1","","73","","","M","34","","8","","","M","101.35","","","","-29","","NA"
"-123.44","63.21","WRIGLEY A","2204005","2019-02-01 07:00","2019","02","01","07:00","-22.9","","-26.5","","73","","","M","33","","9","","","M","101.40","","","","-30","","NA"
"-123.44","63.21","WRIGLEY A","2204005","2019-02-01 08:00","2019","02","01","08:00","-23.5","","-26.9","","74","","","M","32","","10","","","M","101.45","","","","-31","","NA"
"-123.44","63.21","WRIGLEY A","2204005","2019-02-01 09:00","2019","02","01","09:00","-23.8","","-27.2","","74","","","M","32","","9","","","M","101.48","","","","-31","","NA"
"-123.44","63.21","WRIGLEY A","2204005","2019-02-01 10:00","2019","02","01","10:00","-24.3","","-27.6","","75","","","M","32","","15","","","M","101.52","","","","-34","","NA"
"-123.44","63.21","WRIGLEY A","2204005","2019-02-01 11:00","2019","02","01","11:00","-24.0","","-27.5","","73","","","M","32","","16","","","M","101.55","","","","-34","","NA"
"-123.44","63.21","WRIGLEY A","2204005","2019-02-01 12:00","2019","02","01","12:00","-23.7","","-27.7","","70","","","M","32","","16","","","M","101.58","","","","-34","","NA"
"-123.44","63.21","WRIGLEY A","2204005","2019-02-01 13:00","2019","02","01","13:00","-23.4","","-27.8","","68","","","M","34","","10","","","M","101.61","","","","-31","","NA"
"-123.44","63.21","WRIGLEY A","2204005","2019-02-01 14:00","2019","02","01","14:00","-23.3","","-27.8","","67","","","M","34","","13","","","M","101.63","","","","-32","","NA"
"-123.44","63.21","WRIGLEY A","2204005","2019-02-01 15:00","2019","02","01","15:00","-23.2","","-27.9","","66","","","M","32","","10","","","M","101.63","","","","-31","","NA"
"-123.44","63.21","WRIGLEY A","2204005","2019-02-01 16:00","2019","02","01","16:00","-23.7","","-28.1","","68","","","M","34","","10","","","M","101.60","","","","-32","","NA"
"-123.44","63.21","WRIGLEY A","2204005","2019-02-01 17:00","2019","02","01","17:00","-24.7","","-28.6","","71","","","M","35","","9","","","M","101.61","","","","-32","","NA"
"-123.44","63.21","WRIGLEY A","2204005","2019-02-01 18:00","2019","02","01","18:00","-25.2","","-28.8","","72","","","M","34","","8","","","M","101.66","","","","-32","","NA"
"-123.44","63.21","WRIGLEY A","2204005","2019-02-01 19:00","2019","02","01","19:00","-25.4","","-29.1","","72","","","M","33","","9","","","M","101.67","","","","-33","","NA"
"-123.44","63.21","WRIGLEY A","2204005","2019-02-01 20:00","2019","02","01","20:00","-26.6","","-29.9","","74","","","M","35","","11","","","M","101.65","","","","-36","","NA"
"-123.44","63.21","WRIGLEY A","2204005","2019-02-01 21:00","2019","02","01","21:00","-27.1","","-30.3","","75","","","M","33","","8","","","M","101.65","","","","-35","","NA"
"-123.44","63.21","WRIGLEY A","2204005","2019-02-01 22:00","2019","02","01","22:00","-27.7","","-30.8","","76","","","M","33","","6","","","M","101.65","","","","-34","","NA"
"-123.44","63.21","WRIGLEY A","2204005","2019-02-01 23:00","2019","02","01","23:00","-28.4","","-31.6","","75","","","M","30","","9","","","M","101.65","","","","-37","","NA"
"-123.44","63.21","WRIGLEY A","2204005","2019-02-02 00:00","2019","02","02","00:00","-27.9","","-31.1","","75","","","M","31","","8","","","M","101.64","","","","-36","","NA"
"-123.44","63.21","WRIGLEY A","2204005","2019-02-02 01:00","2019","02","02","01:00","-28.2","","-31.4","","75","","","M","31","","8","","","M","101.62","","","","-36","","NA"
"-123.44","63.21","WRIGLEY A","2204005","2019-02-02 02:00","2019","02","02","02:00","-28.7","","-31.9","","75","","","M","34","","5","","","M","101.66","","","","-34","","NA"
"-123.44","63.21","WRIGLEY A","2204005","2019-02-02 03:00","2019","02","02","03:00","-30.9","","-34.2","","74","","","M","33","","3","","","M","101.66","","","","-34","","NA"
"-123.44","63.21","WRIGLEY A","2204005","2019-02-02 04:00","2019","02","02","04:00","-33.0","","-36.6","","71","","","M","33","","2","","","M","101.67","","","","-35","","NA"
"-123.44","63.21","WRIGLEY A","2204005","2019-02-02 05:00","2019","02","02","05:00","-33.0","","-36.2","","73","","","M","24","","2","","","M","101.68","","","","-35","","NA"
"-123.44","63.21","WRIGLEY A","2204005","2019-02-02 06:00","2019","02","02","06:00","-34.9","","-38.6","","70","","","M","30","","1","","","M","101.67","","","","-36","","NA"
"-123.44","63.21","WRIGLEY A","2204005","2019-02-02 07:00","2019","02","02","07:00","-35.6","","-39.5","","69","","","M","6","","2","","","M","101.69","","","","-38","","NA"
"-123.44","63.21","WRIGLEY A","2204005","2019-02-02 08:00","2019","02","02","08:00","-36.7","","-40.5","","69","","","M","35","","1","","","M","101.69","","","","-38","","NA"
"-123.44","63.21","WRIGLEY A","2204005","2019-02-02 09:00","2019","02","02","09:00","-36.5","","-40.3","","69","","","M","17","","2","","","M","101.73","","","","-39","","NA"
"-123.44","63.21","WRIGLEY A","2204005","2019-02-02 10:00","2019","02","02","10:00","-36.8","","-40.6","","69","","","M","0","","1","","","M","101.75","","","","-38","","NA"
"-123.44","63.21","WRIGLEY A","2204005","2019-02-02 11:00","2019","02","02","11:00","-36.9","","-40.8","","68","","","M","5","","4","","","M","101.75","","","","-42","","NA"
"-123.44","63.21","WRIGLEY A","2204005","2019-02-02 12:00","2019","02","02","12:00","-35.1","","-38.5","","71","","","M","21","","2","","","M","101.73","","","","-38","","NA"
"-123.44","63.21","WRIGLEY A","2204005","2019-02-02 13:00","2019","02","02","13:00","-32.9","","-36.4","","71","","","M","18","","3","","","M","101.72","","","","-37","","NA"
"-123.44","63.21","WRIGLEY A","2204005","2019-02-02 14:00","2019","02","02","14:00","-31.6","","-35.4","","70","","","M","22","","4","","","M","101.68","","","","-36","","NA"
"-123.44","63.21","WRIGLEY A","2204005","2019-02-02 15:00","2019","02","02","15:00","-30.8","","-34.9","","68","","","M","21","","3","","","M","101.65","","","","-34","","NA"
"-123.44","63.21","WRIGLEY A","2204005","2019-02-02 16:00","2019","02","02","16:00","-30.1","","-34.0","","69","","","M","20","","3","","","M","101.64","","","","-33","","NA"
"-123.44","63.21","WRIGLEY A","2204005","2019-02-02 17:00","2019","02","02","17:00","-31.1","","-35.0","","70","","","M","10","","5","","","M","101.63","","","","-37","","NA"
"-123.44","63.21","WRIGLEY A","2204005","2019-02-02 18:00","2019","02","02","18:00","-31.6","","-35.0","","73","","","M","16","","3","","","M","101.64","","","","-35","","NA"
"-123.44","63.21","WRIGLEY A","2204005","2019-02-02 19:00","2019","02","02","19:00","-33.9","","-37.6","","70","","","M","9","","4","","","M","101.67","","","","-39","","NA"
"-123.44","63.21","WRIGLEY A","2204005","2019-02-02 20:00","2019","02","02","20:00","-35.0","","-38.7","","70","","","M","6","","4","","","M","101.63","","","","-40","","NA"
"-123.44","63.21","WRIGLEY A","2204005","2019-02-02 21:00","2019","02","02","21:00","-34.0","","-37.5","","72","","","M","15","","10","","","M","101.61","","","","-44","","NA"
"-123.44","63.21","WRIGLEY A","2204005","2019-02-02 22:00","2019","02","02","22:00","-37.0","","-40.7","","69","","","M","5","","4","","","M","101.55","","","","-42","","NA"
"-123.44","63.21","WRIGLEY A","2204005","2019-02-02 23:00","2019","02","02","23:00","-37.6","","-41.4","","68","","","M","3","","3","","","M","101.51","","","","-42","","NA"
"-123.44","63.21","WRIGLEY A","2204005","2019-02-03 00:00","2019","02","03","00:00","-37.9","","-41.8","","68","","","M","10","","2","","","M","101.49","","","","-41","","NA"
"-123.44","63.21","WRIGLEY A","2204005","2019-02-03 01:00","2019","02","03","01:00","-37.6","","-41.2","","70","","","M","14","","5","","","M","101.44","","","","-44","","NA"
"-123.44","63.21","WRIGLEY A","2204005","2019-02-03 02:00","2019","02","03","02:00","-36.1","","-39.7","","70","","","M","15","","13","","","M","101.40","","","","-48","","NA"
"-123.44","63.21","WRIGLEY A","2204005","2019-02-03 03:00","2019","02","03","03:00","-35.7","","-39.1","","71","","","M","17","","9","","","M","101.37","","","","-45","","NA"
"-123.44","63.21","WRIGLEY A","2204005","2019-02-03 04:00","2019","02","03","04:00","-38.0","","-41.7","","69","","","M","14","","4","","","M","101.32","","","","-43","","NA"
"-123.44","63.21","WRIGLEY A","2204005","2019-02-03 05:00","2019","02","03","05:00","-37.4","","-41.1","","69","","","M","17","","7","","","M","101.28","","","","-46","","NA"
"-123.44","63.21","WRIGLEY A","2204005","2019-02-03 06:00","2019","02","03","06:00","-38.7","","-42.4","","69","","","M","12","","8","","","M","101.27","","","","-48","","NA"
"-123.44","63.21","WRIGLEY A","2204005","2019-02-03 07:00","2019","02","03","07:00","-36.9","","-40.5","","70","","","M","14","","13","","","M","101.22","","","","-49","","NA"
"-123.44","63.21","WRIGLEY A","2204005","2019-02-03 08:00","2019","02","03","08:00","-38.4","","-42.1","","69","","","M","13","","5","","","M","101.19","","","","-45","","NA"
"-123.44","63.21","WRIGLEY A","2204005","2019-02-03 09:00","2019","02","03","09:00","-37.8","","-41.5","","69","","","M","11","","3","","","M","101.18","","","","-42","","NA"
"-123.44","63.21","WRIGLEY A","2204005","2019-02-03 10:00","2019","02","03","10:00","-36.8","","-40.5","","70","","","M","15","","14","","","M","101.19","","","","-49","","NA"
"-123.44","63.21","WRIGLEY A","2204005","2019-02-03 11:00","2019","02","03","11:00","-34.1","","-37.7","","71","","","M","14","","13","","","M","101.17","","","","-46","","NA"
"-123.44","63.21","WRIGLEY A","2204005","2019-02-03 12:00","2019","02","03","12:00","-32.5","","-36.1","","71","","","M","14","","10","","","M","101.14","","","","-42","","NA"
"-123.44","63.21","WRIGLEY A","2204005","2019-02-03 13:00","2019","02","03","13:00","-31.1","","-34.6","","72","","","M","15","","21","","","M","101.10","","","","-45","","NA"
"-123.44","63.21","WRIGLEY A","2204005","2019-02-03 14:00","2019","02","03","14:00","-30.0","","-33.7","","71","","","M","15","","21","","","M","101.05","","","","-43","","NA"
"-123.44","63.21","WRIGLEY A","2204005","2019-02-03 15:00","2019","02","03","15:00","-29.9","","-33.6","","71","","","M","15","","22","","","M","101.03","","","","-44","","NA"
"-123.44","63.21","WRIGLEY A","2204005","2019-02-03 16:00","2019","02","03","16:00","-29.4","","-33.2","","70","","","M","15","","19","","","M","100.97","","","","-42","","NA"
"-123.44","63.21","WRIGLEY A","2204005","2019-02-03 17:00","2019","02","03","17:00","-29.3","","-32.9","","72","","","M","14","","19","","","M","100.96","","","","-42","","NA"
"-123.44","63.21","WRIGLEY A","2204005","2019-02-03 18:00","2019","02","03","18:00","-30.1","","-33.7","","72","","","M","14","","15","","","M","100.97","","","","-42","","NA"
"-123.44","63.21","WRIGLEY A","2204005","2019-02-03 19:00","2019","02","03","19:00","-29.9","","-33.5","","71","","","M","13","","15","","","M","100.97","","","","-41","","NA"
"-123.44","63.21","WRIGLEY A","2204005","2019-02-03 20:00","2019","02","03","20:00","-29.8","","-33.5","","71","","","M","13","","13","","","M","100.94","","","","-40","","NA"
"-123.44","63.21","WRIGLEY A","2204005","2019-02-03 21:00","2019","02","03","21:00","-30.6","","-34.3","","71","","","M","13","","16","","","M","100.95","","","","-43","","NA"
"-123.44","63.21","WRIGLEY A","2204005","2019-02-03 22:00","2019","02","03","22:00","-31.4","","-35.1","","71","","","M","14","","12","","","M","100.94","","","","-42","","NA"
"-123.44","63.21","WRIGLEY A","2204005","2019-02-03 23:00","2019","02","03","23:00","-32.2","","-35.8","","71","","","M","13","","13","","","M","100.91","","","","-43","","NA"
"-123.44","63.21","WRIGLEY A","2204005","2019-02-04 00:00","2019","02","04","00:00","-32.7","","-36.4","","71","","","M","14","","17","","","M","100.87","","","","-45","","NA"
"-123.44","63.21","WRIGLEY A","2204005","2019-02-04 01:00","2019","02","04","01:00","-33.7","","-37.4","","70","","","M","11","","12","","","M","100.86","","","","-45","","NA"
"-123.44","63.21","WRIGLEY A","2204005","2019-02-04 02:00","2019","02","04","02:00","-35.4","","-39.2","","69","","","M","15","","18","","","M","100.82","","","","-49","","NA"
"-123.44","63.21","WRIGLEY A","2204005","2019-02-04 03:00","2019","02","04","03:00","-34.1","","-37.8","","70","","","M","12","","14","","","M","100.79","","","","-46","","NA"
"-123.44","63.21","WRIGLEY A","2204005","2019-02-04 04:00","2019","02","04","04:00","-34.9","","-38.8","","69","","","M","14","","20","","","M","100.75","","","","-49","","NA"
"-123.44","63.21","WRIGLEY A","2204005","2019-02-04 05:00","2019","02","04","05:00","-34.2","","-37.9","","70","","","M","13","","18","","","M","100.70","","","","-48","","NA"
"-123.44","63.21","WRIGLEY A","2204005","2019-02-04 06:00","2019","02","04","06:00","-34.9","","-38.7","","69","","","M","13","","17","","","M","100.67","","","","-48","","NA"
"-123.44","63.21","WRIGLEY A","2204005","2019-02-04 07:00","2019","02","04","07:00","-35.3","","-39.1","","69","","","M","13","","15","","","M","100.64","","","","-48","","NA"
"-123.44","63.21","WRIGLEY A","2204005","2019-02-04 08:00","2019","02","04","08:00","-35.5","","-39.4","","69","","","M","13","","20","","","M","100.58","","","","-50","","NA"
"-123.44","63.21","WRIGLEY A","2204005","2019-02-04 09:00","2019","02","04","09:00","-35.5","","-39.4","","68","","","M","13","","15","","","M","100.59","","","","-48","","NA"
"-123.44","63.21","WRIGLEY A","2204005","2019-02-04 10:00","2019","02","04","10:00","-35.2","","-39.3","","67","","","M","14","","17","","","M","100.57","","","","-49","","NA"
"-123.44","63.21","WRIGLEY A","2204005","2019-02-04 11:00","2019","02","04","11:00","-34.8","","-38.8","","68","","","M","14","","16","","","M","100.56","","","","-48","","NA"
"-123.44","63.21","WRIGLEY A","2204005","2019-02-04 12:00","2019","02","04","12:00","-33.4","","-37.6","","67","","","M","13","","17","","","M","100.55","","","","-46","","NA"
"-123.44","63.21","WRIGLEY A","2204005","2019-02-04 13:00","2019","02","04","13:00","-33.3","","-37.6","","66","","","M","15","","22","","","M","100.54","","","","-48","","NA"
"-123.44","63.21","WRIGLEY A","2204005","2019-02-04 14:00","2019","02","04","14:00","-31.8","","-36.3","","65","","","M","14","","16","","","M","100.49","","","","-44","","NA"
"-123.44","63.21","WRIGLEY A","2204005","2019-02-04 15:00","2019","02","04","15:00","-31.1","","-35.6","","65","","","M","14","","14","","","M","100.47","","","","-42","","NA"
"-123.44","63.21","WRIGLEY A","2204005","2019-02-04 16:00","2019","02","04","16:00","-30.6","","-35.1","","66","","","M","14","","16","","","M","100.48","","","","-43","","NA"
"-123.44","63.21","WRIGLEY A","2204005","2019-02-04 17:00","2019","02","04","17:00","-31.2","","-35.4","","67","","","M","13","","14","","","M","100.51","","","","-42","","NA"
"-123.44","63.21","WRIGLEY A","2204005","2019-02-04 18:00","2019","02","04","18:00","-32.0","","-36.1","","68","","","M","14","","14","","","M","100.54","","","","-43","","NA"
"-123.44","63.21","WRIGLEY A","2204005","2019-02-04 19:00","2019","02","04","19:00","-32.2","","-36.2","","69","","","M","12","","12","","","M","100.55","","","","-43","","NA"
"-123.44","63.21","WRIGLEY A","2204005","2019-02-04 20:00","2019","02","04","20:00","-32.6","","-36.5","","69","","","M","14","","14","","","M","100.58","","","","-44","","NA"
"-123.44","63.21","WRIGLEY A","2204005","2019-02-04 21:00","2019","02","04","21:00","-32.9","","-36.8","","69","","","M","12","","13","","","M","100.61","","","","-44","","NA"
"-123.44","63.21","WRIGLEY A","2204005","2019-02-04 22:00","2019","02","04","22:00","-33.7","","-37.6","","69","","","M","12","","15","","","M","100.64","","","","-46","","NA"
"-123.44","63.21","WRIGLEY A","2204005","2019-02-04 23:00","2019","02","04","23:00","-33.8","","-37.7","","68","","","M","13","","12","","","M","100.67","","","","-45","","NA"
"-123.44","63.21","WRIGLEY A","2204005","2019-02-05 00:00","2019","02","05","00:00","-33.9","","-37.8","","68","","","M","12","","13","","","M","100.67","","","","-45","","NA"
"-123.44","63.21","WRIGLEY A","2204005","2019-02-05 01:00","2019","02","05","01:00","-33.7","","-37.8","","68","","","M","12","","16","","","M","100.69","","","","-46","","NA"
"-123.44","63.21","WRIGLEY A","2204005","2019-02-05 02:00","2019","02","05","02:00","-34.9","","-38.9","","68","","","M","12","","13","","","M","100.75","","","","-47","","NA"
"-123.44","63.21","WRIGLEY A","2204005","2019-02-05 03:00","2019","02","05","03:00","-34.7","","-38.7","","68","","","M","12","","12","","","M","100.78","","","","-46","","NA"
"-123.44","63.21","WRIGLEY A","2204005","2019-02-05 04:00","2019","02","05","04:00","-34.5","","-38.5","","68","","","M","12","","16","","","M","100.82","","","","-47","","NA"
"-123.44","63.21","WRIGLEY A","2204005","2019-02-05 05:00","2019","02","05","05:00","-34.8","","-38.8","","68","","","M","12","","14","","","M","100.85","","","","-47","","NA"
"-123.44","63.21","WRIGLEY A","2204005","2019-02-05 06:00","2019","02","05","06:00","-35.0","","-39.0","","68","","","M","13","","12","","","M","100.90","","","","-46","","NA"
"-123.44","63.21","WRIGLEY A","2204005","2019-02-05 07:00","2019","02","05","07:00","-34.7","","-38.8","","68","","","M","14","","14","","","M","100.91","","","","-47","","NA"
"-123.44","63.21","WRIGLEY A","2204005","2019-02-05 08:00","2019","02","05","08:00","-35.8","","-39.7","","68","","","M","13","","14","","","M","100.98","","","","-48","","NA"
"-123.44","63.21","WRIGLEY A","2204005","2019-02-05 09:00","2019","02","05","09:00","-35.1","","-39.1","","68","","","M","13","","16","","","M","101.02","","","","-48","","NA"
"-123.44","63.21","WRIGLEY A","2204005","2019-02-05 10:00","2019","02","05","10:00","-35.9","","-40.0","","67","","","M","14","","18","","","M","101.05","","","","-50","","NA"
"-123.44","63.21","WRIGLEY A","2204005","2019-02-05 11:00","2019","02","05","11:00","-35.7","","-40.0","","66","","","M","13","","15","","","M","101.07","","","","-48","","NA"
"-123.44","63.21","WRIGLEY A","2204005","2019-02-05 12:00","2019","02","05","12:00","-34.8","","-39.3","","65","","","M","13","","18","","","M","101.10","","","","-48","","NA"
"-123.44","63.21","WRIGLEY A","2204005","2019-02-05 13:00","2019","02","05","13:00","-33.8","","-38.4","","64","","","M","14","","21","","","M","101.09","","","","-48","","NA"
"-123.44","63.21","WRIGLEY A","2204005","2019-02-05 14:00","2019","02","05","14:00","-32.7","","-37.3","","65","","","M","14","","19","","","M","101.07","","","","-46","","NA"
"-123.44","63.21","WRIGLEY A","2204005","2019-02-05 15:00","2019","02","05","15:00","-31.8","","-36.4","","65","","","M","13","","22","","","M","101.08","","","","-46","","NA"
"-123.44","63.21","WRIGLEY A","2204005","2019-02-05 16:00","2019","02","05","16:00","-32.0","","-36.4","","66","","","M","14","","25","","","M","101.09","","","","-47","","NA"
"-123.44","63.21","WRIGLEY A","2204005","2019-02-05 17:00","2019","02","05","17:00","-32.2","","-36.4","","68","","","M","14","","23","","","M","101.10","","","","-47","","NA"
"-123.44","63.21","WRIGLEY A","2204005","2019-02-05 18:00","2019","02","05","18:00","-32.5","","-36.5","","68","","","M","14","","16","","","M","101.11","","","","-45","","NA"
"-123.44","63.21","WRIGLEY A","2204005","2019-02-05 19:00","2019","02","05","19:00","-32.8","","-36.9","","68","","","M","13","","14","","","M","101.10","","","","-44","","NA"
"-123.44","63.21","WRIGLEY A","2204005","2019-02-05 20:00","2019","02","05","20:00","-33.2","","-37.3","","68","","","M","12","","17","","","M","101.13","","","","-46","","NA"
"-123.44","63.21","WRIGLEY A","2204005","2019-02-05 21:00","2019","02","05","21:00","-33.2","","-37.4","","67","","","M","13","","18","","","M","101.15","","","","-46","","NA"
"-123.44","63.21","WRIGLEY A","2204005","2019-02-05 22:00","2019","02","05","22:00","-34.0","","-38.2","","67","","","M","14","","21","","","M","101.15","","","","-48","","NA"
"-123.44","63.21","WRIGLEY A","2204005","2019-02-05 23:00","2019","02","05","23:00","-33.6","","-37.8","","67","","","M","13","","18","","","M","101.16","","","","-47","","NA"
"-123.44","63.21","WRIGLEY A","2204005","2019-02-06 00:00","2019","02","06","00:00","-33.0","","-37.1","","67","","","M","14","","18","","","M","101.17","","","","-46","","NA"
"-123.44","63.21","WRIGLEY A","2204005","2019-02-06 01:00","2019","02","06","01:00","-32.9","","-37.0","","67","","","M","13","","17","","","M","101.20","","","","-46","","NA"
"-123.44","63.21","WRIGLEY A","2204005","2019-02-06 02:00","2019","02","06","02:00","-32.6","","-36.8","","67","","","M","13","","19","","","M","101.22","","","","-46","","NA"
"-123.44","63.21","WRIGLEY A","2204005","2019-02-06 03:00","2019","02","06","03:00","-32.6","","-36.8","","67","","","M","13","","16","","","M","101.20","","","","-45","","NA"
"-123.44","63.21","WRIGLEY A","2204005","2019-02-06 04:00","2019","02","06","04:00","-32.2","","-36.4","","67","","","M","12","","13","","","M","101.21","","","","-43","","NA"
"-123.44","63.21","WRIGLEY A","2204005","2019-02-06 05:00","2019","02","06","05:00","-32.1","","-36.3","","67","","","M","13","","14","","","M","101.19","","","","-44","","NA"
"-123.44","63.21","WRIGLEY A","2204005","2019-02-06 06:00","2019","02","06","06:00","-32.3","","-36.5","","68","","","M","14","","15","","","M","101.21","","","","-44","","NA"
"-123.44","63.21","WRIGLEY A","2204005","2019-02-06 07:00","2019","02","06","07:00","-32.5","","-36.5","","68","","","M","13","","15","","","M","101.19","","","","-44","","NA"
"-123.44","63.21","WRIGLEY A","2204005","2019-02-06 08:00","2019","02","06","08:00","-32.6","","-36.6","","69","","","M","12","","12","","","M","101.23","","","","-43","","NA"
"-123.44","63.21","WRIGLEY A","2204005","2019-02-06 09:00","2019","02","06","09:00","-32.2","","-36.2","","68","","","M","13","","16","","","M","101.22","","","","-45","","NA"
"-123.44","63.21","WRIGLEY A","2204005","2019-02-06 10:00","2019","02","06","10:00","-32.0","","-36.1","","68","","","M","13","","15","","","M","101.25","","","","-44","","NA"
"-123.44","63.21","WRIGLEY A","2204005","2019-02-06 11:00","2019","02","06","11:00","-31.8","","-36.0","","67","","","M","14","","22","","","M","101.27","","","","-46","","NA"
"-123.44","63.21","WRIGLEY A","2204005","2019-02-06 12:00","2019","02","06","12:00","-31.4","","-35.6","","67","","","M","14","","18","","","M","101.29","","","","-44","","NA"
"-123.44","63.21","WRIGLEY A","2204005","2019-02-06 13:00","2019","02","06","13:00","-30.9","","-35.2","","67","","","M","15","","24","","","M","101.29","","","","-45","","NA"
"-123.44","63.21","WRIGLEY A","2204005","2019-02-06 14:00","2019","02","06","14:00","-30.5","","-34.8","","67","","","M","14","","19","","","M","101.26","","","","-43","","NA"
"-123.44","63.21","WRIGLEY A","2204005","2019-02-06 15:00","2019","02","06","15:00","-29.9","","-34.1","","67","","","M","15","","19","","","M","101.27","","","","-43","","NA"
"-123.44","63.21","WRIGLEY A","2204005","2019-02-06 16:00","2019","02","06","16:00","-29.6","","-33.9","","67","","","M","14","","21","","","M","101.27","","","","-43","","NA"
"-123.44","63.21","WRIGLEY A","2204005","2019-02-06 17:00","2019","02","06","17:00","-29.6","","-33.8","","68","","","M","15","","18","","","M","101.27","","","","-42","","NA"
"-123.44","63.21","WRIGLEY A","2204005","2019-02-06 18:00","2019","02","06","18:00","-29.5","","-33.8","","67","","","M","14","","15","","","M","101.31","","","","-41","","NA"
"-123.44","63.21","WRIGLEY A","2204005","2019-02-06 19:00","2019","02","06","19:00","-29.4","","-33.5","","68","","","M","14","","18","","","M","101.36","","","","-42","","NA"
"-123.44","63.21","WRIGLEY A","2204005","2019-02-06 20:00","2019","02","06","20:00","-29.1","","-33.2","","68","","","M","14","","15","","","M","101.38","","","","-40","","NA"
"-123.44","63.21","WRIGLEY A","2204005","2019-02-06 21:00","2019","02","06","21:00","-29.0","","-33.1","","69","","","M","13","","15","","","M","101.40","","","","-40","","NA"
"-123.44","63.21","WRIGLEY A","2204005","2019-02-06 22:00","2019","02","06","22:00","-29.2","","-33.2","","69","","","M","14","","15","","","M","101.43","","","","-40","","NA"
"-123.44","63.21","WRIGLEY A","2204005","2019-02-06 23:00","2019","02","06","23:00","-29.0","","-32.8","","70","","","M","14","","16","","","M","101.43","","","","-41","","NA"
"-123.44","63.21","WRIGLEY A","2204005","2019-02-07 00:00","2019","02","07","00:00","-29.0","","-33.2","","68","","","M","14","","21","","","M","101.46","","","","-42","","NA"
"-123.44","63.21","WRIGLEY A","2204005","2019-02-07 01:00","2019","02","07","01:00","-29.3","","-33.6","","68","","","M","14","","16","","","M","101.50","","","","-41","","NA"
"-123.44","63.21","WRIGLEY A","2204005","2019-02-07 02:00","2019","02","07","02:00","-29.2","","-33.6","","67","","","M","14","","21","","","M","101.54","","","","-42","","NA"
"-123.44","63.21","WRIGLEY A","2204005","2019-02-07 03:00","2019","02","07","03:00","-29.1","","-33.3","","68","","","M","13","","12","","","M","101.58","","","","-39","","NA"
"-123.44","63.21","WRIGLEY A","2204005","2019-02-07 04:00","2019","02","07","04:00","-29.0","","-33.0","","69","","","M","14","","14","","","M","101.59","","","","-40","","NA"
"-123.44","63.21","WRIGLEY A","2204005","2019-02-07 05:00","2019","02","07","05:00","-28.8","","-32.9","","69","","","M","13","","11","","","M","101.59","","","","-38","","NA"
"-123.44","63.21","WRIGLEY A","2204005","2019-02-07 06:00","2019","02","07","06:00","-28.6","","-32.7","","69","","","M","14","","10","","","M","101.61","","","","-37","","NA"
"-123.44","63.21","WRIGLEY A","2204005","2019-02-07 07:00","2019","02","07","07:00","-28.9","","-32.8","","70","","","M","13","","9","","","M","101.64","","","","-37","","NA"
"-123.44","63.21","WRIGLEY A","2204005","2019-02-07 08:00","2019","02","07","08:00","-28.9","","-32.8","","70","","","M","14","","10","","","M","101.72","","","","-38","","NA"
"-123.44","63.21","WRIGLEY A","2204005","2019-02-07 09:00","2019","02","07","09:00","-28.8","","-32.7","","69","","","M","13","","15","","","M","101.79","","","","-40","","NA"
"-123.44","63.21","WRIGLEY A","2204005","2019-02-07 10:00","2019","02","07","10:00","-28.8","","-32.8","","69","","","M","12","","15","","","M","101.86","","","","-40","","NA"
"-123.44","63.21","WRIGLEY A","2204005","2019-02-07 11:00","2019","02","07","11:00","-28.8","","-33.1","","67","","","M","13","","13","","","M","101.93","","","","-39","","NA"
"-123.44","63.21","WRIGLEY A","2204005","2019-02-07 12:00","2019","02","07","12:00","-28.4","","-32.9","","66","","","M","15","","14","","","M","101.98","","","","-39","","NA"
"-123.44","63.21","WRIGLEY A","2204005","2019-02-07 13:00","2019","02","07","13:00","-27.7","","-32.3","","65","","","M","14","","15","","","M","102.03","","","","-39","","NA"
"-123.44","63.21","WRIGLEY A","2204005","2019-02-07 14:00","2019","02","07","14:00","-26.7","","-31.5","","65","","","M","13","","10","","","M","102.07","","","","-35","","NA"
"-123.44","63.21","WRIGLEY A","2204005","2019-02-07 15:00","2019","02","07","15:00","-26.7","","-31.5","","65","","","M","14","","14","","","M","102.10","","","","-37","","NA"
"-123.44","63.21","WRIGLEY A","2204005","2019-02-07 16:00","2019","02","07","16:00","-26.2","","-30.6","","67","","","M","13","","9","","","M","102.16","","","","-34","","NA"
"-123.44","63.21","WRIGLEY A","2204005","2019-02-07 17:00","2019","02","07","17:00","-26.0","","-30.2","","69","","","M","11","","9","","","M","102.22","","","","-34","","NA"
"-123.44","63.21","WRIGLEY A","2204005","2019-02-07 18:00","2019","02","07","18:00","-26.1","","-29.9","","71","","","M","10","","9","","","M","102.31","","","","-34","","NA"
"-123.44","63.21","WRIGLEY A","2204005","2019-02-07 19:00","2019","02","07","19:00","-26.6","","-30.3","","71","","","M","12","","8","","","M","102.39","","","","-34","","NA"
"-123.44","63.21","WRIGLEY A","2204005","2019-02-07 20:00","2019","02","07","20:00","-28.4","","-31.7","","74","","","M","16","","8","","","M","102.50","","","","-36","","NA"
"-123.44","63.21","WRIGLEY A","2204005","2019-02-07 21:00","2019","02","07","21:00","-30.7","","-34.2","","72","","","M","10","","2","","","M","102.57","","","","-33","","NA"
"-123.44","63.21","WRIGLEY A","2204005","2019-02-07 22:00","2019","02","07","22:00","-32.3","","-36.0","","71","","","M","13","","2","","","M","102.67","","","","-35","","NA"
"-123.44","63.21","WRIGLEY A","2204005","2019-02-07 23:00","2019","02","07","23:00","-33.6","","-37.3","","70","","","M","14","","4","","","M","102.74","","","","-38","","NA"
"-123.44","63.21","WRIGLEY A","2204005","2019-02-08 00:00","2019","02","08","00:00","-30.6","","-33.8","","74","","","M","13","","8","","","M","102.76","","","","-39","","NA"
"-123.44","63.21","WRIGLEY A","2204005","2019-02-08 01:00","2019","02","08","01:00","-32.3","","-35.8","","72","","","M","13","","6","","","M","102.82","","","","-39","","NA"
"-123.44","63.21","WRIGLEY A","2204005","2019-02-08 02:00","2019","02","08","02:00","-33.1","","-36.7","","71","","","M","16","","12","","","M","102.87","","","","-44","","NA"
"-123.44","63.21","WRIGLEY A","2204005","2019-02-08 03:00","2019","02","08","03:00","-33.7","","-37.5","","70","","","M","13","","7","","","M","102.87","","","","-42","","NA"
"-123.44","63.21","WRIGLEY A","2204005","2019-02-08 04:00","2019","02","08","04:00","-35.8","","-39.5","","69","","","M","12","","2","","","M","102.91","","","","-38","","NA"
"-123.44","63.21","WRIGLEY A","2204005","2019-02-08 05:00","2019","02","08","05:00","-36.6","","-40.4","","69","","","M","16","","7","","","M","102.88","","","","-45","","NA"
"-123.44","63.21","WRIGLEY A","2204005","2019-02-08 06:00","2019","02","08","06:00","-35.3","","-39.0","","70","","","M","15","","17","","","M","102.90","","","","-49","","NA"
"-123.44","63.21","WRIGLEY A","2204005","2019-02-08 07:00","2019","02","08","07:00","-36.1","","-39.9","","69","","","M","15","","17","","","M","102.88","","","","-50","","NA"
"-123.44","63.21","WRIGLEY A","2204005","2019-02-08 08:00","2019","02","08","08:00","-36.4","","-40.2","","69","","","M","14","","7","","","M","102.86","","","","-45","","NA"
"-123.44","63.21","WRIGLEY A","2204005","2019-02-08 09:00","2019","02","08","09:00","-35.4","","-39.1","","70","","","M","14","","19","","","M","102.84","","","","-50","","NA"
"-123.44","63.21","WRIGLEY A","2204005","2019-02-08 10:00","2019","02","08","10:00","-33.9","","-37.6","","70","","","M","13","","10","","","M","102.84","","","","-44","","NA"
"-123.44","63.21","WRIGLEY A","2204005","2019-02-08 11:00","2019","02","08","11:00","-36.0","","-39.8","","69","","","M","16","","19","","","M","102.74","","","","-50","","NA"
"-123.44","63.21","WRIGLEY A","2204005","2019-02-08 12:00","2019","02","08","12:00","-33.1","","-36.8","","71","","","M","15","","23","","","M","102.70","","","","-48","","NA"
"-123.44","63.21","WRIGLEY A","2204005","2019-02-08 13:00","2019","02","08","13:00","-31.0","","-34.6","","71","","","M","15","","23","","","M","102.62","","","","-45","","NA"
"-123.44","63.21","WRIGLEY A","2204005","2019-02-08 14:00","2019","02","08","14:00","-26.1","","-30.2","","69","","","M","14","","19","","","M","102.50","","","","-38","","NA"
"-123.44","63.21","WRIGLEY A","2204005","2019-02-08 15:00","2019","02","08","15:00","-26.8","","-31.0","","68","","","M","14","","24","","","M","102.41","","","","-40","","NA"
"-123.44","63.21","WRIGLEY A","2204005","2019-02-08 16:00","2019","02","08","16:00","-25.0","","-29.6","","66","","","M","13","","25","","","M","102.29","","","","-38","","NA"
"-123.44","63.21","WRIGLEY A","2204005","2019-02-08 17:00","2019","02","08","17:00","-24.4","","-29.0","","66","","","M","15","","26","","","M","102.24","","","","-37","","NA"
"-123.44","63.21","WRIGLEY A","2204005","2019-02-08 18:00","2019","02","08","18:00","-24.5","","-29.0","","67","","","M","14","","17","","","M","102.17","","","","-35","","NA"
"-123.44","63.21","WRIGLEY A","2204005","2019-02-08 19:00","2019","02","08","19:00","-24.1","","-28.6","","67","","","M","14","","23","","","M","102.10","","","","-36","","NA"
"-123.44","63.21","WRIGLEY A","2204005","2019-02-08 20:00","2019","02","08","20:00","-24.6","","-28.9","","68","","","M","13","","24","","","M","102.01","","","","-37","","NA"
"-123.44","63.21","WRIGLEY A","2204005","2019-02-08 21:00","2019","02","08","21:00","-25.0","","-29.0","","70","","","M","13","","17","","","M","101.96","","","","-36","","NA"
"-123.44","63.21","WRIGLEY A","2204005","2019-02-08 22:00","2019","02","08","22:00","-24.9","","-28.9","","70","","","M","13","","18","","","M","101.87","","","","-36","","NA"
"-123.44","63.21","WRIGLEY A","2204005","2019-02-08 23:00","2019","02","08","23:00","-24.2","","-28.2","","70","","","M","13","","21","","","M","101.80","","","","-36","","NA"
"-123.44","63.21","WRIGLEY A","2204005","2019-02-09 00:00","2019","02","09","00:00","-24.2","","-28.1","","71","","","M","14","","21","","","M","101.67","","","","-36","","NA"
"-123.44","63.21","WRIGLEY A","2204005","2019-02-09 01:00","2019","02","09","01:00","-24.0","","-27.9","","71","","","M","14","","17","","","M","101.55","","","","-35","","NA"
"-123.44","63.21","WRIGLEY A","2204005","2019-02-09 02:00","2019","02","09","02:00","-23.4","","-27.4","","71","","","M","14","","19","","","M","101.45","","","","-34","","NA"
"-123.44","63.21","WRIGLEY A","2204005","2019-02-09 03:00","2019","02","09","03:00","-23.8","","-27.7","","71","","","M","14","","23","","","M","101.28","","","","-36","","NA"
"-123.44","63.21","WRIGLEY A","2204005","2019-02-09 04:00","2019","02","09","04:00","-23.4","","-27.3","","71","","","M","13","","19","","","M","101.14","","","","-34","","NA"
"-123.44","63.21","WRIGLEY A","2204005","2019-02-09 05:00","2019","02","09","05:00","-22.7","","-26.9","","69","","","M","14","","23","","","M","101.03","","","","-35","","NA"
"-123.44","63.21","WRIGLEY A","2204005","2019-02-09 06:00","2019","02","09","06:00","-22.7","","-26.8","","70","","","M","13","","17","","","M","100.96","","","","-33","","NA"
"-123.44","63.21","WRIGLEY A","2204005","2019-02-09 07:00","2019","02","09","07:00","-22.4","","-26.4","","70","","","M","15","","16","","","M","100.89","","","","-32","","NA"
"-123.44","63.21","WRIGLEY A","2204005","2019-02-09 08:00","2019","02","09","08:00","-22.2","","-25.7","","74","","","M","16","","13","","","M","100.80","","","","-31","","NA"
"-123.44","63.21","WRIGLEY A","2204005","2019-02-09 09:00","2019","02","09","09:00","-22.4","","-25.6","","76","","","M","17","","10","","","M","100.74","","","","-30","","NA"
"-123.44","63.21","WRIGLEY A","2204005","2019-02-09 10:00","2019","02","09","10:00","-22.4","","-25.4","","77","","","M","13","","4","","","M","100.75","","","","-26","","NA"
"-123.44","63.21","WRIGLEY A","2204005","2019-02-09 11:00","2019","02","09","11:00","-21.9","","-25.1","","76","","","M","22","","1","","","M","100.72","","","","-23","","NA"
"-123.44","63.21","WRIGLEY A","2204005","2019-02-09 12:00","2019","02","09","12:00","-21.7","","-24.7","","77","","","M","29","","4","","","M","100.72","","","","-25","","NA"
"-123.44","63.21","WRIGLEY A","2204005","2019-02-09 13:00","2019","02","09","13:00","-20.6","","-23.6","","77","","","M","33","","3","","","M","100.69","","","","-23","","NA"
"-123.44","63.21","WRIGLEY A","2204005","2019-02-09 14:00","2019","02","09","14:00","-19.1","","-22.4","","75","","","M","30","","5","","","M","100.68","","","","-23","","NA"
"-123.44","63.21","WRIGLEY A","2204005","2019-02-09 15:00","2019","02","09","15:00","-18.7","","-21.8","","77","","","M","28","","4","","","M","100.67","","","","-22","","NA"
"-123.44","63.21","WRIGLEY A","2204005","2019-02-09 16:00","2019","02","09","16:00","-18.0","","-21.0","","78","","","M","30","","4","","","M","100.68","","","","-21","","NA"
"-123.44","63.21","WRIGLEY A","2204005","2019-02-09 17:00","2019","02","09","17:00","-16.5","","-18.9","","82","","","M","33","","2","","","M","100.71","","","","-18","","NA"
"-123.44","63.21","WRIGLEY A","2204005","2019-02-09 18:00","2019","02","09","18:00","-16.1","","-18.4","","83","","","M","9","","4","","","M","100.76","","","","-19","","NA"
"-123.44","63.21","WRIGLEY A","2204005","2019-02-09 19:00","2019","02","09","19:00","-11.6","","-13.1","","89","","","M","29","","13","","","M","100.81","","","","-18","","NA"
"-123.44","63.21","WRIGLEY A","2204005","2019-02-09 20:00","2019","02","09","20:00","-4.6","","-6.2","","89","","","M","34","","14","","","M","100.93","","","","-10","","NA"
"-123.44","63.21","WRIGLEY A","2204005","2019-02-09 21:00","2019","02","09","21:00","-3.5","","-5.6","","86","","","M","32","","17","","","M","101.07","","","","-9","","NA"
"-123.44","63.21","WRIGLEY A","2204005","2019-02-09 22:00","2019","02","09","22:00","-3.5","","-6.0","","82","","","M","33","","14","","","M","101.13","","","","-9","","NA"
"-123.44","63.21","WRIGLEY A","2204005","2019-02-09 23:00","2019","02","09","23:00","-3.8","","-6.5","","82","","","M","36","","13","","","M","101.19","","","","-9","","NA"
"-123.44","63.21","WRIGLEY A","2204005","2019-02-10 00:00","2019","02","10","00:00","-3.8","","-6.8","","80","","","M","35","","8","","","M","101.22","","","","-7","","NA"
"-123.44","63.21","WRIGLEY A","2204005","2019-02-10 01:00","2019","02","10","01:00","-3.9","","-6.8","","80","","","M","35","","17","","","M","101.23","","","","-10","","NA"
"-123.44","63.21","WRIGLEY A","2204005","2019-02-10 02:00","2019","02","10","02:00","-4.0","","-6.8","","81","","","M","35","","8","","","M","101.24","","","","-7","","NA"
"-123.44","63.21","WRIGLEY A","2204005","2019-02-10 03:00","2019","02","10","03:00","-5.0","","-7.5","","83","","","M","30","","8","","","M","101.20","","","","-9","","NA"
"-123.44","63.21","WRIGLEY A","2204005","2019-02-10 04:00","2019","02","10","04:00","-5.1","","-7.3","","84","","","M","33","","7","","","M","101.17","","","","-8","","NA"
"-123.44","63.21","WRIGLEY A","2204005","2019-02-10 05:00","2019","02","10","05:00","-6.1","","-8.1","","86","","","M","31","","8","","","M","101.09","","","","-10","","NA"
"-123.44","63.21","WRIGLEY A","2204005","2019-02-10 06:00","2019","02","10","06:00","-5.9","","-8.8","","80","","","M","32","","10","","","M","101.01","","","","-10","","NA"
"-123.44","63.21","WRIGLEY A","2204005","2019-02-10 07:00","2019","02","10","07:00","-10.4","","-11.8","","89","","","M","14","","3","","","M","100.93","","","","-12","","NA"
"-123.44","63.21","WRIGLEY A","2204005","2019-02-10 08:00","2019","02","10","08:00","-10.0","","-11.1","","92","","","M","27","","3","","","M","100.88","","","","-12","","NA"
"-123.44","63.21","WRIGLEY A","2204005","2019-02-10 09:00","2019","02","10","09:00","-10.5","","-11.8","","90","","","M","8","","1","","","M","100.81","","","","-11","","NA"
"-123.44","63.21","WRIGLEY A","2204005","2019-02-10 10:00","2019","02","10","10:00","-11.8","","-13.3","","89","","","M","0","","1","","","M","100.69","","","","-12","","NA"
"-123.44","63.21","WRIGLEY A","2204005","2019-02-10 11:00","2019","02","10","11:00","-11.6","","-13.1","","89","","","M","2","","4","","","M","100.64","","","","-14","","NA"
"-123.44","63.21","WRIGLEY A","2204005","2019-02-10 12:00","2019","02","10","12:00","-10.6","","-11.8","","91","","","M","15","","4","","","M","100.56","","","","-13","","NA"
"-123.44","63.21","WRIGLEY A","2204005","2019-02-10 13:00","2019","02","10","13:00","-11.8","","-13.6","","87","","","M","19","","6","","","M","100.47","","","","-16","","NA"
"-123.44","63.21","WRIGLEY A","2204005","2019-02-10 14:00","2019","02","10","14:00","-7.5","","-9.1","","88","","","M","9","","3","","","M","100.36","","","","-9","","NA"
"-123.44","63.21","WRIGLEY A","2204005","2019-02-10 15:00","2019","02","10","15:00","-8.5","","-10.1","","88","","","M","17","","5","","","M","100.29","","","","-11","","NA"
"-123.44","63.21","WRIGLEY A","2204005","2019-02-10 16:00","2019","02","10","16:00","-7.5","","-10.5","","79","","","M","5","","1","","","M","100.21","","","","-8","","NA"
"-123.44","63.21","WRIGLEY A","2204005","2019-02-10 17:00","2019","02","10","17:00","-8.2","","-10.4","","84","","","M","30","","5","","","M","100.16","","","","-11","","NA"
"-123.44","63.21","WRIGLEY A","2204005","2019-02-10 18:00","2019","02","10","18:00","-10.6","","-11.6","","92","","","M","31","","5","","","M","100.13","","","","-14","","NA"
"-123.44","63.21","WRIGLEY A","2204005","2019-02-10 19:00","2019","02","10","19:00","-12.5","","-14.0","","89","","","M","35","","7","","","M","100.09","","","","-17","","NA"
"-123.44","63.21","WRIGLEY A","2204005","2019-02-10 20:00","2019","02","10","20:00","-15.3","","-17.2","","86","","","M","36","","3","","","M","100.12","","","","-17","","NA"
"-123.44","63.21","WRIGLEY A","2204005","2019-02-10 21:00","2019","02","10","21:00","-14.9","","-16.6","","87","","","M","28","","1","","","M","100.14","","","","-16","","NA"
"-123.44","63.21","WRIGLEY A","2204005","2019-02-10 22:00","2019","02","10","22:00","-18.6","","-20.9","","83","","","M","3","","4","","","M","100.15","","","","-22","","NA"
"-123.44","63.21","WRIGLEY A","2204005","2019-02-10 23:00","2019","02","10","23:00","-18.4","","-20.6","","83","","","M","24","","3","","","M","100.18","","","","-21","","NA"
"-123.44","63.21","WRIGLEY A","2204005","2019-02-11 00:00","2019","02","11","00:00","-20.9","","-23.4","","81","","","M","3","","7","","","M","100.22","","","","-27","","NA"
"-123.44","63.21","WRIGLEY A","2204005","2019-02-11 01:00","2019","02","11","01:00","-21.3","","-23.8","","81","","","M","34","","4","","","M","100.28","","","","-25","","NA"
"-123.44","63.21","WRIGLEY A","2204005","2019-02-11 02:00","2019","02","11","02:00","-21.1","","-23.6","","81","","","M","30","","5","","","M","100.31","","","","-26","","NA"
"-123.44","63.21","WRIGLEY A","2204005","2019-02-11 03:00","2019","02","11","03:00","-20.0","","-22.5","","81","","","M","36","","5","","","M","100.35","","","","-24","","NA"
"-123.44","63.21","WRIGLEY A","2204005","2019-02-11 04:00","2019","02","11","04:00","-19.8","","-22.3","","81","","","M","35","","4","","","M","100.37","","","","-23","","NA"
"-123.44","63.21","WRIGLEY A","2204005","2019-02-11 05:00","2019","02","11","05:00","-23.0","","-25.7","","79","","","M","35","","4","","","M","100.41","","","","-27","","NA"
"-123.44","63.21","WRIGLEY A","2204005","2019-02-11 06:00","2019","02","11","06:00","-23.4","","-26.1","","79","","","M","33","","4","","","M","100.45","","","","-27","","NA"
"-123.44","63.21","WRIGLEY A","2204005","2019-02-11 07:00","2019","02","11","07:00","-24.1","","-26.9","","78","","","M","36","","4","","","M","100.50","","","","-28","","NA"
"-123.44","63.21","WRIGLEY A","2204005","2019-02-11 08:00","2019","02","11","08:00","-23.1","","-25.8","","79","","","M","1","","6","","","M","100.52","","","","-29","","NA"
"-123.44","63.21","WRIGLEY A","2204005","2019-02-11 09:00","2019","02","11","09:00","-24.4","","-27.2","","78","","","M","33","","4","","","M","100.55","","","","-28","","NA"
"-123.44","63.21","WRIGLEY A","2204005","2019-02-11 10:00","2019","02","11","10:00","-24.6","","-27.4","","78","","","M","31","","5","","","M","100.60","","","","-29","","NA"
"-123.44","63.21","WRIGLEY A","2204005","2019-02-11 11:00","2019","02","11","11:00","-22.8","","-25.4","","79","","","M","35","","7","","","M","100.63","","","","-29","","NA"
"-123.44","63.21","WRIGLEY A","2204005","2019-02-11 12:00","2019","02","11","12:00","-22.6","","-25.4","","79","","","M","29","","7","","","M","100.66","","","","-29","","NA"
"-123.44","63.21","WRIGLEY A","2204005","2019-02-11 13:00","2019","02","11","13:00","-20.9","","-23.5","","80","","","M","26","","4","","","M","100.68","","","","-24","","NA"
"-123.44","63.21","WRIGLEY A","2204005","2019-02-11 14:00","2019","02","11","14:00","-18.5","","-20.8","","83","","","M","15","","4","","","M","100.68","","","","-22","","NA"
"-123.44","63.21","WRIGLEY A","2204005","2019-02-11 15:00","2019","02","11","15:00","-17.4","","-19.6","","83","","","M","16","","3","","","M","100.69","","","","-20","","NA"
"-123.44","63.21","WRIGLEY A","2204005","2019-02-11 16:00","2019","02","11","16:00","-18.1","","-20.6","","81","","","M","17","","5","","","M","100.67","","","","-22","","NA"
"-123.44","63.21","WRIGLEY A","2204005","2019-02-11 17:00","2019","02","11","17:00","-15.9","","-18.0","","84","","","M","10","","2","","","M","100.69","","","","-17","","NA"
"-123.44","63.21","WRIGLEY A","2204005","2019-02-11 18:00","2019","02","11","18:00","-16.2","","-18.2","","85","","","M","12","","7","","","M","100.68","","","","-21","","NA"
"-123.44","63.21","WRIGLEY A","2204005","2019-02-11 19:00","2019","02","11","19:00","-18.3","","-20.5","","83","","","M","16","","10","","","M","100.70","","","","-25","","NA"
"-123.44","63.21","WRIGLEY A","2204005","2019-02-11 20:00","2019","02","11","20:00","-19.7","","-22.4","","79","","","M","16","","5","","","M","100.70","","","","-24","","NA"
"-123.44","63.21","WRIGLEY A","2204005","2019-02-11 21:00","2019","02","11","21:00","-17.7","","-19.8","","83","","","M","13","","9","","","M","100.69","","","","-24","","NA"
"-123.44","63.21","WRIGLEY A","2204005","2019-02-11 22:00","2019","02","11","22:00","-15.8","","-17.9","","84","","","M","12","","12","","","M","100.70","","","","-23","","NA"
"-123.44","63.21","WRIGLEY A","2204005","2019-02-11 23:00","2019","02","11","23:00","-16.0","","-18.1","","84","","","M","14","","14","","","M","100.67","","","","-24","","NA"
"-123.44","63.21","WRIGLEY A","2204005","2019-02-12 00:00","2019","02","12","00:00","-14.5","","-16.4","","85","","","M","14","","13","","","M","100.62","","","","-22","","NA"
"-123.44","63.21","WRIGLEY A","2204005","2019-02-12 01:00","2019","02","12","01:00","-15.4","","-17.4","","85","","","M","14","","13","","","M","100.56","","","","-23","","NA"
"-123.44","63.21","WRIGLEY A","2204005","2019-02-12 02:00","2019","02","12","02:00","-15.3","","-17.3","","85","","","M","14","","20","","","M","100.49","","","","-25","","NA"
"-123.44","63.21","WRIGLEY A","2204005","2019-02-12 03:00","2019","02","12","03:00","-16.0","","-18.0","","84","","","M","14","","28","","","M","100.43","","","","-27","","NA"
"-123.44","63.21","WRIGLEY A","2204005","2019-02-12 04:00","2019","02","12","04:00","-16.4","","-18.5","","84","","","M","14","","28","","","M","100.31","","","","-28","","NA"
"-123.44","63.21","WRIGLEY A","2204005","2019-02-12 05:00","2019","02","12","05:00","-16.4","","-18.4","","84","","","M","16","","30","","","M","100.22","","","","-28","","NA"
"-123.44","63.21","WRIGLEY A","2204005","2019-02-12 06:00","2019","02","12","06:00","-16.5","","-18.6","","84","","","M","14","","27","","","M","100.10","","","","-27","","NA"
"-123.44","63.21","WRIGLEY A","2204005","2019-02-12 07:00","2019","02","12","07:00","-16.6","","-18.7","","84","","","M","15","","30","","","M","100.00","","","","-28","","NA"
"-123.44","63.21","WRIGLEY A","2204005","2019-02-12 08:00","2019","02","12","08:00","-16.5","","-18.6","","84","","","M","15","","33","","","M","99.92","","","","-28","","NA"
"-123.44","63.21","WRIGLEY A","2204005","2019-02-12 09:00","2019","02","12","09:00","-16.2","","-18.3","","84","","","M","14","","30","","","M","99.79","","","","-28","","NA"
"-123.44","63.21","WRIGLEY A","2204005","2019-02-12 10:00","2019","02","12","10:00","-16.0","","-18.1","","84","","","M","15","","33","","","M","99.63","","","","-28","","NA"
"-123.44","63.21","WRIGLEY A","2204005","2019-02-12 11:00","2019","02","12","11:00","-15.8","","-17.8","","84","","","M","15","","27","","","M","99.48","","","","-27","","NA"
"-123.44","63.21","WRIGLEY A","2204005","2019-02-12 12:00","2019","02","12","12:00","-15.6","","-17.6","","85","","","M","15","","34","","","M","99.38","","","","-27","","NA"
"-123.44","63.21","WRIGLEY A","2204005","2019-02-12 13:00","2019","02","12","13:00","-15.2","","-17.2","","85","","","M","14","","30","","","M","99.25","","","","-26","","NA"
"-123.44","63.21","WRIGLEY A","2204005","2019-02-12 14:00","2019","02","12","14:00","-14.7","","-16.6","","85","","","M","14","","25","","","M","99.11","","","","-25","","NA"
"-123.44","63.21","WRIGLEY A","2204005","2019-02-12 15:00","2019","02","12","15:00","-14.4","","-16.3","","85","","","M","14","","23","","","M","99.02","","","","-24","","NA"
"-123.44","63.21","WRIGLEY A","2204005","2019-02-12 16:00","2019","02","12","16:00","-14.1","","-16.1","","85","","","M","14","","20","","","M","98.96","","","","-23","","NA"
"-123.44","63.21","WRIGLEY A","2204005","2019-02-12 17:00","2019","02","12","17:00","-13.6","","-15.8","","83","","","M","13","","18","","","M","98.87","","","","-22","","NA"
"-123.44","63.21","WRIGLEY A","2204005","2019-02-12 18:00","2019","02","12","18:00","-13.3","","-16.7","","76","","","M","14","","11","","","M","98.84","","","","-20","","NA"
"-123.44","63.21","WRIGLEY A","2204005","2019-02-12 19:00","2019","02","12","19:00","-13.7","","-16.8","","78","","","M","16","","11","","","M","98.79","","","","-20","","NA"
"-123.44","63.21","WRIGLEY A","2204005","2019-02-12 20:00","2019","02","12","20:00","-12.3","","-15.6","","77","","","M","13","","15","","","M","98.71","","","","-20","","NA"
"-123.44","63.21","WRIGLEY A","2204005","2019-02-12 21:00","2019","02","12","21:00","-12.6","","-16.0","","76","","","M","14","","13","","","M","98.68","","","","-19","","NA"
"-123.44","63.21","WRIGLEY A","2204005","2019-02-12 22:00","2019","02","12","22:00","-12.6","","-16.0","","76","","","M","14","","10","","","M","98.67","","","","-18","","NA"
"-123.44","63.21","WRIGLEY A","2204005","2019-02-12 23:00","2019","02","12","23:00","-13.3","","-16.6","","77","","","M","14","","14","","","M","98.65","","","","-21","","NA"
"-123.44","63.21","WRIGLEY A","2204005","2019-02-13 00:00","2019","02","13","00:00","-14.1","","-16.6","","81","","","M","15","","12","","","M","98.66","","","","-21","","NA"
"-123.44","63.21","WRIGLEY A","2204005","2019-02-13 01:00","2019","02","13","01:00","-14.7","","-16.8","","84","","","M","15","","10","","","M","98.66","","","","-21","","NA"
"-123.44","63.21","WRIGLEY A","2204005","2019-02-13 02:00","2019","02","13","02:00","-15.0","","-17.1","","84","","","M","15","","12","","","M","98.63","","","","-22","","NA"
"-123.44","63.21","WRIGLEY A","2204005","2019-02-13 03:00","2019","02","13","03:00","-15.3","","-17.7","","82","","","M","14","","11","","","M","98.62","","","","-22","","NA"
"-123.44","63.21","WRIGLEY A","2204005","2019-02-13 04:00","2019","02","13","04:00","-15.5","","-17.9","","82","","","M","14","","13","","","M","98.60","","","","-23","","NA"
"-123.44","63.21","WRIGLEY A","2204005","2019-02-13 05:00","2019","02","13","05:00","-15.6","","-18.2","","81","","","M","14","","11","","","M","98.59","","","","-22","","NA"
"-123.44","63.21","WRIGLEY A","2204005","2019-02-13 06:00","2019","02","13","06:00","-15.6","","-18.3","","80","","","M","13","","8","","","M","98.59","","","","-21","","NA"
"-123.44","63.21","WRIGLEY A","2204005","2019-02-13 07:00","2019","02","13","07:00","-15.8","","-18.2","","82","","","M","14","","10","","","M","98.60","","","","-22","","NA"
"-123.44","63.21","WRIGLEY A","2204005","2019-02-13 08:00","2019","02","13","08:00","-15.8","","-18.4","","81","","","M","14","","13","","","M","98.62","","","","-23","","NA"
"-123.44","63.21","WRIGLEY A","2204005","2019-02-13 09:00","2019","02","13","09:00","-15.8","","-18.4","","81","","","M","14","","8","","","M","98.63","","","","-21","","NA"
"-123.44","63.21","WRIGLEY A","2204005","2019-02-13 10:00","2019","02","13","10:00","-15.8","","-18.3","","81","","","M","15","","7","","","M","98.66","","","","-21","","NA"
"-123.44","63.21","WRIGLEY A","2204005","2019-02-13 11:00","2019","02","13","11:00","-15.5","","-18.1","","80","","","M","12","","1","","","M","98.69","","","","-16","","NA"
"-123.44","63.21","WRIGLEY A","2204005","2019-02-13 12:00","2019","02","13","12:00","-15.4","","-18.0","","81","","","M","23","","2","","","M","98.72","","","","-17","","NA"
"-123.44","63.21","WRIGLEY A","2204005","2019-02-13 13:00","2019","02","13","13:00","-14.5","","-17.5","","79","","","M","25","","3","","","M","98.74","","","","-17","","NA"
"-123.44","63.21","WRIGLEY A","2204005","2019-02-13 14:00","2019","02","13","14:00","-14.0","","-17.3","","76","","","M","29","","7","","","M","98.78","","","","-19","","NA"
"-123.44","63.21","WRIGLEY A","2204005","2019-02-13 15:00","2019","02","13","15:00","-12.9","","-16.1","","77","","","M","31","","9","","","M","98.84","","","","-18","","NA"
"-123.44","63.21","WRIGLEY A","2204005","2019-02-13 16:00","2019","02","13","16:00","-12.5","","-15.6","","78","","","M","33","","2","","","M","98.90","","","","-14","","NA"
"-123.44","63.21","WRIGLEY A","2204005","2019-02-13 17:00","2019","02","13","17:00","-12.2","","-14.9","","81","","","M","32","","6","","","M","98.97","","","","-16","","NA"
"-123.44","63.21","WRIGLEY A","2204005","2019-02-13 18:00","2019","02","13","18:00","-11.6","","-14.1","","82","","","M","32","","4","","","M","99.04","","","","-14","","NA"
"-123.44","63.21","WRIGLEY A","2204005","2019-02-13 19:00","2019","02","13","19:00","-10.4","","-13.1","","81","","","M","31","","16","","","M","99.09","","","","-17","","NA"
"-123.44","63.21","WRIGLEY A","2204005","2019-02-13 20:00","2019","02","13","20:00","-8.1","","-10.8","","81","","","M","33","","13","","","M","99.18","","","","-14","","NA"
"-123.44","63.21","WRIGLEY A","2204005","2019-02-13 21:00","2019","02","13","21:00","-7.7","","-10.2","","82","","","M","34","","12","","","M","99.31","","","","-13","","NA"
"-123.44","63.21","WRIGLEY A","2204005","2019-02-13 22:00","2019","02","13","22:00","-7.7","","-11.1","","77","","","M","34","","22","","","M","99.42","","","","-15","","NA"
"-123.44","63.21","WRIGLEY A","2204005","2019-02-13 23:00","2019","02","13","23:00","-9.5","","-13.1","","75","","","M","33","","23","","","M","99.60","","","","-18","","NA"
"-123.44","63.21","WRIGLEY A","2204005","2019-02-14 00:00","2019","02","14","00:00","-10.7","","-14.8","","72","","","M","34","","21","","","M","99.76","","","","-19","","NA"
"-123.44","63.21","WRIGLEY A","2204005","2019-02-14 01:00","2019","02","14","01:00","-12.0","","-16.0","","72","","","M","34","","27","","","M","99.85","","","","-22","","NA"
"-123.44","63.21","WRIGLEY A","2204005","2019-02-14 02:00","2019","02","14","02:00","-13.2","","-16.7","","75","","","M","33","","19","","","M","100.02","","","","-22","","NA"
"-123.44","63.21","WRIGLEY A","2204005","2019-02-14 03:00","2019","02","14","03:00","-14.0","","-17.7","","74","","","M","32","","19","","","M","100.16","","","","-23","","NA"
"-123.44","63.21","WRIGLEY A","2204005","2019-02-14 04:00","2019","02","14","04:00","-14.9","","-19.0","","72","","","M","33","","17","","","M","100.30","","","","-23","","NA"
"-123.44","63.21","WRIGLEY A","2204005","2019-02-14 05:00","2019","02","14","05:00","-15.5","","-19.6","","71","","","M","33","","16","","","M","100.41","","","","-24","","NA"
"-123.44","63.21","WRIGLEY A","2204005","2019-02-14 06:00","2019","02","14","06:00","-16.2","","-20.5","","70","","","M","35","","21","","","M","100.55","","","","-26","","NA"
"-123.44","63.21","WRIGLEY A","2204005","2019-02-14 07:00","2019","02","14","07:00","-16.8","","-21.3","","68","","","M","34","","21","","","M","100.68","","","","-27","","NA"
"-123.44","63.21","WRIGLEY A","2204005","2019-02-14 08:00","2019","02","14","08:00","-17.4","","-21.5","","71","","","M","33","","14","","","M","100.77","","","","-26","","NA"
"-123.44","63.21","WRIGLEY A","2204005","2019-02-14 09:00","2019","02","14","09:00","-17.8","","-22.0","","70","","","M","33","","16","","","M","100.84","","","","-27","","NA"
"-123.44","63.21","WRIGLEY A","2204005","2019-02-14 10:00","2019","02","14","10:00","-17.9","","-22.3","","69","","","M","33","","18","","","M","100.92","","","","-27","","NA"
"-123.44","63.21","WRIGLEY A","2204005","2019-02-14 11:00","2019","02","14","11:00","-17.9","","-21.7","","73","","","M","33","","18","","","M","100.97","","","","-27","","NA"
"-123.44","63.21","WRIGLEY A","2204005","2019-02-14 12:00","2019","02","14","12:00","-17.5","","-21.7","","70","","","M","32","","16","","","M","101.03","","","","-26","","NA"
"-123.44","63.21","WRIGLEY A","2204005","2019-02-14 13:00","2019","02","14","13:00","-17.2","","-22.1","","66","","","M","33","","16","","","M","101.07","","","","-26","","NA"
"-123.44","63.21","WRIGLEY A","2204005","2019-02-14 14:00","2019","02","14","14:00","-16.8","","-22.5","","62","","","M","33","","17","","","M","101.07","","","","-26","","NA"
"-123.44","63.21","WRIGLEY A","2204005","2019-02-14 15:00","2019","02","14","15:00","-16.8","","-22.4","","62","","","M","32","","15","","","M","101.09","","","","-25","","NA"
"-123.44","63.21","WRIGLEY A","2204005","2019-02-14 16:00","2019","02","14","16:00","-17.0","","-22.4","","64","","","M","33","","9","","","M","101.12","","","","-23","","NA"
"-123.44","63.21","WRIGLEY A","2204005","2019-02-14 17:00","2019","02","14","17:00","-17.4","","-22.6","","64","","","M","33","","13","","","M","101.14","","","","-25","","NA"
"-123.44","63.21","WRIGLEY A","2204005","2019-02-14 18:00","2019","02","14","18:00","-17.9","","-22.6","","67","","","M","35","","8","","","M","101.15","","","","-24","","NA"
"-123.44","63.21","WRIGLEY A","2204005","2019-02-14 19:00","2019","02","14","19:00","-18.5","","-23.1","","67","","","M","33","","8","","","M","101.17","","","","-24","","NA"
"-123.44","63.21","WRIGLEY A","2204005","2019-02-14 20:00","2019","02","14","20:00","-18.9","","-23.4","","69","","","M","34","","13","","","M","101.17","","","","-27","","NA"
"-123.44","63.21","WRIGLEY A","2204005","2019-02-14 21:00","2019","02","14","21:00","-19.3","","-23.4","","70","","","M","34","","10","","","M","101.18","","","","-26","","NA"
"-123.44","63.21","WRIGLEY A","2204005","2019-02-14 22:00","2019","02","14","22:00","-19.4","","-23.5","","71","","","M","33","","7","","","M","101.16","","","","-25","","NA"
"-123.44","63.21","WRIGLEY A","2204005","2019-02-14 23:00","2019","02","14","23:00","-19.6","","-23.5","","71","","","M","32","","5","","","M","101.16","","","","-24","","NA"
"-123.44","63.21","WRIGLEY A","2204005","2019-02-15 00:00","2019","02","15","00:00","-19.8","","-23.4","","74","","","M","34","","6","","","M","101.13","","","","-25","","NA"
"-123.44","63.21","WRIGLEY A","2204005","2019-02-15 01:00","2019","02","15","01:00","-20.0","","-23.5","","74","","","M","34","","5","","","M","101.12","","","","-24","","NA"
"-123.44","63.21","WRIGLEY A","2204005","2019-02-15 02:00","2019","02","15","02:00","-20.2","","-23.5","","75","","","M","33","","4","","","M","101.12","","","","-24","","NA"
"-123.44","63.21","WRIGLEY A","2204005","2019-02-15 03:00","2019","02","15","03:00","-20.5","","-23.6","","76","","","M","33","","3","","","M","101.11","","","","-23","","NA"
"-123.44","63.21","WRIGLEY A","2204005","2019-02-15 04:00","2019","02","15","04:00","-20.6","","-23.6","","77","","","M","31","","3","","","M","101.09","","","","-23","","NA"
"-123.44","63.21","WRIGLEY A","2204005","2019-02-15 05:00","2019","02","15","05:00","-20.9","","-23.9","","78","","","M","30","","5","","","M","101.07","","","","-25","","NA"
"-123.44","63.21","WRIGLEY A","2204005","2019-02-15 06:00","2019","02","15","06:00","-21.2","","-24.0","","78","","","M","12","","2","","","M","101.06","","","","-23","","NA"
"-123.44","63.21","WRIGLEY A","2204005","2019-02-15 07:00","2019","02","15","07:00","-21.1","","-23.8","","79","","","M","0","","1","","","M","101.04","","","","-22","","NA"
"-123.44","63.21","WRIGLEY A","2204005","2019-02-15 08:00","2019","02","15","08:00","-21.0","","-23.6","","80","","","M","23","","2","","","M","101.04","","","","-23","","NA"
"-123.44","63.21","WRIGLEY A","2204005","2019-02-15 09:00","2019","02","15","09:00","-21.1","","-23.6","","80","","","M","27","","1","","","M","101.05","","","","-22","","NA"
"-123.44","63.21","WRIGLEY A","2204005","2019-02-15 10:00","2019","02","15","10:00","-21.0","","-23.7","","79","","","M","30","","3","","","M","101.06","","","","-24","","NA"
"-123.44","63.21","WRIGLEY A","2204005","2019-02-15 11:00","2019","02","15","11:00","-20.6","","-23.4","","78","","","M","20","","1","","","M","101.06","","","","-21","","NA"
"-123.44","63.21","WRIGLEY A","2204005","2019-02-15 12:00","2019","02","15","12:00","-19.4","","-22.7","","75","","","M","11","","3","","","M","101.10","","","","-22","","NA"
"-123.44","63.21","WRIGLEY A","2204005","2019-02-15 13:00","2019","02","15","13:00","-18.6","","-22.1","","74","","","M","18","","3","","","M","101.10","","","","-21","","NA"
"-123.44","63.21","WRIGLEY A","2204005","2019-02-15 14:00","2019","02","15","14:00","-17.5","","-21.9","","69","","","M","15","","8","","","M","101.08","","","","-23","","NA"
"-123.44","63.21","WRIGLEY A","2204005","2019-02-15 15:00","2019","02","15","15:00","-17.4","","-22.1","","67","","","M","14","","8","","","M","101.08","","","","-23","","NA"
"-123.44","63.21","WRIGLEY A","2204005","2019-02-15 16:00","2019","02","15","16:00","-18.0","","-22.7","","67","","","M","15","","7","","","M","101.08","","","","-23","","NA"
"-123.44","63.21","WRIGLEY A","2204005","2019-02-15 17:00","2019","02","15","17:00","-16.9","","-21.3","","69","","","M","12","","5","","","M","101.10","","","","-21","","NA"
"-123.44","63.21","WRIGLEY A","2204005","2019-02-15 18:00","2019","02","15","18:00","-18.9","","-22.7","","72","","","M","12","","5","","","M","101.12","","","","-23","","NA"
"-123.44","63.21","WRIGLEY A","2204005","2019-02-15 19:00","2019","02","15","19:00","-18.8","","-22.7","","71","","","M","15","","8","","","M","101.15","","","","-25","","NA"
"-123.44","63.21","WRIGLEY A","2204005","2019-02-15 20:00","2019","02","15","20:00","-18.7","","-22.3","","74","","","M","12","","5","","","M","101.20","","","","-23","","NA"
"-123.44","63.21","WRIGLEY A","2204005","2019-02-15 21:00","2019","02","15","21:00","-18.2","","-21.8","","74","","","M","13","","8","","","M","101.23","","","","-24","","NA"
"-123.44","63.21","WRIGLEY A","2204005","2019-02-15 22:00","2019","02","15","22:00","-19.8","","-22.9","","77","","","M","9","","7","","","M","101.27","","","","-25","","NA"
"-123.44","63.21","WRIGLEY A","2204005","2019-02-15 23:00","2019","02","15","23:00","-20.1","","-22.8","","79","","","M","12","","5","","","M","101.31","","","","-24","","NA"
"-123.44","63.21","WRIGLEY A","2204005","2019-02-16 00:00","2019","02","16","00:00","-19.7","","-22.2","","80","","","M","10","","4","","","M","101.36","","","","-23","","NA"
"-123.44","63.21","WRIGLEY A","2204005","2019-02-16 01:00","2019","02","16","01:00","-18.7","","-21.5","","79","","","M","12","","5","","","M","101.39","","","","-23","","NA"
"-123.44","63.21","WRIGLEY A","2204005","2019-02-16 02:00","2019","02","16","02:00","-21.7","","-24.2","","80","","","M","22","","2","","","M","101.42","","","","-24","","NA"
"-123.44","63.21","WRIGLEY A","2204005","2019-02-16 03:00","2019","02","16","03:00","-23.4","","-26.1","","79","","","M","23","","2","","","M","101.48","","","","-25","","NA"
"-123.44","63.21","WRIGLEY A","2204005","2019-02-16 04:00","2019","02","16","04:00","-24.2","","-26.9","","79","","","M","29","","5","","","M","101.51","","","","-29","","NA"
"-123.44","63.21","WRIGLEY A","2204005","2019-02-16 05:00","2019","02","16","05:00","-24.2","","-26.9","","78","","","M","31","","3","","","M","101.53","","","","-27","","NA"
"-123.44","63.21","WRIGLEY A","2204005","2019-02-16 06:00","2019","02","16","06:00","-23.9","","-26.7","","78","","","M","0","","1","","","M","101.57","","","","-25","","NA"
"-123.44","63.21","WRIGLEY A","2204005","2019-02-16 07:00","2019","02","16","07:00","-24.3","","-27.2","","77","","","M","19","","1","","","M","101.60","","","","-25","","NA"
"-123.44","63.21","WRIGLEY A","2204005","2019-02-16 08:00","2019","02","16","08:00","-23.9","","-26.8","","77","","","M","16","","5","","","M","101.65","","","","-29","","NA"
"-123.44","63.21","WRIGLEY A","2204005","2019-02-16 09:00","2019","02","16","09:00","-23.9","","-26.8","","78","","","M","16","","5","","","M","101.71","","","","-29","","NA"
"-123.44","63.21","WRIGLEY A","2204005","2019-02-16 10:00","2019","02","16","10:00","-20.5","","-23.2","","79","","","M","13","","8","","","M","101.75","","","","-27","","NA"
"-123.44","63.21","WRIGLEY A","2204005","2019-02-16 11:00","2019","02","16","11:00","-20.2","","-23.0","","78","","","M","13","","8","","","M","101.77","","","","-26","","NA"
"-123.44","63.21","WRIGLEY A","2204005","2019-02-16 12:00","2019","02","16","12:00","-19.3","","-22.6","","76","","","M","14","","14","","","M","101.78","","","","-28","","NA"
"-123.44","63.21","WRIGLEY A","2204005","2019-02-16 13:00","2019","02","16","13:00","-18.6","","-22.4","","72","","","M","14","","16","","","M","101.77","","","","-28","","NA"
"-123.44","63.21","WRIGLEY A","2204005","2019-02-16 14:00","2019","02","16","14:00","-17.4","","-22.0","","68","","","M","14","","18","","","M","101.73","","","","-27","","NA"
"-123.44","63.21","WRIGLEY A","2204005","2019-02-16 15:00","2019","02","16","15:00","-17.3","","-21.9","","68","","","M","15","","19","","","M","101.75","","","","-27","","NA"
"-123.44","63.21","WRIGLEY A","2204005","2019-02-16 16:00","2019","02","16","16:00","-16.8","","-21.5","","67","","","M","15","","20","","","M","101.76","","","","-26","","NA"
"-123.44","63.21","WRIGLEY A","2204005","2019-02-16 17:00","2019","02","16","17:00","-17.1","","-21.5","","69","","","M","14","","16","","","M","101.75","","","","-26","","NA"
"-123.44","63.21","WRIGLEY A","2204005","2019-02-16 18:00","2019","02","16","18:00","-18.1","","-22.0","","72","","","M","14","","17","","","M","101.76","","","","-27","","NA"
"-123.44","63.21","WRIGLEY A","2204005","2019-02-16 19:00","2019","02","16","19:00","-19.1","","-22.8","","73","","","M","15","","20","","","M","101.77","","","","-29","","NA"
"-123.44","63.21","WRIGLEY A","2204005","2019-02-16 20:00","2019","02","16","20:00","-19.7","","-23.0","","75","","","M","14","","14","","","M","101.80","","","","-28","","NA"
"-123.44","63.21","WRIGLEY A","2204005","2019-02-16 21:00","2019","02","16","21:00","-20.4","","-23.7","","76","","","M","14","","18","","","M","101.80","","","","-30","","NA"
"-123.44","63.21","WRIGLEY A","2204005","2019-02-16 22:00","2019","02","16","22:00","-20.9","","-24.2","","75","","","M","14","","20","","","M","101.79","","","","-32","","NA"
"-123.44","63.21","WRIGLEY A","2204005","2019-02-16 23:00","2019","02","16","23:00","-21.2","","-24.4","","76","","","M","13","","17","","","M","101.82","","","","-31","","NA"
"-123.44","63.21","WRIGLEY A","2204005","2019-02-17 00:00","2019","02","17","00:00","-21.6","","-24.8","","75","","","M","14","","16","","","M","101.84","","","","-31","","NA"
"-123.44","63.21","WRIGLEY A","2204005","2019-02-17 01:00","2019","02","17","01:00","-22.5","","-25.7","","76","","","M","15","","23","","","M","101.81","","","","-34","","NA"
"-123.44","63.21","WRIGLEY A","2204005","2019-02-17 02:00","2019","02","17","02:00","-22.6","","-25.8","","75","","","M","14","","24","","","M","101.76","","","","-35","","NA"
"-123.44","63.21","WRIGLEY A","2204005","2019-02-17 03:00","2019","02","17","03:00","-22.7","","-25.9","","76","","","M","14","","19","","","M","101.76","","","","-34","","NA"
"-123.44","63.21","WRIGLEY A","2204005","2019-02-17 04:00","2019","02","17","04:00","-23.3","","-26.4","","76","","","M","14","","20","","","M","101.74","","","","-35","","NA"
"-123.44","63.21","WRIGLEY A","2204005","2019-02-17 05:00","2019","02","17","05:00","-23.6","","-26.7","","76","","","M","11","","10","","","M","101.77","","","","-32","","NA"
"-123.44","63.21","WRIGLEY A","2204005","2019-02-17 06:00","2019","02","17","06:00","-23.4","","-26.6","","75","","","M","13","","14","","","M","101.71","","","","-33","","NA"
"-123.44","63.21","WRIGLEY A","2204005","2019-02-17 07:00","2019","02","17","07:00","-24.0","","-27.2","","75","","","M","12","","15","","","M","101.75","","","","-34","","NA"
"-123.44","63.21","WRIGLEY A","2204005","2019-02-17 08:00","2019","02","17","08:00","-23.9","","-27.2","","74","","","M","13","","13","","","M","101.75","","","","-33","","NA"
"-123.44","63.21","WRIGLEY A","2204005","2019-02-17 09:00","2019","02","17","09:00","-24.0","","-27.4","","74","","","M","13","","11","","","M","101.72","","","","-32","","NA"
"-123.44","63.21","WRIGLEY A","2204005","2019-02-17 10:00","2019","02","17","10:00","-24.5","","-27.9","","74","","","M","14","","14","","","M","101.75","","","","-34","","NA"
"-123.44","63.21","WRIGLEY A","2204005","2019-02-17 11:00","2019","02","17","11:00","-24.4","","-27.9","","73","","","M","14","","19","","","M","101.71","","","","-36","","NA"
"-123.44","63.21","WRIGLEY A","2204005","2019-02-17 12:00","2019","02","17","12:00","-23.9","","-27.7","","71","","","M","14","","21","","","M","101.67","","","","-36","","NA"
"-123.44","63.21","WRIGLEY A","2204005","2019-02-17 13:00","2019","02","17","13:00","-23.6","","-27.7","","69","","","M","15","","18","","","M","101.60","","","","-34","","NA"
"-123.44","63.21","WRIGLEY A","2204005","2019-02-17 14:00","2019","02","17","14:00","-22.9","","-27.1","","69","","","M","15","","21","","","M","101.53","","","","-34","","NA"
"-123.44","63.21","WRIGLEY A","2204005","2019-02-17 15:00","2019","02","17","15:00","-22.1","","-26.4","","69","","","M","15","","17","","","M","101.48","","","","-32","","NA"
"-123.44","63.21","WRIGLEY A","2204005","2019-02-17 16:00","2019","02","17","16:00","-21.9","","-26.1","","69","","","M","14","","16","","","M","101.41","","","","-32","","NA"
"-123.44","63.21","WRIGLEY A","2204005","2019-02-17 17:00","2019","02","17","17:00","-21.8","","-26.1","","69","","","M","15","","19","","","M","101.27","","","","-32","","NA"
"-123.44","63.21","WRIGLEY A","2204005","2019-02-17 18:00","2019","02","17","18:00","-22.5","","-26.4","","71","","","M","15","","17","","","M","101.21","","","","-33","","NA"
"-123.44","63.21","WRIGLEY A","2204005","2019-02-17 19:00","2019","02","17","19:00","-21.8","","-25.7","","71","","","M","13","","15","","","M","101.17","","","","-31","","NA"
"-123.44","63.21","WRIGLEY A","2204005","2019-02-17 20:00","2019","02","17","20:00","-22.7","","-26.1","","74","","","M","13","","13","","","M","101.10","","","","-32","","NA"
"-123.44","63.21","WRIGLEY A","2204005","2019-02-17 21:00","2019","02","17","21:00","-24.6","","-27.6","","76","","","M","16","","16","","","M","100.99","","","","-35","","NA"
"-123.44","63.21","WRIGLEY A","2204005","2019-02-17 22:00","2019","02","17","22:00","-25.8","","-28.6","","77","","","M","15","","15","","","M","100.90","","","","-36","","NA"
"-123.44","63.21","WRIGLEY A","2204005","2019-02-17 23:00","2019","02","17","23:00","-26.4","","-29.1","","79","","","M","15","","14","","","M","100.81","","","","-37","","NA"
"-123.44","63.21","WRIGLEY A","2204005","2019-02-18 00:00","2019","02","18","00:00","-26.8","","-29.4","","79","","","M","15","","13","","","M","100.68","","","","-37","","NA"
"-123.44","63.21","WRIGLEY A","2204005","2019-02-18 01:00","2019","02","18","01:00","-27.3","","-29.9","","79","","","M","15","","15","","","M","100.55","","","","-38","","NA"
"-123.44","63.21","WRIGLEY A","2204005","2019-02-18 02:00","2019","02","18","02:00","-26.3","","-29.1","","77","","","M","15","","15","","","M","100.46","","","","-37","","NA"
"-123.44","63.21","WRIGLEY A","2204005","2019-02-18 03:00","2019","02","18","03:00","-26.5","","-29.2","","78","","","M","14","","16","","","M","100.32","","","","-37","","NA"
"-123.44","63.21","WRIGLEY A","2204005","2019-02-18 04:00","2019","02","18","04:00","-27.1","","-30.1","","76","","","M","14","","17","","","M","100.16","","","","-39","","NA"
"-123.44","63.21","WRIGLEY A","2204005","2019-02-18 05:00","2019","02","18","05:00","-26.9","","-30.1","","75","","","M","11","","8","","","M","100.06","","","","-34","","NA"
"-123.44","63.21","WRIGLEY A","2204005","2019-02-18 06:00","2019","02","18","06:00","-25.2","","-28.1","","77","","","M","14","","13","","","M","99.89","","","","-35","","NA"
"-123.44","63.21","WRIGLEY A","2204005","2019-02-18 07:00","2019","02","18","07:00","-24.7","","-27.6","","77","","","M","12","","13","","","M","99.75","","","","-34","","NA"
"-123.44","63.21","WRIGLEY A","2204005","2019-02-18 08:00","2019","02","18","08:00","-24.6","","-27.6","","77","","","M","13","","11","","","M","99.67","","","","-33","","NA"
"-123.44","63.21","WRIGLEY A","2204005","2019-02-18 09:00","2019","02","18","09:00","-23.7","","-26.8","","77","","","M","13","","11","","","M","99.54","","","","-32","","NA"
"-123.44","63.21","WRIGLEY A","2204005","2019-02-18 10:00","2019","02","18","10:00","-23.8","","-26.9","","76","","","M","13","","12","","","M","99.51","","","","-33","","NA"
"-123.44","63.21","WRIGLEY A","2204005","2019-02-18 11:00","2019","02","18","11:00","-23.7","","-26.6","","77","","","M","15","","17","","","M","99.46","","","","-34","","NA"
"-123.44","63.21","WRIGLEY A","2204005","2019-02-18 12:00","2019","02","18","12:00","-22.1","","-25.3","","76","","","M","14","","16","","","M","99.43","","","","-32","","NA"
"-123.44","63.21","WRIGLEY A","2204005","2019-02-18 13:00","2019","02","18","13:00","-21.4","","-24.8","","75","","","M","15","","18","","","M","99.38","","","","-32","","NA"
"-123.44","63.21","WRIGLEY A","2204005","2019-02-18 14:00","2019","02","18","14:00","-20.5","","-24.3","","72","","","M","15","","14","","","M","99.33","","","","-29","","NA"
"-123.44","63.21","WRIGLEY A","2204005","2019-02-18 15:00","2019","02","18","15:00","-19.0","","-23.2","","70","","","M","13","","11","","","M","99.38","","","","-26","","NA"
"-123.44","63.21","WRIGLEY A","2204005","2019-02-18 16:00","2019","02","18","16:00","-18.9","","-22.4","","74","","","M","16","","12","","","M","99.34","","","","-27","","NA"
"-123.44","63.21","WRIGLEY A","2204005","2019-02-18 17:00","2019","02","18","17:00","-18.8","","-21.7","","78","","","M","15","","11","","","M","99.29","","","","-26","","NA"
"-123.44","63.21","WRIGLEY A","2204005","2019-02-18 18:00","2019","02","18","18:00","-18.4","","-21.4","","77","","","M","12","","4","","","M","99.34","","","","-22","","NA"
"-123.44","63.21","WRIGLEY A","2204005","2019-02-18 19:00","2019","02","18","19:00","-18.5","","-21.4","","78","","","M","17","","10","","","M","99.33","","","","-25","","NA"
"-123.44","63.21","WRIGLEY A","2204005","2019-02-18 20:00","2019","02","18","20:00","-18.2","","-21.2","","78","","","M","15","","9","","","M","99.24","","","","-25","","NA"
"-123.44","63.21","WRIGLEY A","2204005","2019-02-18 21:00","2019","02","18","21:00","-18.3","","-21.3","","77","","","M","13","","8","","","M","99.21","","","","-24","","NA"
"-123.44","63.21","WRIGLEY A","2204005","2019-02-18 22:00","2019","02","18","22:00","-17.5","","-20.7","","77","","","M","13","","9","","","M","99.13","","","","-24","","NA"
"-123.44","63.21","WRIGLEY A","2204005","2019-02-18 23:00","2019","02","18","23:00","-17.7","","-20.6","","78","","","M","14","","13","","","M","99.06","","","","-26","","NA"
"-123.44","63.21","WRIGLEY A","2204005","2019-02-19 00:00","2019","02","19","00:00","-17.2","","-20.4","","77","","","M","12","","13","","","M","99.02","","","","-25","","NA"
"-123.44","63.21","WRIGLEY A","2204005","2019-02-19 01:00","2019","02","19","01:00","-17.4","","-20.8","","76","","","M","13","","16","","","M","98.99","","","","-26","","NA"
"-123.44","63.21","WRIGLEY A","2204005","2019-02-19 02:00","2019","02","19","02:00","-17.8","","-20.7","","78","","","M","15","","19","","","M","98.94","","","","-27","","NA"
"-123.44","63.21","WRIGLEY A","2204005","2019-02-19 03:00","2019","02","19","03:00","-17.8","","-20.9","","77","","","M","14","","17","","","M","98.94","","","","-27","","NA"
"-123.44","63.21","WRIGLEY A","2204005","2019-02-19 04:00","2019","02","19","04:00","-17.8","","-20.9","","78","","","M","14","","14","","","M","98.92","","","","-26","","NA"
"-123.44","63.21","WRIGLEY A","2204005","2019-02-19 05:00","2019","02","19","05:00","-17.6","","-20.9","","76","","","M","14","","14","","","M","98.93","","","","-26","","NA"
"-123.44","63.21","WRIGLEY A","2204005","2019-02-19 06:00","2019","02","19","06:00","-17.7","","-20.6","","78","","","M","14","","15","","","M","98.92","","","","-26","","NA"
"-123.44","63.21","WRIGLEY A","2204005","2019-02-19 07:00","2019","02","19","07:00","-17.7","","-20.5","","79","","","M","14","","11","","","M","98.93","","","","-25","","NA"
"-123.44","63.21","WRIGLEY A","2204005","2019-02-19 08:00","2019","02","19","08:00","-18.0","","-20.8","","79","","","M","14","","9","","","M","98.95","","","","-24","","NA"
"-123.44","63.21","WRIGLEY A","2204005","2019-02-19 09:00","2019","02","19","09:00","-17.9","","-20.6","","80","","","M","15","","11","","","M","99.01","","","","-25","","NA"
"-123.44","63.21","WRIGLEY A","2204005","2019-02-19 10:00","2019","02","19","10:00","-17.8","","-20.5","","80","","","M","14","","10","","","M","99.08","","","","-25","","NA"
"-123.44","63.21","WRIGLEY A","2204005","2019-02-19 11:00","2019","02","19","11:00","-17.2","","-20.2","","78","","","M","16","","10","","","M","99.13","","","","-24","","NA"
"-123.44","63.21","WRIGLEY A","2204005","2019-02-19 12:00","2019","02","19","12:00","-16.8","","-19.9","","77","","","M","14","","5","","","M","99.19","","","","-21","","NA"
"-123.44","63.21","WRIGLEY A","2204005","2019-02-19 13:00","2019","02","19","13:00","-16.0","","-19.7","","73","","","M","15","","5","","","M","99.25","","","","-20","","NA"
"-123.44","63.21","WRIGLEY A","2204005","2019-02-19 14:00","2019","02","19","14:00","-15.4","","-19.4","","72","","","M","19","","3","","","M","99.31","","","","-18","","NA"
"-123.44","63.21","WRIGLEY A","2204005","2019-02-19 15:00","2019","02","19","15:00","-14.8","","-18.2","","75","","","M","27","","4","","","M","99.37","","","","-18","","NA"
"-123.44","63.21","WRIGLEY A","2204005","2019-02-19 16:00","2019","02","19","16:00","-14.4","","-17.9","","75","","","M","30","","3","","","M","99.44","","","","-17","","NA"
"-123.44","63.21","WRIGLEY A","2204005","2019-02-19 17:00","2019","02","19","17:00","-14.2","","-16.9","","81","","","M","31","","4","","","M","99.54","","","","-17","","NA"
"-123.44","63.21","WRIGLEY A","2204005","2019-02-19 18:00","2019","02","19","18:00","-14.1","","-16.2","","84","","","M","32","","5","","","M","99.61","","","","-18","","NA"
"-123.44","63.21","WRIGLEY A","2204005","2019-02-19 19:00","2019","02","19","19:00","-14.5","","-16.5","","85","","","M","34","","3","","","M","99.68","","","","-17","","NA"
"-123.44","63.21","WRIGLEY A","2204005","2019-02-19 20:00","2019","02","19","20:00","-14.3","","-16.3","","85","","","M","2","","5","","","M","99.77","","","","-18","","NA"
"-123.44","63.21","WRIGLEY A","2204005","2019-02-19 21:00","2019","02","19","21:00","-13.6","","-15.7","","84","","","M","35","","4","","","M","99.84","","","","-16","","NA"
"-123.44","63.21","WRIGLEY A","2204005","2019-02-19 22:00","2019","02","19","22:00","-14.2","","-16.2","","85","","","M","3","","4","","","M","99.90","","","","-17","","NA"
"-123.44","63.21","WRIGLEY A","2204005","2019-02-19 23:00","2019","02","19","23:00","-15.2","","-17.2","","85","","","M","2","","3","","","M","99.98","","","","-17","","NA"
"-123.44","63.21","WRIGLEY A","2204005","2019-02-20 00:00","2019","02","20","00:00","-15.6","","-17.2","","88","","","M","21","","2","","","M","100.03","","","","-17","","NA"
"-123.44","63.21","WRIGLEY A","2204005","2019-02-20 01:00","2019","02","20","01:00","-18.3","","-20.4","","84","","","M","17","","4","","","M","100.08","","","","-22","","NA"
"-123.44","63.21","WRIGLEY A","2204005","2019-02-20 02:00","2019","02","20","02:00","-19.0","","-21.4","","82","","","M","12","","2","","","M","100.15","","","","-21","","NA"
"-123.44","63.21","WRIGLEY A","2204005","2019-02-20 03:00","2019","02","20","03:00","-18.9","","-21.1","","83","","","M","26","","2","","","M","100.20","","","","-21","","NA"
"-123.44","63.21","WRIGLEY A","2204005","2019-02-20 04:00","2019","02","20","04:00","-18.0","","-20.2","","83","","","M","25","","3","","","M","100.23","","","","-20","","NA"
"-123.44","63.21","WRIGLEY A","2204005","2019-02-20 05:00","2019","02","20","05:00","-18.6","","-20.9","","83","","","M","28","","5","","","M","100.26","","","","-23","","NA"
"-123.44","63.21","WRIGLEY A","2204005","2019-02-20 06:00","2019","02","20","06:00","-18.9","","-21.2","","82","","","M","28","","8","","","M","100.38","","","","-25","","NA"
"-123.44","63.21","WRIGLEY A","2204005","2019-02-20 07:00","2019","02","20","07:00","-14.8","","-16.9","","85","","","M","31","","17","","","M","100.46","","","","-23","","NA"
"-123.44","63.21","WRIGLEY A","2204005","2019-02-20 08:00","2019","02","20","08:00","-11.4","","-14.3","","79","","","M","31","","22","","","M","100.54","","","","-20","","NA"
"-123.44","63.21","WRIGLEY A","2204005","2019-02-20 09:00","2019","02","20","09:00","-11.9","","-15.2","","77","","","M","31","","19","","","M","100.59","","","","-20","","NA"
"-123.44","63.21","WRIGLEY A","2204005","2019-02-20 10:00","2019","02","20","10:00","-12.2","","-15.6","","76","","","M","33","","13","","","M","100.64","","","","-19","","NA"
"-123.44","63.21","WRIGLEY A","2204005","2019-02-20 11:00","2019","02","20","11:00","-13.1","","-16.2","","77","","","M","31","","21","","","M","100.71","","","","-22","","NA"
"-123.44","63.21","WRIGLEY A","2204005","2019-02-20 12:00","2019","02","20","12:00","-12.0","","-15.9","","73","","","M","31","","23","","","M","100.71","","","","-21","","NA"
"-123.44","63.21","WRIGLEY A","2204005","2019-02-20 13:00","2019","02","20","13:00","-10.8","","-15.2","","70","","","M","33","","13","","","M","100.73","","","","-17","","NA"
"-123.44","63.21","WRIGLEY A","2204005","2019-02-20 14:00","2019","02","20","14:00","-10.1","","-15.1","","67","","","M","31","","14","","","M","100.72","","","","-17","","NA"
"-123.44","63.21","WRIGLEY A","2204005","2019-02-20 15:00","2019","02","20","15:00","-10.7","","-15.5","","68","","","M","31","","19","","","M","100.73","","","","-19","","NA"
"-123.44","63.21","WRIGLEY A","2204005","2019-02-20 16:00","2019","02","20","16:00","-10.0","","-15.2","","66","","","M","32","","13","","","M","100.73","","","","-16","","NA"
"-123.44","63.21","WRIGLEY A","2204005","2019-02-20 17:00","2019","02","20","17:00","-11.6","","-16.1","","70","","","M","31","","13","","","M","100.76","","","","-18","","NA"
"-123.44","63.21","WRIGLEY A","2204005","2019-02-20 18:00","2019","02","20","18:00","-12.1","","-15.7","","75","","","M","34","","3","","","M","100.75","","","","-14","","NA"
"-123.44","63.21","WRIGLEY A","2204005","2019-02-20 19:00","2019","02","20","19:00","-16.2","","-18.4","","83","","","M","11","","3","","","M","100.68","","","","-18","","NA"
"-123.44","63.21","WRIGLEY A","2204005","2019-02-20 20:00","2019","02","20","20:00","-18.0","","-20.1","","84","","","M","13","","3","","","M","100.61","","","","-20","","NA"
"-123.44","63.21","WRIGLEY A","2204005","2019-02-20 21:00","2019","02","20","21:00","-19.4","","-21.8","","82","","","M","8","","6","","","M","100.57","","","","-24","","NA"
"-123.44","63.21","WRIGLEY A","2204005","2019-02-20 22:00","2019","02","20","22:00","-19.4","","-21.6","","83","","","M","20","","6","","","M","100.48","","","","-24","","NA"
"-123.44","63.21","WRIGLEY A","2204005","2019-02-20 23:00","2019","02","20","23:00","-19.7","","-22.1","","82","","","M","22","","1","","","M","100.45","","","","-21","","NA"
"-123.44","63.21","WRIGLEY A","2204005","2019-02-21 00:00","2019","02","21","00:00","-19.7","","-22.1","","81","","","M","0","","1","","","M","100.42","","","","-21","","NA"
"-123.44","63.21","WRIGLEY A","2204005","2019-02-21 01:00","2019","02","21","01:00","-19.8","","-22.3","","81","","","M","6","","3","","","M","100.32","","","","-22","","NA"
"-123.44","63.21","WRIGLEY A","2204005","2019-02-21 02:00","2019","02","21","02:00","-19.7","","-22.2","","81","","","M","30","","1","","","M","100.22","","","","-21","","NA"
"-123.44","63.21","WRIGLEY A","2204005","2019-02-21 03:00","2019","02","21","03:00","-19.6","","-21.9","","82","","","M","24","","1","","","M","100.16","","","","-20","","NA"
"-123.44","63.21","WRIGLEY A","2204005","2019-02-21 04:00","2019","02","21","04:00","-19.2","","-21.5","","82","","","M","0","","1","","","M","100.08","","","","-20","","NA"
"-123.44","63.21","WRIGLEY A","2204005","2019-02-21 05:00","2019","02","21","05:00","-19.3","","-21.8","","81","","","M","12","","1","","","M","99.98","","","","-20","","NA"
"-123.44","63.21","WRIGLEY A","2204005","2019-02-21 06:00","2019","02","21","06:00","-19.0","","-21.4","","82","","","M","13","","3","","","M","99.89","","","","-21","","NA"
"-123.44","63.21","WRIGLEY A","2204005","2019-02-21 07:00","2019","02","21","07:00","-16.7","","-18.9","","84","","","M","11","","10","","","M","99.83","","","","-23","","NA"
"-123.44","63.21","WRIGLEY A","2204005","2019-02-21 08:00","2019","02","21","08:00","-14.9","","-17.5","","81","","","M","13","","8","","","M","99.74","","","","-20","","NA"
"-123.44","63.21","WRIGLEY A","2204005","2019-02-21 09:00","2019","02","21","09:00","-15.3","","-17.9","","81","","","M","12","","10","","","M","99.70","","","","-22","","NA"
"-123.44","63.21","WRIGLEY A","2204005","2019-02-21 10:00","2019","02","21","10:00","-15.2","","-17.8","","81","","","M","14","","3","","","M","99.68","","","","-17","","NA"
"-123.44","63.21","WRIGLEY A","2204005","2019-02-21 11:00","2019","02","21","11:00","-16.4","","-18.8","","82","","","M","11","","3","","","M","99.64","","","","-19","","NA"
"-123.44","63.21","WRIGLEY A","2204005","2019-02-21 12:00","2019","02","21","12:00","-16.3","","-18.8","","81","","","M","31","","8","","","M","99.60","","","","-22","","NA"
"-123.44","63.21","WRIGLEY A","2204005","2019-02-21 13:00","2019","02","21","13:00","-14.5","","-17.4","","79","","","M","26","","3","","","M","99.56","","","","-17","","NA"
"-123.44","63.21","WRIGLEY A","2204005","2019-02-21 14:00","2019","02","21","14:00","-14.1","","-16.9","","79","","","M","27","","2","","","M","99.52","","","","-15","","NA"
"-123.44","63.21","WRIGLEY A","2204005","2019-02-21 15:00","2019","02","21","15:00","-13.2","","-16.5","","77","","","M","31","","7","","","M","99.50","","","","-18","","NA"
"-123.44","63.21","WRIGLEY A","2204005","2019-02-21 16:00","2019","02","21","16:00","-13.3","","-16.6","","77","","","M","31","","9","","","M","99.52","","","","-19","","NA"
"-123.44","63.21","WRIGLEY A","2204005","2019-02-21 17:00","2019","02","21","17:00","-13.2","","-16.5","","77","","","M","31","","8","","","M","99.53","","","","-18","","NA"
"-123.44","63.21","WRIGLEY A","2204005","2019-02-21 18:00","2019","02","21","18:00","-13.8","","-16.6","","80","","","M","31","","12","","","M","99.53","","","","-21","","NA"
"-123.44","63.21","WRIGLEY A","2204005","2019-02-21 19:00","2019","02","21","19:00","-13.8","","-16.3","","82","","","M","31","","11","","","M","99.56","","","","-20","","NA"
"-123.44","63.21","WRIGLEY A","2204005","2019-02-21 20:00","2019","02","21","20:00","-14.6","","-17.1","","81","","","M","29","","9","","","M","99.58","","","","-20","","NA"
"-123.44","63.21","WRIGLEY A","2204005","2019-02-21 21:00","2019","02","21","21:00","-14.8","","-17.1","","83","","","M","32","","4","","","M","99.63","","","","-18","","NA"
"-123.44","63.21","WRIGLEY A","2204005","2019-02-21 22:00","2019","02","21","22:00","-15.4","","-18.1","","81","","","M","31","","14","","","M","99.68","","","","-23","","NA"
"-123.44","63.21","WRIGLEY A","2204005","2019-02-21 23:00","2019","02","21","23:00","-15.6","","-18.1","","81","","","M","31","","10","","","M","99.75","","","","-22","","NA"
"-123.44","63.21","WRIGLEY A","2204005","2019-02-22 00:00","2019","02","22","00:00","-15.6","","-18.2","","81","","","M","31","","13","","","M","99.79","","","","-23","","NA"
"-123.44","63.21","WRIGLEY A","2204005","2019-02-22 01:00","2019","02","22","01:00","-15.0","","-17.9","","78","","","M","36","","8","","","M","99.83","","","","-20","","NA"
"-123.44","63.21","WRIGLEY A","2204005","2019-02-22 02:00","2019","02","22","02:00","-15.3","","-18.6","","76","","","M","33","","10","","","M","99.88","","","","-22","","NA"
"-123.44","63.21","WRIGLEY A","2204005","2019-02-22 03:00","2019","02","22","03:00","-15.5","","-18.8","","76","","","M","32","","9","","","M","99.94","","","","-21","","NA"
"-123.44","63.21","WRIGLEY A","2204005","2019-02-22 04:00","2019","02","22","04:00","-15.6","","-19.0","","75","","","M","35","","10","","","M","100.01","","","","-22","","NA"
"-123.44","63.21","WRIGLEY A","2204005","2019-02-22 05:00","2019","02","22","05:00","-15.7","","-19.2","","75","","","M","34","","13","","","M","100.07","","","","-23","","NA"
"-123.44","63.21","WRIGLEY A","2204005","2019-02-22 06:00","2019","02","22","06:00","-16.1","","-19.4","","76","","","M","34","","14","","","M","100.19","","","","-24","","NA"
"-123.44","63.21","WRIGLEY A","2204005","2019-02-22 07:00","2019","02","22","07:00","-16.7","","-20.3","","74","","","M","33","","13","","","M","100.30","","","","-24","","NA"
"-123.44","63.21","WRIGLEY A","2204005","2019-02-22 08:00","2019","02","22","08:00","-17.2","","-20.5","","76","","","M","34","","13","","","M","100.39","","","","-25","","NA"
"-123.44","63.21","WRIGLEY A","2204005","2019-02-22 09:00","2019","02","22","09:00","-16.9","","-20.4","","75","","","M","33","","12","","","M","100.46","","","","-24","","NA"
"-123.44","63.21","WRIGLEY A","2204005","2019-02-22 10:00","2019","02","22","10:00","-16.5","","-20.4","","72","","","M","33","","15","","","M","100.55","","","","-25","","NA"
"-123.44","63.21","WRIGLEY A","2204005","2019-02-22 11:00","2019","02","22","11:00","-15.9","","-20.0","","71","","","M","33","","12","","","M","100.63","","","","-23","","NA"
"-123.44","63.21","WRIGLEY A","2204005","2019-02-22 12:00","2019","02","22","12:00","-14.8","","-19.4","","68","","","M","34","","14","","","M","100.73","","","","-22","","NA"
"-123.44","63.21","WRIGLEY A","2204005","2019-02-22 13:00","2019","02","22","13:00","-14.3","","-19.8","","63","","","M","34","","17","","","M","100.81","","","","-23","","NA"
"-123.44","63.21","WRIGLEY A","2204005","2019-02-22 14:00","2019","02","22","14:00","-14.2","","-20.7","","59","","","M","35","","21","","","M","100.88","","","","-23","","NA"
"-123.44","63.21","WRIGLEY A","2204005","2019-02-22 15:00","2019","02","22","15:00","-15.1","","-20.9","","61","","","M","34","","16","","","M","100.95","","","","-23","","NA"
"-123.44","63.21","WRIGLEY A","2204005","2019-02-22 16:00","2019","02","22","16:00","-14.5","","-20.8","","59","","","M","33","","13","","","M","101.04","","","","-22","","NA"
"-123.44","63.21","WRIGLEY A","2204005","2019-02-22 17:00","2019","02","22","17:00","-15.0","","-21.3","","59","","","M","36","","14","","","M","101.10","","","","-23","","NA"
"-123.44","63.21","WRIGLEY A","2204005","2019-02-22 18:00","2019","02","22","18:00","-15.9","","-21.5","","63","","","M","35","","11","","","M","101.20","","","","-23","","NA"
"-123.44","63.21","WRIGLEY A","2204005","2019-02-22 19:00","2019","02","22","19:00","-16.5","","-21.8","","64","","","M","34","","9","","","M","101.32","","","","-23","","NA"
"-123.44","63.21","WRIGLEY A","2204005","2019-02-22 20:00","2019","02","22","20:00","-17.3","","-21.7","","69","","","M","33","","12","","","M","101.42","","","","-25","","NA"
"-123.44","63.21","WRIGLEY A","2204005","2019-02-22 21:00","2019","02","22","21:00","-18.5","","-22.4","","72","","","M","34","","5","","","M","101.51","","","","-23","","NA"
"-123.44","63.21","WRIGLEY A","2204005","2019-02-22 22:00","2019","02","22","22:00","-18.8","","-22.3","","74","","","M","34","","7","","","M","101.60","","","","-24","","NA"
"-123.44","63.21","WRIGLEY A","2204005","2019-02-22 23:00","2019","02","22","23:00","-19.4","","-22.7","","76","","","M","31","","8","","","M","101.70","","","","-26","","NA"
"-123.44","63.21","WRIGLEY A","2204005","2019-02-23 00:00","2019","02","23","00:00","-21.5","","-24.0","","81","","","M","32","","6","","","M","101.80","","","","-27","","NA"
"-123.44","63.21","WRIGLEY A","2204005","2019-02-23 01:00","2019","02","23","01:00","-24.1","","-26.7","","79","","","M","32","","1","","","M","101.87","","","","-25","","NA"
"-123.44","63.21","WRIGLEY A","2204005","2019-02-23 02:00","2019","02","23","02:00","-24.4","","-27.0","","80","","","M","32","","4","","","M","101.94","","","","-28","","NA"
"-123.44","63.21","WRIGLEY A","2204005","2019-02-23 03:00","2019","02","23","03:00","-26.7","","-29.1","","80","","","M","0","","1","","","M","101.98","","","","-28","","NA"
"-123.44","63.21","WRIGLEY A","2204005","2019-02-23 04:00","2019","02","23","04:00","-27.3","","-30.1","","77","","","M","14","","5","","","M","102.01","","","","-33","","NA"
"-123.44","63.21","WRIGLEY A","2204005","2019-02-23 05:00","2019","02","23","05:00","-29.8","","-33.3","","73","","","M","4","","2","","","M","102.05","","","","-32","","NA"
"-123.44","63.21","WRIGLEY A","2204005","2019-02-23 06:00","2019","02","23","06:00","-30.6","","-33.9","","74","","","M","24","","2","","","M","102.06","","","","-33","","NA"
"-123.44","63.21","WRIGLEY A","2204005","2019-02-23 07:00","2019","02","23","07:00","-30.9","","-34.3","","73","","","M","15","","2","","","M","102.07","","","","-33","","NA"
"-123.44","63.21","WRIGLEY A","2204005","2019-02-23 08:00","2019","02","23","08:00","-32.0","","-35.6","","72","","","M","16","","4","","","M","102.09","","","","-37","","NA"
"-123.44","63.21","WRIGLEY A","2204005","2019-02-23 09:00","2019","02","23","09:00","-33.4","","-37.0","","71","","","M","11","","4","","","M","102.11","","","","-38","","NA"
"-123.44","63.21","WRIGLEY A","2204005","2019-02-23 10:00","2019","02","23","10:00","-30.0","","-33.3","","74","","","M","14","","13","","","M","102.10","","","","-41","","NA"
"-123.44","63.21","WRIGLEY A","2204005","2019-02-23 11:00","2019","02","23","11:00","-27.8","","-30.8","","76","","","M","15","","9","","","M","102.06","","","","-36","","NA"
"-123.44","63.21","WRIGLEY A","2204005","2019-02-23 12:00","2019","02","23","12:00","-25.1","","-28.2","","75","","","M","15","","16","","","M","102.02","","","","-36","","NA"
"-123.44","63.21","WRIGLEY A","2204005","2019-02-23 13:00","2019","02","23","13:00","-20.9","","-24.9","","71","","","M","14","","20","","","M","102.00","","","","-32","","NA"
"-123.44","63.21","WRIGLEY A","2204005","2019-02-23 14:00","2019","02","23","14:00","-20.4","","-25.0","","67","","","M","15","","21","","","M","101.89","","","","-31","","NA"
"-123.44","63.21","WRIGLEY A","2204005","2019-02-23 15:00","2019","02","23","15:00","-18.4","","-23.4","","65","","","M","15","","21","","","M","101.82","","","","-29","","NA"
"-123.44","63.21","WRIGLEY A","2204005","2019-02-23 16:00","2019","02","23","16:00","-17.2","","-22.9","","62","","","M","15","","18","","","M","101.76","","","","-26","","NA"
"-123.44","63.21","WRIGLEY A","2204005","2019-02-23 17:00","2019","02","23","17:00","-17.5","","-23.1","","62","","","M","15","","17","","","M","101.70","","","","-27","","NA"
"-123.44","63.21","WRIGLEY A","2204005","2019-02-23 18:00","2019","02","23","18:00","-17.1","","-22.6","","63","","","M","13","","11","","","M","101.64","","","","-24","","NA"
"-123.44","63.21","WRIGLEY A","2204005","2019-02-23 19:00","2019","02","23","19:00","-17.4","","-22.3","","66","","","M","12","","13","","","M","101.61","","","","-25","","NA"
"-123.44","63.21","WRIGLEY A","2204005","2019-02-23 20:00","2019","02","23","20:00","-17.3","","-22.4","","65","","","M","13","","13","","","M","101.58","","","","-25","","NA"
"-123.44","63.21","WRIGLEY A","2204005","2019-02-23 21:00","2019","02","23","21:00","-19.4","","-23.8","","68","","","M","14","","12","","","M","101.54","","","","-27","","NA"
"-123.44","63.21","WRIGLEY A","2204005","2019-02-23 22:00","2019","02","23","22:00","-17.8","","-22.0","","70","","","M","13","","14","","","M","101.50","","","","-26","","NA"
"-123.44","63.21","WRIGLEY A","2204005","2019-02-23 23:00","2019","02","23","23:00","-18.6","","-22.3","","73","","","M","13","","10","","","M","101.47","","","","-26","","NA"
"-123.44","63.21","WRIGLEY A","2204005","2019-02-24 00:00","2019","02","24","00:00","-23.1","","-25.8","","79","","","M","16","","15","","","M","101.47","","","","-33","","NA"
"-123.44","63.21","WRIGLEY A","2204005","2019-02-24 01:00","2019","02","24","01:00","-24.2","","-26.6","","81","","","M","16","","13","","","M","101.48","","","","-34","","NA"
"-123.44","63.21","WRIGLEY A","2204005","2019-02-24 02:00","2019","02","24","02:00","-25.5","","-28.0","","80","","","M","16","","9","","","M","101.49","","","","-33","","NA"
"-123.44","63.21","WRIGLEY A","2204005","2019-02-24 03:00","2019","02","24","03:00","-26.7","","-29.2","","79","","","M","14","","7","","","M","101.49","","","","-33","","NA"
"-123.44","63.21","WRIGLEY A","2204005","2019-02-24 04:00","2019","02","24","04:00","-27.5","","-30.3","","78","","","M","14","","4","","","M","101.48","","","","-32","","NA"
"-123.44","63.21","WRIGLEY A","2204005","2019-02-24 05:00","2019","02","24","05:00","-29.3","","-32.5","","74","","","M","","","0","","","M","101.50","","","","","","NA"
"-123.44","63.21","WRIGLEY A","2204005","2019-02-24 06:00","2019","02","24","06:00","-29.2","","-32.6","","74","","","M","13","","1","","","M","101.49","","","","-30","","NA"
"-123.44","63.21","WRIGLEY A","2204005","2019-02-24 07:00","2019","02","24","07:00","-30.3","","-33.7","","73","","","M","26","","1","","","M","101.46","","","","-31","","NA"
"-123.44","63.21","WRIGLEY A","2204005","2019-02-24 08:00","2019","02","24","08:00","-30.8","","-34.3","","72","","","M","17","","3","","","M","101.47","","","","-34","","NA"
"-123.44","63.21","WRIGLEY A","2204005","2019-02-24 09:00","2019","02","24","09:00","-31.2","","-34.6","","73","","","M","19","","3","","","M","101.47","","","","-35","","NA"
"-123.44","63.21","WRIGLEY A","2204005","2019-02-24 10:00","2019","02","24","10:00","-30.2","","-33.6","","73","","","M","25","","1","","","M","101.50","","","","-31","","NA"
"-123.44","63.21","WRIGLEY A","2204005","2019-02-24 11:00","2019","02","24","11:00","-28.5","","-31.7","","74","","","M","7","","3","","","M","101.48","","","","-32","","NA"
"-123.44","63.21","WRIGLEY A","2204005","2019-02-24 12:00","2019","02","24","12:00","-25.9","","-29.1","","75","","","M","19","","3","","","M","101.47","","","","-29","","NA"
"-123.44","63.21","WRIGLEY A","2204005","2019-02-24 13:00","2019","02","24","13:00","-23.6","","-26.5","","77","","","M","16","","8","","","M","101.43","","","","-30","","NA"
"-123.44","63.21","WRIGLEY A","2204005","2019-02-24 14:00","2019","02","24","14:00","-20.8","","-24.6","","73","","","M","16","","8","","","M","101.39","","","","-27","","NA"
"-123.44","63.21","WRIGLEY A","2204005","2019-02-24 15:00","2019","02","24","15:00","-20.5","","-24.4","","72","","","M","15","","9","","","M","101.36","","","","-27","","NA"
"-123.44","63.21","WRIGLEY A","2204005","2019-02-24 16:00","2019","02","24","16:00","-19.4","","-23.4","","71","","","M","14","","7","","","M","101.33","","","","-25","","NA"
"-123.44","63.21","WRIGLEY A","2204005","2019-02-24 17:00","2019","02","24","17:00","-18.7","","-23.1","","69","","","M","14","","6","","","M","101.31","","","","-24","","NA"
"-123.44","63.21","WRIGLEY A","2204005","2019-02-24 18:00","2019","02","24","18:00","-18.3","","-22.7","","69","","","M","15","","10","","","M","101.26","","","","-25","","NA"
"-123.44","63.21","WRIGLEY A","2204005","2019-02-24 19:00","2019","02","24","19:00","-18.4","","-22.6","","70","","","M","11","","4","","","M","101.23","","","","-22","","NA"
"-123.44","63.21","WRIGLEY A","2204005","2019-02-24 20:00","2019","02","24","20:00","-18.7","","-22.6","","72","","","M","13","","3","","","M","101.21","","","","-21","","NA"
"-123.44","63.21","WRIGLEY A","2204005","2019-02-24 21:00","2019","02","24","21:00","-18.3","","-22.1","","73","","","M","10","","3","","","M","101.16","","","","-21","","NA"
"-123.44","63.21","WRIGLEY A","2204005","2019-02-24 22:00","2019","02","24","22:00","-18.1","","-22.1","","72","","","M","11","","1","","","M","101.12","","","","-19","","NA"
"-123.44","63.21","WRIGLEY A","2204005","2019-02-24 23:00","2019","02","24","23:00","-17.6","","-22.1","","69","","","M","13","","5","","","M","101.09","","","","-22","","NA"
"-123.44","63.21","WRIGLEY A","2204005","2019-02-25 00:00","2019","02","25","00:00","-17.7","","-21.7","","72","","","M","15","","5","","","M","101.09","","","","-22","","NA"
"-123.44","63.21","WRIGLEY A","2204005","2019-02-25 01:00","2019","02","25","01:00","-17.8","","-21.6","","73","","","M","19","","3","","","M","101.06","","","","-20","","NA"
"-123.44","63.21","WRIGLEY A","2204005","2019-02-25 02:00","2019","02","25","02:00","-17.6","","-21.1","","75","","","M","8","","2","","","M","101.08","","","","-19","","NA"
"-123.44","63.21","WRIGLEY A","2204005","2019-02-25 03:00","2019","02","25","03:00","-16.9","","-20.9","","72","","","M","0","","1","","","M","101.07","","","","-18","","NA"
"-123.44","63.21","WRIGLEY A","2204005","2019-02-25 04:00","2019","02","25","04:00","-17.2","","-20.4","","76","","","M","7","","1","","","M","101.01","","","","-18","","NA"
"-123.44","63.21","WRIGLEY A","2204005","2019-02-25 05:00","2019","02","25","05:00","-17.2","","-20.2","","77","","","M","12","","1","","","M","100.99","","","","-18","","NA"
"-123.44","63.21","WRIGLEY A","2204005","2019-02-25 06:00","2019","02","25","06:00","-16.2","","-20.2","","72","","","M","4","","1","","","M","100.94","","","","-17","","NA"
"-123.44","63.21","WRIGLEY A","2204005","2019-02-25 07:00","2019","02","25","07:00","-16.2","","-19.5","","76","","","M","34","","3","","","M","100.93","","","","-18","","NA"
"-123.44","63.21","WRIGLEY A","2204005","2019-02-25 08:00","2019","02","25","08:00","-16.2","","-19.6","","75","","","M","18","","1","","","M","100.91","","","","-17","","NA"
"-123.44","63.21","WRIGLEY A","2204005","2019-02-25 09:00","2019","02","25","09:00","-16.7","","-19.7","","78","","","M","27","","1","","","M","100.92","","","","-17","","NA"
"-123.44","63.21","WRIGLEY A","2204005","2019-02-25 10:00","2019","02","25","10:00","-17.4","","-20.4","","78","","","M","3","","3","","","M","100.93","","","","-20","","NA"
"-123.44","63.21","WRIGLEY A","2204005","2019-02-25 11:00","2019","02","25","11:00","-15.8","","-19.9","","71","","","M","25","","4","","","M","100.96","","","","-19","","NA"
"-123.44","63.21","WRIGLEY A","2204005","2019-02-25 12:00","2019","02","25","12:00","-14.1","","-19.2","","66","","","M","29","","5","","","M","100.96","","","","-18","","NA"
"-123.44","63.21","WRIGLEY A","2204005","2019-02-25 13:00","2019","02","25","13:00","-11.0","","-17.0","","62","","","M","29","","5","","","M","100.98","","","","-14","","NA"
"-123.44","63.21","WRIGLEY A","2204005","2019-02-25 14:00","2019","02","25","14:00","-9.4","","-16.3","","58","","","M","12","","2","","","M","100.98","","","","-11","","NA"
"-123.44","63.21","WRIGLEY A","2204005","2019-02-25 15:00","2019","02","25","15:00","-7.3","","-14.8","","56","","","M","10","","1","","","M","100.93","","","","-8","","NA"
"-123.44","63.21","WRIGLEY A","2204005","2019-02-25 16:00","2019","02","25","16:00","-6.5","","-14.3","","54","","","M","21","","2","","","M","100.92","","","","-7","","NA"
"-123.44","63.21","WRIGLEY A","2204005","2019-02-25 17:00","2019","02","25","17:00","-6.4","","-14.2","","54","","","M","17","","2","","","M","100.91","","","","-7","","NA"
"-123.44","63.21","WRIGLEY A","2204005","2019-02-25 18:00","2019","02","25","18:00","-7.7","","-14.2","","60","","","M","5","","4","","","M","100.89","","","","-10","","NA"
"-123.44","63.21","WRIGLEY A","2204005","2019-02-25 19:00","2019","02","25","19:00","-9.5","","-14.4","","68","","","M","22","","1","","","M","100.88","","","","-10","","NA"
"-123.44","63.21","WRIGLEY A","2204005","2019-02-25 20:00","2019","02","25","20:00","-9.6","","-13.3","","75","","","M","6","","4","","","M","100.85","","","","-12","","NA"
"-123.44","63.21","WRIGLEY A","2204005","2019-02-25 21:00","2019","02","25","21:00","-10.6","","-14.6","","73","","","M","9","","2","","","M","100.86","","","","-12","","NA"
"-123.44","63.21","WRIGLEY A","2204005","2019-02-25 22:00","2019","02","25","22:00","-12.1","","-15.0","","79","","","M","18","","3","","","M","100.85","","","","-14","","NA"
"-123.44","63.21","WRIGLEY A","2204005","2019-02-25 23:00","2019","02","25","23:00","-13.2","","-15.1","","86","","","M","3","","4","","","M","100.83","","","","-16","","NA"
"-123.44","63.21","WRIGLEY A","2204005","2019-02-26 00:00","2019","02","26","00:00","-15.0","","-16.9","","86","","","M","6","","5","","","M","100.86","","","","-19","","NA"
"-123.44","63.21","WRIGLEY A","2204005","2019-02-26 01:00","2019","02","26","01:00","-15.3","","-17.0","","87","","","M","","","0","","","M","100.82","","","","","","NA"
"-123.44","63.21","WRIGLEY A","2204005","2019-02-26 02:00","2019","02","26","02:00","-15.2","","-16.9","","87","","","M","34","","3","","","M","100.82","","","","-17","","NA"
"-123.44","63.21","WRIGLEY A","2204005","2019-02-26 03:00","2019","02","26","03:00","-17.5","","-19.7","","83","","","M","9","","4","","","M","100.77","","","","-21","","NA"
"-123.44","63.21","WRIGLEY A","2204005","2019-02-26 04:00","2019","02","26","04:00","-16.5","","-18.2","","87","","","M","28","","5","","","M","100.72","","","","-20","","NA"
"-123.44","63.21","WRIGLEY A","2204005","2019-02-26 05:00","2019","02","26","05:00","-18.2","","-20.1","","85","","","M","25","","3","","","M","100.71","","","","-21","","NA"
"-123.44","63.21","WRIGLEY A","2204005","2019-02-26 06:00","2019","02","26","06:00","-18.4","","-20.8","","82","","","M","16","","3","","","M","100.68","","","","-21","","NA"
"-123.44","63.21","WRIGLEY A","2204005","2019-02-26 07:00","2019","02","26","07:00","-18.3","","-20.7","","82","","","M","33","","2","","","M","100.68","","","","-20","","NA"
"-123.44","63.21","WRIGLEY A","2204005","2019-02-26 08:00","2019","02","26","08:00","-16.9","","-18.7","","86","","","M","16","","1","","","M","100.66","","","","-18","","NA"
"-123.44","63.21","WRIGLEY A","2204005","2019-02-26 09:00","2019","02","26","09:00","-16.3","","-18.4","","84","","","M","3","","4","","","M","100.67","","","","-19","","NA"
"-123.44","63.21","WRIGLEY A","2204005","2019-02-26 10:00","2019","02","26","10:00","-15.5","","-17.6","","84","","","M","22","","4","","","M","100.66","","","","-18","","NA"
"-123.44","63.21","WRIGLEY A","2204005","2019-02-26 11:00","2019","02","26","11:00","-13.1","","-15.0","","86","","","M","35","","3","","","M","100.67","","","","-15","","NA"
"-123.44","63.21","WRIGLEY A","2204005","2019-02-26 12:00","2019","02","26","12:00","-12.2","","-14.5","","83","","","M","29","","7","","","M","100.71","","","","-17","","NA"
"-123.44","63.21","WRIGLEY A","2204005","2019-02-26 13:00","2019","02","26","13:00","-9.3","","-12.6","","77","","","M","32","","10","","","M","100.79","","","","-14","","NA"
"-123.44","63.21","WRIGLEY A","2204005","2019-02-26 14:00","2019","02","26","14:00","-6.5","","-10.9","","71","","","M","31","","9","","","M","100.75","","","","-11","","NA"
"-123.44","63.21","WRIGLEY A","2204005","2019-02-26 15:00","2019","02","26","15:00","-7.0","","-11.4","","71","","","M","30","","16","","","M","100.76","","","","-13","","NA"
"-123.44","63.21","WRIGLEY A","2204005","2019-02-26 16:00","2019","02","26","16:00","-2.7","","-9.3","","61","","","M","31","","16","","","M","100.79","","","","-8","","NA"
"-123.44","63.21","WRIGLEY A","2204005","2019-02-26 17:00","2019","02","26","17:00","-1.7","","-9.2","","57","","","M","33","","12","","","M","100.85","","","","-6","","NA"
"-123.44","63.21","WRIGLEY A","2204005","2019-02-26 18:00","2019","02","26","18:00","-2.2","","-9.3","","58","","","M","32","","9","","","M","100.88","","","","-6","","NA"
"-123.44","63.21","WRIGLEY A","2204005","2019-02-26 19:00","2019","02","26","19:00","-4.6","","-9.7","","68","","","M","30","","6","","","M","100.91","","","","-7","","NA"
"-123.44","63.21","WRIGLEY A","2204005","2019-02-26 20:00","2019","02","26","20:00","-5.6","","-10.3","","69","","","M","29","","13","","","M","100.92","","","","-11","","NA"
"-123.44","63.21","WRIGLEY A","2204005","2019-02-26 21:00","2019","02","26","21:00","-6.5","","-10.6","","73","","","M","28","","11","","","M","100.94","","","","-11","","NA"
"-123.44","63.21","WRIGLEY A","2204005","2019-02-26 22:00","2019","02","26","22:00","-6.2","","-10.2","","73","","","M","30","","13","","","M","100.98","","","","-12","","NA"
"-123.44","63.21","WRIGLEY A","2204005","2019-02-26 23:00","2019","02","26","23:00","-6.0","","-10.3","","72","","","M","32","","11","","","M","100.95","","","","-11","","NA"
"-123.44","63.21","WRIGLEY A","2204005","2019-02-27 00:00","2019","02","27","00:00","-7.9","","-10.9","","79","","","M","31","","17","","","M","100.95","","","","-15","","NA"
"-123.44","63.21","WRIGLEY A","2204005","2019-02-27 01:00","2019","02","27","01:00","-6.8","","-10.3","","76","","","M","32","","10","","","M","100.95","","","","-11","","NA"
"-123.44","63.21","WRIGLEY A","2204005","2019-02-27 02:00","2019","02","27","02:00","-7.7","","-10.8","","79","","","M","31","","14","","","M","100.98","","","","-14","","NA"
"-123.44","63.21","WRIGLEY A","2204005","2019-02-27 03:00","2019","02","27","03:00","-9.5","","-11.8","","83","","","M","33","","5","","","M","100.99","","","","-12","","NA"
"-123.44","63.21","WRIGLEY A","2204005","2019-02-27 04:00","2019","02","27","04:00","-9.8","","-11.7","","86","","","M","32","","6","","","M","100.98","","","","-13","","NA"
"-123.44","63.21","WRIGLEY A","2204005","2019-02-27 05:00","2019","02","27","05:00","-12.8","","-14.6","","86","","","M","4","","3","","","M","100.97","","","","-15","","NA"
"-123.44","63.21","WRIGLEY A","2204005","2019-02-27 06:00","2019","02","27","06:00","-12.1","","-13.8","","87","","","M","5","","5","","","M","100.99","","","","-15","","NA"
"-123.44","63.21","WRIGLEY A","2204005","2019-02-27 07:00","2019","02","27","07:00","-12.7","","-14.6","","86","","","M","28","","4","","","M","100.99","","","","-15","","NA"
"-123.44","63.21","WRIGLEY A","2204005","2019-02-27 08:00","2019","02","27","08:00","-13.1","","-14.7","","88","","","M","3","","5","","","M","101.00","","","","-16","","NA"
"-123.44","63.21","WRIGLEY A","2204005","2019-02-27 09:00","2019","02","27","09:00","-14.7","","-16.3","","88","","","M","7","","3","","","M","101.03","","","","-17","","NA"
"-123.44","63.21","WRIGLEY A","2204005","2019-02-27 10:00","2019","02","27","10:00","-14.1","","-15.7","","88","","","M","9","","3","","","M","101.05","","","","-16","","NA"
"-123.44","63.21","WRIGLEY A","2204005","2019-02-27 11:00","2019","02","27","11:00","-11.2","","-13.0","","87","","","M","33","","5","","","M","101.05","","","","-14","","NA"
"-123.44","63.21","WRIGLEY A","2204005","2019-02-27 12:00","2019","02","27","12:00","-10.0","","-13.0","","79","","","M","31","","9","","","M","101.03","","","","-15","","NA"
"-123.44","63.21","WRIGLEY A","2204005","2019-02-27 13:00","2019","02","27","13:00","-9.0","","-12.4","","77","","","M","30","","5","","","M","100.98","","","","-12","","NA"
"-123.44","63.21","WRIGLEY A","2204005","2019-02-27 14:00","2019","02","27","14:00","-5.1","","-10.8","","65","","","M","31","","10","","","M","100.95","","","","-9","","NA"
"-123.44","63.21","WRIGLEY A","2204005","2019-02-27 15:00","2019","02","27","15:00","-3.8","","-10.3","","61","","","M","30","","14","","","M","100.92","","","","-9","","NA"
"-123.44","63.21","WRIGLEY A","2204005","2019-02-27 16:00","2019","02","27","16:00","-1.9","","-11.1","","50","","","M","33","","10","","","M","100.90","","","","-6","","NA"
"-123.44","63.21","WRIGLEY A","2204005","2019-02-27 17:00","2019","02","27","17:00","-3.3","","-11.0","","55","","","M","35","","7","","","M","100.90","","","","-6","","NA"
"-123.44","63.21","WRIGLEY A","2204005","2019-02-27 18:00","2019","02","27","18:00","-3.9","","-11.1","","57","","","M","2","","8","","","M","100.94","","","","-7","","NA"
"-123.44","63.21","WRIGLEY A","2204005","2019-02-27 19:00","2019","02","27","19:00","-5.1","","-11.7","","60","","","M","36","","7","","","M","100.95","","","","-8","","NA"
"-123.44","63.21","WRIGLEY A","2204005","2019-02-27 20:00","2019","02","27","20:00","-7.0","","-11.8","","69","","","M","33","","4","","","M","100.99","","","","-9","","NA"
"-123.44","63.21","WRIGLEY A","2204005","2019-02-27 21:00","2019","02","27","21:00","-8.4","","-13.4","","68","","","M","34","","4","","","M","101.04","","","","-11","","NA"
"-123.44","63.21","WRIGLEY A","2204005","2019-02-27 22:00","2019","02","27","22:00","-9.8","","-14.3","","70","","","M","34","","7","","","M","101.10","","","","-14","","NA"
"-123.44","63.21","WRIGLEY A","2204005","2019-02-27 23:00","2019","02","27","23:00","-12.4","","-18.7","","60","","","M","30","","3","","","M","101.13","","","","-14","","NA"
"-123.44","63.21","WRIGLEY A","2204005","2019-02-28 00:00","2019","02","28","00:00","-12.4","","-18.1","","63","","","M","31","","7","","","M","101.17","","","","-17","","NA"
"-123.44","63.21","WRIGLEY A","2204005","2019-02-28 01:00","2019","02","28","01:00","-16.4","","-18.9","","81","","","M","14","","5","","","M","101.21","","","","-20","","NA"
"-123.44","63.21","WRIGLEY A","2204005","2019-02-28 02:00","2019","02","28","02:00","-17.7","","-19.6","","86","","","M","22","","3","","","M","101.23","","","","-20","","NA"
"-123.44","63.21","WRIGLEY A","2204005","2019-02-28 03:00","2019","02","28","03:00","-20.1","","-22.6","","81","","","M","21","","2","","","M","101.26","","","","-22","","NA"
"-123.44","63.21","WRIGLEY A","2204005","2019-02-28 04:00","2019","02","28","04:00","-21.9","","-24.6","","80","","","M","8","","4","","","M","101.28","","","","-26","","NA"
"-123.44","63.21","WRIGLEY A","2204005","2019-02-28 05:00","2019","02","28","05:00","-22.6","","-25.2","","79","","","M","10","","1","","","M","101.31","","","","-24","","NA"
"-123.44","63.21","WRIGLEY A","2204005","2019-02-28 06:00","2019","02","28","06:00","-24.0","","-26.7","","79","","","M","31","","2","","","M","101.36","","","","-26","","NA"
"-123.44","63.21","WRIGLEY A","2204005","2019-02-28 07:00","2019","02","28","07:00","-22.8","","-24.8","","84","","","M","0","","1","","","M","101.41","","","","-24","","NA"
"-123.44","63.21","WRIGLEY A","2204005","2019-02-28 08:00","2019","02","28","08:00","-25.0","","-27.7","","79","","","M","","","0","","","M","101.49","","","","","","NA"
"-123.44","63.21","WRIGLEY A","2204005","2019-02-28 09:00","2019","02","28","09:00","-25.6","","-28.5","","77","","","M","22","","1","","","M","101.58","","","","-27","","NA"
"-123.44","63.21","WRIGLEY A","2204005","2019-02-28 10:00","2019","02","28","10:00","-23.9","","-26.8","","77","","","M","17","","2","","","M","101.67","","","","-26","","NA"
"-123.44","63.21","WRIGLEY A","2204005","2019-02-28 11:00","2019","02","28","11:00","-23.1","","-25.9","","78","","","M","19","","6","","","M","101.74","","","","-29","","NA"
"-123.44","63.21","WRIGLEY A","2204005","2019-02-28 12:00","2019","02","28","12:00","-19.3","","-22.8","","74","","","M","15","","5","","","M","101.79","","","","-23","","NA"
"-123.44","63.21","WRIGLEY A","2204005","2019-02-28 13:00","2019","02","28","13:00","-16.1","","-22.0","","61","","","M","14","","12","","","M","101.85","","","","-23","","NA"
"-123.44","63.21","WRIGLEY A","2204005","2019-02-28 14:00","2019","02","28","14:00","-15.2","","-22.4","","55","","","M","17","","10","","","M","101.88","","","","-21","","NA"
"-123.44","63.21","WRIGLEY A","2204005","2019-02-28 15:00","2019","02","28","15:00","-14.9","","-22.3","","54","","","M","17","","13","","","M","101.92","","","","-22","","NA"
"-123.44","63.21","WRIGLEY A","2204005","2019-02-28 16:00","2019","02","28","16:00","-15.2","","-22.5","","54","","","M","16","","14","","","M","101.98","","","","-23","","NA"
"-123.44","63.21","WRIGLEY A","2204005","2019-02-28 17:00","2019","02","28","17:00","-16.5","","-22.8","","59","","","M","15","","16","","","M","102.06","","","","-25","","NA"
"-123.44","63.21","WRIGLEY A","2204005","2019-02-28 18:00","2019","02","28","18:00","-17.0","","-23.3","","59","","","M","14","","14","","","M","102.13","","","","-25","","NA"
"-123.44","63.21","WRIGLEY A","2204005","2019-02-28 19:00","2019","02","28","19:00","-19.6","","-24.5","","66","","","M","16","","14","","","M","102.22","","","","-28","","NA"
"-123.44","63.21","WRIGLEY A","2204005","2019-02-28 20:00","2019","02","28","20:00","-20.1","","-24.6","","68","","","M","17","","13","","","M","102.33","","","","-29","","NA"
"-123.44","63.21","WRIGLEY A","2204005","2019-02-28 21:00","2019","02","28","21:00","-21.1","","-25.1","","71","","","M","15","","14","","","M","102.39","","","","-30","","NA"
"-123.44","63.21","WRIGLEY A","2204005","2019-02-28 22:00","2019","02","28","22:00","-22.4","","-26.1","","73","","","M","11","","8","","","M","102.45","","","","-29","","NA"
"-123.44","63.21","WRIGLEY A","2204005","2019-02-28 23:00","2019","02","28","23:00","-22.7","","-26.0","","75","","","M","12","","8","","","M","102.51","","","","-29","","NA"
