"Longitude (x)","Latitude (y)","Station Name","Climate ID","Date/Time (LST)","Year","Month","Day","Time (LST)","Temp (°C)","Temp Flag","Dew Point Temp (°C)","Dew Point Temp Flag","Rel Hum (%)","Rel Hum Flag","Precip. Amount (mm)","Precip. Amount Flag","Wind Dir (10s deg)","Wind Dir Flag","Wind Spd (km/h)","Wind Spd Flag","Visibility (km)","Visibility Flag","Stn Press (kPa)","Stn Press Flag","Hmdx","Hmdx Flag","Wind Chill","Wind Chill Flag","Weather"
"-62.28","82.52","ALERT A","2400302","2018-04-01 00:00","2018","04","01","00:00"
"-62.28","82.52","ALERT A","2400302","2018-04-01 01:00","2018","04","01","01:00"
"-62.28","82.52","ALERT A","2400302","2018-04-01 02:00","2018","04","01","02:00"
"-62.28","82.52","ALERT A","2400302","2018-04-01 03:00","2018","04","01","03:00"
"-62.28","82.52","ALERT A","2400302","2018-04-01 04:00","2018","04","01","04:00"
"-62.28","82.52","ALERT A","2400302","2018-04-01 05:00","2018","04","01","05:00"
"-62.28","82.52","ALERT A","2400302","2018-04-01 06:00","2018","04","01","06:00"
"-62.28","82.52","ALERT A","2400302","2018-04-01 07:00","2018","04","01","07:00"
"-62.28","82.52","ALERT A","2400302","2018-04-01 08:00","2018","04","01","08:00"
"-62.28","82.52","ALERT A","2400302","2018-04-01 09:00","2018","04","01","09:00"
"-62.28","82.52","ALERT A","2400302","2018-04-01 10:00","2018","04","01","10:00"
"-62.28","82.52","ALERT A","2400302","2018-04-01 11:00","2018","04","01","11:00"
"-62.28","82.52","ALERT A","2400302","2018-04-01 12:00","2018","04","01","12:00"
"-62.28","82.52","ALERT A","2400302","2018-04-01 13:00","2018","04","01","13:00"
"-62.28","82.52","ALERT A","2400302","2018-04-01 14:00","2018","04","01","14:00"
"-62.28","82.52","ALERT A","2400302","2018-04-01 15:00","2018","04","01","15:00"
"-62.28","82.52","ALERT A","2400302","2018-04-01 16:00","2018","04","01","16:00"
"-62.28","82.52","ALERT A","2400302","2018-04-01 17:00","2018","04","01","17:00"
"-62.28","82.52","ALERT A","2400302","2018-04-01 18:00","2018","04","01","18:00"
"-62.28","82.52","ALERT A","2400302","2018-04-01 19:00","2018","04","01","19:00"
"-62.28","82.52","ALERT A","2400302","2018-04-01 20:00","2018","04","01","20:00"
"-62.28","82.52","ALERT A","2400302","2018-04-01 21:00","2018","04","01","21:00"
"-62.28","82.52","ALERT A","2400302","2018-04-01 22:00","2018","04","01","22:00"
"-62.28","82.52","ALERT A","2400302","2018-04-01 23:00","2018","04","01","23:00"
"-62.28","82.52","ALERT A","2400302","2018-04-02 00:00","2018","04","02","00:00"
"-62.28","82.52","ALERT A","2400302","2018-04-02 01:00","2018","04","02","01:00"
"-62.28","82.52","ALERT A","2400302","2018-04-02 02:00","2018","04","02","02:00"
"-62.28","82.52","ALERT A","2400302","2018-04-02 03:00","2018","04","02","03:00"
"-62.28","82.52","ALERT A","2400302","2018-04-02 04:00","2018","04","02","04:00"
"-62.28","82.52","ALERT A","2400302","2018-04-02 05:00","2018","04","02","05:00"
"-62.28","82.52","ALERT A","2400302","2018-04-02 06:00","2018","04","02","06:00"
"-62.28","82.52","ALERT A","2400302","2018-04-02 07:00","2018","04","02","07:00"
"-62.28","82.52","ALERT A","2400302","2018-04-02 08:00","2018","04","02","08:00"
"-62.28","82.52","ALERT A","2400302","2018-04-02 09:00","2018","04","02","09:00"
"-62.28","82.52","ALERT A","2400302","2018-04-02 10:00","2018","04","02","10:00"
"-62.28","82.52","ALERT A","2400302","2018-04-02 11:00","2018","04","02","11:00"
"-62.28","82.52","ALERT A","2400302","2018-04-02 12:00","2018","04","02","12:00"
"-62.28","82.52","ALERT A","2400302","2018-04-02 13:00","2018","04","02","13:00"
"-62.28","82.52","ALERT A","2400302","2018-04-02 14:00","2018","04","02","14:00"
"-62.28","82.52","ALERT A","2400302","2018-04-02 15:00","2018","04","02","15:00"
"-62.28","82.52","ALERT A","2400302","2018-04-02 16:00","2018","04","02","16:00"
"-62.28","82.52","ALERT A","2400302","2018-04-02 17:00","2018","04","02","17:00"
"-62.28","82.52","ALERT A","2400302","2018-04-02 18:00","2018","04","02","18:00"
"-62.28","82.52","ALERT A","2400302","2018-04-02 19:00","2018","04","02","19:00"
"-62.28","82.52","ALERT A","2400302","2018-04-02 20:00","2018","04","02","20:00"
"-62.28","82.52","ALERT A","2400302","2018-04-02 21:00","2018","04","02","21:00"
"-62.28","82.52","ALERT A","2400302","2018-04-02 22:00","2018","04","02","22:00"
"-62.28","82.52","ALERT A","2400302","2018-04-02 23:00","2018","04","02","23:00"
"-62.28","82.52","ALERT A","2400302","2018-04-03 00:00","2018","04","03","00:00"
"-62.28","82.52","ALERT A","2400302","2018-04-03 01:00","2018","04","03","01:00"
"-62.28","82.52","ALERT A","2400302","2018-04-03 02:00","2018","04","03","02:00","-22.1","","-25.6","","73","","","","22","","11","","6.4","","102.88","","","","-30","","Fog"
"-62.28","82.52","ALERT A","2400302","2018-04-03 03:00","2018","04","03","03:00","-22.6","","-27.0","","67","","","","22","","11","","11.3","","102.88","","","","-31","","Snow"
"-62.28","82.52","ALERT A","2400302","2018-04-03 04:00","2018","04","03","04:00","-23.2","","-26.9","","72","","","","19","","4","","4.0","","102.91","","","","-27","","Snow,Fog"
"-62.28","82.52","ALERT A","2400302","2018-04-03 05:00","2018","04","03","05:00","-23.5","","-27.3","","71","","","","","","0","","8.0","","102.92","","","","","","Snow,Fog"
"-62.28","82.52","ALERT A","2400302","2018-04-03 06:00","2018","04","03","06:00","-24.0","","-27.7","","71","","","","","","0","","9.7","","102.95","","","","","","Snow"
"-62.28","82.52","ALERT A","2400302","2018-04-03 07:00","2018","04","03","07:00","-22.3","","-25.8","","73","","","","","","0","","3.2","","102.95","","","","","","Snow,Fog"
"-62.28","82.52","ALERT A","2400302","2018-04-03 08:00","2018","04","03","08:00","-21.5","","-25.3","","71","","","","","","0","","4.0","","102.97","","","","","","Snow,Fog"
"-62.28","82.52","ALERT A","2400302","2018-04-03 09:00","2018","04","03","09:00","-22.2","","-25.5","","74","","","","","","0","","3.6","","102.99","","","","","","Snow,Fog"
"-62.28","82.52","ALERT A","2400302","2018-04-03 10:00","2018","04","03","10:00","-22.7","","-26.5","","71","","","","34","","4","","4.8","","102.99","","","","-26","","Snow,Fog"
"-62.28","82.52","ALERT A","2400302","2018-04-03 11:00","2018","04","03","11:00","-23.2","","-26.8","","72","","","","36","","6","","6.4","","103.00","","","","-29","","Snow,Fog"
"-62.28","82.52","ALERT A","2400302","2018-04-03 12:00","2018","04","03","12:00","-23.4","","-27.1","","72","","","","2","","4","","6.4","","102.99","","","","-27","","Snow,Fog"
"-62.28","82.52","ALERT A","2400302","2018-04-03 13:00","2018","04","03","13:00","-25.7","","-28.9","","74","","","","21","","6","","9.7","","103.01","","","","-32","","Ice Crystals"
"-62.28","82.52","ALERT A","2400302","2018-04-03 14:00","2018","04","03","14:00","-24.5","","-28.4","","70","","","","34","","11","","4.8","","103.00","","","","-33","","Ice Crystals"
"-62.28","82.52","ALERT A","2400302","2018-04-03 15:00","2018","04","03","15:00","-24.1","","-27.9","","71","","","","36","","7","","4.8","","103.02","","","","-30","","Ice Crystals"
"-62.28","82.52","ALERT A","2400302","2018-04-03 16:00","2018","04","03","16:00"
"-62.28","82.52","ALERT A","2400302","2018-04-03 17:00","2018","04","03","17:00"
"-62.28","82.52","ALERT A","2400302","2018-04-03 18:00","2018","04","03","18:00"
"-62.28","82.52","ALERT A","2400302","2018-04-03 19:00","2018","04","03","19:00"
"-62.28","82.52","ALERT A","2400302","2018-04-03 20:00","2018","04","03","20:00"
"-62.28","82.52","ALERT A","2400302","2018-04-03 21:00","2018","04","03","21:00"
"-62.28","82.52","ALERT A","2400302","2018-04-03 22:00","2018","04","03","22:00"
"-62.28","82.52","ALERT A","2400302","2018-04-03 23:00","2018","04","03","23:00"
"-62.28","82.52","ALERT A","2400302","2018-04-04 00:00","2018","04","04","00:00"
"-62.28","82.52","ALERT A","2400302","2018-04-04 01:00","2018","04","04","01:00"
"-62.28","82.52","ALERT A","2400302","2018-04-04 02:00","2018","04","04","02:00"
"-62.28","82.52","ALERT A","2400302","2018-04-04 03:00","2018","04","04","03:00"
"-62.28","82.52","ALERT A","2400302","2018-04-04 04:00","2018","04","04","04:00","-31.9","","-36.6","","63","","","","33","","7","","11.3","","103.29","","","","-39","","Mostly Cloudy"
"-62.28","82.52","ALERT A","2400302","2018-04-04 05:00","2018","04","04","05:00","-32.5","","-36.6","","67","","","","29","","11","","4.0","","103.29","","","","-43","","Snow,Fog"
"-62.28","82.52","ALERT A","2400302","2018-04-04 06:00","2018","04","04","06:00","-32.5","","-36.5","","67","","","","28","","9","","6.4","","103.27","","","","-42","","Snow,Fog"
"-62.28","82.52","ALERT A","2400302","2018-04-04 07:00","2018","04","04","07:00","-31.8","","-35.9","","67","","","","32","","6","","14.5","","103.29","","","","-39","","Snow"
"-62.28","82.52","ALERT A","2400302","2018-04-04 08:00","2018","04","04","08:00","-31.2","","-35.5","","66","","","","31","","13","","4.8","","103.30","","","","-42","","Snow"
"-62.28","82.52","ALERT A","2400302","2018-04-04 09:00","2018","04","04","09:00","-30.7","","-35.0","","66","","","","32","","9","","2.0","","103.28","","","","-39","","Ice Crystals"
"-62.28","82.52","ALERT A","2400302","2018-04-04 10:00","2018","04","04","10:00","-30.4","","-34.8","","65","","","","31","","11","","2.0","","103.28","","","","-40","","Ice Crystals"
"-62.28","82.52","ALERT A","2400302","2018-04-04 11:00","2018","04","04","11:00","-29.9","","-34.2","","66","","","","33","","20","","2.0","","103.26","","","","-43","","Ice Crystals"
"-62.28","82.52","ALERT A","2400302","2018-04-04 12:00","2018","04","04","12:00","-29.6","","-33.9","","66","","","","33","","15","","2.0","","103.23","","","","-41","","Ice Crystals"
"-62.28","82.52","ALERT A","2400302","2018-04-04 13:00","2018","04","04","13:00","-29.1","","-33.5","","66","","","","33","","17","","2.0","","103.19","","","","-41","","Ice Crystals"
"-62.28","82.52","ALERT A","2400302","2018-04-04 14:00","2018","04","04","14:00","-29.3","","-33.5","","67","","","","32","","11","","4.8","","103.15","","","","-39","","Ice Crystals"
"-62.28","82.52","ALERT A","2400302","2018-04-04 15:00","2018","04","04","15:00","-28.7","","-32.9","","67","","","","34","","20","","4.8","","103.13","","","","-41","","Ice Crystals"
"-62.28","82.52","ALERT A","2400302","2018-04-04 16:00","2018","04","04","16:00"
"-62.28","82.52","ALERT A","2400302","2018-04-04 17:00","2018","04","04","17:00"
"-62.28","82.52","ALERT A","2400302","2018-04-04 18:00","2018","04","04","18:00"
"-62.28","82.52","ALERT A","2400302","2018-04-04 19:00","2018","04","04","19:00"
"-62.28","82.52","ALERT A","2400302","2018-04-04 20:00","2018","04","04","20:00"
"-62.28","82.52","ALERT A","2400302","2018-04-04 21:00","2018","04","04","21:00"
"-62.28","82.52","ALERT A","2400302","2018-04-04 22:00","2018","04","04","22:00"
"-62.28","82.52","ALERT A","2400302","2018-04-04 23:00","2018","04","04","23:00"
"-62.28","82.52","ALERT A","2400302","2018-04-05 00:00","2018","04","05","00:00"
"-62.28","82.52","ALERT A","2400302","2018-04-05 01:00","2018","04","05","01:00"
"-62.28","82.52","ALERT A","2400302","2018-04-05 02:00","2018","04","05","02:00"
"-62.28","82.52","ALERT A","2400302","2018-04-05 03:00","2018","04","05","03:00"
"-62.28","82.52","ALERT A","2400302","2018-04-05 04:00","2018","04","05","04:00","-29.2","","-33.4","","67","","","","34","","7","","4.8","","103.05","","","","-36","","Snow,Fog"
"-62.28","82.52","ALERT A","2400302","2018-04-05 05:00","2018","04","05","05:00","-30.4","","-34.6","","67","","","","17","","6","","8.0","","103.11","","","","-37","","Ice Crystals"
"-62.28","82.52","ALERT A","2400302","2018-04-05 06:00","2018","04","05","06:00","-30.1","","-34.6","","65","","","","14","","7","","19.3","","102.97","","","","-37","","Mainly Clear"
"-62.28","82.52","ALERT A","2400302","2018-04-05 07:00","2018","04","05","07:00","-30.6","","-35.2","","64","","","","14","","7","","24.1","","102.97","","","","-38","","Mostly Cloudy"
"-62.28","82.52","ALERT A","2400302","2018-04-05 08:00","2018","04","05","08:00","-30.2","","-34.4","","67","","","","15","","6","","14.5","","102.92","","","","-37","","Mostly Cloudy"
"-62.28","82.52","ALERT A","2400302","2018-04-05 09:00","2018","04","05","09:00","-29.7","","-34.2","","65","","","","13","","6","","19.3","","102.86","","","","-36","","Mostly Cloudy"
"-62.28","82.52","ALERT A","2400302","2018-04-05 10:00","2018","04","05","10:00","-29.8","","-34.4","","64","","","","14","","7","","19.3","","102.81","","","","-37","","Mainly Clear"
"-62.28","82.52","ALERT A","2400302","2018-04-05 11:00","2018","04","05","11:00","-29.2","","-33.9","","64","","","","14","","9","","14.5","","102.71","","","","-38","","Mainly Clear"
"-62.28","82.52","ALERT A","2400302","2018-04-05 12:00","2018","04","05","12:00","-29.6","","-34.1","","65","","","","12","","7","","24.1","","102.63","","","","-37","","Mainly Clear"
"-62.28","82.52","ALERT A","2400302","2018-04-05 13:00","2018","04","05","13:00","-29.1","","-33.4","","66","","","","12","","11","","24.1","","102.57","","","","-39","","Mostly Cloudy"
"-62.28","82.52","ALERT A","2400302","2018-04-05 14:00","2018","04","05","14:00","-29.0","","-33.4","","66","","","","13","","7","","24.1","","102.49","","","","-36","","Mostly Cloudy"
"-62.28","82.52","ALERT A","2400302","2018-04-05 15:00","2018","04","05","15:00","-28.9","","-33.2","","66","","","","15","","4","","24.1","","102.40","","","","-33","","Mostly Cloudy"
"-62.28","82.52","ALERT A","2400302","2018-04-05 16:00","2018","04","05","16:00"
"-62.28","82.52","ALERT A","2400302","2018-04-05 17:00","2018","04","05","17:00"
"-62.28","82.52","ALERT A","2400302","2018-04-05 18:00","2018","04","05","18:00"
"-62.28","82.52","ALERT A","2400302","2018-04-05 19:00","2018","04","05","19:00"
"-62.28","82.52","ALERT A","2400302","2018-04-05 20:00","2018","04","05","20:00"
"-62.28","82.52","ALERT A","2400302","2018-04-05 21:00","2018","04","05","21:00"
"-62.28","82.52","ALERT A","2400302","2018-04-05 22:00","2018","04","05","22:00"
"-62.28","82.52","ALERT A","2400302","2018-04-05 23:00","2018","04","05","23:00"
"-62.28","82.52","ALERT A","2400302","2018-04-06 00:00","2018","04","06","00:00"
"-62.28","82.52","ALERT A","2400302","2018-04-06 01:00","2018","04","06","01:00","-28.7","","-33.0","","66","","","","","","0","","19.3","","101.68","","","","","","Mostly Cloudy"
"-62.28","82.52","ALERT A","2400302","2018-04-06 02:00","2018","04","06","02:00","-28.1","","-32.4","","67","","","","","","0","","11.3","","101.64","","","","","","Snow"
"-62.28","82.52","ALERT A","2400302","2018-04-06 03:00","2018","04","06","03:00","-28.5","","-32.9","","66","","","","34","","6","","8.0","","101.61","","","","-35","","Snow,Fog"
"-62.28","82.52","ALERT A","2400302","2018-04-06 04:00","2018","04","06","04:00","-28.1","","-32.8","","64","","","","27","","4","","19.3","","101.59","","","","-32","","Mostly Cloudy"
"-62.28","82.52","ALERT A","2400302","2018-04-06 05:00","2018","04","06","05:00","-26.7","","-30.9","","68","","","","29","","13","","19.3","","101.59","","","","-37","","Mostly Cloudy"
"-62.28","82.52","ALERT A","2400302","2018-04-06 06:00","2018","04","06","06:00","-26.4","","-30.5","","68","","","","30","","9","","19.3","","101.60","","","","-34","","Mostly Cloudy"
"-62.28","82.52","ALERT A","2400302","2018-04-06 07:00","2018","04","06","07:00","-26.5","","-29.9","","73","","","","26","","6","","14.5","","101.64","","","","-32","","Snow"
"-62.28","82.52","ALERT A","2400302","2018-04-06 08:00","2018","04","06","08:00","-25.7","","-29.0","","74","","","","25","","6","","14.5","","101.65","","","","-32","","Mostly Cloudy"
"-62.28","82.52","ALERT A","2400302","2018-04-06 09:00","2018","04","06","09:00","-24.1","","-28.1","","69","","","","23","","11","","14.5","","101.63","","","","-33","","Snow Showers"
"-62.28","82.52","ALERT A","2400302","2018-04-06 10:00","2018","04","06","10:00","-24.6","","-28.1","","73","","","","26","","4","","14.5","","101.63","","","","-29","","Snow Showers"
"-62.28","82.52","ALERT A","2400302","2018-04-06 11:00","2018","04","06","11:00","-24.3","","-28.3","","69","","","","","","0","","14.5","","101.61","","","","","","Mostly Cloudy"
"-62.28","82.52","ALERT A","2400302","2018-04-06 12:00","2018","04","06","12:00","-23.6","","-27.4","","71","","","","","","0","","24.1","","101.62","","","","","","Mostly Cloudy"
"-62.28","82.52","ALERT A","2400302","2018-04-06 13:00","2018","04","06","13:00","-22.9","","-26.7","","71","","","","","","0","","24.1","","101.62","","","","","","Mainly Clear"
"-62.28","82.52","ALERT A","2400302","2018-04-06 14:00","2018","04","06","14:00","-23.2","","-27.8","","66","","","","","","0","","24.1","","101.62","","","","","","Mainly Clear"
"-62.28","82.52","ALERT A","2400302","2018-04-06 15:00","2018","04","06","15:00","-23.4","","-27.3","","70","","","","","","0","","24.1","","101.62","","","","","","Mainly Clear"
"-62.28","82.52","ALERT A","2400302","2018-04-06 16:00","2018","04","06","16:00"
"-62.28","82.52","ALERT A","2400302","2018-04-06 17:00","2018","04","06","17:00"
"-62.28","82.52","ALERT A","2400302","2018-04-06 18:00","2018","04","06","18:00"
"-62.28","82.52","ALERT A","2400302","2018-04-06 19:00","2018","04","06","19:00"
"-62.28","82.52","ALERT A","2400302","2018-04-06 20:00","2018","04","06","20:00"
"-62.28","82.52","ALERT A","2400302","2018-04-06 21:00","2018","04","06","21:00"
"-62.28","82.52","ALERT A","2400302","2018-04-06 22:00","2018","04","06","22:00"
"-62.28","82.52","ALERT A","2400302","2018-04-06 23:00","2018","04","06","23:00"
"-62.28","82.52","ALERT A","2400302","2018-04-07 00:00","2018","04","07","00:00"
"-62.28","82.52","ALERT A","2400302","2018-04-07 01:00","2018","04","07","01:00"
"-62.28","82.52","ALERT A","2400302","2018-04-07 02:00","2018","04","07","02:00"
"-62.28","82.52","ALERT A","2400302","2018-04-07 03:00","2018","04","07","03:00"
"-62.28","82.52","ALERT A","2400302","2018-04-07 04:00","2018","04","07","04:00"
"-62.28","82.52","ALERT A","2400302","2018-04-07 05:00","2018","04","07","05:00","-31.4","","-35.4","","68","","","","30","","15","","24.1","","101.54","","","","-43","","Mainly Clear"
"-62.28","82.52","ALERT A","2400302","2018-04-07 06:00","2018","04","07","06:00","-31.7","","-35.8","","67","","","","27","","13","","24.1","","101.52","","","","-43","","Mainly Clear"
"-62.28","82.52","ALERT A","2400302","2018-04-07 07:00","2018","04","07","07:00","-32.3","","-36.3","","68","","","","30","","13","","24.1","","101.53","","","","-43","","Mainly Clear"
"-62.28","82.52","ALERT A","2400302","2018-04-07 08:00","2018","04","07","08:00","-32.2","","-35.9","","70","","","","27","","11","","24.1","","101.55","","","","-42","","Mainly Clear"
"-62.28","82.52","ALERT A","2400302","2018-04-07 09:00","2018","04","07","09:00","-30.7","","-34.8","","67","","","","27","","17","","24.1","","101.52","","","","-43","","Mainly Clear"
"-62.28","82.52","ALERT A","2400302","2018-04-07 10:00","2018","04","07","10:00","-30.5","","-34.5","","68","","","","28","","13","","24.1","","101.51","","","","-41","","Mainly Clear"
"-62.28","82.52","ALERT A","2400302","2018-04-07 11:00","2018","04","07","11:00","-30.7","","-34.6","","69","","","","29","","15","","16.1","","101.48","","","","-42","","Mainly Clear"
"-62.28","82.52","ALERT A","2400302","2018-04-07 12:00","2018","04","07","12:00","-31.2","","-35.3","","67","","","","30","","15","","16.1","","101.46","","","","-43","","Mainly Clear"
"-62.28","82.52","ALERT A","2400302","2018-04-07 13:00","2018","04","07","13:00","-30.5","","-34.6","","67","","","","29","","19","","12.9","","101.47","","","","-43","","Mainly Clear"
"-62.28","82.52","ALERT A","2400302","2018-04-07 14:00","2018","04","07","14:00","-30.6","","-34.7","","67","","","","28","","15","","3.2","","101.47","","","","-42","","Ice Crystals"
"-62.28","82.52","ALERT A","2400302","2018-04-07 15:00","2018","04","07","15:00","-30.1","","-34.3","","67","","","","30","","13","","9.7","","101.50","","","","-41","","Ice Crystals"
"-62.28","82.52","ALERT A","2400302","2018-04-07 16:00","2018","04","07","16:00","-30.2","","-34.2","","68","","","","29","","13","","17.7","","101.51","","","","-41","","Mainly Clear"
"-62.28","82.52","ALERT A","2400302","2018-04-07 17:00","2018","04","07","17:00","-29.6","","-33.9","","66","","","","30","","11","","17.7","","101.52","","","","-39","","Mainly Clear"
"-62.28","82.52","ALERT A","2400302","2018-04-07 18:00","2018","04","07","18:00","-29.7","","-34.1","","66","","","","30","","11","","19.3","","101.55","","","","-39","","Mainly Clear"
"-62.28","82.52","ALERT A","2400302","2018-04-07 19:00","2018","04","07","19:00","-30.0","","-34.1","","67","","","","30","","15","","19.3","","101.57","","","","-41","","Mainly Clear"
"-62.28","82.52","ALERT A","2400302","2018-04-07 20:00","2018","04","07","20:00","-29.7","","-34.0","","66","","","","30","","15","","19.3","","101.56","","","","-41","","Mainly Clear"
"-62.28","82.52","ALERT A","2400302","2018-04-07 21:00","2018","04","07","21:00","-29.7","","-34.3","","64","","","","32","","11","","19.3","","101.60","","","","-39","","Mainly Clear"
"-62.28","82.52","ALERT A","2400302","2018-04-07 22:00","2018","04","07","22:00","-30.6","","-34.9","","66","","","","32","","9","","19.3","","101.60","","","","-39","","Mainly Clear"
"-62.28","82.52","ALERT A","2400302","2018-04-07 23:00","2018","04","07","23:00","-30.4","","-34.7","","66","","","","34","","4","","12.9","","101.63","","","","-35","","Mainly Clear"
"-62.28","82.52","ALERT A","2400302","2018-04-08 00:00","2018","04","08","00:00","-32.4","","-38.0","","57","","","","29","","6","","12.9","","101.65","","","","-39","","Mainly Clear"
"-62.28","82.52","ALERT A","2400302","2018-04-08 01:00","2018","04","08","01:00","-32.6","","-36.5","","68","","","","30","","4","","12.9","","101.65","","","","-37","","Mainly Clear"
"-62.28","82.52","ALERT A","2400302","2018-04-08 02:00","2018","04","08","02:00","-32.2","","-35.7","","71","","","","28","","6","","24.1","","101.67","","","","-39","","Mainly Clear"
"-62.28","82.52","ALERT A","2400302","2018-04-08 03:00","2018","04","08","03:00","-30.5","","-34.6","","67","","","","30","","9","","14.5","","101.66","","","","-39","","Mainly Clear"
"-62.28","82.52","ALERT A","2400302","2018-04-08 04:00","2018","04","08","04:00","-30.3","","-34.5","","67","","","","29","","9","","14.5","","101.65","","","","-39","","Mostly Cloudy"
"-62.28","82.52","ALERT A","2400302","2018-04-08 05:00","2018","04","08","05:00","-30.3","","-34.9","","64","","","","30","","6","","24.1","","101.63","","","","-37","","Mostly Cloudy"
"-62.28","82.52","ALERT A","2400302","2018-04-08 06:00","2018","04","08","06:00","-31.5","","-35.1","","70","","","","32","","6","","24.1","","101.63","","","","-38","","Mostly Cloudy"
"-62.28","82.52","ALERT A","2400302","2018-04-08 07:00","2018","04","08","07:00","-32.3","","-36.4","","67","","","","","","0","","24.1","","101.60","","","","","","Mainly Clear"
"-62.28","82.52","ALERT A","2400302","2018-04-08 08:00","2018","04","08","08:00","-31.5","","-35.1","","70","","","","34","","11","","24.1","","101.60","","","","-41","","Mainly Clear"
"-62.28","82.52","ALERT A","2400302","2018-04-08 09:00","2018","04","08","09:00","-30.3","","-34.7","","65","","","","","","0","","24.1","","101.55","","","","","","Mainly Clear"
"-62.28","82.52","ALERT A","2400302","2018-04-08 10:00","2018","04","08","10:00","-30.5","","-34.8","","66","","","","16","","4","","24.1","","101.51","","","","-35","","Mainly Clear"
"-62.28","82.52","ALERT A","2400302","2018-04-08 11:00","2018","04","08","11:00","-27.2","","-30.9","","71","","","","19","","4","","24.1","","101.49","","","","-31","","Mainly Clear"
"-62.28","82.52","ALERT A","2400302","2018-04-08 12:00","2018","04","08","12:00","-29.3","","-33.0","","70","","","","19","","4","","24.1","","101.47","","","","-34","","Mainly Clear"
"-62.28","82.52","ALERT A","2400302","2018-04-08 13:00","2018","04","08","13:00","-29.3","","-33.5","","67","","","","","","0","","24.1","","101.40","","","","","","Mainly Clear"
"-62.28","82.52","ALERT A","2400302","2018-04-08 14:00","2018","04","08","14:00","-29.0","","-32.3","","73","","","","","","0","","24.1","","101.38","","","","","","Mainly Clear"
"-62.28","82.52","ALERT A","2400302","2018-04-08 15:00","2018","04","08","15:00","-29.1","","-33.4","","66","","","","16","","4","","24.1","","101.32","","","","-34","","Mainly Clear"
"-62.28","82.52","ALERT A","2400302","2018-04-08 16:00","2018","04","08","16:00","-29.1","","-32.9","","70","","","","","","0","","24.1","","101.27","","","","","","Mainly Clear"
"-62.28","82.52","ALERT A","2400302","2018-04-08 17:00","2018","04","08","17:00","-29.2","","-33.3","","68","","","","11","","6","","24.1","","101.21","","","","-36","","Clear"
"-62.28","82.52","ALERT A","2400302","2018-04-08 18:00","2018","04","08","18:00","-30.2","","-34.5","","66","","","","13","","6","","24.1","","101.16","","","","-37","","Clear"
"-62.28","82.52","ALERT A","2400302","2018-04-08 19:00","2018","04","08","19:00","-29.6","","-33.8","","67","","","","17","","4","","24.1","","101.07","","","","-34","","Clear"
"-62.28","82.52","ALERT A","2400302","2018-04-08 20:00","2018","04","08","20:00","-32.3","","-36.5","","66","","","","34","","9","","24.1","","101.01","","","","-41","","Clear"
"-62.28","82.52","ALERT A","2400302","2018-04-08 21:00","2018","04","08","21:00","-29.4","","-32.9","","72","","","","15","","6","","24.1","","100.94","","","","-36","","Clear"
"-62.28","82.52","ALERT A","2400302","2018-04-08 22:00","2018","04","08","22:00","-30.9","","-35.4","","65","","","","","","0","","24.1","","100.87","","","","","","Clear"
"-62.28","82.52","ALERT A","2400302","2018-04-08 23:00","2018","04","08","23:00","-29.8","","-33.6","","69","","","","16","","6","","24.1","","100.75","","","","-36","","Clear"
"-62.28","82.52","ALERT A","2400302","2018-04-09 00:00","2018","04","09","00:00","-31.5","","-35.2","","70","","","","18","","4","","24.1","","100.66","","","","-36","","Mainly Clear"
"-62.28","82.52","ALERT A","2400302","2018-04-09 01:00","2018","04","09","01:00","-33.5","","-37.7","","66","","","","","","0","","24.1","","100.57","","","","","","Mainly Clear"
"-62.28","82.52","ALERT A","2400302","2018-04-09 02:00","2018","04","09","02:00","-30.9","","-35.4","","65","","","","33","","6","","24.1","","100.54","","","","-38","","Mainly Clear"
"-62.28","82.52","ALERT A","2400302","2018-04-09 03:00","2018","04","09","03:00","-31.4","","-35.1","","70","","","","30","","19","","24.1","","100.53","","","","-45","","Mainly Clear"
"-62.28","82.52","ALERT A","2400302","2018-04-09 04:00","2018","04","09","04:00","-28.9","","-33.1","","67","","","","31","","4","","24.1","","100.53","","","","-33","","Mostly Cloudy"
"-62.28","82.52","ALERT A","2400302","2018-04-09 05:00","2018","04","09","05:00","-25.1","","-29.3","","68","","","","19","","7","","24.1","","100.47","","","","-32","","Mostly Cloudy"
"-62.28","82.52","ALERT A","2400302","2018-04-09 06:00","2018","04","09","06:00","-27.2","","-30.7","","72","","","","16","","6","","24.1","","100.46","","","","-33","","Mostly Cloudy"
"-62.28","82.52","ALERT A","2400302","2018-04-09 07:00","2018","04","09","07:00","-26.2","","-30.0","","70","","","","","","0","","24.1","","100.44","","","","","","Mostly Cloudy"
"-62.28","82.52","ALERT A","2400302","2018-04-09 08:00","2018","04","09","08:00","-25.9","","-29.7","","70","","","","12","","7","","24.1","","100.43","","","","-33","","Snow"
"-62.28","82.52","ALERT A","2400302","2018-04-09 09:00","2018","04","09","09:00","-24.3","","-27.9","","72","","","","12","","6","","8.0","","100.42","","","","-30","","Snow"
"-62.28","82.52","ALERT A","2400302","2018-04-09 10:00","2018","04","09","10:00","-23.1","","-26.7","","72","","","","11","","6","","4.8","","100.43","","","","-29","","Snow"
"-62.28","82.52","ALERT A","2400302","2018-04-09 11:00","2018","04","09","11:00","-22.6","","-26.3","","72","","","","10","","4","","2.0","","100.42","","","","-26","","Snow"
"-62.28","82.52","ALERT A","2400302","2018-04-09 12:00","2018","04","09","12:00","-23.6","","-27.2","","72","","","","34","","6","","3.2","","100.45","","","","-29","","Snow"
"-62.28","82.52","ALERT A","2400302","2018-04-09 13:00","2018","04","09","13:00","-24.2","","-27.8","","72","","","","31","","9","","2.0","","100.50","","","","-32","","Snow"
"-62.28","82.52","ALERT A","2400302","2018-04-09 14:00","2018","04","09","14:00","-24.0","","-27.7","","71","","","","27","","4","","8.0","","100.55","","","","-28","","Snow"
"-62.28","82.52","ALERT A","2400302","2018-04-09 15:00","2018","04","09","15:00","-23.9","","-27.6","","71","","","","26","","4","","4.0","","100.59","","","","-28","","Snow"
"-62.28","82.52","ALERT A","2400302","2018-04-09 16:00","2018","04","09","16:00","-23.8","","-27.5","","71","","","","33","","4","","6.4","","100.67","","","","-28","","Snow"
"-62.28","82.52","ALERT A","2400302","2018-04-09 17:00","2018","04","09","17:00","-23.9","","-28.0","","69","","","","","","0","","6.4","","100.75","","","","","","Ice Crystals"
"-62.28","82.52","ALERT A","2400302","2018-04-09 18:00","2018","04","09","18:00","-26.0","","-30.3","","67","","","","32","","9","","4.8","","100.84","","","","-34","","Ice Crystals"
"-62.28","82.52","ALERT A","2400302","2018-04-09 19:00","2018","04","09","19:00","-25.5","","-29.7","","68","","","","30","","4","","8.0","","100.94","","","","-30","","Ice Crystals"
"-62.28","82.52","ALERT A","2400302","2018-04-09 20:00","2018","04","09","20:00","-26.6","","-30.5","","70","","","","35","","4","","8.0","","101.05","","","","-31","","Ice Crystals"
"-62.28","82.52","ALERT A","2400302","2018-04-09 21:00","2018","04","09","21:00","-27.7","","-32.0","","67","","","","","","0","","12.9","","101.13","","","","","","Mainly Clear"
"-62.28","82.52","ALERT A","2400302","2018-04-09 22:00","2018","04","09","22:00","-28.0","","-32.1","","68","","","","","","0","","12.9","","101.24","","","","","","Mainly Clear"
"-62.28","82.52","ALERT A","2400302","2018-04-09 23:00","2018","04","09","23:00","-29.3","","-33.7","","66","","","","17","","6","","12.9","","101.28","","","","-36","","Mainly Clear"
"-62.28","82.52","ALERT A","2400302","2018-04-10 00:00","2018","04","10","00:00","-29.8","","-34.2","","66","","","","18","","7","","12.9","","101.35","","","","-37","","Mainly Clear"
"-62.28","82.52","ALERT A","2400302","2018-04-10 01:00","2018","04","10","01:00","-31.8","","-36.0","","66","","","","16","","9","","19.3","","101.39","","","","-41","","Mainly Clear"
"-62.28","82.52","ALERT A","2400302","2018-04-10 02:00","2018","04","10","02:00","-30.9","","-35.7","","63","","","","13","","6","","19.3","","101.43","","","","-38","","Mainly Clear"
"-62.28","82.52","ALERT A","2400302","2018-04-10 03:00","2018","04","10","03:00","-30.6","","-35.0","","65","","","","14","","7","","19.3","","101.47","","","","-38","","Mainly Clear"
"-62.28","82.52","ALERT A","2400302","2018-04-10 04:00","2018","04","10","04:00","-30.7","","-34.3","","71","","","","16","","9","","24.1","","101.50","","","","-39","","Mainly Clear"
"-62.28","82.52","ALERT A","2400302","2018-04-10 05:00","2018","04","10","05:00","-29.8","","-34.0","","67","","","","11","","4","","24.1","","101.54","","","","-34","","Mainly Clear"
"-62.28","82.52","ALERT A","2400302","2018-04-10 06:00","2018","04","10","06:00","-32.3","","-36.7","","65","","","","1","","4","","24.1","","101.54","","","","-37","","Mainly Clear"
"-62.28","82.52","ALERT A","2400302","2018-04-10 07:00","2018","04","10","07:00","-31.8","","-36.2","","65","","","","","","0","","24.1","","101.55","","","","","","Mainly Clear"
"-62.28","82.52","ALERT A","2400302","2018-04-10 08:00","2018","04","10","08:00","-31.0","","-35.2","","66","","","","20","","4","","24.1","","101.49","","","","-36","","Mainly Clear"
"-62.28","82.52","ALERT A","2400302","2018-04-10 09:00","2018","04","10","09:00","-30.4","","-34.7","","66","","","","16","","6","","24.1","","101.47","","","","-37","","Mainly Clear"
"-62.28","82.52","ALERT A","2400302","2018-04-10 10:00","2018","04","10","10:00","-30.9","","-35.1","","67","","","","19","","6","","24.1","","101.43","","","","-38","","Mainly Clear"
"-62.28","82.52","ALERT A","2400302","2018-04-10 11:00","2018","04","10","11:00","-31.6","","-36.5","","62","","","","33","","6","","24.1","","101.41","","","","-38","","Mostly Cloudy"
"-62.28","82.52","ALERT A","2400302","2018-04-10 12:00","2018","04","10","12:00","-28.4","","-32.5","","68","","","","22","","6","","24.1","","101.32","","","","-35","","Mostly Cloudy"
"-62.28","82.52","ALERT A","2400302","2018-04-10 13:00","2018","04","10","13:00","-29.6","","-33.6","","68","","","","","","0","","24.1","","101.27","","","","","","Mostly Cloudy"
"-62.28","82.52","ALERT A","2400302","2018-04-10 14:00","2018","04","10","14:00","-28.4","","-32.8","","66","","","","","","0","","24.1","","101.20","","","","","","Mainly Clear"
"-62.28","82.52","ALERT A","2400302","2018-04-10 15:00","2018","04","10","15:00","-28.6","","-33.8","","61","","","","21","","4","","24.1","","101.12","","","","-33","","Mainly Clear"
"-62.28","82.52","ALERT A","2400302","2018-04-10 16:00","2018","04","10","16:00","-28.8","","-33.9","","61","","","","33","","4","","24.1","","101.08","","","","-33","","Mainly Clear"
"-62.28","82.52","ALERT A","2400302","2018-04-10 17:00","2018","04","10","17:00","-31.8","","-36.7","","62","","","","34","","6","","24.1","","101.04","","","","-39","","Mainly Clear"
"-62.28","82.52","ALERT A","2400302","2018-04-10 18:00","2018","04","10","18:00","-29.7","","-34.3","","64","","","","16","","7","","24.1","","100.96","","","","-37","","Mainly Clear"
"-62.28","82.52","ALERT A","2400302","2018-04-10 19:00","2018","04","10","19:00","-29.1","","-34.2","","61","","","","2","","4","","24.1","","100.90","","","","-34","","Mainly Clear"
"-62.28","82.52","ALERT A","2400302","2018-04-10 20:00","2018","04","10","20:00","-27.7","","-33.1","","60","","","","19","","7","","24.1","","100.82","","","","-35","","Mainly Clear"
"-62.28","82.52","ALERT A","2400302","2018-04-10 21:00","2018","04","10","21:00","-26.8","","-31.6","","64","","","","17","","9","","24.1","","100.73","","","","-35","","Mainly Clear"
"-62.28","82.52","ALERT A","2400302","2018-04-10 22:00","2018","04","10","22:00","-25.0","","-29.5","","66","","","","20","","7","","24.1","","100.65","","","","-31","","Mainly Clear"
"-62.28","82.52","ALERT A","2400302","2018-04-10 23:00","2018","04","10","23:00","-27.0","","-32.3","","61","","","","17","","7","","24.1","","100.58","","","","-34","","Mainly Clear"
"-62.28","82.52","ALERT A","2400302","2018-04-11 00:00","2018","04","11","00:00","-23.6","","-29.4","","59","","","","18","","6","","24.1","","100.49","","","","-29","","Mainly Clear"
"-62.28","82.52","ALERT A","2400302","2018-04-11 01:00","2018","04","11","01:00","-24.1","","-30.1","","58","","","","19","","4","","24.1","","100.42","","","","-28","","Mainly Clear"
"-62.28","82.52","ALERT A","2400302","2018-04-11 02:00","2018","04","11","02:00","-23.3","","-27.6","","68","","","","18","","11","","24.1","","100.34","","","","-32","","Mainly Clear"
"-62.28","82.52","ALERT A","2400302","2018-04-11 03:00","2018","04","11","03:00","-21.5","","-28.3","","54","","","","18","","9","","24.1","","100.27","","","","-29","","Mainly Clear"
"-62.28","82.52","ALERT A","2400302","2018-04-11 04:00","2018","04","11","04:00","-28.9","","-33.2","","66","","","","30","","15","","24.1","","100.25","","","","-40","","Mainly Clear"
"-62.28","82.52","ALERT A","2400302","2018-04-11 05:00","2018","04","11","05:00","-27.9","","-32.5","","65","","","","29","","17","","24.1","","100.25","","","","-40","","Mainly Clear"
"-62.28","82.52","ALERT A","2400302","2018-04-11 06:00","2018","04","11","06:00","-27.9","","-32.9","","62","","","","28","","7","","24.1","","100.22","","","","-35","","Mainly Clear"
"-62.28","82.52","ALERT A","2400302","2018-04-11 07:00","2018","04","11","07:00","-26.9","","-31.5","","65","","","","33","","6","","24.1","","100.19","","","","-33","","Mainly Clear"
"-62.28","82.52","ALERT A","2400302","2018-04-11 08:00","2018","04","11","08:00","-26.2","","-30.5","","67","","","","","","0","","24.1","","100.16","","","","","","Mainly Clear"
"-62.28","82.52","ALERT A","2400302","2018-04-11 09:00","2018","04","11","09:00","-22.9","","-27.5","","66","","","","29","","17","","24.1","","100.11","","","","-33","","Mostly Cloudy"
"-62.28","82.52","ALERT A","2400302","2018-04-11 10:00","2018","04","11","10:00","-24.3","","-28.4","","69","","","","24","","9","","24.1","","100.09","","","","-32","","Mostly Cloudy"
"-62.28","82.52","ALERT A","2400302","2018-04-11 11:00","2018","04","11","11:00","-23.1","","-27.4","","68","","","","24","","9","","24.1","","100.05","","","","-30","","Mostly Cloudy"
"-62.28","82.52","ALERT A","2400302","2018-04-11 12:00","2018","04","11","12:00","-21.6","","-26.1","","67","","","","23","","7","","24.1","","100.00","","","","-28","","Mostly Cloudy"
"-62.28","82.52","ALERT A","2400302","2018-04-11 13:00","2018","04","11","13:00","-22.3","","-27.0","","66","","","","","","0","","24.1","","99.95","","","","","","Mostly Cloudy"
"-62.28","82.52","ALERT A","2400302","2018-04-11 14:00","2018","04","11","14:00","-22.8","","-28.1","","62","","","","19","","4","","24.1","","99.94","","","","-27","","Mostly Cloudy"
"-62.28","82.52","ALERT A","2400302","2018-04-11 15:00","2018","04","11","15:00","-23.5","","-27.7","","68","","","","16","","6","","24.1","","99.93","","","","-29","","Mostly Cloudy"
"-62.28","82.52","ALERT A","2400302","2018-04-11 16:00","2018","04","11","16:00","-23.1","","-27.4","","68","","","","","","0","","24.1","","99.93","","","","","","Mostly Cloudy"
"-62.28","82.52","ALERT A","2400302","2018-04-11 17:00","2018","04","11","17:00","-22.8","","-26.8","","70","","","","","","0","","19.3","","99.93","","","","","","Snow"
"-62.28","82.52","ALERT A","2400302","2018-04-11 18:00","2018","04","11","18:00","-22.8","","-26.5","","72","","","","16","","4","","19.3","","99.93","","","","-27","","Snow"
"-62.28","82.52","ALERT A","2400302","2018-04-11 19:00","2018","04","11","19:00","-23.4","","-27.1","","72","","","","16","","4","","24.1","","99.92","","","","-27","","Mostly Cloudy"
"-62.28","82.52","ALERT A","2400302","2018-04-11 20:00","2018","04","11","20:00","-25.7","","-30.1","","67","","","","","","0","","24.1","","99.91","","","","","","Mostly Cloudy"
"-62.28","82.52","ALERT A","2400302","2018-04-11 21:00","2018","04","11","21:00","-26.7","","-30.8","","68","","","","35","","6","","24.1","","99.91","","","","-33","","Mostly Cloudy"
"-62.28","82.52","ALERT A","2400302","2018-04-11 22:00","2018","04","11","22:00","-25.4","","-29.4","","69","","","","32","","4","","24.1","","99.92","","","","-29","","Mostly Cloudy"
"-62.28","82.52","ALERT A","2400302","2018-04-11 23:00","2018","04","11","23:00","-25.5","","-29.4","","70","","","","33","","4","","19.3","","99.94","","","","-30","","Snow"
"-62.28","82.52","ALERT A","2400302","2018-04-12 00:00","2018","04","12","00:00","-27.7","","-31.9","","67","","","","34","","4","","19.3","","99.94","","","","-32","","Snow"
"-62.28","82.52","ALERT A","2400302","2018-04-12 01:00","2018","04","12","01:00","-29.0","","-33.0","","68","","","","29","","7","","24.1","","99.95","","","","-36","","Mainly Clear"
"-62.28","82.52","ALERT A","2400302","2018-04-12 02:00","2018","04","12","02:00","-27.9","","-32.1","","67","","","","31","","6","","24.1","","99.97","","","","-34","","Mainly Clear"
"-62.28","82.52","ALERT A","2400302","2018-04-12 03:00","2018","04","12","03:00","-29.9","","-33.8","","69","","","","29","","7","","24.1","","99.99","","","","-37","","Mainly Clear"
"-62.28","82.52","ALERT A","2400302","2018-04-12 04:00","2018","04","12","04:00","-28.6","","-32.0","","72","","","","28","","4","","24.1","","100.01","","","","-33","","Mostly Cloudy"
"-62.28","82.52","ALERT A","2400302","2018-04-12 05:00","2018","04","12","05:00","-28.9","","-32.8","","69","","","","29","","9","","24.1","","100.03","","","","-37","","Mostly Cloudy"
"-62.28","82.52","ALERT A","2400302","2018-04-12 06:00","2018","04","12","06:00","-27.0","","-30.6","","71","","","","28","","9","","24.1","","100.05","","","","-35","","Mostly Cloudy"
"-62.28","82.52","ALERT A","2400302","2018-04-12 07:00","2018","04","12","07:00","-27.5","","-31.0","","72","","","","","","0","","24.1","","100.07","","","","","","Mostly Cloudy"
"-62.28","82.52","ALERT A","2400302","2018-04-12 08:00","2018","04","12","08:00","-26.9","","-30.7","","70","","","","18","","4","","24.1","","100.07","","","","-31","","Mostly Cloudy"
"-62.28","82.52","ALERT A","2400302","2018-04-12 09:00","2018","04","12","09:00","-28.0","","-31.7","","71","","","","16","","4","","24.1","","100.08","","","","-32","","Mostly Cloudy"
"-62.28","82.52","ALERT A","2400302","2018-04-12 10:00","2018","04","12","10:00","-28.0","","-32.0","","69","","","","","","0","","24.1","","100.11","","","","","","Mostly Cloudy"
"-62.28","82.52","ALERT A","2400302","2018-04-12 11:00","2018","04","12","11:00","-27.5","","-31.1","","71","","","","19","","6","","24.1","","100.13","","","","-34","","Mostly Cloudy"
"-62.28","82.52","ALERT A","2400302","2018-04-12 12:00","2018","04","12","12:00","-27.6","","-31.8","","67","","","","35","","4","","24.1","","100.11","","","","-32","","Cloudy"
"-62.28","82.52","ALERT A","2400302","2018-04-12 13:00","2018","04","12","13:00","-26.9","","-30.9","","69","","","","32","","6","","24.1","","100.12","","","","-33","","Cloudy"
"-62.28","82.52","ALERT A","2400302","2018-04-12 14:00","2018","04","12","14:00","-26.6","","-30.9","","67","","","","","","0","","24.1","","100.11","","","","","","Cloudy"
"-62.28","82.52","ALERT A","2400302","2018-04-12 15:00","2018","04","12","15:00","-26.0","","-30.1","","68","","","","","","0","","24.1","","100.13","","","","","","Mostly Cloudy"
"-62.28","82.52","ALERT A","2400302","2018-04-12 16:00","2018","04","12","16:00","-27.0","","-31.8","","64","","","","23","","4","","24.1","","100.11","","","","-31","","Mostly Cloudy"
"-62.28","82.52","ALERT A","2400302","2018-04-12 17:00","2018","04","12","17:00","-27.0","","-30.3","","74","","","","32","","7","","24.1","","100.15","","","","-34","","Mostly Cloudy"
"-62.28","82.52","ALERT A","2400302","2018-04-12 18:00","2018","04","12","18:00","-27.3","","-31.0","","71","","","","30","","13","","24.1","","100.17","","","","-37","","Mostly Cloudy"
"-62.28","82.52","ALERT A","2400302","2018-04-12 19:00","2018","04","12","19:00","-26.1","","-30.0","","70","","","","32","","20","","19.3","","100.21","","","","-38","","Cloudy"
"-62.28","82.52","ALERT A","2400302","2018-04-12 20:00","2018","04","12","20:00","-25.9","","-29.7","","70","","","","33","","13","","19.3","","100.30","","","","-36","","Mostly Cloudy"
"-62.28","82.52","ALERT A","2400302","2018-04-12 21:00","2018","04","12","21:00","-26.6","","-30.4","","70","","","","31","","7","","19.3","","100.35","","","","-33","","Mostly Cloudy"
"-62.28","82.52","ALERT A","2400302","2018-04-12 22:00","2018","04","12","22:00","-27.5","","-31.6","","68","","","","29","","13","","19.3","","100.39","","","","-38","","Mostly Cloudy"
"-62.28","82.52","ALERT A","2400302","2018-04-12 23:00","2018","04","12","23:00","-26.6","","-30.6","","69","","","","27","","6","","24.1","","100.46","","","","-33","","Mostly Cloudy"
"-62.28","82.52","ALERT A","2400302","2018-04-13 00:00","2018","04","13","00:00","-27.5","","-31.3","","70","","","","25","","6","","24.1","","100.51","","","","-34","","Mostly Cloudy"
"-62.28","82.52","ALERT A","2400302","2018-04-13 01:00","2018","04","13","01:00","-27.0","","-31.3","","67","","","","","","0","","24.1","","100.53","","","","","","Mostly Cloudy"
"-62.28","82.52","ALERT A","2400302","2018-04-13 02:00","2018","04","13","02:00","-27.7","","-31.8","","68","","","","15","","6","","24.1","","100.59","","","","-34","","Mostly Cloudy"
"-62.28","82.52","ALERT A","2400302","2018-04-13 03:00","2018","04","13","03:00","-28.7","","-32.8","","68","","","","20","","6","","24.1","","100.59","","","","-35","","Mostly Cloudy"
"-62.28","82.52","ALERT A","2400302","2018-04-13 04:00","2018","04","13","04:00","-28.0","","-32.0","","69","","","","25","","6","","24.1","","100.62","","","","-34","","Mostly Cloudy"
"-62.28","82.52","ALERT A","2400302","2018-04-13 05:00","2018","04","13","05:00","-28.2","","-32.5","","67","","","","19","","6","","24.1","","100.65","","","","-34","","Mostly Cloudy"
"-62.28","82.52","ALERT A","2400302","2018-04-13 06:00","2018","04","13","06:00","-28.0","","-32.2","","67","","","","24","","4","","24.1","","100.69","","","","-32","","Mostly Cloudy"
"-62.28","82.52","ALERT A","2400302","2018-04-13 07:00","2018","04","13","07:00","-27.6","","-31.4","","70","","","","19","","6","","24.1","","100.70","","","","-34","","Mostly Cloudy"
"-62.28","82.52","ALERT A","2400302","2018-04-13 08:00","2018","04","13","08:00","-29.7","","-33.5","","69","","","","28","","7","","24.1","","100.71","","","","-37","","Mostly Cloudy"
"-62.28","82.52","ALERT A","2400302","2018-04-13 09:00","2018","04","13","09:00","-28.0","","-31.5","","72","","","","26","","4","","24.1","","100.72","","","","-32","","Mostly Cloudy"
"-62.28","82.52","ALERT A","2400302","2018-04-13 10:00","2018","04","13","10:00","-28.1","","-31.6","","72","","","","26","","4","","24.1","","100.74","","","","-32","","Mainly Clear"
"-62.28","82.52","ALERT A","2400302","2018-04-13 11:00","2018","04","13","11:00","-26.4","","-29.8","","73","","","","","","0","","24.1","","100.77","","","","","","Mainly Clear"
"-62.28","82.52","ALERT A","2400302","2018-04-13 12:00","2018","04","13","12:00","-27.1","","-31.5","","66","","","","","","0","","24.1","","100.77","","","","","","Mainly Clear"
"-62.28","82.52","ALERT A","2400302","2018-04-13 13:00","2018","04","13","13:00","-27.2","","-30.7","","72","","","","31","","4","","24.1","","100.79","","","","-31","","Mainly Clear"
"-62.28","82.52","ALERT A","2400302","2018-04-13 14:00","2018","04","13","14:00","-27.8","","-31.2","","73","","","","","","0","","24.1","","100.77","","","","","","Mainly Clear"
"-62.28","82.52","ALERT A","2400302","2018-04-13 15:00","2018","04","13","15:00","-26.6","","-30.2","","72","","","","","","0","","24.1","","100.79","","","","","","Mainly Clear"
"-62.28","82.52","ALERT A","2400302","2018-04-13 16:00","2018","04","13","16:00","-28.8","","-32.6","","70","","","","","","0","","24.1","","100.80","","","","","","Mainly Clear"
"-62.28","82.52","ALERT A","2400302","2018-04-13 17:00","2018","04","13","17:00","-28.2","","-32.2","","69","","","","33","","7","","24.1","","100.81","","","","-35","","Mainly Clear"
"-62.28","82.52","ALERT A","2400302","2018-04-13 18:00","2018","04","13","18:00","-27.9","","-31.6","","71","","","","","","0","","24.1","","100.84","","","","","","Mainly Clear"
"-62.28","82.52","ALERT A","2400302","2018-04-13 19:00","2018","04","13","19:00","-28.3","","-31.8","","72","","","","30","","4","","24.1","","100.82","","","","-33","","Mainly Clear"
"-62.28","82.52","ALERT A","2400302","2018-04-13 20:00","2018","04","13","20:00","-28.6","","-33.4","","63","","","","30","","6","","24.1","","100.82","","","","-35","","Mainly Clear"
"-62.28","82.52","ALERT A","2400302","2018-04-13 21:00","2018","04","13","21:00","-29.2","","-33.9","","64","","","","34","","6","","24.1","","100.80","","","","-36","","Mainly Clear"
"-62.28","82.52","ALERT A","2400302","2018-04-13 22:00","2018","04","13","22:00","-30.5","","-34.9","","65","","","","","","0","","24.1","","100.79","","","","","","Mainly Clear"
"-62.28","82.52","ALERT A","2400302","2018-04-13 23:00","2018","04","13","23:00","-28.4","","-32.0","","71","","","","26","","4","","24.1","","100.75","","","","-33","","Mainly Clear"
"-62.28","82.52","ALERT A","2400302","2018-04-14 00:00","2018","04","14","00:00","-28.1","","-32.1","","69","","","","22","","11","","24.1","","100.71","","","","-37","","Mainly Clear"
"-62.28","82.52","ALERT A","2400302","2018-04-14 01:00","2018","04","14","01:00","-21.4","","-25.4","","70","","","","23","","20","","24.1","","100.66","","","","-32","","Mostly Cloudy"
"-62.28","82.52","ALERT A","2400302","2018-04-14 02:00","2018","04","14","02:00","-18.3","","-22.1","","72","","","","22","","41","","24.1","","100.60","","","","-32","","Mostly Cloudy"
"-62.28","82.52","ALERT A","2400302","2018-04-14 03:00","2018","04","14","03:00","-17.7","","-22.4","","67","","","","23","","15","","24.1","","100.60","","","","-26","","Mostly Cloudy"
"-62.28","82.52","ALERT A","2400302","2018-04-14 04:00","2018","04","14","04:00","-16.2","","-20.0","","72","","","","22","","33","","12.9","","100.53","","","","-28","","Mostly Cloudy"
"-62.28","82.52","ALERT A","2400302","2018-04-14 05:00","2018","04","14","05:00","-15.5","","-20.4","","66","","","","23","","30","","12.9","","100.52","","","","-27","","Mostly Cloudy"
"-62.28","82.52","ALERT A","2400302","2018-04-14 06:00","2018","04","14","06:00","-16.0","","-19.6","","74","","","","22","","57","","4.8","","100.39","","","","-31","","Blowing Snow"
"-62.28","82.52","ALERT A","2400302","2018-04-14 07:00","2018","04","14","07:00","-16.5","","-19.3","","79","","","","21","","54","","2.4","","100.35","","","","-31","","Blowing Snow"
"-62.28","82.52","ALERT A","2400302","2018-04-14 08:00","2018","04","14","08:00","-15.3","","-18.1","","79","","","","22","","56","","19.3","","100.32","","","","-30","","Mainly Clear"
"-62.28","82.52","ALERT A","2400302","2018-04-14 09:00","2018","04","14","09:00","-15.1","","-17.7","","80","","","","23","","63","","0.6","","100.24","","","","-30","","Blowing Snow"
"-62.28","82.52","ALERT A","2400302","2018-04-14 10:00","2018","04","14","10:00","-15.2","","-18.0","","79","","","","23","","57","","16.1","","100.27","","","","-30","","Mainly Clear"
"-62.28","82.52","ALERT A","2400302","2018-04-14 11:00","2018","04","14","11:00","-14.5","","-17.6","","77","","","","23","","41","","19.3","","100.30","","","","-27","","Mainly Clear"
"-62.28","82.52","ALERT A","2400302","2018-04-14 12:00","2018","04","14","12:00","-14.1","","-16.8","","80","","","","22","","46","","11.3","","100.26","","","","-27","","Mostly Cloudy"
"-62.28","82.52","ALERT A","2400302","2018-04-14 13:00","2018","04","14","13:00","-14.0","","-17.1","","77","","","","22","","35","","24.1","","100.28","","","","-25","","Mostly Cloudy"
"-62.28","82.52","ALERT A","2400302","2018-04-14 14:00","2018","04","14","14:00","-13.1","","-16.3","","77","","","","21","","35","","24.1","","100.19","","","","-24","","Mostly Cloudy"
"-62.28","82.52","ALERT A","2400302","2018-04-14 15:00","2018","04","14","15:00","-12.7","","-16.2","","75","","","","21","","35","","24.1","","100.18","","","","-24","","Mostly Cloudy"
"-62.28","82.52","ALERT A","2400302","2018-04-14 16:00","2018","04","14","16:00","-12.4","","-16.2","","73","","","","22","","22","","24.1","","100.20","","","","-21","","Mostly Cloudy"
"-62.28","82.52","ALERT A","2400302","2018-04-14 17:00","2018","04","14","17:00","-13.0","","-17.6","","68","","","","21","","26","","24.1","","100.21","","","","-23","","Mostly Cloudy"
"-62.28","82.52","ALERT A","2400302","2018-04-14 18:00","2018","04","14","18:00","-24.0","","-27.4","","73","","","","34","","11","","24.1","","100.23","","","","-32","","Mostly Cloudy"
"-62.28","82.52","ALERT A","2400302","2018-04-14 19:00","2018","04","14","19:00","-24.9","","-28.7","","71","","","","34","","11","","24.1","","100.27","","","","-34","","Mostly Cloudy"
"-62.28","82.52","ALERT A","2400302","2018-04-14 20:00","2018","04","14","20:00","-24.8","","-28.7","","70","","","","2","","9","","24.1","","100.30","","","","-32","","Mostly Cloudy"
"-62.28","82.52","ALERT A","2400302","2018-04-14 21:00","2018","04","14","21:00","-24.8","","-28.8","","69","","","","12","","6","","24.1","","100.31","","","","-31","","Mostly Cloudy"
"-62.28","82.52","ALERT A","2400302","2018-04-14 22:00","2018","04","14","22:00","-24.6","","-28.5","","70","","","","10","","6","","24.1","","100.35","","","","-30","","Mostly Cloudy"
"-62.28","82.52","ALERT A","2400302","2018-04-14 23:00","2018","04","14","23:00","-24.5","","-28.4","","70","","","","10","","7","","24.1","","100.40","","","","-31","","Mostly Cloudy"
"-62.28","82.52","ALERT A","2400302","2018-04-15 00:00","2018","04","15","00:00","-24.8","","-28.8","","69","","","","3","","6","","24.1","","100.42","","","","-31","","Mostly Cloudy"
"-62.28","82.52","ALERT A","2400302","2018-04-15 01:00","2018","04","15","01:00","-24.7","","-28.7","","69","","","","","","0","","24.1","","100.44","","","","","","Mostly Cloudy"
"-62.28","82.52","ALERT A","2400302","2018-04-15 02:00","2018","04","15","02:00","-24.1","","-27.9","","71","","","","17","","4","","24.1","","100.44","","","","-28","","Mostly Cloudy"
"-62.28","82.52","ALERT A","2400302","2018-04-15 03:00","2018","04","15","03:00","-24.4","","-28.6","","68","","","","9","","4","","24.1","","100.48","","","","-28","","Mostly Cloudy"
"-62.28","82.52","ALERT A","2400302","2018-04-15 04:00","2018","04","15","04:00","-24.2","","-28.0","","71","","","","","","0","","24.1","","100.54","","","","","","Mostly Cloudy"
"-62.28","82.52","ALERT A","2400302","2018-04-15 05:00","2018","04","15","05:00","-24.2","","-28.5","","68","","","","","","0","","24.1","","100.57","","","","","","Mostly Cloudy"
"-62.28","82.52","ALERT A","2400302","2018-04-15 06:00","2018","04","15","06:00","-25.2","","-29.3","","69","","","","36","","6","","24.1","","100.62","","","","-31","","Mostly Cloudy"
"-62.28","82.52","ALERT A","2400302","2018-04-15 07:00","2018","04","15","07:00","-25.4","","-29.5","","69","","","","","","0","","24.1","","100.56","","","","","","Mostly Cloudy"
"-62.28","82.52","ALERT A","2400302","2018-04-15 08:00","2018","04","15","08:00","-25.5","","-29.4","","70","","","","","","0","","24.1","","100.72","","","","","","Mostly Cloudy"
"-62.28","82.52","ALERT A","2400302","2018-04-15 09:00","2018","04","15","09:00","-25.2","","-29.0","","71","","","","7","","4","","24.1","","100.74","","","","-29","","Mostly Cloudy"
"-62.28","82.52","ALERT A","2400302","2018-04-15 10:00","2018","04","15","10:00","-25.1","","-28.7","","72","","","","5","","4","","24.1","","100.79","","","","-29","","Cloudy"
"-62.28","82.52","ALERT A","2400302","2018-04-15 11:00","2018","04","15","11:00","-24.4","","-28.2","","71","","","","","","0","","11.3","","100.82","","","","","","Snow"
"-62.28","82.52","ALERT A","2400302","2018-04-15 12:00","2018","04","15","12:00","-23.9","","-28.1","","68","","","","11","","6","","19.3","","100.87","","","","-30","","Mostly Cloudy"
"-62.28","82.52","ALERT A","2400302","2018-04-15 13:00","2018","04","15","13:00","-23.5","","-27.3","","71","","","","","","0","","9.7","","100.89","","","","","","Snow"
"-62.28","82.52","ALERT A","2400302","2018-04-15 14:00","2018","04","15","14:00","-23.2","","-27.2","","70","","","","7","","4","","19.3","","100.94","","","","-27","","Mostly Cloudy"
"-62.28","82.52","ALERT A","2400302","2018-04-15 15:00","2018","04","15","15:00","-23.2","","-27.0","","71","","","","8","","7","","19.3","","100.99","","","","-29","","Mostly Cloudy"
"-62.28","82.52","ALERT A","2400302","2018-04-15 16:00","2018","04","15","16:00","-23.6","","-27.6","","70","","","","9","","7","","24.1","","101.09","","","","-30","","Mostly Cloudy"
"-62.28","82.52","ALERT A","2400302","2018-04-15 17:00","2018","04","15","17:00","-23.7","","-27.7","","70","","","","13","","6","","24.1","","101.11","","","","-29","","Mostly Cloudy"
"-62.28","82.52","ALERT A","2400302","2018-04-15 18:00","2018","04","15","18:00","-23.7","","-27.9","","68","","","","10","","6","","24.1","","101.18","","","","-29","","Mainly Clear"
"-62.28","82.52","ALERT A","2400302","2018-04-15 19:00","2018","04","15","19:00","-24.5","","-28.8","","67","","","","14","","4","","24.1","","101.24","","","","-28","","Mainly Clear"
"-62.28","82.52","ALERT A","2400302","2018-04-15 20:00","2018","04","15","20:00","-24.1","","-29.6","","60","","","","","","0","","24.1","","101.31","","","","","","Mostly Cloudy"
"-62.28","82.52","ALERT A","2400302","2018-04-15 21:00","2018","04","15","21:00","-26.1","","-30.1","","69","","","","20","","7","","24.1","","101.35","","","","-33","","Mostly Cloudy"
"-62.28","82.52","ALERT A","2400302","2018-04-15 22:00","2018","04","15","22:00","-24.9","","-29.2","","67","","","","17","","7","","24.1","","101.39","","","","-31","","Mostly Cloudy"
"-62.28","82.52","ALERT A","2400302","2018-04-15 23:00","2018","04","15","23:00","-24.8","","-28.9","","69","","","","16","","7","","24.1","","101.43","","","","-31","","Mostly Cloudy"
"-62.28","82.52","ALERT A","2400302","2018-04-16 00:00","2018","04","16","00:00","-27.1","","-30.9","","70","","","","32","","11","","24.1","","101.49","","","","-36","","Mostly Cloudy"
"-62.28","82.52","ALERT A","2400302","2018-04-16 01:00","2018","04","16","01:00","-26.2","","-29.7","","72","","","","21","","6","","24.1","","101.51","","","","-32","","Mostly Cloudy"
"-62.28","82.52","ALERT A","2400302","2018-04-16 02:00","2018","04","16","02:00","-25.9","","-30.2","","67","","","","21","","4","","24.1","","101.55","","","","-30","","Mostly Cloudy"
"-62.28","82.52","ALERT A","2400302","2018-04-16 03:00","2018","04","16","03:00","-25.5","","-29.0","","72","","","","17","","4","","24.1","","101.58","","","","-30","","Mostly Cloudy"
"-62.28","82.52","ALERT A","2400302","2018-04-16 04:00","2018","04","16","04:00","-26.8","","-30.9","","68","","","","32","","7","","24.1","","101.63","","","","-34","","Mostly Cloudy"
"-62.28","82.52","ALERT A","2400302","2018-04-16 05:00","2018","04","16","05:00","-27.1","","-30.9","","70","","","","28","","15","","24.1","","101.69","","","","-38","","Mostly Cloudy"
"-62.28","82.52","ALERT A","2400302","2018-04-16 06:00","2018","04","16","06:00","-27.3","","-31.6","","67","","","","30","","19","","24.1","","101.74","","","","-39","","Mostly Cloudy"
"-62.28","82.52","ALERT A","2400302","2018-04-16 07:00","2018","04","16","07:00","-26.4","","-30.3","","70","","","","30","","17","","24.1","","101.79","","","","-38","","Mostly Cloudy"
"-62.28","82.52","ALERT A","2400302","2018-04-16 08:00","2018","04","16","08:00","-25.5","","-29.3","","70","","","","29","","9","","24.1","","101.84","","","","-33","","Mostly Cloudy"
"-62.28","82.52","ALERT A","2400302","2018-04-16 09:00","2018","04","16","09:00","-25.5","","-29.0","","72","","","","25","","4","","14.5","","101.86","","","","-30","","Mostly Cloudy"
"-62.28","82.52","ALERT A","2400302","2018-04-16 10:00","2018","04","16","10:00","-26.4","","-30.4","","69","","","","25","","9","","24.1","","101.89","","","","-34","","Mostly Cloudy"
"-62.28","82.52","ALERT A","2400302","2018-04-16 11:00","2018","04","16","11:00","-26.0","","-29.8","","70","","","","26","","6","","24.1","","101.91","","","","-32","","Mostly Cloudy"
"-62.28","82.52","ALERT A","2400302","2018-04-16 12:00","2018","04","16","12:00","-26.1","","-30.2","","68","","","","26","","6","","24.1","","101.92","","","","-32","","Mainly Clear"
"-62.28","82.52","ALERT A","2400302","2018-04-16 13:00","2018","04","16","13:00","-25.5","","-29.9","","67","","","","28","","6","","24.1","","101.94","","","","-31","","Mainly Clear"
"-62.28","82.52","ALERT A","2400302","2018-04-16 14:00","2018","04","16","14:00","-25.0","","-29.2","","68","","","","27","","4","","24.1","","101.97","","","","-29","","Mainly Clear"
"-62.28","82.52","ALERT A","2400302","2018-04-16 15:00","2018","04","16","15:00","-25.7","","-29.7","","69","","","","32","","9","","24.1","","102.01","","","","-33","","Mainly Clear"
"-62.28","82.52","ALERT A","2400302","2018-04-16 16:00","2018","04","16","16:00","-26.4","","-30.6","","68","","","","27","","9","","24.1","","102.07","","","","-34","","Mainly Clear"
"-62.28","82.52","ALERT A","2400302","2018-04-16 17:00","2018","04","16","17:00","-26.6","","-30.7","","68","","","","29","","7","","24.1","","102.09","","","","-33","","Snow"
"-62.28","82.52","ALERT A","2400302","2018-04-16 18:00","2018","04","16","18:00","-26.7","","-31.2","","66","","","","","","0","","24.1","","102.13","","","","","","Mainly Clear"
"-62.28","82.52","ALERT A","2400302","2018-04-16 19:00","2018","04","16","19:00","-27.7","","-32.6","","63","","","","","","0","","24.1","","102.14","","","","","","Mainly Clear"
"-62.28","82.52","ALERT A","2400302","2018-04-16 20:00","2018","04","16","20:00","-28.4","","-32.0","","71","","","","23","","7","","24.1","","102.13","","","","-35","","Mainly Clear"
"-62.28","82.52","ALERT A","2400302","2018-04-16 21:00","2018","04","16","21:00","-28.3","","-32.3","","68","","","","","","0","","24.1","","102.16","","","","","","Mainly Clear"
"-62.28","82.52","ALERT A","2400302","2018-04-16 22:00","2018","04","16","22:00","-28.7","","-33.0","","66","","","","18","","4","","24.1","","102.16","","","","-33","","Mainly Clear"
"-62.28","82.52","ALERT A","2400302","2018-04-16 23:00","2018","04","16","23:00","-27.9","","-31.8","","69","","","","","","0","","24.1","","102.16","","","","","","Mainly Clear"
"-62.28","82.52","ALERT A","2400302","2018-04-17 00:00","2018","04","17","00:00","-27.7","","-31.2","","72","","","","","","0","","24.1","","102.18","","","","","","Mainly Clear"
"-62.28","82.52","ALERT A","2400302","2018-04-17 01:00","2018","04","17","01:00","-28.5","","-33.1","","65","","","","","","0","","24.1","","102.19","","","","","","Clear"
"-62.28","82.52","ALERT A","2400302","2018-04-17 02:00","2018","04","17","02:00","-29.7","","-33.2","","72","","","","","","0","","24.1","","102.22","","","","","","Clear"
"-62.28","82.52","ALERT A","2400302","2018-04-17 03:00","2018","04","17","03:00","-29.0","","-33.6","","64","","","","17","","4","","24.1","","102.26","","","","-33","","Clear"
"-62.28","82.52","ALERT A","2400302","2018-04-17 04:00","2018","04","17","04:00","-29.0","","-34.0","","62","","","","33","","4","","24.1","","102.28","","","","-33","","Mainly Clear"
"-62.28","82.52","ALERT A","2400302","2018-04-17 05:00","2018","04","17","05:00","-28.0","","-32.2","","67","","","","19","","4","","24.1","","102.30","","","","-32","","Mainly Clear"
"-62.28","82.52","ALERT A","2400302","2018-04-17 06:00","2018","04","17","06:00","-29.2","","-33.0","","70","","","","16","","4","","24.1","","102.32","","","","-34","","Mainly Clear"
"-62.28","82.52","ALERT A","2400302","2018-04-17 07:00","2018","04","17","07:00","-27.8","","-32.8","","62","","","","17","","4","","24.1","","102.34","","","","-32","","Mainly Clear"
"-62.28","82.52","ALERT A","2400302","2018-04-17 08:00","2018","04","17","08:00","-28.7","","-33.2","","65","","","","11","","6","","24.1","","102.37","","","","-35","","Mainly Clear"
"-62.28","82.52","ALERT A","2400302","2018-04-17 09:00","2018","04","17","09:00","-27.6","","-32.5","","63","","","","","","0","","24.1","","102.38","","","","","","Mainly Clear"
"-62.28","82.52","ALERT A","2400302","2018-04-17 10:00","2018","04","17","10:00","-26.5","","-32.0","","60","","","","","","0","","24.1","","102.42","","","","","","Mainly Clear"
"-62.28","82.52","ALERT A","2400302","2018-04-17 11:00","2018","04","17","11:00","-26.9","","-31.3","","66","","","","18","","4","","24.1","","102.43","","","","-31","","Mainly Clear"
"-62.28","82.52","ALERT A","2400302","2018-04-17 12:00","2018","04","17","12:00","-27.9","","-32.9","","62","","","","","","0","","24.1","","102.43","","","","","","Mainly Clear"
"-62.28","82.52","ALERT A","2400302","2018-04-17 13:00","2018","04","17","13:00","-26.5","","-31.3","","64","","","","","","0","","24.1","","102.44","","","","","","Mainly Clear"
"-62.28","82.52","ALERT A","2400302","2018-04-17 14:00","2018","04","17","14:00","-26.5","","-30.8","","67","","","","","","0","","24.1","","102.42","","","","","","Mainly Clear"
"-62.28","82.52","ALERT A","2400302","2018-04-17 15:00","2018","04","17","15:00","-26.1","","-30.5","","66","","","","18","","4","","24.1","","102.43","","","","-30","","Mainly Clear"
"-62.28","82.52","ALERT A","2400302","2018-04-17 16:00","2018","04","17","16:00","-26.0","","-30.5","","66","","","","","","0","","24.1","","102.43","","","","","","Mainly Clear"
"-62.28","82.52","ALERT A","2400302","2018-04-17 17:00","2018","04","17","17:00","-24.8","","-29.7","","64","","","","","","0","","24.1","","102.48","","","","","","Mainly Clear"
"-62.28","82.52","ALERT A","2400302","2018-04-17 18:00","2018","04","17","18:00","-26.6","","-31.0","","66","","","","19","","4","","24.1","","102.49","","","","-31","","Mainly Clear"
"-62.28","82.52","ALERT A","2400302","2018-04-17 19:00","2018","04","17","19:00","-30.7","","-35.1","","65","","","","","","0","","24.1","","102.51","","","","","","Clear"
"-62.28","82.52","ALERT A","2400302","2018-04-17 20:00","2018","04","17","20:00","-28.9","","-34.4","","59","","","","32","","7","","24.1","","102.54","","","","-36","","Clear"
"-62.28","82.52","ALERT A","2400302","2018-04-17 21:00","2018","04","17","21:00","-29.1","","-33.2","","68","","","","","","0","","24.1","","102.55","","","","","","Clear"
"-62.28","82.52","ALERT A","2400302","2018-04-17 22:00","2018","04","17","22:00","-29.1","","-32.7","","71","","","","","","0","","24.1","","102.52","","","","","","Clear"
"-62.28","82.52","ALERT A","2400302","2018-04-17 23:00","2018","04","17","23:00","-28.1","","-32.6","","65","","","","34","","4","","24.1","","102.53","","","","-32","","Clear"
"-62.28","82.52","ALERT A","2400302","2018-04-18 00:00","2018","04","18","00:00","-28.4","","-33.6","","61","","","","","","0","","24.1","","102.52","","","","","","Clear"
"-62.28","82.52","ALERT A","2400302","2018-04-18 01:00","2018","04","18","01:00","-28.4","","-34.0","","59","","","","","","0","","24.1","","102.51","","","","","","Clear"
"-62.28","82.52","ALERT A","2400302","2018-04-18 02:00","2018","04","18","02:00","-29.4","","-33.9","","65","","","","14","","4","","24.1","","102.51","","","","-34","","Clear"
"-62.28","82.52","ALERT A","2400302","2018-04-18 03:00","2018","04","18","03:00","-29.7","","-33.9","","67","","","","18","","4","","24.1","","102.51","","","","-34","","Clear"
"-62.28","82.52","ALERT A","2400302","2018-04-18 04:00","2018","04","18","04:00","-29.5","","-33.7","","67","","","","","","0","","24.1","","102.52","","","","","","Clear"
"-62.28","82.52","ALERT A","2400302","2018-04-18 05:00","2018","04","18","05:00","-28.8","","-32.9","","68","","","","17","","6","","24.1","","102.54","","","","-35","","Clear"
"-62.28","82.52","ALERT A","2400302","2018-04-18 06:00","2018","04","18","06:00","-29.3","","-32.5","","74","","","","30","","4","","24.1","","102.56","","","","-34","","Clear"
"-62.28","82.52","ALERT A","2400302","2018-04-18 07:00","2018","04","18","07:00","-26.8","","-31.2","","66","","","","","","0","","24.1","","102.56","","","","","","Clear"
"-62.28","82.52","ALERT A","2400302","2018-04-18 08:00","2018","04","18","08:00","-27.5","","-31.8","","67","","","","18","","6","","24.1","","102.54","","","","-34","","Clear"
"-62.28","82.52","ALERT A","2400302","2018-04-18 09:00","2018","04","18","09:00","-26.8","","-31.2","","66","","","","19","","6","","24.1","","102.53","","","","-33","","Mainly Clear"
"-62.28","82.52","ALERT A","2400302","2018-04-18 10:00","2018","04","18","10:00","-27.0","","-31.4","","66","","","","16","","6","","24.1","","102.52","","","","-33","","Mainly Clear"
"-62.28","82.52","ALERT A","2400302","2018-04-18 11:00","2018","04","18","11:00","-26.4","","-30.4","","69","","","","","","0","","24.1","","102.49","","","","","","Mainly Clear"
"-62.28","82.52","ALERT A","2400302","2018-04-18 12:00","2018","04","18","12:00","-24.8","","-30.1","","61","","","","8","","4","","24.1","","102.47","","","","-29","","Mainly Clear"
"-62.28","82.52","ALERT A","2400302","2018-04-18 13:00","2018","04","18","13:00","-24.7","","-29.9","","62","","","","12","","4","","24.1","","102.46","","","","-29","","Clear"
"-62.28","82.52","ALERT A","2400302","2018-04-18 14:00","2018","04","18","14:00","-24.9","","-29.2","","67","","","","15","","4","","24.1","","102.46","","","","-29","","Clear"
"-62.28","82.52","ALERT A","2400302","2018-04-18 15:00","2018","04","18","15:00","-24.0","","-28.3","","68","","","","","","0","","24.1","","102.47","","","","","","Clear"
"-62.28","82.52","ALERT A","2400302","2018-04-18 16:00","2018","04","18","16:00","-26.4","","-30.1","","71","","","","1","","4","","24.1","","102.46","","","","-31","","Clear"
"-62.28","82.52","ALERT A","2400302","2018-04-18 17:00","2018","04","18","17:00","-25.1","","-29.5","","67","","","","","","0","","24.1","","102.45","","","","","","Clear"
"-62.28","82.52","ALERT A","2400302","2018-04-18 18:00","2018","04","18","18:00","-27.6","","-32.0","","66","","","","30","","4","","24.1","","102.45","","","","-32","","Clear"
"-62.28","82.52","ALERT A","2400302","2018-04-18 19:00","2018","04","18","19:00","-28.3","","-31.7","","73","","","","34","","7","","24.1","","102.44","","","","-35","","Clear"
"-62.28","82.52","ALERT A","2400302","2018-04-18 20:00","2018","04","18","20:00","-29.3","","-33.0","","70","","","","33","","4","","24.1","","102.42","","","","-34","","Clear"
"-62.28","82.52","ALERT A","2400302","2018-04-18 21:00","2018","04","18","21:00","-30.8","","-34.5","","70","","","","30","","6","","24.1","","102.42","","","","-37","","Clear"
"-62.28","82.52","ALERT A","2400302","2018-04-18 22:00","2018","04","18","22:00","-29.2","","-33.1","","69","","","","","","0","","24.1","","102.41","","","","","","Clear"
"-62.28","82.52","ALERT A","2400302","2018-04-18 23:00","2018","04","18","23:00","-29.8","","-33.1","","73","","","","34","","4","","24.1","","102.39","","","","-34","","Clear"
"-62.28","82.52","ALERT A","2400302","2018-04-19 00:00","2018","04","19","00:00","-28.4","","-32.3","","69","","","","","","0","","24.1","","102.37","","","","","","Clear"
"-62.28","82.52","ALERT A","2400302","2018-04-19 01:00","2018","04","19","01:00","-29.2","","-33.2","","68","","","","36","","4","","24.1","","102.36","","","","-34","","Clear"
"-62.28","82.52","ALERT A","2400302","2018-04-19 02:00","2018","04","19","02:00","-31.3","","-36.4","","61","","","","18","","6","","24.1","","102.33","","","","-38","","Clear"
"-62.28","82.52","ALERT A","2400302","2018-04-19 03:00","2018","04","19","03:00","-30.5","","-34.6","","67","","","","32","","4","","24.1","","102.32","","","","-35","","Clear"
"-62.28","82.52","ALERT A","2400302","2018-04-19 04:00","2018","04","19","04:00","-28.8","","-32.8","","68","","","","","","0","","24.1","","102.33","","","","","","Clear"
"-62.28","82.52","ALERT A","2400302","2018-04-19 05:00","2018","04","19","05:00","-29.2","","-33.5","","66","","","","18","","4","","24.1","","102.32","","","","-34","","Mainly Clear"
"-62.28","82.52","ALERT A","2400302","2018-04-19 06:00","2018","04","19","06:00","-28.6","","-32.8","","67","","","","18","","4","","24.1","","102.32","","","","-33","","Mainly Clear"
"-62.28","82.52","ALERT A","2400302","2018-04-19 07:00","2018","04","19","07:00","-29.9","","-34.5","","64","","","","36","","4","","24.1","","102.29","","","","-34","","Mainly Clear"
"-62.28","82.52","ALERT A","2400302","2018-04-19 08:00","2018","04","19","08:00","-27.5","","-31.4","","69","","","","13","","4","","24.1","","102.29","","","","-32","","Mainly Clear"
"-62.28","82.52","ALERT A","2400302","2018-04-19 09:00","2018","04","19","09:00","-27.5","","-31.7","","67","","","","14","","6","","24.1","","102.27","","","","-34","","Mainly Clear"
"-62.28","82.52","ALERT A","2400302","2018-04-19 10:00","2018","04","19","10:00","-27.8","","-31.6","","70","","","","","","0","","24.1","","102.24","","","","","","Mainly Clear"
"-62.28","82.52","ALERT A","2400302","2018-04-19 11:00","2018","04","19","11:00","-25.7","","-29.5","","70","","","","","","0","","24.1","","102.21","","","","","","Mainly Clear"
"-62.28","82.52","ALERT A","2400302","2018-04-19 12:00","2018","04","19","12:00","-27.7","","-31.1","","73","","","","31","","4","","24.1","","102.18","","","","-32","","Mainly Clear"
"-62.28","82.52","ALERT A","2400302","2018-04-19 13:00","2018","04","19","13:00","-27.9","","-31.8","","69","","","","28","","6","","24.1","","102.13","","","","-34","","Mainly Clear"
"-62.28","82.52","ALERT A","2400302","2018-04-19 14:00","2018","04","19","14:00","-28.1","","-31.9","","70","","","","30","","11","","24.1","","102.08","","","","-37","","Mainly Clear"
"-62.28","82.52","ALERT A","2400302","2018-04-19 15:00","2018","04","19","15:00","-27.8","","-31.6","","70","","","","27","","7","","24.1","","102.05","","","","-35","","Mainly Clear"
"-62.28","82.52","ALERT A","2400302","2018-04-19 16:00","2018","04","19","16:00","-27.6","","-31.6","","69","","","","30","","6","","24.1","","101.97","","","","-34","","Mainly Clear"
"-62.28","82.52","ALERT A","2400302","2018-04-19 17:00","2018","04","19","17:00","-27.1","","-31.8","","64","","","","30","","4","","24.1","","101.91","","","","-31","","Mainly Clear"
"-62.28","82.52","ALERT A","2400302","2018-04-19 18:00","2018","04","19","18:00","-28.4","","-32.6","","67","","","","33","","4","","24.1","","101.86","","","","-33","","Mainly Clear"
"-62.28","82.52","ALERT A","2400302","2018-04-19 19:00","2018","04","19","19:00","-28.8","","-33.1","","66","","","","31","","7","","24.1","","101.78","","","","-36","","Mainly Clear"
"-62.28","82.52","ALERT A","2400302","2018-04-19 20:00","2018","04","19","20:00","-27.7","","-32.0","","67","","","","32","","6","","24.1","","101.70","","","","-34","","Clear"
"-62.28","82.52","ALERT A","2400302","2018-04-19 21:00","2018","04","19","21:00","-28.8","","-33.4","","64","","","","18","","4","","24.1","","101.61","","","","-33","","Clear"
"-62.28","82.52","ALERT A","2400302","2018-04-19 22:00","2018","04","19","22:00","-29.5","","-33.5","","68","","","","30","","4","","24.1","","101.53","","","","-34","","Clear"
"-62.28","82.52","ALERT A","2400302","2018-04-19 23:00","2018","04","19","23:00","-29.1","","-32.6","","72","","","","32","","4","","24.1","","101.49","","","","-34","","Clear"
"-62.28","82.52","ALERT A","2400302","2018-04-20 00:00","2018","04","20","00:00","-30.5","","-34.1","","71","","","","30","","7","","24.1","","101.42","","","","-38","","Clear"
"-62.28","82.52","ALERT A","2400302","2018-04-20 01:00","2018","04","20","01:00","-30.3","","-34.8","","65","","","","28","","7","","24.1","","101.36","","","","-38","","Clear"
"-62.28","82.52","ALERT A","2400302","2018-04-20 02:00","2018","04","20","02:00","-30.7","","-34.4","","70","","","","","","0","","24.1","","101.33","","","","","","Clear"
"-62.28","82.52","ALERT A","2400302","2018-04-20 03:00","2018","04","20","03:00","-28.7","","-33.6","","63","","","","","","0","","24.1","","101.29","","","","","","Mainly Clear"
"-62.28","82.52","ALERT A","2400302","2018-04-20 04:00","2018","04","20","04:00","-29.9","","-33.9","","68","","","","","","0","","24.1","","101.25","","","","","","Mainly Clear"
"-62.28","82.52","ALERT A","2400302","2018-04-20 05:00","2018","04","20","05:00","-29.0","","-33.2","","67","","","","","","0","","24.1","","101.22","","","","","","Mainly Clear"
"-62.28","82.52","ALERT A","2400302","2018-04-20 06:00","2018","04","20","06:00","-28.6","","-32.5","","69","","","","","","0","","24.1","","101.19","","","","","","Mainly Clear"
"-62.28","82.52","ALERT A","2400302","2018-04-20 07:00","2018","04","20","07:00","-28.5","","-32.3","","70","","","","","","0","","24.1","","101.19","","","","","","Mainly Clear"
"-62.28","82.52","ALERT A","2400302","2018-04-20 08:00","2018","04","20","08:00","-28.0","","-32.1","","68","","","","20","","6","","24.1","","101.15","","","","-34","","Mainly Clear"
"-62.28","82.52","ALERT A","2400302","2018-04-20 09:00","2018","04","20","09:00","-26.0","","-29.6","","72","","","","14","","4","","24.1","","101.12","","","","-30","","Mainly Clear"
"-62.28","82.52","ALERT A","2400302","2018-04-20 10:00","2018","04","20","10:00","-26.3","","-30.3","","69","","","","13","","6","","24.1","","101.11","","","","-32","","Clear"
"-62.28","82.52","ALERT A","2400302","2018-04-20 11:00","2018","04","20","11:00","-25.6","","-29.5","","70","","","","","","0","","24.1","","101.08","","","","","","Clear"
"-62.28","82.52","ALERT A","2400302","2018-04-20 12:00","2018","04","20","12:00","-25.2","","-30.1","","64","","","","","","0","","24.1","","101.07","","","","","","Clear"
"-62.28","82.52","ALERT A","2400302","2018-04-20 13:00","2018","04","20","13:00","-25.9","","-30.2","","67","","","","12","","4","","24.1","","101.05","","","","-30","","Clear"
"-62.28","82.52","ALERT A","2400302","2018-04-20 14:00","2018","04","20","14:00","-25.3","","-30.2","","64","","","","","","0","","24.1","","101.04","","","","","","Clear"
"-62.28","82.52","ALERT A","2400302","2018-04-20 15:00","2018","04","20","15:00","-26.1","","-30.2","","68","","","","9","","4","","24.1","","100.97","","","","-30","","Mainly Clear"
"-62.28","82.52","ALERT A","2400302","2018-04-20 16:00","2018","04","20","16:00","-25.1","","-29.3","","68","","","","36","","4","","24.1","","100.98","","","","-29","","Mainly Clear"
"-62.28","82.52","ALERT A","2400302","2018-04-20 17:00","2018","04","20","17:00","-27.0","","-31.2","","67","","","","35","","6","","24.1","","100.93","","","","-33","","Clear"
"-62.28","82.52","ALERT A","2400302","2018-04-20 18:00","2018","04","20","18:00"
"-62.28","82.52","ALERT A","2400302","2018-04-20 19:00","2018","04","20","19:00"
"-62.28","82.52","ALERT A","2400302","2018-04-20 20:00","2018","04","20","20:00"
"-62.28","82.52","ALERT A","2400302","2018-04-20 21:00","2018","04","20","21:00"
"-62.28","82.52","ALERT A","2400302","2018-04-20 22:00","2018","04","20","22:00"
"-62.28","82.52","ALERT A","2400302","2018-04-20 23:00","2018","04","20","23:00"
"-62.28","82.52","ALERT A","2400302","2018-04-21 00:00","2018","04","21","00:00"
"-62.28","82.52","ALERT A","2400302","2018-04-21 01:00","2018","04","21","01:00"
"-62.28","82.52","ALERT A","2400302","2018-04-21 02:00","2018","04","21","02:00"
"-62.28","82.52","ALERT A","2400302","2018-04-21 03:00","2018","04","21","03:00"
"-62.28","82.52","ALERT A","2400302","2018-04-21 04:00","2018","04","21","04:00"
"-62.28","82.52","ALERT A","2400302","2018-04-21 05:00","2018","04","21","05:00"
"-62.28","82.52","ALERT A","2400302","2018-04-21 06:00","2018","04","21","06:00"
"-62.28","82.52","ALERT A","2400302","2018-04-21 07:00","2018","04","21","07:00"
"-62.28","82.52","ALERT A","2400302","2018-04-21 08:00","2018","04","21","08:00"
"-62.28","82.52","ALERT A","2400302","2018-04-21 09:00","2018","04","21","09:00"
"-62.28","82.52","ALERT A","2400302","2018-04-21 10:00","2018","04","21","10:00"
"-62.28","82.52","ALERT A","2400302","2018-04-21 11:00","2018","04","21","11:00"
"-62.28","82.52","ALERT A","2400302","2018-04-21 12:00","2018","04","21","12:00"
"-62.28","82.52","ALERT A","2400302","2018-04-21 13:00","2018","04","21","13:00"
"-62.28","82.52","ALERT A","2400302","2018-04-21 14:00","2018","04","21","14:00"
"-62.28","82.52","ALERT A","2400302","2018-04-21 15:00","2018","04","21","15:00"
"-62.28","82.52","ALERT A","2400302","2018-04-21 16:00","2018","04","21","16:00"
"-62.28","82.52","ALERT A","2400302","2018-04-21 17:00","2018","04","21","17:00"
"-62.28","82.52","ALERT A","2400302","2018-04-21 18:00","2018","04","21","18:00"
"-62.28","82.52","ALERT A","2400302","2018-04-21 19:00","2018","04","21","19:00"
"-62.28","82.52","ALERT A","2400302","2018-04-21 20:00","2018","04","21","20:00"
"-62.28","82.52","ALERT A","2400302","2018-04-21 21:00","2018","04","21","21:00"
"-62.28","82.52","ALERT A","2400302","2018-04-21 22:00","2018","04","21","22:00"
"-62.28","82.52","ALERT A","2400302","2018-04-21 23:00","2018","04","21","23:00"
"-62.28","82.52","ALERT A","2400302","2018-04-22 00:00","2018","04","22","00:00"
"-62.28","82.52","ALERT A","2400302","2018-04-22 01:00","2018","04","22","01:00"
"-62.28","82.52","ALERT A","2400302","2018-04-22 02:00","2018","04","22","02:00"
"-62.28","82.52","ALERT A","2400302","2018-04-22 03:00","2018","04","22","03:00"
"-62.28","82.52","ALERT A","2400302","2018-04-22 04:00","2018","04","22","04:00"
"-62.28","82.52","ALERT A","2400302","2018-04-22 05:00","2018","04","22","05:00"
"-62.28","82.52","ALERT A","2400302","2018-04-22 06:00","2018","04","22","06:00"
"-62.28","82.52","ALERT A","2400302","2018-04-22 07:00","2018","04","22","07:00"
"-62.28","82.52","ALERT A","2400302","2018-04-22 08:00","2018","04","22","08:00"
"-62.28","82.52","ALERT A","2400302","2018-04-22 09:00","2018","04","22","09:00"
"-62.28","82.52","ALERT A","2400302","2018-04-22 10:00","2018","04","22","10:00"
"-62.28","82.52","ALERT A","2400302","2018-04-22 11:00","2018","04","22","11:00"
"-62.28","82.52","ALERT A","2400302","2018-04-22 12:00","2018","04","22","12:00"
"-62.28","82.52","ALERT A","2400302","2018-04-22 13:00","2018","04","22","13:00"
"-62.28","82.52","ALERT A","2400302","2018-04-22 14:00","2018","04","22","14:00"
"-62.28","82.52","ALERT A","2400302","2018-04-22 15:00","2018","04","22","15:00"
"-62.28","82.52","ALERT A","2400302","2018-04-22 16:00","2018","04","22","16:00"
"-62.28","82.52","ALERT A","2400302","2018-04-22 17:00","2018","04","22","17:00"
"-62.28","82.52","ALERT A","2400302","2018-04-22 18:00","2018","04","22","18:00"
"-62.28","82.52","ALERT A","2400302","2018-04-22 19:00","2018","04","22","19:00"
"-62.28","82.52","ALERT A","2400302","2018-04-22 20:00","2018","04","22","20:00"
"-62.28","82.52","ALERT A","2400302","2018-04-22 21:00","2018","04","22","21:00"
"-62.28","82.52","ALERT A","2400302","2018-04-22 22:00","2018","04","22","22:00"
"-62.28","82.52","ALERT A","2400302","2018-04-22 23:00","2018","04","22","23:00"
"-62.28","82.52","ALERT A","2400302","2018-04-23 00:00","2018","04","23","00:00"
"-62.28","82.52","ALERT A","2400302","2018-04-23 01:00","2018","04","23","01:00"
"-62.28","82.52","ALERT A","2400302","2018-04-23 02:00","2018","04","23","02:00"
"-62.28","82.52","ALERT A","2400302","2018-04-23 03:00","2018","04","23","03:00"
"-62.28","82.52","ALERT A","2400302","2018-04-23 04:00","2018","04","23","04:00"
"-62.28","82.52","ALERT A","2400302","2018-04-23 05:00","2018","04","23","05:00"
"-62.28","82.52","ALERT A","2400302","2018-04-23 06:00","2018","04","23","06:00"
"-62.28","82.52","ALERT A","2400302","2018-04-23 07:00","2018","04","23","07:00"
"-62.28","82.52","ALERT A","2400302","2018-04-23 08:00","2018","04","23","08:00","-21.1","","-25.5","","68","","","","19","","4","","24.1","","100.89","","","","-25","","Mainly Clear"
"-62.28","82.52","ALERT A","2400302","2018-04-23 09:00","2018","04","23","09:00","-22.4","","-26.8","","67","","","","","","0","","24.1","","100.87","","","","","","Mainly Clear"
"-62.28","82.52","ALERT A","2400302","2018-04-23 10:00","2018","04","23","10:00","-20.5","","-25.5","","64","","","","23","","4","","24.1","","100.84","","","","-24","","Clear"
"-62.28","82.52","ALERT A","2400302","2018-04-23 11:00","2018","04","23","11:00","-22.9","","-27.0","","69","","","","34","","9","","24.1","","100.81","","","","-30","","Mainly Clear"
"-62.28","82.52","ALERT A","2400302","2018-04-23 12:00","2018","04","23","12:00","-21.4","","-25.5","","69","","","","33","","6","","24.1","","100.78","","","","-27","","Mainly Clear"
"-62.28","82.52","ALERT A","2400302","2018-04-23 13:00","2018","04","23","13:00","-20.1","","-24.8","","66","","","","","","0","","24.1","","100.76","","","","","","Mainly Clear"
"-62.28","82.52","ALERT A","2400302","2018-04-23 14:00","2018","04","23","14:00","-20.4","","-25.1","","66","","","","32","","6","","24.1","","100.74","","","","-25","","Mainly Clear"
"-62.28","82.52","ALERT A","2400302","2018-04-23 15:00","2018","04","23","15:00","-20.3","","-25.1","","65","","","","30","","7","","24.1","","100.73","","","","-26","","Mainly Clear"
"-62.28","82.52","ALERT A","2400302","2018-04-23 16:00","2018","04","23","16:00"
"-62.28","82.52","ALERT A","2400302","2018-04-23 17:00","2018","04","23","17:00"
"-62.28","82.52","ALERT A","2400302","2018-04-23 18:00","2018","04","23","18:00"
"-62.28","82.52","ALERT A","2400302","2018-04-23 19:00","2018","04","23","19:00"
"-62.28","82.52","ALERT A","2400302","2018-04-23 20:00","2018","04","23","20:00"
"-62.28","82.52","ALERT A","2400302","2018-04-23 21:00","2018","04","23","21:00"
"-62.28","82.52","ALERT A","2400302","2018-04-23 22:00","2018","04","23","22:00"
"-62.28","82.52","ALERT A","2400302","2018-04-23 23:00","2018","04","23","23:00"
"-62.28","82.52","ALERT A","2400302","2018-04-24 00:00","2018","04","24","00:00"
"-62.28","82.52","ALERT A","2400302","2018-04-24 01:00","2018","04","24","01:00","-25.1","","-28.9","","71","","","","28","","13","","19.3","","100.65","","","","-35","","Mostly Cloudy"
"-62.28","82.52","ALERT A","2400302","2018-04-24 02:00","2018","04","24","02:00","-23.8","","-27.4","","72","","","","28","","13","","19.3","","100.64","","","","-33","","Mostly Cloudy"
"-62.28","82.52","ALERT A","2400302","2018-04-24 03:00","2018","04","24","03:00","-23.3","","-26.9","","72","","","","29","","13","","19.3","","100.65","","","","-32","","Mostly Cloudy"
"-62.28","82.52","ALERT A","2400302","2018-04-24 04:00","2018","04","24","04:00","-23.4","","-27.0","","72","","","","30","","11","","19.3","","100.66","","","","-32","","Mostly Cloudy"
"-62.28","82.52","ALERT A","2400302","2018-04-24 05:00","2018","04","24","05:00","-23.4","","-27.1","","72","","","","29","","9","","19.3","","100.67","","","","-31","","Mostly Cloudy"
"-62.28","82.52","ALERT A","2400302","2018-04-24 06:00","2018","04","24","06:00","-23.7","","-27.2","","73","","","","31","","11","","11.3","","100.66","","","","-32","","Mostly Cloudy"
"-62.28","82.52","ALERT A","2400302","2018-04-24 07:00","2018","04","24","07:00","-24.1","","-27.7","","72","","","","31","","11","","24.1","","100.65","","","","-33","","Mainly Clear"
"-62.28","82.52","ALERT A","2400302","2018-04-24 08:00","2018","04","24","08:00","-24.4","","-27.9","","73","","","","32","","11","","24.1","","100.65","","","","-33","","Mainly Clear"
"-62.28","82.52","ALERT A","2400302","2018-04-24 09:00","2018","04","24","09:00","-24.3","","-27.7","","73","","","","31","","9","","24.1","","100.64","","","","-32","","Mainly Clear"
"-62.28","82.52","ALERT A","2400302","2018-04-24 10:00","2018","04","24","10:00","-24.2","","-27.7","","73","","","","31","","9","","24.1","","100.60","","","","-32","","Mainly Clear"
"-62.28","82.52","ALERT A","2400302","2018-04-24 11:00","2018","04","24","11:00","-23.9","","-27.5","","72","","","","30","","11","","24.1","","100.58","","","","-32","","Mainly Clear"
"-62.28","82.52","ALERT A","2400302","2018-04-24 12:00","2018","04","24","12:00","-23.7","","-27.3","","72","","","","29","","9","","24.1","","100.57","","","","-31","","Mainly Clear"
"-62.28","82.52","ALERT A","2400302","2018-04-24 13:00","2018","04","24","13:00","-23.6","","-27.1","","73","","","","31","","6","","24.1","","100.57","","","","-29","","Mainly Clear"
"-62.28","82.52","ALERT A","2400302","2018-04-24 14:00","2018","04","24","14:00","-23.4","","-27.0","","72","","","","30","","9","","24.1","","100.56","","","","-31","","Mainly Clear"
"-62.28","82.52","ALERT A","2400302","2018-04-24 15:00","2018","04","24","15:00","-23.4","","-26.9","","73","","","","30","","9","","24.1","","100.56","","","","-31","","Mainly Clear"
"-62.28","82.52","ALERT A","2400302","2018-04-24 16:00","2018","04","24","16:00"
"-62.28","82.52","ALERT A","2400302","2018-04-24 17:00","2018","04","24","17:00"
"-62.28","82.52","ALERT A","2400302","2018-04-24 18:00","2018","04","24","18:00"
"-62.28","82.52","ALERT A","2400302","2018-04-24 19:00","2018","04","24","19:00"
"-62.28","82.52","ALERT A","2400302","2018-04-24 20:00","2018","04","24","20:00"
"-62.28","82.52","ALERT A","2400302","2018-04-24 21:00","2018","04","24","21:00"
"-62.28","82.52","ALERT A","2400302","2018-04-24 22:00","2018","04","24","22:00"
"-62.28","82.52","ALERT A","2400302","2018-04-24 23:00","2018","04","24","23:00"
"-62.28","82.52","ALERT A","2400302","2018-04-25 00:00","2018","04","25","00:00"
"-62.28","82.52","ALERT A","2400302","2018-04-25 01:00","2018","04","25","01:00"
"-62.28","82.52","ALERT A","2400302","2018-04-25 02:00","2018","04","25","02:00"
"-62.28","82.52","ALERT A","2400302","2018-04-25 03:00","2018","04","25","03:00","-25.8","","-29.7","","70","","","","","","0","","24.1","","100.51","","","","","","Mainly Clear"
"-62.28","82.52","ALERT A","2400302","2018-04-25 04:00","2018","04","25","04:00","-25.4","","-28.9","","72","","","","14","","4","","24.1","","100.49","","","","-29","","Mainly Clear"
"-62.28","82.52","ALERT A","2400302","2018-04-25 05:00","2018","04","25","05:00","-24.5","","-27.9","","73","","","","","","0","","24.1","","100.47","","","","","","Mainly Clear"
"-62.28","82.52","ALERT A","2400302","2018-04-25 06:00","2018","04","25","06:00","-25.5","","-29.1","","72","","","","32","","4","","24.1","","100.46","","","","-30","","Mainly Clear"
"-62.28","82.52","ALERT A","2400302","2018-04-25 07:00","2018","04","25","07:00","-25.6","","-29.2","","72","","","","31","","4","","24.1","","100.47","","","","-30","","Mainly Clear"
"-62.28","82.52","ALERT A","2400302","2018-04-25 08:00","2018","04","25","08:00","-25.4","","-28.8","","73","","","","30","","4","","24.1","","100.47","","","","-29","","Mainly Clear"
"-62.28","82.52","ALERT A","2400302","2018-04-25 09:00","2018","04","25","09:00","-24.3","","-28.0","","71","","","","","","0","","24.1","","100.43","","","","","","Mainly Clear"
"-62.28","82.52","ALERT A","2400302","2018-04-25 10:00","2018","04","25","10:00","-25.2","","-28.8","","72","","","","30","","6","","24.1","","100.41","","","","-31","","Mainly Clear"
"-62.28","82.52","ALERT A","2400302","2018-04-25 11:00","2018","04","25","11:00","-24.9","","-28.5","","72","","","","31","","7","","24.1","","100.38","","","","-31","","Clear"
"-62.28","82.52","ALERT A","2400302","2018-04-25 12:00","2018","04","25","12:00","-24.7","","-28.2","","73","","","","30","","7","","24.1","","100.40","","","","-31","","Clear"
"-62.28","82.52","ALERT A","2400302","2018-04-25 13:00","2018","04","25","13:00","-24.5","","-28.1","","72","","","","30","","9","","24.1","","100.41","","","","-32","","Clear"
"-62.28","82.52","ALERT A","2400302","2018-04-25 14:00","2018","04","25","14:00","-24.4","","-27.8","","73","","","","31","","7","","24.1","","100.39","","","","-31","","Clear"
"-62.28","82.52","ALERT A","2400302","2018-04-25 15:00","2018","04","25","15:00","-24.1","","-27.6","","73","","","","31","","6","","24.1","","100.40","","","","-30","","Clear"
"-62.28","82.52","ALERT A","2400302","2018-04-25 16:00","2018","04","25","16:00"
"-62.28","82.52","ALERT A","2400302","2018-04-25 17:00","2018","04","25","17:00"
"-62.28","82.52","ALERT A","2400302","2018-04-25 18:00","2018","04","25","18:00"
"-62.28","82.52","ALERT A","2400302","2018-04-25 19:00","2018","04","25","19:00"
"-62.28","82.52","ALERT A","2400302","2018-04-25 20:00","2018","04","25","20:00"
"-62.28","82.52","ALERT A","2400302","2018-04-25 21:00","2018","04","25","21:00"
"-62.28","82.52","ALERT A","2400302","2018-04-25 22:00","2018","04","25","22:00"
"-62.28","82.52","ALERT A","2400302","2018-04-25 23:00","2018","04","25","23:00"
"-62.28","82.52","ALERT A","2400302","2018-04-26 00:00","2018","04","26","00:00"
"-62.28","82.52","ALERT A","2400302","2018-04-26 01:00","2018","04","26","01:00"
"-62.28","82.52","ALERT A","2400302","2018-04-26 02:00","2018","04","26","02:00"
"-62.28","82.52","ALERT A","2400302","2018-04-26 03:00","2018","04","26","03:00"
"-62.28","82.52","ALERT A","2400302","2018-04-26 04:00","2018","04","26","04:00"
"-62.28","82.52","ALERT A","2400302","2018-04-26 05:00","2018","04","26","05:00"
"-62.28","82.52","ALERT A","2400302","2018-04-26 06:00","2018","04","26","06:00"
"-62.28","82.52","ALERT A","2400302","2018-04-26 07:00","2018","04","26","07:00"
"-62.28","82.52","ALERT A","2400302","2018-04-26 08:00","2018","04","26","08:00","-24.1","","-27.6","","73","","","","33","","7","","24.1","","100.56","","","","-30","","Mostly Cloudy"
"-62.28","82.52","ALERT A","2400302","2018-04-26 09:00","2018","04","26","09:00","-23.8","","-27.6","","71","","","","30","","7","","24.1","","100.57","","","","-30","","Mostly Cloudy"
"-62.28","82.52","ALERT A","2400302","2018-04-26 10:00","2018","04","26","10:00","-23.2","","-27.0","","71","","","","29","","7","","24.1","","100.58","","","","-29","","Mostly Cloudy"
"-62.28","82.52","ALERT A","2400302","2018-04-26 11:00","2018","04","26","11:00","-21.9","","-25.7","","71","","","","29","","4","","24.1","","100.59","","","","-26","","Mostly Cloudy"
"-62.28","82.52","ALERT A","2400302","2018-04-26 12:00","2018","04","26","12:00","-22.1","","-26.1","","70","","","","28","","11","","24.1","","100.62","","","","-30","","Mostly Cloudy"
"-62.28","82.52","ALERT A","2400302","2018-04-26 13:00","2018","04","26","13:00","-20.9","","-25.2","","68","","","","31","","4","","24.1","","100.64","","","","-24","","Mostly Cloudy"
"-62.28","82.52","ALERT A","2400302","2018-04-26 14:00","2018","04","26","14:00","-21.4","","-25.6","","69","","","","27","","6","","24.1","","100.69","","","","-27","","Mostly Cloudy"
"-62.28","82.52","ALERT A","2400302","2018-04-26 15:00","2018","04","26","15:00","-20.7","","-25.1","","68","","","","29","","4","","24.1","","100.72","","","","-24","","Mostly Cloudy"
"-62.28","82.52","ALERT A","2400302","2018-04-26 16:00","2018","04","26","16:00"
"-62.28","82.52","ALERT A","2400302","2018-04-26 17:00","2018","04","26","17:00"
"-62.28","82.52","ALERT A","2400302","2018-04-26 18:00","2018","04","26","18:00"
"-62.28","82.52","ALERT A","2400302","2018-04-26 19:00","2018","04","26","19:00"
"-62.28","82.52","ALERT A","2400302","2018-04-26 20:00","2018","04","26","20:00"
"-62.28","82.52","ALERT A","2400302","2018-04-26 21:00","2018","04","26","21:00"
"-62.28","82.52","ALERT A","2400302","2018-04-26 22:00","2018","04","26","22:00"
"-62.28","82.52","ALERT A","2400302","2018-04-26 23:00","2018","04","26","23:00"
"-62.28","82.52","ALERT A","2400302","2018-04-27 00:00","2018","04","27","00:00"
"-62.28","82.52","ALERT A","2400302","2018-04-27 01:00","2018","04","27","01:00"
"-62.28","82.52","ALERT A","2400302","2018-04-27 02:00","2018","04","27","02:00"
"-62.28","82.52","ALERT A","2400302","2018-04-27 03:00","2018","04","27","03:00"
"-62.28","82.52","ALERT A","2400302","2018-04-27 04:00","2018","04","27","04:00"
"-62.28","82.52","ALERT A","2400302","2018-04-27 05:00","2018","04","27","05:00"
"-62.28","82.52","ALERT A","2400302","2018-04-27 06:00","2018","04","27","06:00"
"-62.28","82.52","ALERT A","2400302","2018-04-27 07:00","2018","04","27","07:00"
"-62.28","82.52","ALERT A","2400302","2018-04-27 08:00","2018","04","27","08:00","-23.2","","-27.7","","67","","","","28","","4","","24.1","","101.32","","","","-27","","Mostly Cloudy"
"-62.28","82.52","ALERT A","2400302","2018-04-27 09:00","2018","04","27","09:00","-22.2","","-26.3","","69","","","","28","","6","","24.1","","101.33","","","","-28","","Mostly Cloudy"
"-62.28","82.52","ALERT A","2400302","2018-04-27 10:00","2018","04","27","10:00","-22.0","","-26.2","","69","","","","33","","6","","24.1","","101.32","","","","-27","","Mostly Cloudy"
"-62.28","82.52","ALERT A","2400302","2018-04-27 11:00","2018","04","27","11:00","-22.2","","-26.2","","70","","","","34","","7","","24.1","","101.33","","","","-28","","Mostly Cloudy"
"-62.28","82.52","ALERT A","2400302","2018-04-27 12:00","2018","04","27","12:00","-20.8","","-25.4","","67","","","","","","0","","24.1","","101.32","","","","","","Mostly Cloudy"
"-62.28","82.52","ALERT A","2400302","2018-04-27 13:00","2018","04","27","13:00","-21.6","","-25.6","","70","","","","34","","6","","24.1","","101.30","","","","-27","","Mostly Cloudy"
"-62.28","82.52","ALERT A","2400302","2018-04-27 14:00","2018","04","27","14:00","-21.4","","-25.3","","71","","","","31","","7","","24.1","","101.30","","","","-27","","Mostly Cloudy"
"-62.28","82.52","ALERT A","2400302","2018-04-27 15:00","2018","04","27","15:00","-21.0","","-25.0","","70","","","","30","","7","","24.1","","101.30","","","","-27","","Mostly Cloudy"
"-62.28","82.52","ALERT A","2400302","2018-04-27 16:00","2018","04","27","16:00"
"-62.28","82.52","ALERT A","2400302","2018-04-27 17:00","2018","04","27","17:00"
"-62.28","82.52","ALERT A","2400302","2018-04-27 18:00","2018","04","27","18:00"
"-62.28","82.52","ALERT A","2400302","2018-04-27 19:00","2018","04","27","19:00"
"-62.28","82.52","ALERT A","2400302","2018-04-27 20:00","2018","04","27","20:00"
"-62.28","82.52","ALERT A","2400302","2018-04-27 21:00","2018","04","27","21:00"
"-62.28","82.52","ALERT A","2400302","2018-04-27 22:00","2018","04","27","22:00"
"-62.28","82.52","ALERT A","2400302","2018-04-27 23:00","2018","04","27","23:00"
"-62.28","82.52","ALERT A","2400302","2018-04-28 00:00","2018","04","28","00:00"
"-62.28","82.52","ALERT A","2400302","2018-04-28 01:00","2018","04","28","01:00"
"-62.28","82.52","ALERT A","2400302","2018-04-28 02:00","2018","04","28","02:00"
"-62.28","82.52","ALERT A","2400302","2018-04-28 03:00","2018","04","28","03:00"
"-62.28","82.52","ALERT A","2400302","2018-04-28 04:00","2018","04","28","04:00"
"-62.28","82.52","ALERT A","2400302","2018-04-28 05:00","2018","04","28","05:00"
"-62.28","82.52","ALERT A","2400302","2018-04-28 06:00","2018","04","28","06:00"
"-62.28","82.52","ALERT A","2400302","2018-04-28 07:00","2018","04","28","07:00"
"-62.28","82.52","ALERT A","2400302","2018-04-28 08:00","2018","04","28","08:00"
"-62.28","82.52","ALERT A","2400302","2018-04-28 09:00","2018","04","28","09:00"
"-62.28","82.52","ALERT A","2400302","2018-04-28 10:00","2018","04","28","10:00"
"-62.28","82.52","ALERT A","2400302","2018-04-28 11:00","2018","04","28","11:00"
"-62.28","82.52","ALERT A","2400302","2018-04-28 12:00","2018","04","28","12:00"
"-62.28","82.52","ALERT A","2400302","2018-04-28 13:00","2018","04","28","13:00"
"-62.28","82.52","ALERT A","2400302","2018-04-28 14:00","2018","04","28","14:00"
"-62.28","82.52","ALERT A","2400302","2018-04-28 15:00","2018","04","28","15:00"
"-62.28","82.52","ALERT A","2400302","2018-04-28 16:00","2018","04","28","16:00"
"-62.28","82.52","ALERT A","2400302","2018-04-28 17:00","2018","04","28","17:00"
"-62.28","82.52","ALERT A","2400302","2018-04-28 18:00","2018","04","28","18:00"
"-62.28","82.52","ALERT A","2400302","2018-04-28 19:00","2018","04","28","19:00"
"-62.28","82.52","ALERT A","2400302","2018-04-28 20:00","2018","04","28","20:00"
"-62.28","82.52","ALERT A","2400302","2018-04-28 21:00","2018","04","28","21:00"
"-62.28","82.52","ALERT A","2400302","2018-04-28 22:00","2018","04","28","22:00"
"-62.28","82.52","ALERT A","2400302","2018-04-28 23:00","2018","04","28","23:00"
"-62.28","82.52","ALERT A","2400302","2018-04-29 00:00","2018","04","29","00:00"
"-62.28","82.52","ALERT A","2400302","2018-04-29 01:00","2018","04","29","01:00"
"-62.28","82.52","ALERT A","2400302","2018-04-29 02:00","2018","04","29","02:00"
"-62.28","82.52","ALERT A","2400302","2018-04-29 03:00","2018","04","29","03:00"
"-62.28","82.52","ALERT A","2400302","2018-04-29 04:00","2018","04","29","04:00"
"-62.28","82.52","ALERT A","2400302","2018-04-29 05:00","2018","04","29","05:00"
"-62.28","82.52","ALERT A","2400302","2018-04-29 06:00","2018","04","29","06:00"
"-62.28","82.52","ALERT A","2400302","2018-04-29 07:00","2018","04","29","07:00"
"-62.28","82.52","ALERT A","2400302","2018-04-29 08:00","2018","04","29","08:00"
"-62.28","82.52","ALERT A","2400302","2018-04-29 09:00","2018","04","29","09:00"
"-62.28","82.52","ALERT A","2400302","2018-04-29 10:00","2018","04","29","10:00"
"-62.28","82.52","ALERT A","2400302","2018-04-29 11:00","2018","04","29","11:00"
"-62.28","82.52","ALERT A","2400302","2018-04-29 12:00","2018","04","29","12:00"
"-62.28","82.52","ALERT A","2400302","2018-04-29 13:00","2018","04","29","13:00"
"-62.28","82.52","ALERT A","2400302","2018-04-29 14:00","2018","04","29","14:00"
"-62.28","82.52","ALERT A","2400302","2018-04-29 15:00","2018","04","29","15:00"
"-62.28","82.52","ALERT A","2400302","2018-04-29 16:00","2018","04","29","16:00"
"-62.28","82.52","ALERT A","2400302","2018-04-29 17:00","2018","04","29","17:00"
"-62.28","82.52","ALERT A","2400302","2018-04-29 18:00","2018","04","29","18:00"
"-62.28","82.52","ALERT A","2400302","2018-04-29 19:00","2018","04","29","19:00"
"-62.28","82.52","ALERT A","2400302","2018-04-29 20:00","2018","04","29","20:00"
"-62.28","82.52","ALERT A","2400302","2018-04-29 21:00","2018","04","29","21:00"
"-62.28","82.52","ALERT A","2400302","2018-04-29 22:00","2018","04","29","22:00"
"-62.28","82.52","ALERT A","2400302","2018-04-29 23:00","2018","04","29","23:00"
"-62.28","82.52","ALERT A","2400302","2018-04-30 00:00","2018","04","30","00:00"
"-62.28","82.52","ALERT A","2400302","2018-04-30 01:00","2018","04","30","01:00"
"-62.28","82.52","ALERT A","2400302","2018-04-30 02:00","2018","04","30","02:00"
"-62.28","82.52","ALERT A","2400302","2018-04-30 03:00","2018","04","30","03:00"
"-62.28","82.52","ALERT A","2400302","2018-04-30 04:00","2018","04","30","04:00"
"-62.28","82.52","ALERT A","2400302","2018-04-30 05:00","2018","04","30","05:00"
"-62.28","82.52","ALERT A","2400302","2018-04-30 06:00","2018","04","30","06:00"
"-62.28","82.52","ALERT A","2400302","2018-04-30 07:00","2018","04","30","07:00"
"-62.28","82.52","ALERT A","2400302","2018-04-30 08:00","2018","04","30","08:00","-23.0","","-26.9","","70","","","","28","","6","","24.1","","100.93","","","","-28","","Mainly Clear"
"-62.28","82.52","ALERT A","2400302","2018-04-30 09:00","2018","04","30","09:00","-22.3","","-25.9","","72","","","","31","","6","","24.1","","100.89","","","","-28","","Mainly Clear"
"-62.28","82.52","ALERT A","2400302","2018-04-30 10:00","2018","04","30","10:00","-22.5","","-26.1","","72","","","","29","","7","","24.1","","100.84","","","","-29","","Mostly Cloudy"
"-62.28","82.52","ALERT A","2400302","2018-04-30 11:00","2018","04","30","11:00","-21.5","","-24.6","","76","","","","","","0","","24.1","","100.80","","","","","","Mostly Cloudy"
"-62.28","82.52","ALERT A","2400302","2018-04-30 12:00","2018","04","30","12:00","-21.3","","-24.4","","76","","","","31","","4","","24.1","","100.76","","","","-25","","Mostly Cloudy"
"-62.28","82.52","ALERT A","2400302","2018-04-30 13:00","2018","04","30","13:00","-21.5","","-24.4","","77","","","","30","","7","","24.1","","100.74","","","","-27","","Mostly Cloudy"
"-62.28","82.52","ALERT A","2400302","2018-04-30 14:00","2018","04","30","14:00","-21.6","","-24.4","","78","","","","32","","7","","24.1","","100.72","","","","-28","","Mostly Cloudy"
"-62.28","82.52","ALERT A","2400302","2018-04-30 15:00","2018","04","30","15:00","-21.3","","-24.3","","77","","","","31","","9","","24.1","","100.70","","","","-28","","Mostly Cloudy"
"-62.28","82.52","ALERT A","2400302","2018-04-30 16:00","2018","04","30","16:00"
"-62.28","82.52","ALERT A","2400302","2018-04-30 17:00","2018","04","30","17:00"
"-62.28","82.52","ALERT A","2400302","2018-04-30 18:00","2018","04","30","18:00"
"-62.28","82.52","ALERT A","2400302","2018-04-30 19:00","2018","04","30","19:00"
"-62.28","82.52","ALERT A","2400302","2018-04-30 20:00","2018","04","30","20:00"
"-62.28","82.52","ALERT A","2400302","2018-04-30 21:00","2018","04","30","21:00"
"-62.28","82.52","ALERT A","2400302","2018-04-30 22:00","2018","04","30","22:00"
"-62.28","82.52","ALERT A","2400302","2018-04-30 23:00","2018","04","30","23:00"
