"Longitude (x)","Latitude (y)","Station Name","Climate ID","Date/Time (LST)","Year","Month","Day","Time (LST)","Temp (°C)","Temp Flag","Dew Point Temp (°C)","Dew Point Temp Flag","Rel Hum (%)","Rel Hum Flag","Precip. Amount (mm)","Precip. Amount Flag","Wind Dir (10s deg)","Wind Dir Flag","Wind Spd (km/h)","Wind Spd Flag","Visibility (km)","Visibility Flag","Stn Press (kPa)","Stn Press Flag","Hmdx","Hmdx Flag","Wind Chill","Wind Chill Flag","Weather"
"-89.73","68.44","PELLY BAY","2303093","2019-03-01 00:00","2019","03","01","00:00","-28.1","","","","","M","","","36","","37","","","M","98.33","","","","-44","","NA"
"-89.73","68.44","PELLY BAY","2303093","2019-03-01 01:00","2019","03","01","01:00","-28.0","","","","","M","","","36","","31","","","M","98.33","","","","-43","","NA"
"-89.73","68.44","PELLY BAY","2303093","2019-03-01 02:00","2019","03","01","02:00","-28.7","","","","","M","","","34","","28","","","M","98.35","","","","-43","","NA"
"-89.73","68.44","PELLY BAY","2303093","2019-03-01 03:00","2019","03","01","03:00","-28.1","","","","","M","","","1","","46","","","M","98.31","","","","-46","","NA"
"-89.73","68.44","PELLY BAY","2303093","2019-03-01 04:00","2019","03","01","04:00","-27.8","","","","","M","","","36","","44","","","M","98.33","","","","-45","","NA"
"-89.73","68.44","PELLY BAY","2303093","2019-03-01 05:00","2019","03","01","05:00","-27.2","","","","","M","","","36","","37","","","M","98.41","","","","-43","","NA"
"-89.73","68.44","PELLY BAY","2303093","2019-03-01 06:00","2019","03","01","06:00","-27.6","","","","","M","","","34","","33","","","M","98.40","","","","-43","","NA"
"-89.73","68.44","PELLY BAY","2303093","2019-03-01 07:00","2019","03","01","07:00","-27.3","","","","","M","","","35","","39","","","M","98.38","","","","-44","","NA"
"-89.73","68.44","PELLY BAY","2303093","2019-03-01 08:00","2019","03","01","08:00","-27.1","","","","","M","","","34","","33","","","M","98.40","","","","-42","","NA"
"-89.73","68.44","PELLY BAY","2303093","2019-03-01 09:00","2019","03","01","09:00","-27.8","","","","","M","","","34","","43","","","M","98.35","","","","-45","","NA"
"-89.73","68.44","PELLY BAY","2303093","2019-03-01 10:00","2019","03","01","10:00","-27.5","","","","","M","","","34","","43","","","M","98.35","","","","-45","","NA"
"-89.73","68.44","PELLY BAY","2303093","2019-03-01 11:00","2019","03","01","11:00","-27.1","","","","","M","","","34","","46","","","M","98.30","","","","-45","","NA"
"-89.73","68.44","PELLY BAY","2303093","2019-03-01 12:00","2019","03","01","12:00","-26.2","","","","","M","","","34","","43","","","M","98.30","","","","-43","","NA"
"-89.73","68.44","PELLY BAY","2303093","2019-03-01 13:00","2019","03","01","13:00","-26.0","","","","","M","","","34","","44","","","M","98.26","","","","-43","","NA"
"-89.73","68.44","PELLY BAY","2303093","2019-03-01 14:00","2019","03","01","14:00","-25.7","","","","","M","","","34","","44","","","M","98.25","","","","-42","","NA"
"-89.73","68.44","PELLY BAY","2303093","2019-03-01 15:00","2019","03","01","15:00","-25.7","","","","","M","","","33","","46","","","M","98.26","","","","-43","","NA"
"-89.73","68.44","PELLY BAY","2303093","2019-03-01 16:00","2019","03","01","16:00","-25.8","","","","","M","","","33","","37","","","M","98.30","","","","-41","","NA"
"-89.73","68.44","PELLY BAY","2303093","2019-03-01 17:00","2019","03","01","17:00","-26.6","","","","","M","","","33","","44","","","M","98.30","","","","-44","","NA"
"-89.73","68.44","PELLY BAY","2303093","2019-03-01 18:00","2019","03","01","18:00","-27.0","","","","","M","","","32","","41","","","M","98.28","","","","-44","","NA"
"-89.73","68.44","PELLY BAY","2303093","2019-03-01 19:00","2019","03","01","19:00","-26.8","","","","","M","","","33","","41","","","M","98.25","","","","-43","","NA"
"-89.73","68.44","PELLY BAY","2303093","2019-03-01 20:00","2019","03","01","20:00","-25.8","","","","","M","","","32","","33","","","M","98.22","","","","-41","","NA"
"-89.73","68.44","PELLY BAY","2303093","2019-03-01 21:00","2019","03","01","21:00","-26.3","","","","","M","","","30","","30","","","M","98.09","","","","-41","","NA"
"-89.73","68.44","PELLY BAY","2303093","2019-03-01 22:00","2019","03","01","22:00","-27.6","","","","","M","","","29","","24","","","M","98.07","","","","-41","","NA"
"-89.73","68.44","PELLY BAY","2303093","2019-03-01 23:00","2019","03","01","23:00","-29.0","","","","","M","","","29","","35","","","M","97.96","","","","-45","","NA"
"-89.73","68.44","PELLY BAY","2303093","2019-03-02 00:00","2019","03","02","00:00","-29.8","","","","","M","","","27","","31","","","M","97.88","","","","-46","","NA"
"-89.73","68.44","PELLY BAY","2303093","2019-03-02 01:00","2019","03","02","01:00","-30.4","","","","","M","","","29","","46","","","M","97.75","","","","-49","","NA"
"-89.73","68.44","PELLY BAY","2303093","2019-03-02 02:00","2019","03","02","02:00","-30.1","","","","","M","","","29","","41","","","M","97.66","","","","-48","","NA"
"-89.73","68.44","PELLY BAY","2303093","2019-03-02 03:00","2019","03","02","03:00","-28.5","","","","","M","","","28","","35","","","M","97.57","","","","-45","","NA"
"-89.73","68.44","PELLY BAY","2303093","2019-03-02 04:00","2019","03","02","04:00","-27.6","","","","","M","","","31","","56","","","M","97.39","","","","-47","","NA"
"-89.73","68.44","PELLY BAY","2303093","2019-03-02 05:00","2019","03","02","05:00","-26.5","","","","","M","","","31","","57","","","M","97.37","","","","-45","","NA"
"-89.73","68.44","PELLY BAY","2303093","2019-03-02 06:00","2019","03","02","06:00","-25.9","","","","","M","","","31","","41","","","M","97.41","","","","-42","","NA"
"-89.73","68.44","PELLY BAY","2303093","2019-03-02 07:00","2019","03","02","07:00","-25.3","","","","","M","","","33","","39","","","M","97.34","","","","-41","","NA"
"-89.73","68.44","PELLY BAY","2303093","2019-03-02 08:00","2019","03","02","08:00","-24.5","","","","","M","","","33","","46","","","M","97.26","","","","-41","","NA"
"-89.73","68.44","PELLY BAY","2303093","2019-03-02 09:00","2019","03","02","09:00","-24.0","","","","","M","","","33","","35","","","M","97.23","","","","-39","","NA"
"-89.73","68.44","PELLY BAY","2303093","2019-03-02 10:00","2019","03","02","10:00","-23.2","","","","","M","","","31","","37","","","M","97.17","","","","-38","","NA"
"-89.73","68.44","PELLY BAY","2303093","2019-03-02 11:00","2019","03","02","11:00","-22.4","","","","","M","","","32","","33","","","M","97.10","","","","-36","","NA"
"-89.73","68.44","PELLY BAY","2303093","2019-03-02 12:00","2019","03","02","12:00","-21.0","","","","","M","","","33","","48","","","M","96.95","","","","-37","","NA"
"-89.73","68.44","PELLY BAY","2303093","2019-03-02 13:00","2019","03","02","13:00","-19.4","","","","","M","","","33","","56","","","M","96.92","","","","-35","","NA"
"-89.73","68.44","PELLY BAY","2303093","2019-03-02 14:00","2019","03","02","14:00","-19.8","","","","","M","","","35","","59","","","M","96.94","","","","-36","","NA"
"-89.73","68.44","PELLY BAY","2303093","2019-03-02 15:00","2019","03","02","15:00","-21.3","","","","","M","","","36","","46","","","M","96.95","","","","-37","","NA"
"-89.73","68.44","PELLY BAY","2303093","2019-03-02 16:00","2019","03","02","16:00","-22.0","","","","","M","","","1","","54","","","M","97.00","","","","-39","","NA"
"-89.73","68.44","PELLY BAY","2303093","2019-03-02 17:00","2019","03","02","17:00","-22.8","","","","","M","","","36","","43","","","M","97.00","","","","-38","","NA"
"-89.73","68.44","PELLY BAY","2303093","2019-03-02 18:00","2019","03","02","18:00","-23.2","","","","","M","","","36","","43","","","M","97.03","","","","-39","","NA"
"-89.73","68.44","PELLY BAY","2303093","2019-03-02 19:00","2019","03","02","19:00","-23.6","","","","","M","","","35","","33","","","M","97.04","","","","-38","","NA"
"-89.73","68.44","PELLY BAY","2303093","2019-03-02 20:00","2019","03","02","20:00","-23.3","","","","","M","","","35","","39","","","M","97.00","","","","-38","","NA"
"-89.73","68.44","PELLY BAY","2303093","2019-03-02 21:00","2019","03","02","21:00","-22.4","","","","","M","","","34","","37","","","M","97.00","","","","-37","","NA"
"-89.73","68.44","PELLY BAY","2303093","2019-03-02 22:00","2019","03","02","22:00","-21.8","","","","","M","","","34","","46","","","M","96.92","","","","-37","","NA"
"-89.73","68.44","PELLY BAY","2303093","2019-03-02 23:00","2019","03","02","23:00","-21.8","","","","","M","","","34","","39","","","M","96.84","","","","-36","","NA"
"-89.73","68.44","PELLY BAY","2303093","2019-03-03 00:00","2019","03","03","00:00","-21.4","","","","","M","","","34","","43","","","M","96.76","","","","-36","","NA"
"-89.73","68.44","PELLY BAY","2303093","2019-03-03 01:00","2019","03","03","01:00","-21.5","","","","","M","","","34","","43","","","M","96.68","","","","-37","","NA"
"-89.73","68.44","PELLY BAY","2303093","2019-03-03 02:00","2019","03","03","02:00","-22.4","","","","","M","","","33","","33","","","M","96.64","","","","-36","","NA"
"-89.73","68.44","PELLY BAY","2303093","2019-03-03 03:00","2019","03","03","03:00","-21.8","","","","","M","","","34","","28","","","M","96.60","","","","-35","","NA"
"-89.73","68.44","PELLY BAY","2303093","2019-03-03 04:00","2019","03","03","04:00","-20.2","","","","","M","","","34","","46","","","M","96.48","","","","-35","","NA"
"-89.73","68.44","PELLY BAY","2303093","2019-03-03 05:00","2019","03","03","05:00","-20.2","","","","","M","","","36","","48","","","M","96.45","","","","-35","","NA"
"-89.73","68.44","PELLY BAY","2303093","2019-03-03 06:00","2019","03","03","06:00","-21.2","","","","","M","","","2","","67","","","M","96.39","","","","-39","","NA"
"-89.73","68.44","PELLY BAY","2303093","2019-03-03 07:00","2019","03","03","07:00","-22.4","","","","","M","","","2","","57","","","M","96.42","","","","-39","","NA"
"-89.73","68.44","PELLY BAY","2303093","2019-03-03 08:00","2019","03","03","08:00","-23.1","","","","","M","","","2","","48","","","M","96.46","","","","-39","","NA"
"-89.73","68.44","PELLY BAY","2303093","2019-03-03 09:00","2019","03","03","09:00","-23.6","","","","","M","","","2","","50","","","M","96.52","","","","-40","","NA"
"-89.73","68.44","PELLY BAY","2303093","2019-03-03 10:00","2019","03","03","10:00","-23.5","","","","","M","","","2","","46","","","M","96.56","","","","-40","","NA"
"-89.73","68.44","PELLY BAY","2303093","2019-03-03 11:00","2019","03","03","11:00","-23.3","","","","","M","","","2","","48","","","M","96.56","","","","-40","","NA"
"-89.73","68.44","PELLY BAY","2303093","2019-03-03 12:00","2019","03","03","12:00","-22.7","","","","","M","","","1","","41","","","M","96.59","","","","-38","","NA"
"-89.73","68.44","PELLY BAY","2303093","2019-03-03 13:00","2019","03","03","13:00","-22.0","","","","","M","","","34","","26","","","M","96.63","","","","-34","","NA"
"-89.73","68.44","PELLY BAY","2303093","2019-03-03 14:00","2019","03","03","14:00","-23.0","","","","","M","","","3","","46","","","M","96.67","","","","-39","","NA"
"-89.73","68.44","PELLY BAY","2303093","2019-03-03 15:00","2019","03","03","15:00","-23.4","","","","","M","","","3","","41","","","M","96.67","","","","-39","","NA"
"-89.73","68.44","PELLY BAY","2303093","2019-03-03 16:00","2019","03","03","16:00","-23.4","","","","","M","","","2","","39","","","M","96.74","","","","-39","","NA"
"-89.73","68.44","PELLY BAY","2303093","2019-03-03 17:00","2019","03","03","17:00","-23.8","","","","","M","","","2","","35","","","M","96.81","","","","-38","","NA"
"-89.73","68.44","PELLY BAY","2303093","2019-03-03 18:00","2019","03","03","18:00","-24.0","","","","","M","","","2","","33","","","M","96.90","","","","-38","","NA"
"-89.73","68.44","PELLY BAY","2303093","2019-03-03 19:00","2019","03","03","19:00","-24.3","","","","","M","","","36","","20","","","M","96.91","","","","-36","","NA"
"-89.73","68.44","PELLY BAY","2303093","2019-03-03 20:00","2019","03","03","20:00","-24.7","","","","","M","","","3","","26","","","M","96.93","","","","-38","","NA"
"-89.73","68.44","PELLY BAY","2303093","2019-03-03 21:00","2019","03","03","21:00","-25.2","","","","","M","","","1","","20","","","M","96.98","","","","-37","","NA"
"-89.73","68.44","PELLY BAY","2303093","2019-03-03 22:00","2019","03","03","22:00","-25.7","","","","","M","","","2","","20","","","M","97.00","","","","-38","","NA"
"-89.73","68.44","PELLY BAY","2303093","2019-03-03 23:00","2019","03","03","23:00","-26.0","","","","","M","","","3","","15","","","M","97.05","","","","-36","","NA"
"-89.73","68.44","PELLY BAY","2303093","2019-03-04 00:00","2019","03","04","00:00","-26.1","","","","","M","","","5","","19","","","M","97.08","","","","-38","","NA"
"-89.73","68.44","PELLY BAY","2303093","2019-03-04 01:00","2019","03","04","01:00","-26.1","","","","","M","","","2","","19","","","M","97.12","","","","-38","","NA"
"-89.73","68.44","PELLY BAY","2303093","2019-03-04 02:00","2019","03","04","02:00","-25.3","","","","","M","","","1","","15","","","M","97.18","","","","-36","","NA"
"-89.73","68.44","PELLY BAY","2303093","2019-03-04 03:00","2019","03","04","03:00","-25.3","","","","","M","","","3","","19","","","M","97.22","","","","-37","","NA"
"-89.73","68.44","PELLY BAY","2303093","2019-03-04 04:00","2019","03","04","04:00","-25.3","","","","","M","","","5","","17","","","M","97.23","","","","-36","","NA"
"-89.73","68.44","PELLY BAY","2303093","2019-03-04 05:00","2019","03","04","05:00","-24.4","","","","","M","","","4","","17","","","M","97.27","","","","-35","","NA"
"-89.73","68.44","PELLY BAY","2303093","2019-03-04 06:00","2019","03","04","06:00","-25.1","","","","","M","","","3","","20","","","M","97.27","","","","-37","","NA"
"-89.73","68.44","PELLY BAY","2303093","2019-03-04 07:00","2019","03","04","07:00","-24.2","","","","","M","","","3","","17","","","M","97.28","","","","-35","","NA"
"-89.73","68.44","PELLY BAY","2303093","2019-03-04 08:00","2019","03","04","08:00","-23.1","","","","","M","","","4","","15","","","M","97.29","","","","-33","","NA"
"-89.73","68.44","PELLY BAY","2303093","2019-03-04 09:00","2019","03","04","09:00","-22.9","","","","","M","","","6","","19","","","M","97.28","","","","-34","","NA"
"-89.73","68.44","PELLY BAY","2303093","2019-03-04 10:00","2019","03","04","10:00","-23.0","","","","","M","","","10","","19","","","M","97.29","","","","-34","","NA"
"-89.73","68.44","PELLY BAY","2303093","2019-03-04 11:00","2019","03","04","11:00","-22.5","","","","","M","","","12","","15","","","M","97.30","","","","-32","","NA"
"-89.73","68.44","PELLY BAY","2303093","2019-03-04 12:00","2019","03","04","12:00","-21.9","","","","","M","","","13","","13","","","M","97.28","","","","-31","","NA"
"-89.73","68.44","PELLY BAY","2303093","2019-03-04 13:00","2019","03","04","13:00","-21.8","","","","","M","","","11","","7","","","M","97.28","","","","-28","","NA"
"-89.73","68.44","PELLY BAY","2303093","2019-03-04 14:00","2019","03","04","14:00","-21.7","","","","","M","","","19","","4","","","M","97.27","","","","-25","","NA"
"-89.73","68.44","PELLY BAY","2303093","2019-03-04 15:00","2019","03","04","15:00","-22.1","","","","","M","","","4","","6","","","M","97.28","","","","-27","","NA"
"-89.73","68.44","PELLY BAY","2303093","2019-03-04 16:00","2019","03","04","16:00","-22.4","","","","","M","","","27","","4","","","M","97.27","","","","-26","","NA"
"-89.73","68.44","PELLY BAY","2303093","2019-03-04 17:00","2019","03","04","17:00","-22.4","","","","","M","","","","","0","","","M","97.27","","","","","","NA"
"-89.73","68.44","PELLY BAY","2303093","2019-03-04 18:00","2019","03","04","18:00","-22.5","","","","","M","","","4","","9","","","M","97.26","","","","-30","","NA"
"-89.73","68.44","PELLY BAY","2303093","2019-03-04 19:00","2019","03","04","19:00","-22.7","","","","","M","","","","","0","","","M","97.24","","","","","","NA"
"-89.73","68.44","PELLY BAY","2303093","2019-03-04 20:00","2019","03","04","20:00","-22.5","","","","","M","","","23","","6","","","M","97.21","","","","-28","","NA"
"-89.73","68.44","PELLY BAY","2303093","2019-03-04 21:00","2019","03","04","21:00","-22.5","","","","","M","","","30","","7","","","M","97.17","","","","-29","","NA"
"-89.73","68.44","PELLY BAY","2303093","2019-03-04 22:00","2019","03","04","22:00","-22.5","","","","","M","","","32","","11","","","M","97.14","","","","-31","","NA"
"-89.73","68.44","PELLY BAY","2303093","2019-03-04 23:00","2019","03","04","23:00","-22.6","","","","","M","","","32","","15","","","M","97.12","","","","-32","","NA"
"-89.73","68.44","PELLY BAY","2303093","2019-03-05 00:00","2019","03","05","00:00","-23.5","","","","","M","","","32","","17","","","M","97.11","","","","-34","","NA"
"-89.73","68.44","PELLY BAY","2303093","2019-03-05 01:00","2019","03","05","01:00","-24.3","","","","","M","","","32","","19","","","M","97.11","","","","-36","","NA"
"-89.73","68.44","PELLY BAY","2303093","2019-03-05 02:00","2019","03","05","02:00","-24.6","","","","","M","","","32","","20","","","M","97.07","","","","-36","","NA"
"-89.73","68.44","PELLY BAY","2303093","2019-03-05 03:00","2019","03","05","03:00","-25.0","","","","","M","","","34","","24","","","M","97.07","","","","-38","","NA"
"-89.73","68.44","PELLY BAY","2303093","2019-03-05 04:00","2019","03","05","04:00","-25.1","","","","","M","","","36","","24","","","M","97.06","","","","-38","","NA"
"-89.73","68.44","PELLY BAY","2303093","2019-03-05 05:00","2019","03","05","05:00","-25.5","","","","","M","","","34","","24","","","M","97.06","","","","-38","","NA"
"-89.73","68.44","PELLY BAY","2303093","2019-03-05 06:00","2019","03","05","06:00","-26.6","","","","","M","","","33","","24","","","M","97.03","","","","-40","","NA"
"-89.73","68.44","PELLY BAY","2303093","2019-03-05 07:00","2019","03","05","07:00","-27.3","","","","","M","","","33","","30","","","M","97.03","","","","-42","","NA"
"-89.73","68.44","PELLY BAY","2303093","2019-03-05 08:00","2019","03","05","08:00","-27.0","","","","","M","","","34","","28","","","M","97.00","","","","-41","","NA"
"-89.73","68.44","PELLY BAY","2303093","2019-03-05 09:00","2019","03","05","09:00","-26.7","","","","","M","","","33","","31","","","M","96.97","","","","-42","","NA"
"-89.73","68.44","PELLY BAY","2303093","2019-03-05 10:00","2019","03","05","10:00","-26.7","","","","","M","","","32","","30","","","M","96.96","","","","-41","","NA"
"-89.73","68.44","PELLY BAY","2303093","2019-03-05 11:00","2019","03","05","11:00","-26.8","","","","","M","","","32","","26","","","M","96.97","","","","-41","","NA"
"-89.73","68.44","PELLY BAY","2303093","2019-03-05 12:00","2019","03","05","12:00","-26.2","","","","","M","","","33","","26","","","M","96.95","","","","-40","","NA"
"-89.73","68.44","PELLY BAY","2303093","2019-03-05 13:00","2019","03","05","13:00","-25.8","","","","","M","","","33","","41","","","M","96.89","","","","-42","","NA"
"-89.73","68.44","PELLY BAY","2303093","2019-03-05 14:00","2019","03","05","14:00","-25.2","","","","","M","","","34","","44","","","M","96.87","","","","-42","","NA"
"-89.73","68.44","PELLY BAY","2303093","2019-03-05 15:00","2019","03","05","15:00","-24.9","","","","","M","","","35","","50","","","M","96.87","","","","-42","","NA"
"-89.73","68.44","PELLY BAY","2303093","2019-03-05 16:00","2019","03","05","16:00","-26.0","","","","","M","","","35","","44","","","M","96.90","","","","-43","","NA"
"-89.73","68.44","PELLY BAY","2303093","2019-03-05 17:00","2019","03","05","17:00","-26.8","","","","","M","","","34","","43","","","M","96.88","","","","-44","","NA"
"-89.73","68.44","PELLY BAY","2303093","2019-03-05 18:00","2019","03","05","18:00","-27.7","","","","","M","","","34","","39","","","M","96.87","","","","-44","","NA"
"-89.73","68.44","PELLY BAY","2303093","2019-03-05 19:00","2019","03","05","19:00","-28.1","","","","","M","","","34","","39","","","M","96.84","","","","-45","","NA"
"-89.73","68.44","PELLY BAY","2303093","2019-03-05 20:00","2019","03","05","20:00","-28.7","","","","","M","","","35","","35","","","M","96.82","","","","-45","","NA"
"-89.73","68.44","PELLY BAY","2303093","2019-03-05 21:00","2019","03","05","21:00","-29.6","","","","","M","","","34","","33","","","M","96.76","","","","-46","","NA"
"-89.73","68.44","PELLY BAY","2303093","2019-03-05 22:00","2019","03","05","22:00","-29.9","","","","","M","","","33","","20","","","M","96.76","","","","-43","","NA"
"-89.73","68.44","PELLY BAY","2303093","2019-03-05 23:00","2019","03","05","23:00","-30.5","","","","","M","","","33","","19","","","M","96.71","","","","-43","","NA"
"-89.73","68.44","PELLY BAY","2303093","2019-03-06 00:00","2019","03","06","00:00","-30.9","","","","","M","","","33","","22","","","M","96.68","","","","-45","","NA"
"-89.73","68.44","PELLY BAY","2303093","2019-03-06 01:00","2019","03","06","01:00","-30.5","","","","","M","","","34","","22","","","M","96.65","","","","-44","","NA"
"-89.73","68.44","PELLY BAY","2303093","2019-03-06 02:00","2019","03","06","02:00","-30.5","","","","","M","","","33","","26","","","M","96.62","","","","-45","","NA"
"-89.73","68.44","PELLY BAY","2303093","2019-03-06 03:00","2019","03","06","03:00","-30.4","","","","","M","","","33","","26","","","M","96.61","","","","-45","","NA"
"-89.73","68.44","PELLY BAY","2303093","2019-03-06 04:00","2019","03","06","04:00","-30.5","","","","","M","","","33","","22","","","M","96.61","","","","-44","","NA"
"-89.73","68.44","PELLY BAY","2303093","2019-03-06 05:00","2019","03","06","05:00","-30.3","","","","","M","","","33","","26","","","M","96.59","","","","-45","","NA"
"-89.73","68.44","PELLY BAY","2303093","2019-03-06 06:00","2019","03","06","06:00","-30.5","","","","","M","","","32","","19","","","M","96.56","","","","-43","","NA"
"-89.73","68.44","PELLY BAY","2303093","2019-03-06 07:00","2019","03","06","07:00","-30.6","","","","","M","","","31","","17","","","M","96.51","","","","-43","","NA"
"-89.73","68.44","PELLY BAY","2303093","2019-03-06 08:00","2019","03","06","08:00","-30.3","","","","","M","","","27","","15","","","M","96.49","","","","-42","","NA"
"-89.73","68.44","PELLY BAY","2303093","2019-03-06 09:00","2019","03","06","09:00","-30.3","","","","","M","","","28","","11","","","M","96.48","","","","-40","","NA"
"-89.73","68.44","PELLY BAY","2303093","2019-03-06 10:00","2019","03","06","10:00","-28.8","","","","","M","","","28","","15","","","M","96.47","","","","-40","","NA"
"-89.73","68.44","PELLY BAY","2303093","2019-03-06 11:00","2019","03","06","11:00","-26.8","","","","","M","","","30","","15","","","M","96.45","","","","-37","","NA"
"-89.73","68.44","PELLY BAY","2303093","2019-03-06 12:00","2019","03","06","12:00","-25.8","","","","","M","","","30","","11","","","M","96.44","","","","-35","","NA"
"-89.73","68.44","PELLY BAY","2303093","2019-03-06 13:00","2019","03","06","13:00","-25.7","","","","","M","","","31","","13","","","M","96.45","","","","-35","","NA"
"-89.73","68.44","PELLY BAY","2303093","2019-03-06 14:00","2019","03","06","14:00","-24.8","","","","","M","","","32","","9","","","M","96.46","","","","-32","","NA"
"-89.73","68.44","PELLY BAY","2303093","2019-03-06 15:00","2019","03","06","15:00","-24.8","","","","","M","","","34","","9","","","M","96.47","","","","-32","","NA"
"-89.73","68.44","PELLY BAY","2303093","2019-03-06 16:00","2019","03","06","16:00","-26.2","","","","","M","","","2","","7","","","M","96.50","","","","-33","","NA"
"-89.73","68.44","PELLY BAY","2303093","2019-03-06 17:00","2019","03","06","17:00","-27.7","","","","","M","","","1","","7","","","M","96.50","","","","-35","","NA"
"-89.73","68.44","PELLY BAY","2303093","2019-03-06 18:00","2019","03","06","18:00","-28.6","","","","","M","","","36","","9","","","M","96.51","","","","-37","","NA"
"-89.73","68.44","PELLY BAY","2303093","2019-03-06 19:00","2019","03","06","19:00","-29.1","","","","","M","","","36","","7","","","M","96.50","","","","-36","","NA"
"-89.73","68.44","PELLY BAY","2303093","2019-03-06 20:00","2019","03","06","20:00","-29.5","","","","","M","","","1","","7","","","M","96.50","","","","-37","","NA"
"-89.73","68.44","PELLY BAY","2303093","2019-03-06 21:00","2019","03","06","21:00","-29.7","","","","","M","","","36","","4","","","M","96.49","","","","-34","","NA"
"-89.73","68.44","PELLY BAY","2303093","2019-03-06 22:00","2019","03","06","22:00","-29.8","","","","","M","","","1","","6","","","M","96.50","","","","-36","","NA"
"-89.73","68.44","PELLY BAY","2303093","2019-03-06 23:00","2019","03","06","23:00","-30.2","","","","","M","","","33","","15","","","M","96.51","","","","-42","","NA"
"-89.73","68.44","PELLY BAY","2303093","2019-03-07 00:00","2019","03","07","00:00","-30.5","","","","","M","","","35","","15","","","M","96.53","","","","-42","","NA"
"-89.73","68.44","PELLY BAY","2303093","2019-03-07 01:00","2019","03","07","01:00","-30.4","","","","","M","","","34","","20","","","M","96.54","","","","-44","","NA"
"-89.73","68.44","PELLY BAY","2303093","2019-03-07 02:00","2019","03","07","02:00","-30.7","","","","","M","","","1","","20","","","M","96.56","","","","-44","","NA"
"-89.73","68.44","PELLY BAY","2303093","2019-03-07 03:00","2019","03","07","03:00","-30.9","","","","","M","","","36","","17","","","M","96.57","","","","-43","","NA"
"-89.73","68.44","PELLY BAY","2303093","2019-03-07 04:00","2019","03","07","04:00","-31.4","","","","","M","","","36","","19","","","M","96.60","","","","-45","","NA"
"-89.73","68.44","PELLY BAY","2303093","2019-03-07 05:00","2019","03","07","05:00","-31.6","","","","","M","","","35","","17","","","M","96.64","","","","-44","","NA"
"-89.73","68.44","PELLY BAY","2303093","2019-03-07 06:00","2019","03","07","06:00","-31.6","","","","","M","","","36","","13","","","M","96.63","","","","-43","","NA"
"-89.73","68.44","PELLY BAY","2303093","2019-03-07 07:00","2019","03","07","07:00","-31.2","","","","","M","","","36","","11","","","M","96.64","","","","-41","","NA"
"-89.73","68.44","PELLY BAY","2303093","2019-03-07 08:00","2019","03","07","08:00","-30.6","","","","","M","","","36","","11","","","M","96.66","","","","-40","","NA"
"-89.73","68.44","PELLY BAY","2303093","2019-03-07 09:00","2019","03","07","09:00","-30.9","","","","","M","","","33","","15","","","M","96.66","","","","-43","","NA"
"-89.73","68.44","PELLY BAY","2303093","2019-03-07 10:00","2019","03","07","10:00","-29.6","","","","","M","","","33","","17","","","M","96.69","","","","-42","","NA"
"-89.73","68.44","PELLY BAY","2303093","2019-03-07 11:00","2019","03","07","11:00","-27.7","","","","","M","","","32","","17","","","M","96.70","","","","-39","","NA"
"-89.73","68.44","PELLY BAY","2303093","2019-03-07 12:00","2019","03","07","12:00","-30.2","","","","","M","","","33","","15","","","M","96.74","","","","-42","","NA"
"-89.73","68.44","PELLY BAY","2303093","2019-03-07 13:00","2019","03","07","13:00","-30.5","","","","","M","","","34","","17","","","M","96.77","","","","-43","","NA"
"-89.73","68.44","PELLY BAY","2303093","2019-03-07 14:00","2019","03","07","14:00","-30.6","","","","","M","","","35","","17","","","M","96.77","","","","-43","","NA"
"-89.73","68.44","PELLY BAY","2303093","2019-03-07 15:00","2019","03","07","15:00","-30.5","","","","","M","","","35","","13","","","M","96.81","","","","-41","","NA"
"-89.73","68.44","PELLY BAY","2303093","2019-03-07 16:00","2019","03","07","16:00","-31.3","","","","","M","","","34","","15","","","M","96.82","","","","-43","","NA"
"-89.73","68.44","PELLY BAY","2303093","2019-03-07 17:00","2019","03","07","17:00","-32.0","","","","","M","","","32","","15","","","M","96.86","","","","-44","","NA"
"-89.73","68.44","PELLY BAY","2303093","2019-03-07 18:00","2019","03","07","18:00","-31.8","","","","","M","","","33","","13","","","M","96.87","","","","-43","","NA"
"-89.73","68.44","PELLY BAY","2303093","2019-03-07 19:00","2019","03","07","19:00","-31.4","","","","","M","","","33","","13","","","M","96.86","","","","-42","","NA"
"-89.73","68.44","PELLY BAY","2303093","2019-03-07 20:00","2019","03","07","20:00","-31.6","","","","","M","","","31","","17","","","M","96.84","","","","-44","","NA"
"-89.73","68.44","PELLY BAY","2303093","2019-03-07 21:00","2019","03","07","21:00","-30.8","","","","","M","","","32","","17","","","M","96.82","","","","-43","","NA"
"-89.73","68.44","PELLY BAY","2303093","2019-03-07 22:00","2019","03","07","22:00","-30.5","","","","","M","","","32","","11","","","M","96.84","","","","-40","","NA"
"-89.73","68.44","PELLY BAY","2303093","2019-03-07 23:00","2019","03","07","23:00","-29.6","","","","","M","","","36","","11","","","M","96.83","","","","-39","","NA"
"-89.73","68.44","PELLY BAY","2303093","2019-03-08 00:00","2019","03","08","00:00","-31.0","","","","","M","","","30","","13","","","M","96.83","","","","-42","","NA"
"-89.73","68.44","PELLY BAY","2303093","2019-03-08 01:00","2019","03","08","01:00","-31.2","","","","","M","","","30","","15","","","M","96.83","","","","-43","","NA"
"-89.73","68.44","PELLY BAY","2303093","2019-03-08 02:00","2019","03","08","02:00","-32.1","","","","","M","","","30","","19","","","M","96.82","","","","-45","","NA"
"-89.73","68.44","PELLY BAY","2303093","2019-03-08 03:00","2019","03","08","03:00","-31.7","","","","","M","","","31","","20","","","M","96.82","","","","-45","","NA"
"-89.73","68.44","PELLY BAY","2303093","2019-03-08 04:00","2019","03","08","04:00","-31.5","","","","","M","","","31","","15","","","M","96.83","","","","-43","","NA"
"-89.73","68.44","PELLY BAY","2303093","2019-03-08 05:00","2019","03","08","05:00","-31.5","","","","","M","","","30","","13","","","M","96.82","","","","-42","","NA"
"-89.73","68.44","PELLY BAY","2303093","2019-03-08 06:00","2019","03","08","06:00","-32.8","","","","","M","","","30","","20","","","M","96.82","","","","-47","","NA"
"-89.73","68.44","PELLY BAY","2303093","2019-03-08 07:00","2019","03","08","07:00","-33.0","","","","","M","","","30","","19","","","M","96.83","","","","-47","","NA"
"-89.73","68.44","PELLY BAY","2303093","2019-03-08 08:00","2019","03","08","08:00","-33.2","","","","","M","","","29","","17","","","M","96.83","","","","-46","","NA"
"-89.73","68.44","PELLY BAY","2303093","2019-03-08 09:00","2019","03","08","09:00","-33.4","","","","","M","","","29","","15","","","M","96.80","","","","-46","","NA"
"-89.73","68.44","PELLY BAY","2303093","2019-03-08 10:00","2019","03","08","10:00","-33.6","","","","","M","","","30","","13","","","M","96.82","","","","-45","","NA"
"-89.73","68.44","PELLY BAY","2303093","2019-03-08 11:00","2019","03","08","11:00","-32.7","","","","","M","","","30","","15","","","M","96.85","","","","-45","","NA"
"-89.73","68.44","PELLY BAY","2303093","2019-03-08 12:00","2019","03","08","12:00","-32.9","","","","","M","","","29","","13","","","M","96.86","","","","-44","","NA"
"-89.73","68.44","PELLY BAY","2303093","2019-03-08 13:00","2019","03","08","13:00","-31.4","","","","","M","","","30","","15","","","M","96.90","","","","-43","","NA"
"-89.73","68.44","PELLY BAY","2303093","2019-03-08 14:00","2019","03","08","14:00","-30.8","","","","","M","","","32","","11","","","M","96.94","","","","-41","","NA"
"-89.73","68.44","PELLY BAY","2303093","2019-03-08 15:00","2019","03","08","15:00","-31.1","","","","","M","","","32","","13","","","M","96.96","","","","-42","","NA"
"-89.73","68.44","PELLY BAY","2303093","2019-03-08 16:00","2019","03","08","16:00","-31.8","","","","","M","","","32","","15","","","M","97.00","","","","-44","","NA"
"-89.73","68.44","PELLY BAY","2303093","2019-03-08 17:00","2019","03","08","17:00","-32.2","","","","","M","","","32","","17","","","M","97.04","","","","-45","","NA"
"-89.73","68.44","PELLY BAY","2303093","2019-03-08 18:00","2019","03","08","18:00","-31.7","","","","","M","","","32","","13","","","M","97.04","","","","-43","","NA"
"-89.73","68.44","PELLY BAY","2303093","2019-03-08 19:00","2019","03","08","19:00","-32.1","","","","","M","","","30","","15","","","M","97.08","","","","-44","","NA"
"-89.73","68.44","PELLY BAY","2303093","2019-03-08 20:00","2019","03","08","20:00","-31.4","","","","","M","","","32","","15","","","M","97.10","","","","-43","","NA"
"-89.73","68.44","PELLY BAY","2303093","2019-03-08 21:00","2019","03","08","21:00","-30.7","","","","","M","","","30","","15","","","M","97.12","","","","-42","","NA"
"-89.73","68.44","PELLY BAY","2303093","2019-03-08 22:00","2019","03","08","22:00","-31.2","","","","","M","","","29","","17","","","M","97.16","","","","-44","","NA"
"-89.73","68.44","PELLY BAY","2303093","2019-03-08 23:00","2019","03","08","23:00","-30.9","","","","","M","","","28","","17","","","M","97.21","","","","-43","","NA"
"-89.73","68.44","PELLY BAY","2303093","2019-03-09 00:00","2019","03","09","00:00","-31.0","","","","","M","","","30","","19","","","M","97.23","","","","-44","","NA"
"-89.73","68.44","PELLY BAY","2303093","2019-03-09 01:00","2019","03","09","01:00","-31.7","","","","","M","","","29","","19","","","M","97.28","","","","-45","","NA"
"-89.73","68.44","PELLY BAY","2303093","2019-03-09 02:00","2019","03","09","02:00","-32.3","","","","","M","","","30","","15","","","M","97.33","","","","-44","","NA"
"-89.73","68.44","PELLY BAY","2303093","2019-03-09 03:00","2019","03","09","03:00","-32.9","","","","","M","","","30","","20","","","M","97.36","","","","-47","","NA"
"-89.73","68.44","PELLY BAY","2303093","2019-03-09 04:00","2019","03","09","04:00","-33.3","","","","","M","","","30","","24","","","M","97.40","","","","-48","","NA"
"-89.73","68.44","PELLY BAY","2303093","2019-03-09 05:00","2019","03","09","05:00","-33.0","","","","","M","","","28","","22","","","M","97.45","","","","-47","","NA"
"-89.73","68.44","PELLY BAY","2303093","2019-03-09 06:00","2019","03","09","06:00","-33.6","","","","","M","","","29","","19","","","M","97.49","","","","-47","","NA"
"-89.73","68.44","PELLY BAY","2303093","2019-03-09 07:00","2019","03","09","07:00","-33.2","","","","","M","","","28","","13","","","M","97.54","","","","-44","","NA"
"-89.73","68.44","PELLY BAY","2303093","2019-03-09 08:00","2019","03","09","08:00","-31.0","","","","","M","","","28","","13","","","M","97.56","","","","-42","","NA"
"-89.73","68.44","PELLY BAY","2303093","2019-03-09 09:00","2019","03","09","09:00","-30.7","","","","","M","","","26","","15","","","M","97.60","","","","-42","","NA"
"-89.73","68.44","PELLY BAY","2303093","2019-03-09 10:00","2019","03","09","10:00","-30.0","","","","","M","","","28","","15","","","M","97.63","","","","-41","","NA"
"-89.73","68.44","PELLY BAY","2303093","2019-03-09 11:00","2019","03","09","11:00","-30.2","","","","","M","","","29","","13","","","M","97.65","","","","-41","","NA"
"-89.73","68.44","PELLY BAY","2303093","2019-03-09 12:00","2019","03","09","12:00","-31.2","","","","","M","","","28","","19","","","M","97.68","","","","-44","","NA"
"-89.73","68.44","PELLY BAY","2303093","2019-03-09 13:00","2019","03","09","13:00","-30.0","","","","","M","","","29","","17","","","M","97.71","","","","-42","","NA"
"-89.73","68.44","PELLY BAY","2303093","2019-03-09 14:00","2019","03","09","14:00","-30.3","","","","","M","","","29","","17","","","M","97.75","","","","-43","","NA"
"-89.73","68.44","PELLY BAY","2303093","2019-03-09 15:00","2019","03","09","15:00","-30.1","","","","","M","","","29","","19","","","M","97.77","","","","-43","","NA"
"-89.73","68.44","PELLY BAY","2303093","2019-03-09 16:00","2019","03","09","16:00","-30.3","","","","","M","","","28","","17","","","M","97.80","","","","-43","","NA"
"-89.73","68.44","PELLY BAY","2303093","2019-03-09 17:00","2019","03","09","17:00","-29.9","","","","","M","","","28","","15","","","M","97.81","","","","-41","","NA"
"-89.73","68.44","PELLY BAY","2303093","2019-03-09 18:00","2019","03","09","18:00","-30.2","","","","","M","","","28","","15","","","M","97.81","","","","-42","","NA"
"-89.73","68.44","PELLY BAY","2303093","2019-03-09 19:00","2019","03","09","19:00","-30.4","","","","","M","","","25","","15","","","M","97.80","","","","-42","","NA"
"-89.73","68.44","PELLY BAY","2303093","2019-03-09 20:00","2019","03","09","20:00","-29.6","","","","","M","","","25","","17","","","M","97.80","","","","-42","","NA"
"-89.73","68.44","PELLY BAY","2303093","2019-03-09 21:00","2019","03","09","21:00","-28.6","","","","","M","","","27","","13","","","M","97.76","","","","-39","","NA"
"-89.73","68.44","PELLY BAY","2303093","2019-03-09 22:00","2019","03","09","22:00","-29.1","","","","","M","","","26","","19","","","M","97.76","","","","-42","","NA"
"-89.73","68.44","PELLY BAY","2303093","2019-03-09 23:00","2019","03","09","23:00","-27.4","","","","","M","","","25","","17","","","M","97.78","","","","-39","","NA"
"-89.73","68.44","PELLY BAY","2303093","2019-03-10 00:00","2019","03","10","00:00","-26.1","","","","","M","","","25","","15","","","M","97.76","","","","-37","","NA"
"-89.73","68.44","PELLY BAY","2303093","2019-03-10 01:00","2019","03","10","01:00","-26.0","","","","","M","","","27","","11","","","M","97.78","","","","-35","","NA"
"-89.73","68.44","PELLY BAY","2303093","2019-03-10 02:00","2019","03","10","02:00","-26.1","","","","","M","","","27","","11","","","M","97.77","","","","-35","","NA"
"-89.73","68.44","PELLY BAY","2303093","2019-03-10 03:00","2019","03","10","03:00","-26.6","","","","","M","","","24","","13","","","M","97.74","","","","-36","","NA"
"-89.73","68.44","PELLY BAY","2303093","2019-03-10 04:00","2019","03","10","04:00","-26.1","","","","","M","","","24","","13","","","M","97.76","","","","-36","","NA"
"-89.73","68.44","PELLY BAY","2303093","2019-03-10 05:00","2019","03","10","05:00","-26.5","","","","","M","","","23","","13","","","M","97.73","","","","-36","","NA"
"-89.73","68.44","PELLY BAY","2303093","2019-03-10 06:00","2019","03","10","06:00","-26.3","","","","","M","","","21","","15","","","M","97.68","","","","-37","","NA"
"-89.73","68.44","PELLY BAY","2303093","2019-03-10 07:00","2019","03","10","07:00","-26.0","","","","","M","","","21","","19","","","M","97.63","","","","-38","","NA"
"-89.73","68.44","PELLY BAY","2303093","2019-03-10 08:00","2019","03","10","08:00","-26.9","","","","","M","","","23","","22","","","M","97.58","","","","-40","","NA"
"-89.73","68.44","PELLY BAY","2303093","2019-03-10 09:00","2019","03","10","09:00","-26.6","","","","","M","","","22","","22","","","M","97.54","","","","-39","","NA"
"-89.73","68.44","PELLY BAY","2303093","2019-03-10 10:00","2019","03","10","10:00","-26.5","","","","","M","","","23","","24","","","M","97.47","","","","-40","","NA"
"-89.73","68.44","PELLY BAY","2303093","2019-03-10 11:00","2019","03","10","11:00","-26.0","","","","","M","","","23","","22","","","M","97.43","","","","-39","","NA"
"-89.73","68.44","PELLY BAY","2303093","2019-03-10 12:00","2019","03","10","12:00","-25.8","","","","","M","","","24","","28","","","M","97.43","","","","-40","","NA"
"-89.73","68.44","PELLY BAY","2303093","2019-03-10 13:00","2019","03","10","13:00","-25.1","","","","","M","","","23","","24","","","M","97.36","","","","-38","","NA"
"-89.73","68.44","PELLY BAY","2303093","2019-03-10 14:00","2019","03","10","14:00","-25.0","","","","","M","","","22","","22","","","M","97.31","","","","-37","","NA"
"-89.73","68.44","PELLY BAY","2303093","2019-03-10 15:00","2019","03","10","15:00","-24.3","","","","","M","","","23","","26","","","M","97.24","","","","-37","","NA"
"-89.73","68.44","PELLY BAY","2303093","2019-03-10 16:00","2019","03","10","16:00","-23.8","","","","","M","","","22","","28","","","M","97.17","","","","-37","","NA"
"-89.73","68.44","PELLY BAY","2303093","2019-03-10 17:00","2019","03","10","17:00","-23.8","","","","","M","","","22","","24","","","M","97.12","","","","-36","","NA"
"-89.73","68.44","PELLY BAY","2303093","2019-03-10 18:00","2019","03","10","18:00","-23.3","","","","","M","","","20","","22","","","M","97.04","","","","-35","","NA"
"-89.73","68.44","PELLY BAY","2303093","2019-03-10 19:00","2019","03","10","19:00","-23.2","","","","","M","","","21","","28","","","M","97.00","","","","-36","","NA"
"-89.73","68.44","PELLY BAY","2303093","2019-03-10 20:00","2019","03","10","20:00","-23.5","","","","","M","","","20","","20","","","M","96.98","","","","-35","","NA"
"-89.73","68.44","PELLY BAY","2303093","2019-03-10 21:00","2019","03","10","21:00","-23.5","","","","","M","","","21","","28","","","M","96.92","","","","-37","","NA"
"-89.73","68.44","PELLY BAY","2303093","2019-03-10 22:00","2019","03","10","22:00","-23.4","","","","","M","","","20","","31","","","M","96.83","","","","-37","","NA"
"-89.73","68.44","PELLY BAY","2303093","2019-03-10 23:00","2019","03","10","23:00","-23.0","","","","","M","","","20","","33","","","M","96.77","","","","-37","","NA"
"-89.73","68.44","PELLY BAY","2303093","2019-03-11 00:00","2019","03","11","00:00","-23.5","","","","","M","","","21","","35","","","M","96.74","","","","-38","","NA"
"-89.73","68.44","PELLY BAY","2303093","2019-03-11 01:00","2019","03","11","01:00","-23.8","","","","","M","","","21","","33","","","M","96.67","","","","-38","","NA"
"-89.73","68.44","PELLY BAY","2303093","2019-03-11 02:00","2019","03","11","02:00","-23.4","","","","","M","","","22","","35","","","M","96.63","","","","-38","","NA"
"-89.73","68.44","PELLY BAY","2303093","2019-03-11 03:00","2019","03","11","03:00","-23.8","","","","","M","","","20","","31","","","M","96.59","","","","-38","","NA"
"-89.73","68.44","PELLY BAY","2303093","2019-03-11 04:00","2019","03","11","04:00","-23.7","","","","","M","","","21","","43","","","M","96.54","","","","-40","","NA"
"-89.73","68.44","PELLY BAY","2303093","2019-03-11 05:00","2019","03","11","05:00","-24.0","","","","","M","","","22","","37","","","M","96.49","","","","-39","","NA"
"-89.73","68.44","PELLY BAY","2303093","2019-03-11 06:00","2019","03","11","06:00","-24.0","","","","","M","","","22","","30","","","M","96.50","","","","-38","","NA"
"-89.73","68.44","PELLY BAY","2303093","2019-03-11 07:00","2019","03","11","07:00","-23.8","","","","","M","","","21","","35","","","M","96.47","","","","-38","","NA"
"-89.73","68.44","PELLY BAY","2303093","2019-03-11 08:00","2019","03","11","08:00","-23.8","","","","","M","","","20","","37","","","M","96.45","","","","-39","","NA"
"-89.73","68.44","PELLY BAY","2303093","2019-03-11 09:00","2019","03","11","09:00","-23.4","","","","","M","","","20","","31","","","M","96.44","","","","-37","","NA"
"-89.73","68.44","PELLY BAY","2303093","2019-03-11 10:00","2019","03","11","10:00","-23.1","","","","","M","","","21","","44","","","M","96.41","","","","-39","","NA"
"-89.73","68.44","PELLY BAY","2303093","2019-03-11 11:00","2019","03","11","11:00","-22.6","","","","","M","","","19","","35","","","M","96.40","","","","-37","","NA"
"-89.73","68.44","PELLY BAY","2303093","2019-03-11 12:00","2019","03","11","12:00","-22.5","","","","","M","","","19","","31","","","M","96.34","","","","-36","","NA"
"-89.73","68.44","PELLY BAY","2303093","2019-03-11 13:00","2019","03","11","13:00","-22.2","","","","","M","","","20","","28","","","M","96.34","","","","-35","","NA"
"-89.73","68.44","PELLY BAY","2303093","2019-03-11 14:00","2019","03","11","14:00","-22.2","","","","","M","","","19","","20","","","M","96.33","","","","-33","","NA"
"-89.73","68.44","PELLY BAY","2303093","2019-03-11 15:00","2019","03","11","15:00","-22.4","","","","","M","","","18","","37","","","M","96.31","","","","-37","","NA"
"-89.73","68.44","PELLY BAY","2303093","2019-03-11 16:00","2019","03","11","16:00","-23.0","","","","","M","","","17","","17","","","M","96.32","","","","-33","","NA"
"-89.73","68.44","PELLY BAY","2303093","2019-03-11 17:00","2019","03","11","17:00","-23.4","","","","","M","","","16","","6","","","M","96.36","","","","-29","","NA"
"-89.73","68.44","PELLY BAY","2303093","2019-03-11 18:00","2019","03","11","18:00","-23.2","","","","","M","","","17","","19","","","M","96.37","","","","-34","","NA"
"-89.73","68.44","PELLY BAY","2303093","2019-03-11 19:00","2019","03","11","19:00","-23.5","","","","","M","","","17","","17","","","M","96.37","","","","-34","","NA"
"-89.73","68.44","PELLY BAY","2303093","2019-03-11 20:00","2019","03","11","20:00","-24.0","","","","","M","","","18","","20","","","M","96.38","","","","-36","","NA"
"-89.73","68.44","PELLY BAY","2303093","2019-03-11 21:00","2019","03","11","21:00","-24.1","","","","","M","","","19","","17","","","M","96.39","","","","-35","","NA"
"-89.73","68.44","PELLY BAY","2303093","2019-03-11 22:00","2019","03","11","22:00","-24.0","","","","","M","","","18","","20","","","M","96.36","","","","-36","","NA"
"-89.73","68.44","PELLY BAY","2303093","2019-03-11 23:00","2019","03","11","23:00","-24.3","","","","","M","","","18","","17","","","M","96.38","","","","-35","","NA"
"-89.73","68.44","PELLY BAY","2303093","2019-03-12 00:00","2019","03","12","00:00","-24.8","","","","","M","","","17","","7","","","M","96.42","","","","-31","","NA"
"-89.73","68.44","PELLY BAY","2303093","2019-03-12 01:00","2019","03","12","01:00","-25.0","","","","","M","","","","","0","","","M","96.42","","","","","","NA"
"-89.73","68.44","PELLY BAY","2303093","2019-03-12 02:00","2019","03","12","02:00","-24.7","","","","","M","","","17","","19","","","M","96.41","","","","-36","","NA"
"-89.73","68.44","PELLY BAY","2303093","2019-03-12 03:00","2019","03","12","03:00","-24.1","","","","","M","","","18","","22","","","M","96.41","","","","-36","","NA"
"-89.73","68.44","PELLY BAY","2303093","2019-03-12 04:00","2019","03","12","04:00","-23.8","","","","","M","","","19","","19","","","M","96.48","","","","-35","","NA"
"-89.73","68.44","PELLY BAY","2303093","2019-03-12 05:00","2019","03","12","05:00","-24.4","","","","","M","","","17","","6","","","M","96.49","","","","-30","","NA"
"-89.73","68.44","PELLY BAY","2303093","2019-03-12 06:00","2019","03","12","06:00","-24.4","","","","","M","","","14","","4","","","M","96.53","","","","-28","","NA"
"-89.73","68.44","PELLY BAY","2303093","2019-03-12 07:00","2019","03","12","07:00","-23.6","","","","","M","","","15","","4","","","M","96.53","","","","-27","","NA"
"-89.73","68.44","PELLY BAY","2303093","2019-03-12 08:00","2019","03","12","08:00","-23.2","","","","","M","","","17","","9","","","M","96.55","","","","-31","","NA"
"-89.73","68.44","PELLY BAY","2303093","2019-03-12 09:00","2019","03","12","09:00","-22.4","","","","","M","","","19","","13","","","M","96.60","","","","-31","","NA"
"-89.73","68.44","PELLY BAY","2303093","2019-03-12 10:00","2019","03","12","10:00","-21.6","","","","","M","","","18","","13","","","M","96.62","","","","-30","","NA"
"-89.73","68.44","PELLY BAY","2303093","2019-03-12 11:00","2019","03","12","11:00","-21.6","","","","","M","","","19","","17","","","M","96.62","","","","-32","","NA"
"-89.73","68.44","PELLY BAY","2303093","2019-03-12 12:00","2019","03","12","12:00","-21.4","","","","","M","","","15","","4","","","M","96.66","","","","-25","","NA"
"-89.73","68.44","PELLY BAY","2303093","2019-03-12 13:00","2019","03","12","13:00","-21.7","","","","","M","","","17","","15","","","M","96.68","","","","-31","","NA"
"-89.73","68.44","PELLY BAY","2303093","2019-03-12 14:00","2019","03","12","14:00","-21.4","","","","","M","","","17","","7","","","M","96.69","","","","-27","","NA"
"-89.73","68.44","PELLY BAY","2303093","2019-03-12 15:00","2019","03","12","15:00","-21.6","","","","","M","","","17","","15","","","M","96.71","","","","-31","","NA"
"-89.73","68.44","PELLY BAY","2303093","2019-03-12 16:00","2019","03","12","16:00","-21.7","","","","","M","","","18","","13","","","M","96.71","","","","-30","","NA"
"-89.73","68.44","PELLY BAY","2303093","2019-03-12 17:00","2019","03","12","17:00","-22.0","","","","","M","","","17","","13","","","M","96.75","","","","-31","","NA"
"-89.73","68.44","PELLY BAY","2303093","2019-03-12 18:00","2019","03","12","18:00","-21.7","","","","","M","","","18","","19","","","M","96.77","","","","-32","","NA"
"-89.73","68.44","PELLY BAY","2303093","2019-03-12 19:00","2019","03","12","19:00","-21.4","","","","","M","","","20","","17","","","M","96.82","","","","-31","","NA"
"-89.73","68.44","PELLY BAY","2303093","2019-03-12 20:00","2019","03","12","20:00","-21.7","","","","","M","","","20","","17","","","M","96.82","","","","-32","","NA"
"-89.73","68.44","PELLY BAY","2303093","2019-03-12 21:00","2019","03","12","21:00","-21.7","","","","","M","","","21","","15","","","M","96.81","","","","-31","","NA"
"-89.73","68.44","PELLY BAY","2303093","2019-03-12 22:00","2019","03","12","22:00","-22.0","","","","","M","","","21","","17","","","M","96.84","","","","-32","","NA"
"-89.73","68.44","PELLY BAY","2303093","2019-03-12 23:00","2019","03","12","23:00","-22.2","","","","","M","","","21","","17","","","M","96.87","","","","-32","","NA"
"-89.73","68.44","PELLY BAY","2303093","2019-03-13 00:00","2019","03","13","00:00","-22.6","","","","","M","","","22","","15","","","M","96.89","","","","-32","","NA"
"-89.73","68.44","PELLY BAY","2303093","2019-03-13 01:00","2019","03","13","01:00","-22.5","","","","","M","","","24","","17","","","M","96.93","","","","-33","","NA"
"-89.73","68.44","PELLY BAY","2303093","2019-03-13 02:00","2019","03","13","02:00","-22.6","","","","","M","","","24","","13","","","M","96.95","","","","-32","","NA"
"-89.73","68.44","PELLY BAY","2303093","2019-03-13 03:00","2019","03","13","03:00","-22.6","","","","","M","","","27","","20","","","M","96.95","","","","-34","","NA"
"-89.73","68.44","PELLY BAY","2303093","2019-03-13 04:00","2019","03","13","04:00","-23.6","","","","","M","","","24","","19","","","M","96.98","","","","-35","","NA"
"-89.73","68.44","PELLY BAY","2303093","2019-03-13 05:00","2019","03","13","05:00","-22.8","","","","","M","","","23","","17","","","M","97.00","","","","-33","","NA"
"-89.73","68.44","PELLY BAY","2303093","2019-03-13 06:00","2019","03","13","06:00","-24.2","","","","","M","","","23","","20","","","M","97.04","","","","-36","","NA"
"-89.73","68.44","PELLY BAY","2303093","2019-03-13 07:00","2019","03","13","07:00","-25.6","","","","","M","","","25","","17","","","M","97.10","","","","-37","","NA"
"-89.73","68.44","PELLY BAY","2303093","2019-03-13 08:00","2019","03","13","08:00","-24.6","","","","","M","","","28","","15","","","M","97.12","","","","-35","","NA"
"-89.73","68.44","PELLY BAY","2303093","2019-03-13 09:00","2019","03","13","09:00","-24.4","","","","","M","","","28","","11","","","M","97.17","","","","-33","","NA"
"-89.73","68.44","PELLY BAY","2303093","2019-03-13 10:00","2019","03","13","10:00","-22.7","","","","","M","","","29","","11","","","M","97.21","","","","-31","","NA"
"-89.73","68.44","PELLY BAY","2303093","2019-03-13 11:00","2019","03","13","11:00","-22.3","","","","","M","","","27","","9","","","M","97.23","","","","-29","","NA"
"-89.73","68.44","PELLY BAY","2303093","2019-03-13 12:00","2019","03","13","12:00","-21.7","","","","","M","","","26","","11","","","M","97.28","","","","-30","","NA"
"-89.73","68.44","PELLY BAY","2303093","2019-03-13 13:00","2019","03","13","13:00","-23.0","","","","","M","","","27","","11","","","M","97.34","","","","-31","","NA"
"-89.73","68.44","PELLY BAY","2303093","2019-03-13 14:00","2019","03","13","14:00","-23.5","","","","","M","","","26","","15","","","M","97.39","","","","-33","","NA"
"-89.73","68.44","PELLY BAY","2303093","2019-03-13 15:00","2019","03","13","15:00","-24.0","","","","","M","","","29","","15","","","M","97.44","","","","-34","","NA"
"-89.73","68.44","PELLY BAY","2303093","2019-03-13 16:00","2019","03","13","16:00","-24.8","","","","","M","","","30","","19","","","M","97.47","","","","-36","","NA"
"-89.73","68.44","PELLY BAY","2303093","2019-03-13 17:00","2019","03","13","17:00","-24.6","","","","","M","","","30","","19","","","M","97.52","","","","-36","","NA"
"-89.73","68.44","PELLY BAY","2303093","2019-03-13 18:00","2019","03","13","18:00","-23.8","","","","","M","","","29","","22","","","M","97.55","","","","-36","","NA"
"-89.73","68.44","PELLY BAY","2303093","2019-03-13 19:00","2019","03","13","19:00","-23.8","","","","","M","","","28","","17","","","M","97.60","","","","-34","","NA"
"-89.73","68.44","PELLY BAY","2303093","2019-03-13 20:00","2019","03","13","20:00","-24.2","","","","","M","","","26","","19","","","M","97.62","","","","-36","","NA"
"-89.73","68.44","PELLY BAY","2303093","2019-03-13 21:00","2019","03","13","21:00","-24.8","","","","","M","","","26","","17","","","M","97.64","","","","-36","","NA"
"-89.73","68.44","PELLY BAY","2303093","2019-03-13 22:00","2019","03","13","22:00","-23.6","","","","","M","","","28","","19","","","M","97.64","","","","-35","","NA"
"-89.73","68.44","PELLY BAY","2303093","2019-03-13 23:00","2019","03","13","23:00","-23.8","","","","","M","","","28","","20","","","M","97.65","","","","-35","","NA"
"-89.73","68.44","PELLY BAY","2303093","2019-03-14 00:00","2019","03","14","00:00","-24.0","","","","","M","","","28","","20","","","M","97.68","","","","-36","","NA"
"-89.73","68.44","PELLY BAY","2303093","2019-03-14 01:00","2019","03","14","01:00","-23.8","","","","","M","","","29","","22","","","M","97.71","","","","-36","","NA"
"-89.73","68.44","PELLY BAY","2303093","2019-03-14 02:00","2019","03","14","02:00","-23.8","","","","","M","","","29","","24","","","M","97.72","","","","-36","","NA"
"-89.73","68.44","PELLY BAY","2303093","2019-03-14 03:00","2019","03","14","03:00","-23.9","","","","","M","","","28","","20","","","M","97.76","","","","-35","","NA"
"-89.73","68.44","PELLY BAY","2303093","2019-03-14 04:00","2019","03","14","04:00","-24.0","","","","","M","","","28","","19","","","M","97.80","","","","-35","","NA"
"-89.73","68.44","PELLY BAY","2303093","2019-03-14 05:00","2019","03","14","05:00","-24.2","","","","","M","","","26","","15","","","M","97.82","","","","-34","","NA"
"-89.73","68.44","PELLY BAY","2303093","2019-03-14 06:00","2019","03","14","06:00","-23.8","","","","","M","","","29","","17","","","M","97.82","","","","-34","","NA"
"-89.73","68.44","PELLY BAY","2303093","2019-03-14 07:00","2019","03","14","07:00","-23.7","","","","","M","","","28","","17","","","M","97.84","","","","-34","","NA"
"-89.73","68.44","PELLY BAY","2303093","2019-03-14 08:00","2019","03","14","08:00","-23.3","","","","","M","","","32","","13","","","M","97.84","","","","-32","","NA"
"-89.73","68.44","PELLY BAY","2303093","2019-03-14 09:00","2019","03","14","09:00","-23.0","","","","","M","","","32","","7","","","M","97.85","","","","-29","","NA"
"-89.73","68.44","PELLY BAY","2303093","2019-03-14 10:00","2019","03","14","10:00","-22.8","","","","","M","","","36","","9","","","M","97.85","","","","-30","","NA"
"-89.73","68.44","PELLY BAY","2303093","2019-03-14 11:00","2019","03","14","11:00","-22.7","","","","","M","","","2","","13","","","M","97.86","","","","-32","","NA"
"-89.73","68.44","PELLY BAY","2303093","2019-03-14 12:00","2019","03","14","12:00","-23.3","","","","","M","","","3","","19","","","M","97.86","","","","-34","","NA"
"-89.73","68.44","PELLY BAY","2303093","2019-03-14 13:00","2019","03","14","13:00","-24.0","","","","","M","","","3","","19","","","M","97.87","","","","-35","","NA"
"-89.73","68.44","PELLY BAY","2303093","2019-03-14 14:00","2019","03","14","14:00","-24.4","","","","","M","","","3","","22","","","M","97.88","","","","-37","","NA"
"-89.73","68.44","PELLY BAY","2303093","2019-03-14 15:00","2019","03","14","15:00","-25.4","","","","","M","","","2","","22","","","M","97.87","","","","-38","","NA"
"-89.73","68.44","PELLY BAY","2303093","2019-03-14 16:00","2019","03","14","16:00","-26.3","","","","","M","","","2","","28","","","M","97.89","","","","-40","","NA"
"-89.73","68.44","PELLY BAY","2303093","2019-03-14 17:00","2019","03","14","17:00","-28.0","","","","","M","","","1","","28","","","M","97.88","","","","-43","","NA"
"-89.73","68.44","PELLY BAY","2303093","2019-03-14 18:00","2019","03","14","18:00","-29.4","","","","","M","","","3","","30","","","M","97.91","","","","-45","","NA"
"-89.73","68.44","PELLY BAY","2303093","2019-03-14 19:00","2019","03","14","19:00","-29.9","","","","","M","","","3","","28","","","M","97.91","","","","-45","","NA"
"-89.73","68.44","PELLY BAY","2303093","2019-03-14 20:00","2019","03","14","20:00","-30.5","","","","","M","","","3","","26","","","M","97.92","","","","-45","","NA"
"-89.73","68.44","PELLY BAY","2303093","2019-03-14 21:00","2019","03","14","21:00","-31.2","","","","","M","","","3","","30","","","M","97.89","","","","-47","","NA"
"-89.73","68.44","PELLY BAY","2303093","2019-03-14 22:00","2019","03","14","22:00","-31.7","","","","","M","","","1","","33","","","M","97.85","","","","-48","","NA"
"-89.73","68.44","PELLY BAY","2303093","2019-03-14 23:00","2019","03","14","23:00","-31.8","","","","","M","","","2","","30","","","M","97.86","","","","-48","","NA"
"-89.73","68.44","PELLY BAY","2303093","2019-03-15 00:00","2019","03","15","00:00","-31.7","","","","","M","","","2","","30","","","M","97.87","","","","-48","","NA"
"-89.73","68.44","PELLY BAY","2303093","2019-03-15 01:00","2019","03","15","01:00","-32.3","","","","","M","","","1","","24","","","M","97.89","","","","-47","","NA"
"-89.73","68.44","PELLY BAY","2303093","2019-03-15 02:00","2019","03","15","02:00","-32.7","","","","","M","","","36","","28","","","M","97.90","","","","-49","","NA"
"-89.73","68.44","PELLY BAY","2303093","2019-03-15 03:00","2019","03","15","03:00","-32.6","","","","","M","","","36","","24","","","M","97.91","","","","-48","","NA"
"-89.73","68.44","PELLY BAY","2303093","2019-03-15 04:00","2019","03","15","04:00","-33.3","","","","","M","","","36","","26","","","M","97.91","","","","-49","","NA"
"-89.73","68.44","PELLY BAY","2303093","2019-03-15 05:00","2019","03","15","05:00","-33.6","","","","","M","","","36","","26","","","M","97.95","","","","-49","","NA"
"-89.73","68.44","PELLY BAY","2303093","2019-03-15 06:00","2019","03","15","06:00","-32.7","","","","","M","","","1","","26","","","M","97.96","","","","-48","","NA"
"-89.73","68.44","PELLY BAY","2303093","2019-03-15 07:00","2019","03","15","07:00","-31.8","","","","","M","","","1","","22","","","M","97.99","","","","-46","","NA"
"-89.73","68.44","PELLY BAY","2303093","2019-03-15 08:00","2019","03","15","08:00","-31.1","","","","","M","","","1","","28","","","M","98.01","","","","-47","","NA"
"-89.73","68.44","PELLY BAY","2303093","2019-03-15 09:00","2019","03","15","09:00","-30.7","","","","","M","","","1","","30","","","M","98.00","","","","-47","","NA"
"-89.73","68.44","PELLY BAY","2303093","2019-03-15 10:00","2019","03","15","10:00","-29.4","","","","","M","","","2","","22","","","M","98.01","","","","-43","","NA"
"-89.73","68.44","PELLY BAY","2303093","2019-03-15 11:00","2019","03","15","11:00","-28.7","","","","","M","","","1","","22","","","M","98.02","","","","-42","","NA"
"-89.73","68.44","PELLY BAY","2303093","2019-03-15 12:00","2019","03","15","12:00","-29.4","","","","","M","","","36","","26","","","M","98.03","","","","-44","","NA"
"-89.73","68.44","PELLY BAY","2303093","2019-03-15 13:00","2019","03","15","13:00","-30.1","","","","","M","","","35","","20","","","M","98.05","","","","-43","","NA"
"-89.73","68.44","PELLY BAY","2303093","2019-03-15 14:00","2019","03","15","14:00","-29.7","","","","","M","","","33","","20","","","M","98.08","","","","-43","","NA"
"-89.73","68.44","PELLY BAY","2303093","2019-03-15 15:00","2019","03","15","15:00","-29.2","","","","","M","","","33","","20","","","M","98.08","","","","-42","","NA"
"-89.73","68.44","PELLY BAY","2303093","2019-03-15 16:00","2019","03","15","16:00","-29.0","","","","","M","","","32","","24","","","M","98.12","","","","-43","","NA"
"-89.73","68.44","PELLY BAY","2303093","2019-03-15 17:00","2019","03","15","17:00","-29.3","","","","","M","","","32","","22","","","M","98.12","","","","-43","","NA"
"-89.73","68.44","PELLY BAY","2303093","2019-03-15 18:00","2019","03","15","18:00","-29.5","","","","","M","","","31","","22","","","M","98.11","","","","-43","","NA"
"-89.73","68.44","PELLY BAY","2303093","2019-03-15 19:00","2019","03","15","19:00","-29.7","","","","","M","","","30","","17","","","M","98.10","","","","-42","","NA"
"-89.73","68.44","PELLY BAY","2303093","2019-03-15 20:00","2019","03","15","20:00","-29.9","","","","","M","","","30","","17","","","M","98.09","","","","-42","","NA"
"-89.73","68.44","PELLY BAY","2303093","2019-03-15 21:00","2019","03","15","21:00","-30.6","","","","","M","","","30","","20","","","M","98.04","","","","-44","","NA"
"-89.73","68.44","PELLY BAY","2303093","2019-03-15 22:00","2019","03","15","22:00","-31.0","","","","","M","","","30","","20","","","M","98.04","","","","-44","","NA"
"-89.73","68.44","PELLY BAY","2303093","2019-03-15 23:00","2019","03","15","23:00","-31.1","","","","","M","","","30","","19","","","M","98.04","","","","-44","","NA"
"-89.73","68.44","PELLY BAY","2303093","2019-03-16 00:00","2019","03","16","00:00","-30.2","","","","","M","","","31","","19","","","M","98.05","","","","-43","","NA"
"-89.73","68.44","PELLY BAY","2303093","2019-03-16 01:00","2019","03","16","01:00","-30.2","","","","","M","","","31","","22","","","M","98.05","","","","-44","","NA"
"-89.73","68.44","PELLY BAY","2303093","2019-03-16 02:00","2019","03","16","02:00","-30.4","","","","","M","","","30","","20","","","M","98.06","","","","-44","","NA"
"-89.73","68.44","PELLY BAY","2303093","2019-03-16 03:00","2019","03","16","03:00","-30.3","","","","","M","","","28","","19","","","M","98.05","","","","-43","","NA"
"-89.73","68.44","PELLY BAY","2303093","2019-03-16 04:00","2019","03","16","04:00","-30.3","","","","","M","","","29","","20","","","M","98.03","","","","-43","","NA"
"-89.73","68.44","PELLY BAY","2303093","2019-03-16 05:00","2019","03","16","05:00","-31.5","","","","","M","","","28","","15","","","M","98.07","","","","-43","","NA"
"-89.73","68.44","PELLY BAY","2303093","2019-03-16 06:00","2019","03","16","06:00","-31.4","","","","","M","","","28","","24","","","M","98.06","","","","-46","","NA"
"-89.73","68.44","PELLY BAY","2303093","2019-03-16 07:00","2019","03","16","07:00","-31.1","","","","","M","","","30","","20","","","M","98.04","","","","-44","","NA"
"-89.73","68.44","PELLY BAY","2303093","2019-03-16 08:00","2019","03","16","08:00","-29.6","","","","","M","","","28","","17","","","M","98.01","","","","-42","","NA"
"-89.73","68.44","PELLY BAY","2303093","2019-03-16 09:00","2019","03","16","09:00","-30.4","","","","","M","","","28","","19","","","M","98.00","","","","-43","","NA"
"-89.73","68.44","PELLY BAY","2303093","2019-03-16 10:00","2019","03","16","10:00","-29.5","","","","","M","","","28","","19","","","M","98.01","","","","-42","","NA"
"-89.73","68.44","PELLY BAY","2303093","2019-03-16 11:00","2019","03","16","11:00","-29.8","","","","","M","","","31","","28","","","M","97.99","","","","-45","","NA"
"-89.73","68.44","PELLY BAY","2303093","2019-03-16 12:00","2019","03","16","12:00","-29.4","","","","","M","","","30","","28","","","M","97.98","","","","-44","","NA"
"-89.73","68.44","PELLY BAY","2303093","2019-03-16 13:00","2019","03","16","13:00","-28.8","","","","","M","","","31","","20","","","M","97.99","","","","-42","","NA"
"-89.73","68.44","PELLY BAY","2303093","2019-03-16 14:00","2019","03","16","14:00","-28.4","","","","","M","","","30","","24","","","M","98.00","","","","-42","","NA"
"-89.73","68.44","PELLY BAY","2303093","2019-03-16 15:00","2019","03","16","15:00","-28.6","","","","","M","","","30","","28","","","M","97.99","","","","-43","","NA"
"-89.73","68.44","PELLY BAY","2303093","2019-03-16 16:00","2019","03","16","16:00","-28.9","","","","","M","","","31","","22","","","M","97.98","","","","-42","","NA"
"-89.73","68.44","PELLY BAY","2303093","2019-03-16 17:00","2019","03","16","17:00","-29.2","","","","","M","","","31","","19","","","M","97.99","","","","-42","","NA"
"-89.73","68.44","PELLY BAY","2303093","2019-03-16 18:00","2019","03","16","18:00","-29.7","","","","","M","","","29","","22","","","M","97.96","","","","-43","","NA"
"-89.73","68.44","PELLY BAY","2303093","2019-03-16 19:00","2019","03","16","19:00","-29.0","","","","","M","","","30","","22","","","M","97.93","","","","-42","","NA"
"-89.73","68.44","PELLY BAY","2303093","2019-03-16 20:00","2019","03","16","20:00","-28.9","","","","","M","","","30","","19","","","M","97.88","","","","-41","","NA"
"-89.73","68.44","PELLY BAY","2303093","2019-03-16 21:00","2019","03","16","21:00","-28.5","","","","","M","","","31","","20","","","M","97.85","","","","-41","","NA"
"-89.73","68.44","PELLY BAY","2303093","2019-03-16 22:00","2019","03","16","22:00","-28.8","","","","","M","","","30","","20","","","M","97.83","","","","-42","","NA"
"-89.73","68.44","PELLY BAY","2303093","2019-03-16 23:00","2019","03","16","23:00","-28.7","","","","","M","","","30","","19","","","M","97.81","","","","-41","","NA"
"-89.73","68.44","PELLY BAY","2303093","2019-03-17 00:00","2019","03","17","00:00","-28.9","","","","","M","","","28","","19","","","M","97.78","","","","-41","","NA"
"-89.73","68.44","PELLY BAY","2303093","2019-03-17 01:00","2019","03","17","01:00","-28.3","","","","","M","","","29","","17","","","M","97.78","","","","-40","","NA"
"-89.73","68.44","PELLY BAY","2303093","2019-03-17 02:00","2019","03","17","02:00","-27.7","","","","","M","","","30","","17","","","M","97.76","","","","-39","","NA"
"-89.73","68.44","PELLY BAY","2303093","2019-03-17 03:00","2019","03","17","03:00","-28.4","","","","","M","","","28","","15","","","M","97.76","","","","-39","","NA"
"-89.73","68.44","PELLY BAY","2303093","2019-03-17 04:00","2019","03","17","04:00","-28.3","","","","","M","","","28","","17","","","M","97.76","","","","-40","","NA"
"-89.73","68.44","PELLY BAY","2303093","2019-03-17 05:00","2019","03","17","05:00","-27.8","","","","","M","","","28","","11","","","M","97.74","","","","-37","","NA"
"-89.73","68.44","PELLY BAY","2303093","2019-03-17 06:00","2019","03","17","06:00","-28.1","","","","","M","","","28","","17","","","M","97.73","","","","-40","","NA"
"-89.73","68.44","PELLY BAY","2303093","2019-03-17 07:00","2019","03","17","07:00","-27.8","","","","","M","","","29","","20","","","M","97.70","","","","-40","","NA"
"-89.73","68.44","PELLY BAY","2303093","2019-03-17 08:00","2019","03","17","08:00","-27.3","","","","","M","","","31","","24","","","M","97.67","","","","-41","","NA"
"-89.73","68.44","PELLY BAY","2303093","2019-03-17 09:00","2019","03","17","09:00","-26.7","","","","","M","","","31","","20","","","M","97.66","","","","-39","","NA"
"-89.73","68.44","PELLY BAY","2303093","2019-03-17 10:00","2019","03","17","10:00","-26.3","","","","","M","","","31","","19","","","M","97.67","","","","-38","","NA"
"-89.73","68.44","PELLY BAY","2303093","2019-03-17 11:00","2019","03","17","11:00","-26.0","","","","","M","","","32","","15","","","M","97.69","","","","-36","","NA"
"-89.73","68.44","PELLY BAY","2303093","2019-03-17 12:00","2019","03","17","12:00","-24.8","","","","","M","","","36","","7","","","M","97.70","","","","-31","","NA"
"-89.73","68.44","PELLY BAY","2303093","2019-03-17 13:00","2019","03","17","13:00","-21.6","","","","","M","","","31","","7","","","M","97.73","","","","-28","","NA"
"-89.73","68.44","PELLY BAY","2303093","2019-03-17 14:00","2019","03","17","14:00","-23.4","","","","","M","","","35","","9","","","M","97.74","","","","-31","","NA"
"-89.73","68.44","PELLY BAY","2303093","2019-03-17 15:00","2019","03","17","15:00","-26.0","","","","","M","","","3","","15","","","M","97.74","","","","-36","","NA"
"-89.73","68.44","PELLY BAY","2303093","2019-03-17 16:00","2019","03","17","16:00","-27.1","","","","","M","","","1","","20","","","M","97.77","","","","-39","","NA"
"-89.73","68.44","PELLY BAY","2303093","2019-03-17 17:00","2019","03","17","17:00","-27.8","","","","","M","","","36","","24","","","M","97.76","","","","-41","","NA"
"-89.73","68.44","PELLY BAY","2303093","2019-03-17 18:00","2019","03","17","18:00","-28.3","","","","","M","","","35","","22","","","M","97.75","","","","-42","","NA"
"-89.73","68.44","PELLY BAY","2303093","2019-03-17 19:00","2019","03","17","19:00","-28.7","","","","","M","","","1","","26","","","M","97.75","","","","-43","","NA"
"-89.73","68.44","PELLY BAY","2303093","2019-03-17 20:00","2019","03","17","20:00","-29.5","","","","","M","","","33","","20","","","M","97.73","","","","-42","","NA"
"-89.73","68.44","PELLY BAY","2303093","2019-03-17 21:00","2019","03","17","21:00","-29.8","","","","","M","","","33","","22","","","M","97.68","","","","-43","","NA"
"-89.73","68.44","PELLY BAY","2303093","2019-03-17 22:00","2019","03","17","22:00","-29.9","","","","","M","","","32","","20","","","M","97.68","","","","-43","","NA"
"-89.73","68.44","PELLY BAY","2303093","2019-03-17 23:00","2019","03","17","23:00","-29.7","","","","","M","","","30","","17","","","M","97.70","","","","-42","","NA"
"-89.73","68.44","PELLY BAY","2303093","2019-03-18 00:00","2019","03","18","00:00","-29.4","","","","","M","","","30","","15","","","M","97.66","","","","-41","","NA"
"-89.73","68.44","PELLY BAY","2303093","2019-03-18 01:00","2019","03","18","01:00","-29.6","","","","","M","","","29","","15","","","M","97.64","","","","-41","","NA"
"-89.73","68.44","PELLY BAY","2303093","2019-03-18 02:00","2019","03","18","02:00","-29.1","","","","","M","","","28","","19","","","M","97.62","","","","-42","","NA"
"-89.73","68.44","PELLY BAY","2303093","2019-03-18 03:00","2019","03","18","03:00","-28.9","","","","","M","","","27","","22","","","M","97.60","","","","-42","","NA"
"-89.73","68.44","PELLY BAY","2303093","2019-03-18 04:00","2019","03","18","04:00","-30.1","","","","","M","","","29","","19","","","M","97.57","","","","-43","","NA"
"-89.73","68.44","PELLY BAY","2303093","2019-03-18 05:00","2019","03","18","05:00","-29.6","","","","","M","","","30","","22","","","M","97.52","","","","-43","","NA"
"-89.73","68.44","PELLY BAY","2303093","2019-03-18 06:00","2019","03","18","06:00","-29.5","","","","","M","","","30","","22","","","M","97.46","","","","-43","","NA"
"-89.73","68.44","PELLY BAY","2303093","2019-03-18 07:00","2019","03","18","07:00","-28.9","","","","","M","","","29","","17","","","M","97.38","","","","-41","","NA"
"-89.73","68.44","PELLY BAY","2303093","2019-03-18 08:00","2019","03","18","08:00","-29.5","","","","","M","","","28","","19","","","M","97.31","","","","-42","","NA"
"-89.73","68.44","PELLY BAY","2303093","2019-03-18 09:00","2019","03","18","09:00","-28.7","","","","","M","","","29","","24","","","M","97.24","","","","-43","","NA"
"-89.73","68.44","PELLY BAY","2303093","2019-03-18 10:00","2019","03","18","10:00","-28.4","","","","","M","","","29","","28","","","M","97.18","","","","-43","","NA"
"-89.73","68.44","PELLY BAY","2303093","2019-03-18 11:00","2019","03","18","11:00","-27.6","","","","","M","","","30","","22","","","M","97.17","","","","-41","","NA"
"-89.73","68.44","PELLY BAY","2303093","2019-03-18 12:00","2019","03","18","12:00","-26.8","","","","","M","","","30","","22","","","M","97.13","","","","-40","","NA"
"-89.73","68.44","PELLY BAY","2303093","2019-03-18 13:00","2019","03","18","13:00","-26.4","","","","","M","","","31","","20","","","M","97.07","","","","-39","","NA"
"-89.73","68.44","PELLY BAY","2303093","2019-03-18 14:00","2019","03","18","14:00","-25.8","","","","","M","","","32","","22","","","M","96.99","","","","-38","","NA"
"-89.73","68.44","PELLY BAY","2303093","2019-03-18 15:00","2019","03","18","15:00","-26.0","","","","","M","","","32","","20","","","M","96.95","","","","-38","","NA"
"-89.73","68.44","PELLY BAY","2303093","2019-03-18 16:00","2019","03","18","16:00","-26.4","","","","","M","","","32","","19","","","M","96.90","","","","-38","","NA"
"-89.73","68.44","PELLY BAY","2303093","2019-03-18 17:00","2019","03","18","17:00","-27.2","","","","","M","","","32","","13","","","M","96.86","","","","-37","","NA"
"-89.73","68.44","PELLY BAY","2303093","2019-03-18 18:00","2019","03","18","18:00","-27.8","","","","","M","","","2","","20","","","M","96.81","","","","-40","","NA"
"-89.73","68.44","PELLY BAY","2303093","2019-03-18 19:00","2019","03","18","19:00","-28.4","","","","","M","","","4","","17","","","M","96.82","","","","-40","","NA"
"-89.73","68.44","PELLY BAY","2303093","2019-03-18 20:00","2019","03","18","20:00","-29.3","","","","","M","","","5","","26","","","M","96.80","","","","-44","","NA"
"-89.73","68.44","PELLY BAY","2303093","2019-03-18 21:00","2019","03","18","21:00","-28.6","","","","","M","","","5","","17","","","M","96.80","","","","-40","","NA"
"-89.73","68.44","PELLY BAY","2303093","2019-03-18 22:00","2019","03","18","22:00","-29.4","","","","","M","","","5","","20","","","M","96.80","","","","-42","","NA"
"-89.73","68.44","PELLY BAY","2303093","2019-03-18 23:00","2019","03","18","23:00","-30.2","","","","","M","","","3","","20","","","M","96.83","","","","-43","","NA"
"-89.73","68.44","PELLY BAY","2303093","2019-03-19 00:00","2019","03","19","00:00","-31.0","","","","","M","","","2","","26","","","M","96.84","","","","-46","","NA"
"-89.73","68.44","PELLY BAY","2303093","2019-03-19 01:00","2019","03","19","01:00","-31.2","","","","","M","","","3","","20","","","M","96.89","","","","-45","","NA"
"-89.73","68.44","PELLY BAY","2303093","2019-03-19 02:00","2019","03","19","02:00","-31.0","","","","","M","","","36","","22","","","M","96.92","","","","-45","","NA"
"-89.73","68.44","PELLY BAY","2303093","2019-03-19 03:00","2019","03","19","03:00","-31.4","","","","","M","","","36","","22","","","M","96.98","","","","-45","","NA"
"-89.73","68.44","PELLY BAY","2303093","2019-03-19 04:00","2019","03","19","04:00","-31.0","","","","","M","","","36","","22","","","M","97.04","","","","-45","","NA"
"-89.73","68.44","PELLY BAY","2303093","2019-03-19 05:00","2019","03","19","05:00","-32.5","","","","","M","","","35","","19","","","M","97.08","","","","-46","","NA"
"-89.73","68.44","PELLY BAY","2303093","2019-03-19 06:00","2019","03","19","06:00","-30.9","","","","","M","","","1","","28","","","M","97.14","","","","-46","","NA"
"-89.73","68.44","PELLY BAY","2303093","2019-03-19 07:00","2019","03","19","07:00","-30.3","","","","","M","","","36","","30","","","M","97.21","","","","-46","","NA"
"-89.73","68.44","PELLY BAY","2303093","2019-03-19 08:00","2019","03","19","08:00","-30.4","","","","","M","","","34","","26","","","M","97.19","","","","-45","","NA"
"-89.73","68.44","PELLY BAY","2303093","2019-03-19 09:00","2019","03","19","09:00","-30.7","","","","","M","","","31","","20","","","M","97.23","","","","-44","","NA"
"-89.73","68.44","PELLY BAY","2303093","2019-03-19 10:00","2019","03","19","10:00","-30.8","","","","","M","","","30","","28","","","M","97.21","","","","-46","","NA"
"-89.73","68.44","PELLY BAY","2303093","2019-03-19 11:00","2019","03","19","11:00","-29.8","","","","","M","","","32","","30","","","M","97.27","","","","-45","","NA"
"-89.73","68.44","PELLY BAY","2303093","2019-03-19 12:00","2019","03","19","12:00","-28.8","","","","","M","","","30","","26","","","M","97.35","","","","-43","","NA"
"-89.73","68.44","PELLY BAY","2303093","2019-03-19 13:00","2019","03","19","13:00","-27.5","","","","","M","","","29","","28","","","M","97.38","","","","-42","","NA"
"-89.73","68.44","PELLY BAY","2303093","2019-03-19 14:00","2019","03","19","14:00","-27.2","","","","","M","","","31","","26","","","M","97.40","","","","-41","","NA"
"-89.73","68.44","PELLY BAY","2303093","2019-03-19 15:00","2019","03","19","15:00","-26.7","","","","","M","","","29","","31","","","M","97.39","","","","-42","","NA"
"-89.73","68.44","PELLY BAY","2303093","2019-03-19 16:00","2019","03","19","16:00","-26.6","","","","","M","","","29","","30","","","M","97.37","","","","-41","","NA"
"-89.73","68.44","PELLY BAY","2303093","2019-03-19 17:00","2019","03","19","17:00","-26.4","","","","","M","","","29","","30","","","M","97.34","","","","-41","","NA"
"-89.73","68.44","PELLY BAY","2303093","2019-03-19 18:00","2019","03","19","18:00","-26.7","","","","","M","","","26","","20","","","M","97.31","","","","-39","","NA"
"-89.73","68.44","PELLY BAY","2303093","2019-03-19 19:00","2019","03","19","19:00","-26.8","","","","","M","","","28","","30","","","M","97.21","","","","-41","","NA"
"-89.73","68.44","PELLY BAY","2303093","2019-03-19 20:00","2019","03","19","20:00","-26.7","","","","","M","","","28","","28","","","M","97.12","","","","-41","","NA"
"-89.73","68.44","PELLY BAY","2303093","2019-03-19 21:00","2019","03","19","21:00","-26.3","","","","","M","","","29","","28","","","M","97.02","","","","-40","","NA"
"-89.73","68.44","PELLY BAY","2303093","2019-03-19 22:00","2019","03","19","22:00","-26.2","","","","","M","","","27","","22","","","M","96.96","","","","-39","","NA"
"-89.73","68.44","PELLY BAY","2303093","2019-03-19 23:00","2019","03","19","23:00","-26.1","","","","","M","","","27","","17","","","M","96.89","","","","-37","","NA"
"-89.73","68.44","PELLY BAY","2303093","2019-03-20 00:00","2019","03","20","00:00","-26.1","","","","","M","","","24","","22","","","M","96.82","","","","-39","","NA"
"-89.73","68.44","PELLY BAY","2303093","2019-03-20 01:00","2019","03","20","01:00","-26.4","","","","","M","","","25","","22","","","M","96.71","","","","-39","","NA"
"-89.73","68.44","PELLY BAY","2303093","2019-03-20 02:00","2019","03","20","02:00","-25.8","","","","","M","","","24","","17","","","M","96.61","","","","-37","","NA"
"-89.73","68.44","PELLY BAY","2303093","2019-03-20 03:00","2019","03","20","03:00","-25.2","","","","","M","","","22","","9","","","M","96.52","","","","-33","","NA"
"-89.73","68.44","PELLY BAY","2303093","2019-03-20 04:00","2019","03","20","04:00","-24.3","","","","","M","","","23","","13","","","M","96.40","","","","-34","","NA"
"-89.73","68.44","PELLY BAY","2303093","2019-03-20 05:00","2019","03","20","05:00","-23.1","","","","","M","","","18","","7","","","M","96.30","","","","-29","","NA"
"-89.73","68.44","PELLY BAY","2303093","2019-03-20 06:00","2019","03","20","06:00","-22.9","","","","","M","","","20","","13","","","M","96.19","","","","-32","","NA"
"-89.73","68.44","PELLY BAY","2303093","2019-03-20 07:00","2019","03","20","07:00","-22.5","","","","","M","","","22","","11","","","M","96.09","","","","-31","","NA"
"-89.73","68.44","PELLY BAY","2303093","2019-03-20 08:00","2019","03","20","08:00","-22.1","","","","","M","","","19","","15","","","M","95.99","","","","-32","","NA"
"-89.73","68.44","PELLY BAY","2303093","2019-03-20 09:00","2019","03","20","09:00","-21.7","","","","","M","","","20","","20","","","M","95.91","","","","-33","","NA"
"-89.73","68.44","PELLY BAY","2303093","2019-03-20 10:00","2019","03","20","10:00","-21.0","","","","","M","","","18","","19","","","M","95.85","","","","-31","","NA"
"-89.73","68.44","PELLY BAY","2303093","2019-03-20 11:00","2019","03","20","11:00","-19.9","","","","","M","","","18","","15","","","M","95.80","","","","-29","","NA"
"-89.73","68.44","PELLY BAY","2303093","2019-03-20 12:00","2019","03","20","12:00","-17.7","","","","","M","","","13","","4","","","M","95.80","","","","-21","","NA"
"-89.73","68.44","PELLY BAY","2303093","2019-03-20 13:00","2019","03","20","13:00","-20.9","","","","","M","","","9","","15","","","M","95.78","","","","-30","","NA"
"-89.73","68.44","PELLY BAY","2303093","2019-03-20 14:00","2019","03","20","14:00","-20.4","","","","","M","","","9","","17","","","M","95.79","","","","-30","","NA"
"-89.73","68.44","PELLY BAY","2303093","2019-03-20 15:00","2019","03","20","15:00","-22.5","","","","","M","","","9","","22","","","M","95.81","","","","-34","","NA"
"-89.73","68.44","PELLY BAY","2303093","2019-03-20 16:00","2019","03","20","16:00","-23.7","","","","","M","","","9","","24","","","M","95.84","","","","-36","","NA"
"-89.73","68.44","PELLY BAY","2303093","2019-03-20 17:00","2019","03","20","17:00","-23.8","","","","","M","","","8","","24","","","M","95.88","","","","-36","","NA"
"-89.73","68.44","PELLY BAY","2303093","2019-03-20 18:00","2019","03","20","18:00","-23.2","","","","","M","","","3","","15","","","M","95.99","","","","-33","","NA"
"-89.73","68.44","PELLY BAY","2303093","2019-03-20 19:00","2019","03","20","19:00","-24.6","","","","","M","","","7","","15","","","M","96.01","","","","-35","","NA"
"-89.73","68.44","PELLY BAY","2303093","2019-03-20 20:00","2019","03","20","20:00","-24.8","","","","","M","","","2","","20","","","M","96.09","","","","-37","","NA"
"-89.73","68.44","PELLY BAY","2303093","2019-03-20 21:00","2019","03","20","21:00","-24.6","","","","","M","","","3","","15","","","M","96.13","","","","-35","","NA"
"-89.73","68.44","PELLY BAY","2303093","2019-03-20 22:00","2019","03","20","22:00","-26.3","","","","","M","","","2","","15","","","M","96.17","","","","-37","","NA"
"-89.73","68.44","PELLY BAY","2303093","2019-03-20 23:00","2019","03","20","23:00","-26.6","","","","","M","","","33","","17","","","M","96.22","","","","-38","","NA"
"-89.73","68.44","PELLY BAY","2303093","2019-03-21 00:00","2019","03","21","00:00","-26.5","","","","","M","","","34","","17","","","M","96.27","","","","-38","","NA"
"-89.73","68.44","PELLY BAY","2303093","2019-03-21 01:00","2019","03","21","01:00","-26.9","","","","","M","","","32","","22","","","M","96.31","","","","-40","","NA"
"-89.73","68.44","PELLY BAY","2303093","2019-03-21 02:00","2019","03","21","02:00","-27.2","","","","","M","","","34","","22","","","M","96.36","","","","-40","","NA"
"-89.73","68.44","PELLY BAY","2303093","2019-03-21 03:00","2019","03","21","03:00","-27.2","","","","","M","","","32","","22","","","M","96.40","","","","-40","","NA"
"-89.73","68.44","PELLY BAY","2303093","2019-03-21 04:00","2019","03","21","04:00","-26.9","","","","","M","","","31","","26","","","M","96.42","","","","-41","","NA"
"-89.73","68.44","PELLY BAY","2303093","2019-03-21 05:00","2019","03","21","05:00","-26.7","","","","","M","","","30","","30","","","M","96.44","","","","-41","","NA"
"-89.73","68.44","PELLY BAY","2303093","2019-03-21 06:00","2019","03","21","06:00","-27.2","","","","","M","","","32","","33","","","M","96.45","","","","-43","","NA"
"-89.73","68.44","PELLY BAY","2303093","2019-03-21 07:00","2019","03","21","07:00","-27.2","","","","","M","","","34","","26","","","M","96.54","","","","-41","","NA"
"-89.73","68.44","PELLY BAY","2303093","2019-03-21 08:00","2019","03","21","08:00","-26.8","","","","","M","","","35","","43","","","M","96.55","","","","-44","","NA"
"-89.73","68.44","PELLY BAY","2303093","2019-03-21 09:00","2019","03","21","09:00","-27.0","","","","","M","","","34","","46","","","M","96.54","","","","-44","","NA"
"-89.73","68.44","PELLY BAY","2303093","2019-03-21 10:00","2019","03","21","10:00","-27.0","","","","","M","","","34","","41","","","M","96.62","","","","-44","","NA"
"-89.73","68.44","PELLY BAY","2303093","2019-03-21 11:00","2019","03","21","11:00","-26.5","","","","","M","","","34","","44","","","M","96.72","","","","-43","","NA"
"-89.73","68.44","PELLY BAY","2303093","2019-03-21 12:00","2019","03","21","12:00","-26.9","","","","","M","","","34","","41","","","M","96.82","","","","-44","","NA"
"-89.73","68.44","PELLY BAY","2303093","2019-03-21 13:00","2019","03","21","13:00","-26.6","","","","","M","","","34","","39","","","M","96.92","","","","-43","","NA"
"-89.73","68.44","PELLY BAY","2303093","2019-03-21 14:00","2019","03","21","14:00","-26.5","","","","","M","","","34","","31","","","M","96.99","","","","-41","","NA"
"-89.73","68.44","PELLY BAY","2303093","2019-03-21 15:00","2019","03","21","15:00","-26.1","","","","","M","","","32","","26","","","M","97.05","","","","-40","","NA"
"-89.73","68.44","PELLY BAY","2303093","2019-03-21 16:00","2019","03","21","16:00","-26.0","","","","","M","","","30","","20","","","M","97.09","","","","-38","","NA"
"-89.73","68.44","PELLY BAY","2303093","2019-03-21 17:00","2019","03","21","17:00","-26.3","","","","","M","","","32","","28","","","M","97.09","","","","-40","","NA"
"-89.73","68.44","PELLY BAY","2303093","2019-03-21 18:00","2019","03","21","18:00","-27.8","","","","","M","","","29","","30","","","M","97.10","","","","-43","","NA"
"-89.73","68.44","PELLY BAY","2303093","2019-03-21 19:00","2019","03","21","19:00","-28.8","","","","","M","","","28","","26","","","M","97.08","","","","-43","","NA"
"-89.73","68.44","PELLY BAY","2303093","2019-03-21 20:00","2019","03","21","20:00","-28.8","","","","","M","","","28","","33","","","M","97.00","","","","-45","","NA"
"-89.73","68.44","PELLY BAY","2303093","2019-03-21 21:00","2019","03","21","21:00","-28.9","","","","","M","","","27","","31","","","M","96.95","","","","-44","","NA"
"-89.73","68.44","PELLY BAY","2303093","2019-03-21 22:00","2019","03","21","22:00","-28.1","","","","","M","","","27","","26","","","M","96.91","","","","-42","","NA"
"-89.73","68.44","PELLY BAY","2303093","2019-03-21 23:00","2019","03","21","23:00","-27.6","","","","","M","","","27","","33","","","M","96.83","","","","-43","","NA"
"-89.73","68.44","PELLY BAY","2303093","2019-03-22 00:00","2019","03","22","00:00","-27.4","","","","","M","","","25","","33","","","M","96.79","","","","-43","","NA"
"-89.73","68.44","PELLY BAY","2303093","2019-03-22 01:00","2019","03","22","01:00","-26.1","","","","","M","","","26","","37","","","M","96.74","","","","-42","","NA"
"-89.73","68.44","PELLY BAY","2303093","2019-03-22 02:00","2019","03","22","02:00","-25.3","","","","","M","","","27","","35","","","M","96.66","","","","-40","","NA"
"-89.73","68.44","PELLY BAY","2303093","2019-03-22 03:00","2019","03","22","03:00","-25.1","","","","","M","","","28","","31","","","M","96.59","","","","-39","","NA"
"-89.73","68.44","PELLY BAY","2303093","2019-03-22 04:00","2019","03","22","04:00","-25.0","","","","","M","","","27","","22","","","M","96.50","","","","-37","","NA"
"-89.73","68.44","PELLY BAY","2303093","2019-03-22 05:00","2019","03","22","05:00","-25.0","","","","","M","","","25","","20","","","M","96.39","","","","-37","","NA"
"-89.73","68.44","PELLY BAY","2303093","2019-03-22 06:00","2019","03","22","06:00","-24.8","","","","","M","","","25","","20","","","M","96.29","","","","-37","","NA"
"-89.73","68.44","PELLY BAY","2303093","2019-03-22 07:00","2019","03","22","07:00","-24.5","","","","","M","","","26","","19","","","M","96.20","","","","-36","","NA"
"-89.73","68.44","PELLY BAY","2303093","2019-03-22 08:00","2019","03","22","08:00","-24.3","","","","","M","","","25","","13","","","M","96.12","","","","-34","","NA"
"-89.73","68.44","PELLY BAY","2303093","2019-03-22 09:00","2019","03","22","09:00","-23.8","","","","","M","","","22","","6","","","M","96.03","","","","-29","","NA"
"-89.73","68.44","PELLY BAY","2303093","2019-03-22 10:00","2019","03","22","10:00","-22.3","","","","","M","","","35","","4","","","M","95.98","","","","-26","","NA"
"-89.73","68.44","PELLY BAY","2303093","2019-03-22 11:00","2019","03","22","11:00","-22.6","","","","","M","","","1","","9","","","M","95.92","","","","-30","","NA"
"-89.73","68.44","PELLY BAY","2303093","2019-03-22 12:00","2019","03","22","12:00","-22.9","","","","","M","","","3","","22","","","M","95.90","","","","-35","","NA"
"-89.73","68.44","PELLY BAY","2303093","2019-03-22 13:00","2019","03","22","13:00","-24.3","","","","","M","","","3","","30","","","M","95.85","","","","-38","","NA"
"-89.73","68.44","PELLY BAY","2303093","2019-03-22 14:00","2019","03","22","14:00","-24.5","","","","","M","","","4","","39","","","M","95.82","","","","-40","","NA"
"-89.73","68.44","PELLY BAY","2303093","2019-03-22 15:00","2019","03","22","15:00","-24.9","","","","","M","","","3","","41","","","M","95.82","","","","-41","","NA"
"-89.73","68.44","PELLY BAY","2303093","2019-03-22 16:00","2019","03","22","16:00","-25.9","","","","","M","","","4","","37","","","M","95.85","","","","-42","","NA"
"-89.73","68.44","PELLY BAY","2303093","2019-03-22 17:00","2019","03","22","17:00","-26.2","","","","","M","","","1","","37","","","M","95.88","","","","-42","","NA"
"-89.73","68.44","PELLY BAY","2303093","2019-03-22 18:00","2019","03","22","18:00","-26.9","","","","","M","","","35","","28","","","M","95.92","","","","-41","","NA"
"-89.73","68.44","PELLY BAY","2303093","2019-03-22 19:00","2019","03","22","19:00","-27.5","","","","","M","","","36","","39","","","M","95.97","","","","-44","","NA"
"-89.73","68.44","PELLY BAY","2303093","2019-03-22 20:00","2019","03","22","20:00","-28.2","","","","","M","","","35","","35","","","M","95.96","","","","-44","","NA"
"-89.73","68.44","PELLY BAY","2303093","2019-03-22 21:00","2019","03","22","21:00","-29.1","","","","","M","","","35","","41","","","M","95.98","","","","-46","","NA"
"-89.73","68.44","PELLY BAY","2303093","2019-03-22 22:00","2019","03","22","22:00","-30.0","","","","","M","","","1","","46","","","M","96.05","","","","-48","","NA"
"-89.73","68.44","PELLY BAY","2303093","2019-03-22 23:00","2019","03","22","23:00","-30.5","","","","","M","","","1","","54","","","M","96.09","","","","-50","","NA"
"-89.73","68.44","PELLY BAY","2303093","2019-03-23 00:00","2019","03","23","00:00","-30.8","","","","","M","","","36","","46","","","M","96.22","","","","-50","","NA"
"-89.73","68.44","PELLY BAY","2303093","2019-03-23 01:00","2019","03","23","01:00","-31.1","","","","","M","","","1","","59","","","M","96.30","","","","-52","","NA"
"-89.73","68.44","PELLY BAY","2303093","2019-03-23 02:00","2019","03","23","02:00","-31.3","","","","","M","","","1","","61","","","M","96.42","","","","-52","","NA"
"-89.73","68.44","PELLY BAY","2303093","2019-03-23 03:00","2019","03","23","03:00","-31.4","","","","","M","","","1","","57","","","M","96.56","","","","-52","","NA"
"-89.73","68.44","PELLY BAY","2303093","2019-03-23 04:00","2019","03","23","04:00","-31.2","","","","","M","","","36","","57","","","M","96.67","","","","-52","","NA"
"-89.73","68.44","PELLY BAY","2303093","2019-03-23 05:00","2019","03","23","05:00","-30.8","","","","","M","","","1","","63","","","M","96.75","","","","-52","","NA"
"-89.73","68.44","PELLY BAY","2303093","2019-03-23 06:00","2019","03","23","06:00","-31.3","","","","","M","","","35","","46","","","M","96.90","","","","-50","","NA"
"-89.73","68.44","PELLY BAY","2303093","2019-03-23 07:00","2019","03","23","07:00","-31.1","","","","","M","","","36","","46","","","M","96.99","","","","-50","","NA"
"-89.73","68.44","PELLY BAY","2303093","2019-03-23 08:00","2019","03","23","08:00","-30.8","","","","","M","","","35","","39","","","M","97.07","","","","-48","","NA"
"-89.73","68.44","PELLY BAY","2303093","2019-03-23 09:00","2019","03","23","09:00","-30.6","","","","","M","","","34","","30","","","M","97.12","","","","-46","","NA"
"-89.73","68.44","PELLY BAY","2303093","2019-03-23 10:00","2019","03","23","10:00","-29.8","","","","","M","","","32","","30","","","M","97.16","","","","-45","","NA"
"-89.73","68.44","PELLY BAY","2303093","2019-03-23 11:00","2019","03","23","11:00","-29.1","","","","","M","","","33","","33","","","M","97.18","","","","-45","","NA"
"-89.73","68.44","PELLY BAY","2303093","2019-03-23 12:00","2019","03","23","12:00","-28.0","","","","","M","","","34","","43","","","M","97.20","","","","-45","","NA"
"-89.73","68.44","PELLY BAY","2303093","2019-03-23 13:00","2019","03","23","13:00","-27.1","","","","","M","","","35","","46","","","M","97.22","","","","-45","","NA"
"-89.73","68.44","PELLY BAY","2303093","2019-03-23 14:00","2019","03","23","14:00","-27.4","","","","","M","","","35","","35","","","M","97.29","","","","-43","","NA"
"-89.73","68.44","PELLY BAY","2303093","2019-03-23 15:00","2019","03","23","15:00","-27.4","","","","","M","","","36","","44","","","M","97.28","","","","-45","","NA"
"-89.73","68.44","PELLY BAY","2303093","2019-03-23 16:00","2019","03","23","16:00","-28.1","","","","","M","","","36","","39","","","M","97.31","","","","-45","","NA"
"-89.73","68.44","PELLY BAY","2303093","2019-03-23 17:00","2019","03","23","17:00","-28.7","","","","","M","","","34","","33","","","M","97.40","","","","-45","","NA"
"-89.73","68.44","PELLY BAY","2303093","2019-03-23 18:00","2019","03","23","18:00","-28.7","","","","","M","","","1","","48","","","M","97.41","","","","-47","","NA"
"-89.73","68.44","PELLY BAY","2303093","2019-03-23 19:00","2019","03","23","19:00","-29.1","","","","","M","","","35","","43","","","M","97.47","","","","-47","","NA"
"-89.73","68.44","PELLY BAY","2303093","2019-03-23 20:00","2019","03","23","20:00","-29.3","","","","","M","","","36","","48","","","M","97.49","","","","-48","","NA"
"-89.73","68.44","PELLY BAY","2303093","2019-03-23 21:00","2019","03","23","21:00","-29.6","","","","","M","","","36","","37","","","M","97.55","","","","-46","","NA"
"-89.73","68.44","PELLY BAY","2303093","2019-03-23 22:00","2019","03","23","22:00","-29.9","","","","","M","","","1","","41","","","M","97.56","","","","-48","","NA"
"-89.73","68.44","PELLY BAY","2303093","2019-03-23 23:00","2019","03","23","23:00","-30.2","","","","","M","","","35","","37","","","M","97.61","","","","-47","","NA"
"-89.73","68.44","PELLY BAY","2303093","2019-03-24 00:00","2019","03","24","00:00","-29.7","","","","","M","","","35","","39","","","M","97.63","","","","-47","","NA"
"-89.73","68.44","PELLY BAY","2303093","2019-03-24 01:00","2019","03","24","01:00","-30.5","","","","","M","","","36","","35","","","M","97.65","","","","-47","","NA"
"-89.73","68.44","PELLY BAY","2303093","2019-03-24 02:00","2019","03","24","02:00","-30.4","","","","","M","","","36","","48","","","M","97.58","","","","-49","","NA"
"-89.73","68.44","PELLY BAY","2303093","2019-03-24 03:00","2019","03","24","03:00","-30.9","","","","","M","","","36","","43","","","M","97.59","","","","-49","","NA"
"-89.73","68.44","PELLY BAY","2303093","2019-03-24 04:00","2019","03","24","04:00","-30.7","","","","","M","","","35","","35","","","M","97.61","","","","-48","","NA"
"-89.73","68.44","PELLY BAY","2303093","2019-03-24 05:00","2019","03","24","05:00","-30.0","","","","","M","","","36","","48","","","M","97.56","","","","-49","","NA"
"-89.73","68.44","PELLY BAY","2303093","2019-03-24 06:00","2019","03","24","06:00","-29.8","","","","","M","","","36","","41","","","M","97.62","","","","-47","","NA"
"-89.73","68.44","PELLY BAY","2303093","2019-03-24 07:00","2019","03","24","07:00","-29.9","","","","","M","","","35","","37","","","M","97.63","","","","-47","","NA"
"-89.73","68.44","PELLY BAY","2303093","2019-03-24 08:00","2019","03","24","08:00","-29.4","","","","","M","","","35","","54","","","M","97.52","","","","-49","","NA"
"-89.73","68.44","PELLY BAY","2303093","2019-03-24 09:00","2019","03","24","09:00","-29.1","","","","","M","","","35","","59","","","M","97.44","","","","-49","","NA"
"-89.73","68.44","PELLY BAY","2303093","2019-03-24 10:00","2019","03","24","10:00","-28.3","","","","","M","","","35","","56","","","M","97.42","","","","-47","","NA"
"-89.73","68.44","PELLY BAY","2303093","2019-03-24 11:00","2019","03","24","11:00","-27.5","","","","","M","","","35","","56","","","M","97.43","","","","-46","","NA"
"-89.73","68.44","PELLY BAY","2303093","2019-03-24 12:00","2019","03","24","12:00","-27.0","","","","","M","","","35","","48","","","M","97.44","","","","-45","","NA"
"-89.73","68.44","PELLY BAY","2303093","2019-03-24 13:00","2019","03","24","13:00","-26.9","","","","","M","","","34","","50","","","M","97.49","","","","-45","","NA"
"-89.73","68.44","PELLY BAY","2303093","2019-03-24 14:00","2019","03","24","14:00","-26.9","","","","","M","","","35","","44","","","M","97.49","","","","-44","","NA"
"-89.73","68.44","PELLY BAY","2303093","2019-03-24 15:00","2019","03","24","15:00","-27.1","","","","","M","","","35","","43","","","M","97.47","","","","-44","","NA"
"-89.73","68.44","PELLY BAY","2303093","2019-03-24 16:00","2019","03","24","16:00","-27.3","","","","","M","","","34","","44","","","M","97.48","","","","-45","","NA"
"-89.73","68.44","PELLY BAY","2303093","2019-03-24 17:00","2019","03","24","17:00","-27.5","","","","","M","","","35","","41","","","M","97.51","","","","-44","","NA"
"-89.73","68.44","PELLY BAY","2303093","2019-03-24 18:00","2019","03","24","18:00","-27.6","","","","","M","","","34","","26","","","M","97.55","","","","-42","","NA"
"-89.73","68.44","PELLY BAY","2303093","2019-03-24 19:00","2019","03","24","19:00","-27.2","","","","","M","","","35","","41","","","M","97.51","","","","-44","","NA"
"-89.73","68.44","PELLY BAY","2303093","2019-03-24 20:00","2019","03","24","20:00","-27.0","","","","","M","","","33","","31","","","M","97.52","","","","-42","","NA"
"-89.73","68.44","PELLY BAY","2303093","2019-03-24 21:00","2019","03","24","21:00","-27.6","","","","","M","","","33","","30","","","M","97.49","","","","-42","","NA"
"-89.73","68.44","PELLY BAY","2303093","2019-03-24 22:00","2019","03","24","22:00","-27.5","","","","","M","","","33","","28","","","M","97.47","","","","-42","","NA"
"-89.73","68.44","PELLY BAY","2303093","2019-03-24 23:00","2019","03","24","23:00","-27.2","","","","","M","","","34","","33","","","M","97.43","","","","-43","","NA"
"-89.73","68.44","PELLY BAY","2303093","2019-03-25 00:00","2019","03","25","00:00","-27.0","","","","","M","","","33","","35","","","M","97.43","","","","-43","","NA"
"-89.73","68.44","PELLY BAY","2303093","2019-03-25 01:00","2019","03","25","01:00","-27.4","","","","","M","","","34","","39","","","M","97.36","","","","-44","","NA"
"-89.73","68.44","PELLY BAY","2303093","2019-03-25 02:00","2019","03","25","02:00","-27.1","","","","","M","","","33","","37","","","M","97.36","","","","-43","","NA"
"-89.73","68.44","PELLY BAY","2303093","2019-03-25 03:00","2019","03","25","03:00","-26.5","","","","","M","","","33","","39","","","M","97.36","","","","-43","","NA"
"-89.73","68.44","PELLY BAY","2303093","2019-03-25 04:00","2019","03","25","04:00","-26.0","","","","","M","","","33","","35","","","M","97.33","","","","-41","","NA"
"-89.73","68.44","PELLY BAY","2303093","2019-03-25 05:00","2019","03","25","05:00","-27.1","","","","","M","","","32","","41","","","M","97.27","","","","-44","","NA"
"-89.73","68.44","PELLY BAY","2303093","2019-03-25 06:00","2019","03","25","06:00","-27.8","","","","","M","","","31","","33","","","M","97.23","","","","-43","","NA"
"-89.73","68.44","PELLY BAY","2303093","2019-03-25 07:00","2019","03","25","07:00","-27.5","","","","","M","","","31","","28","","","M","97.22","","","","-42","","NA"
"-89.73","68.44","PELLY BAY","2303093","2019-03-25 08:00","2019","03","25","08:00","-27.5","","","","","M","","","32","","33","","","M","97.13","","","","-43","","NA"
"-89.73","68.44","PELLY BAY","2303093","2019-03-25 09:00","2019","03","25","09:00","-26.8","","","","","M","","","32","","31","","","M","97.12","","","","-42","","NA"
"-89.73","68.44","PELLY BAY","2303093","2019-03-25 10:00","2019","03","25","10:00","-26.5","","","","","M","","","33","","33","","","M","97.07","","","","-42","","NA"
"-89.73","68.44","PELLY BAY","2303093","2019-03-25 11:00","2019","03","25","11:00","-25.5","","","","","M","","","32","","33","","","M","97.05","","","","-40","","NA"
"-89.73","68.44","PELLY BAY","2303093","2019-03-25 12:00","2019","03","25","12:00","-24.8","","","","","M","","","32","","33","","","M","97.04","","","","-39","","NA"
"-89.73","68.44","PELLY BAY","2303093","2019-03-25 13:00","2019","03","25","13:00","-24.2","","","","","M","","","32","","31","","","M","97.04","","","","-38","","NA"
"-89.73","68.44","PELLY BAY","2303093","2019-03-25 14:00","2019","03","25","14:00","-23.9","","","","","M","","","33","","31","","","M","96.99","","","","-38","","NA"
"-89.73","68.44","PELLY BAY","2303093","2019-03-25 15:00","2019","03","25","15:00","-23.6","","","","","M","","","30","","22","","","M","97.01","","","","-36","","NA"
"-89.73","68.44","PELLY BAY","2303093","2019-03-25 16:00","2019","03","25","16:00","-24.0","","","","","M","","","29","","24","","","M","96.98","","","","-37","","NA"
"-89.73","68.44","PELLY BAY","2303093","2019-03-25 17:00","2019","03","25","17:00","-25.0","","","","","M","","","28","","24","","","M","96.96","","","","-38","","NA"
"-89.73","68.44","PELLY BAY","2303093","2019-03-25 18:00","2019","03","25","18:00","-24.7","","","","","M","","","29","","22","","","M","96.94","","","","-37","","NA"
"-89.73","68.44","PELLY BAY","2303093","2019-03-25 19:00","2019","03","25","19:00","-23.5","","","","","M","","","30","","13","","","M","96.88","","","","-33","","NA"
"-89.73","68.44","PELLY BAY","2303093","2019-03-25 20:00","2019","03","25","20:00","-23.5","","","","","M","","","29","","24","","","M","96.84","","","","-36","","NA"
"-89.73","68.44","PELLY BAY","2303093","2019-03-25 21:00","2019","03","25","21:00","-22.4","","","","","M","","","29","","11","","","M","96.77","","","","-31","","NA"
"-89.73","68.44","PELLY BAY","2303093","2019-03-25 22:00","2019","03","25","22:00","-21.8","","","","","M","","","29","","17","","","M","96.72","","","","-32","","NA"
"-89.73","68.44","PELLY BAY","2303093","2019-03-25 23:00","2019","03","25","23:00","-21.4","","","","","M","","","28","","15","","","M","96.69","","","","-31","","NA"
"-89.73","68.44","PELLY BAY","2303093","2019-03-26 00:00","2019","03","26","00:00","-19.9","","","","","M","","","27","","15","","","M","96.64","","","","-29","","NA"
"-89.73","68.44","PELLY BAY","2303093","2019-03-26 01:00","2019","03","26","01:00","-19.0","","","","","M","","","25","","13","","","M","96.61","","","","-27","","NA"
"-89.73","68.44","PELLY BAY","2303093","2019-03-26 02:00","2019","03","26","02:00","-17.8","","","","","M","","","26","","13","","","M","96.54","","","","-26","","NA"
"-89.73","68.44","PELLY BAY","2303093","2019-03-26 03:00","2019","03","26","03:00","-18.2","","","","","M","","","26","","13","","","M","96.52","","","","-26","","NA"
"-89.73","68.44","PELLY BAY","2303093","2019-03-26 04:00","2019","03","26","04:00","-19.0","","","","","M","","","22","","11","","","M","96.48","","","","-26","","NA"
"-89.73","68.44","PELLY BAY","2303093","2019-03-26 05:00","2019","03","26","05:00","-19.3","","","","","M","","","22","","13","","","M","96.45","","","","-28","","NA"
"-89.73","68.44","PELLY BAY","2303093","2019-03-26 06:00","2019","03","26","06:00","-18.8","","","","","M","","","23","","13","","","M","96.42","","","","-27","","NA"
"-89.73","68.44","PELLY BAY","2303093","2019-03-26 07:00","2019","03","26","07:00","-16.9","","","","","M","","","26","","11","","","M","96.38","","","","-24","","NA"
"-89.73","68.44","PELLY BAY","2303093","2019-03-26 08:00","2019","03","26","08:00","-17.4","","","","","M","","","23","","13","","","M","96.36","","","","-25","","NA"
"-89.73","68.44","PELLY BAY","2303093","2019-03-26 09:00","2019","03","26","09:00","-14.5","","","","","M","","","25","","15","","","M","96.32","","","","-22","","NA"
"-89.73","68.44","PELLY BAY","2303093","2019-03-26 10:00","2019","03","26","10:00","-16.5","","","","","M","","","22","","17","","","M","96.30","","","","-25","","NA"
"-89.73","68.44","PELLY BAY","2303093","2019-03-26 11:00","2019","03","26","11:00","-16.1","","","","","M","","","23","","17","","","M","96.26","","","","-25","","NA"
"-89.73","68.44","PELLY BAY","2303093","2019-03-26 12:00","2019","03","26","12:00","-15.2","","","","","M","","","23","","15","","","M","96.23","","","","-23","","NA"
"-89.73","68.44","PELLY BAY","2303093","2019-03-26 13:00","2019","03","26","13:00","-15.1","","","","","M","","","21","","15","","","M","96.21","","","","-23","","NA"
"-89.73","68.44","PELLY BAY","2303093","2019-03-26 14:00","2019","03","26","14:00","-14.6","","","","","M","","","18","","13","","","M","96.17","","","","-22","","NA"
"-89.73","68.44","PELLY BAY","2303093","2019-03-26 15:00","2019","03","26","15:00","-13.9","","","","","M","","","21","","17","","","M","96.15","","","","-22","","NA"
"-89.73","68.44","PELLY BAY","2303093","2019-03-26 16:00","2019","03","26","16:00","-15.0","","","","","M","","","21","","11","","","M","96.15","","","","-22","","NA"
"-89.73","68.44","PELLY BAY","2303093","2019-03-26 17:00","2019","03","26","17:00","-15.7","","","","","M","","","22","","15","","","M","96.10","","","","-24","","NA"
"-89.73","68.44","PELLY BAY","2303093","2019-03-26 18:00","2019","03","26","18:00","-15.2","","","","","M","","","24","","19","","","M","96.06","","","","-24","","NA"
"-89.73","68.44","PELLY BAY","2303093","2019-03-26 19:00","2019","03","26","19:00","-15.2","","","","","M","","","26","","20","","","M","96.00","","","","-24","","NA"
"-89.73","68.44","PELLY BAY","2303093","2019-03-26 20:00","2019","03","26","20:00","-15.7","","","","","M","","","25","","19","","","M","95.95","","","","-25","","NA"
"-89.73","68.44","PELLY BAY","2303093","2019-03-26 21:00","2019","03","26","21:00","-15.7","","","","","M","","","26","","20","","","M","95.89","","","","-25","","NA"
"-89.73","68.44","PELLY BAY","2303093","2019-03-26 22:00","2019","03","26","22:00","-16.0","","","","","M","","","26","","22","","","M","95.85","","","","-26","","NA"
"-89.73","68.44","PELLY BAY","2303093","2019-03-26 23:00","2019","03","26","23:00","-16.5","","","","","M","","","26","","17","","","M","95.81","","","","-25","","NA"
"-89.73","68.44","PELLY BAY","2303093","2019-03-27 00:00","2019","03","27","00:00","-16.9","","","","","M","","","27","","11","","","M","95.79","","","","-24","","NA"
"-89.73","68.44","PELLY BAY","2303093","2019-03-27 01:00","2019","03","27","01:00","-17.2","","","","","M","","","27","","9","","","M","95.77","","","","-23","","NA"
"-89.73","68.44","PELLY BAY","2303093","2019-03-27 02:00","2019","03","27","02:00","-17.7","","","","","M","","","32","","9","","","M","95.74","","","","-24","","NA"
"-89.73","68.44","PELLY BAY","2303093","2019-03-27 03:00","2019","03","27","03:00","-20.7","","","","","M","","","4","","24","","","M","95.73","","","","-32","","NA"
"-89.73","68.44","PELLY BAY","2303093","2019-03-27 04:00","2019","03","27","04:00","-22.4","","","","","M","","","3","","31","","","M","95.76","","","","-36","","NA"
"-89.73","68.44","PELLY BAY","2303093","2019-03-27 05:00","2019","03","27","05:00","-23.4","","","","","M","","","2","","26","","","M","95.80","","","","-36","","NA"
"-89.73","68.44","PELLY BAY","2303093","2019-03-27 06:00","2019","03","27","06:00","-24.6","","","","","M","","","2","","41","","","M","95.80","","","","-40","","NA"
"-89.73","68.44","PELLY BAY","2303093","2019-03-27 07:00","2019","03","27","07:00","-25.6","","","","","M","","","2","","30","","","M","95.86","","","","-40","","NA"
"-89.73","68.44","PELLY BAY","2303093","2019-03-27 08:00","2019","03","27","08:00","-26.2","","","","","M","","","2","","35","","","M","95.88","","","","-42","","NA"
"-89.73","68.44","PELLY BAY","2303093","2019-03-27 09:00","2019","03","27","09:00","-26.3","","","","","M","","","1","","37","","","M","95.88","","","","-42","","NA"
"-89.73","68.44","PELLY BAY","2303093","2019-03-27 10:00","2019","03","27","10:00","-26.3","","","","","M","","","2","","20","","","M","95.93","","","","-38","","NA"
"-89.73","68.44","PELLY BAY","2303093","2019-03-27 11:00","2019","03","27","11:00","-26.4","","","","","M","","","36","","17","","","M","95.97","","","","-38","","NA"
"-89.73","68.44","PELLY BAY","2303093","2019-03-27 12:00","2019","03","27","12:00","-26.6","","","","","M","","","33","","24","","","M","96.01","","","","-40","","NA"
"-89.73","68.44","PELLY BAY","2303093","2019-03-27 13:00","2019","03","27","13:00","-27.4","","","","","M","","","34","","35","","","M","96.02","","","","-43","","NA"
"-89.73","68.44","PELLY BAY","2303093","2019-03-27 14:00","2019","03","27","14:00","-27.5","","","","","M","","","34","","41","","","M","96.03","","","","-44","","NA"
"-89.73","68.44","PELLY BAY","2303093","2019-03-27 15:00","2019","03","27","15:00","-27.8","","","","","M","","","34","","39","","","M","96.03","","","","-44","","NA"
"-89.73","68.44","PELLY BAY","2303093","2019-03-27 16:00","2019","03","27","16:00","-28.2","","","","","M","","","34","","37","","","M","96.06","","","","-45","","NA"
"-89.73","68.44","PELLY BAY","2303093","2019-03-27 17:00","2019","03","27","17:00","-28.5","","","","","M","","","34","","28","","","M","96.12","","","","-43","","NA"
"-89.73","68.44","PELLY BAY","2303093","2019-03-27 18:00","2019","03","27","18:00","-29.3","","","","","M","","","33","","30","","","M","96.13","","","","-45","","NA"
"-89.73","68.44","PELLY BAY","2303093","2019-03-27 19:00","2019","03","27","19:00","-29.8","","","","","M","","","32","","31","","","M","96.15","","","","-46","","NA"
"-89.73","68.44","PELLY BAY","2303093","2019-03-27 20:00","2019","03","27","20:00","-30.7","","","","","M","","","31","","33","","","M","96.11","","","","-47","","NA"
"-89.73","68.44","PELLY BAY","2303093","2019-03-27 21:00","2019","03","27","21:00","-31.6","","","","","M","","","31","","28","","","M","96.10","","","","-47","","NA"
"-89.73","68.44","PELLY BAY","2303093","2019-03-27 22:00","2019","03","27","22:00","-32.2","","","","","M","","","32","","19","","","M","96.10","","","","-46","","NA"
"-89.73","68.44","PELLY BAY","2303093","2019-03-27 23:00","2019","03","27","23:00","-32.1","","","","","M","","","32","","15","","","M","96.10","","","","-44","","NA"
"-89.73","68.44","PELLY BAY","2303093","2019-03-28 00:00","2019","03","28","00:00","-32.3","","","","","M","","","32","","19","","","M","96.10","","","","-46","","NA"
"-89.73","68.44","PELLY BAY","2303093","2019-03-28 01:00","2019","03","28","01:00","-32.5","","","","","M","","","31","","20","","","M","96.12","","","","-46","","NA"
"-89.73","68.44","PELLY BAY","2303093","2019-03-28 02:00","2019","03","28","02:00","-33.1","","","","","M","","","32","","20","","","M","96.13","","","","-47","","NA"
"-89.73","68.44","PELLY BAY","2303093","2019-03-28 03:00","2019","03","28","03:00","-33.2","","","","","M","","","32","","22","","","M","96.15","","","","-48","","NA"
"-89.73","68.44","PELLY BAY","2303093","2019-03-28 04:00","2019","03","28","04:00","-33.2","","","","","M","","","32","","28","","","M","96.16","","","","-49","","NA"
"-89.73","68.44","PELLY BAY","2303093","2019-03-28 05:00","2019","03","28","05:00","-33.4","","","","","M","","","31","","30","","","M","96.15","","","","-50","","NA"
"-89.73","68.44","PELLY BAY","2303093","2019-03-28 06:00","2019","03","28","06:00","-33.4","","","","","M","","","33","","22","","","M","96.19","","","","-48","","NA"
"-89.73","68.44","PELLY BAY","2303093","2019-03-28 07:00","2019","03","28","07:00","-32.8","","","","","M","","","33","","26","","","M","96.20","","","","-48","","NA"
"-89.73","68.44","PELLY BAY","2303093","2019-03-28 08:00","2019","03","28","08:00","-32.1","","","","","M","","","33","","28","","","M","96.17","","","","-48","","NA"
"-89.73","68.44","PELLY BAY","2303093","2019-03-28 09:00","2019","03","28","09:00","-31.7","","","","","M","","","34","","22","","","M","96.22","","","","-46","","NA"
"-89.73","68.44","PELLY BAY","2303093","2019-03-28 10:00","2019","03","28","10:00","-31.1","","","","","M","","","34","","28","","","M","96.24","","","","-47","","NA"
"-89.73","68.44","PELLY BAY","2303093","2019-03-28 11:00","2019","03","28","11:00","-30.3","","","","","M","","","34","","30","","","M","96.26","","","","-46","","NA"
"-89.73","68.44","PELLY BAY","2303093","2019-03-28 12:00","2019","03","28","12:00","-29.7","","","","","M","","","35","","28","","","M","96.31","","","","-45","","NA"
"-89.73","68.44","PELLY BAY","2303093","2019-03-28 13:00","2019","03","28","13:00","-29.0","","","","","M","","","35","","28","","","M","96.36","","","","-44","","NA"
"-89.73","68.44","PELLY BAY","2303093","2019-03-28 14:00","2019","03","28","14:00","-28.1","","","","","M","","","35","","24","","","M","96.44","","","","-42","","NA"
"-89.73","68.44","PELLY BAY","2303093","2019-03-28 15:00","2019","03","28","15:00","-27.6","","","","","M","","","35","","24","","","M","96.50","","","","-41","","NA"
"-89.73","68.44","PELLY BAY","2303093","2019-03-28 16:00","2019","03","28","16:00","-27.6","","","","","M","","","36","","24","","","M","96.57","","","","-41","","NA"
"-89.73","68.44","PELLY BAY","2303093","2019-03-28 17:00","2019","03","28","17:00","-28.1","","","","","M","","","34","","28","","","M","96.61","","","","-43","","NA"
"-89.73","68.44","PELLY BAY","2303093","2019-03-28 18:00","2019","03","28","18:00","-28.0","","","","","M","","","1","","30","","","M","96.67","","","","-43","","NA"
"-89.73","68.44","PELLY BAY","2303093","2019-03-28 19:00","2019","03","28","19:00","-27.9","","","","","M","","","1","","33","","","M","96.69","","","","-43","","NA"
"-89.73","68.44","PELLY BAY","2303093","2019-03-28 20:00","2019","03","28","20:00","-28.1","","","","","M","","","1","","35","","","M","96.73","","","","-44","","NA"
"-89.73","68.44","PELLY BAY","2303093","2019-03-28 21:00","2019","03","28","21:00","-28.0","","","","","M","","","36","","30","","","M","96.74","","","","-43","","NA"
"-89.73","68.44","PELLY BAY","2303093","2019-03-28 22:00","2019","03","28","22:00","-27.9","","","","","M","","","1","","35","","","M","96.75","","","","-44","","NA"
"-89.73","68.44","PELLY BAY","2303093","2019-03-28 23:00","2019","03","28","23:00","-27.5","","","","","M","","","1","","33","","","M","96.78","","","","-43","","NA"
"-89.73","68.44","PELLY BAY","2303093","2019-03-29 00:00","2019","03","29","00:00","-27.1","","","","","M","","","1","","37","","","M","96.80","","","","-43","","NA"
"-89.73","68.44","PELLY BAY","2303093","2019-03-29 01:00","2019","03","29","01:00","-25.9","","","","","M","","","36","","33","","","M","96.83","","","","-41","","NA"
"-89.73","68.44","PELLY BAY","2303093","2019-03-29 02:00","2019","03","29","02:00","-26.5","","","","","M","","","1","","35","","","M","96.86","","","","-42","","NA"
"-89.73","68.44","PELLY BAY","2303093","2019-03-29 03:00","2019","03","29","03:00","-26.5","","","","","M","","","36","","37","","","M","96.88","","","","-42","","NA"
"-89.73","68.44","PELLY BAY","2303093","2019-03-29 04:00","2019","03","29","04:00","-26.0","","","","","M","","","36","","33","","","M","96.92","","","","-41","","NA"
"-89.73","68.44","PELLY BAY","2303093","2019-03-29 05:00","2019","03","29","05:00","-25.7","","","","","M","","","1","","35","","","M","96.93","","","","-41","","NA"
"-89.73","68.44","PELLY BAY","2303093","2019-03-29 06:00","2019","03","29","06:00","-26.0","","","","","M","","","1","","31","","","M","96.95","","","","-41","","NA"
"-89.73","68.44","PELLY BAY","2303093","2019-03-29 07:00","2019","03","29","07:00","-25.2","","","","","M","","","36","","30","","","M","96.96","","","","-39","","NA"
"-89.73","68.44","PELLY BAY","2303093","2019-03-29 08:00","2019","03","29","08:00","-27.3","","","","","M","","","35","","28","","","M","96.96","","","","-42","","NA"
"-89.73","68.44","PELLY BAY","2303093","2019-03-29 09:00","2019","03","29","09:00","-26.3","","","","","M","","","35","","31","","","M","96.96","","","","-41","","NA"
"-89.73","68.44","PELLY BAY","2303093","2019-03-29 10:00","2019","03","29","10:00","-25.6","","","","","M","","","34","","35","","","M","96.97","","","","-41","","NA"
"-89.73","68.44","PELLY BAY","2303093","2019-03-29 11:00","2019","03","29","11:00","-24.5","","","","","M","","","34","","43","","","M","96.95","","","","-41","","NA"
"-89.73","68.44","PELLY BAY","2303093","2019-03-29 12:00","2019","03","29","12:00","-23.6","","","","","M","","","34","","31","","","M","96.97","","","","-37","","NA"
"-89.73","68.44","PELLY BAY","2303093","2019-03-29 13:00","2019","03","29","13:00","-22.9","","","","","M","","","34","","31","","","M","96.98","","","","-37","","NA"
"-89.73","68.44","PELLY BAY","2303093","2019-03-29 14:00","2019","03","29","14:00","-22.9","","","","","M","","","34","","44","","","M","96.97","","","","-39","","NA"
"-89.73","68.44","PELLY BAY","2303093","2019-03-29 15:00","2019","03","29","15:00","-23.0","","","","","M","","","34","","41","","","M","97.01","","","","-38","","NA"
"-89.73","68.44","PELLY BAY","2303093","2019-03-29 16:00","2019","03","29","16:00","-22.9","","","","","M","","","34","","43","","","M","97.00","","","","-38","","NA"
"-89.73","68.44","PELLY BAY","2303093","2019-03-29 17:00","2019","03","29","17:00","-23.6","","","","","M","","","33","","35","","","M","97.02","","","","-38","","NA"
"-89.73","68.44","PELLY BAY","2303093","2019-03-29 18:00","2019","03","29","18:00","-25.2","","","","","M","","","33","","35","","","M","96.99","","","","-40","","NA"
"-89.73","68.44","PELLY BAY","2303093","2019-03-29 19:00","2019","03","29","19:00","-26.6","","","","","M","","","32","","35","","","M","96.96","","","","-42","","NA"
"-89.73","68.44","PELLY BAY","2303093","2019-03-29 20:00","2019","03","29","20:00","-27.4","","","","","M","","","33","","33","","","M","96.95","","","","-43","","NA"
"-89.73","68.44","PELLY BAY","2303093","2019-03-29 21:00","2019","03","29","21:00"
"-89.73","68.44","PELLY BAY","2303093","2019-03-29 22:00","2019","03","29","22:00","-27.9","","","","","M","","","32","","33","","","M","96.84","","","","-43","","NA"
"-89.73","68.44","PELLY BAY","2303093","2019-03-29 23:00","2019","03","29","23:00","-27.5","","","","","M","","","31","","31","","","M","96.81","","","","-43","","NA"
"-89.73","68.44","PELLY BAY","2303093","2019-03-30 00:00","2019","03","30","00:00","-27.1","","","","","M","","","31","","28","","","M","96.81","","","","-41","","NA"
"-89.73","68.44","PELLY BAY","2303093","2019-03-30 01:00","2019","03","30","01:00","-26.8","","","","","M","","","32","","26","","","M","96.80","","","","-41","","NA"
"-89.73","68.44","PELLY BAY","2303093","2019-03-30 02:00","2019","03","30","02:00","-26.1","","","","","M","","","31","","24","","","M","96.79","","","","-39","","NA"
"-89.73","68.44","PELLY BAY","2303093","2019-03-30 03:00","2019","03","30","03:00","-25.6","","","","","M","","","31","","28","","","M","96.75","","","","-39","","NA"
"-89.73","68.44","PELLY BAY","2303093","2019-03-30 04:00","2019","03","30","04:00","-25.7","","","","","M","","","32","","30","","","M","96.73","","","","-40","","NA"
"-89.73","68.44","PELLY BAY","2303093","2019-03-30 05:00","2019","03","30","05:00","-25.0","","","","","M","","","31","","20","","","M","96.71","","","","-37","","NA"
"-89.73","68.44","PELLY BAY","2303093","2019-03-30 06:00","2019","03","30","06:00","-23.5","","","","","M","","","31","","20","","","M","96.70","","","","-35","","NA"
"-89.73","68.44","PELLY BAY","2303093","2019-03-30 07:00","2019","03","30","07:00","-22.2","","","","","M","","","33","","17","","","M","96.65","","","","-32","","NA"
"-89.73","68.44","PELLY BAY","2303093","2019-03-30 08:00","2019","03","30","08:00","-21.3","","","","","M","","","32","","17","","","M","96.62","","","","-31","","NA"
"-89.73","68.44","PELLY BAY","2303093","2019-03-30 09:00","2019","03","30","09:00","-21.5","","","","","M","","","31","","13","","","M","96.61","","","","-30","","NA"
"-89.73","68.44","PELLY BAY","2303093","2019-03-30 10:00","2019","03","30","10:00","-20.7","","","","","M","","","31","","15","","","M","96.58","","","","-30","","NA"
"-89.73","68.44","PELLY BAY","2303093","2019-03-30 11:00","2019","03","30","11:00","-19.0","","","","","M","","","32","","17","","","M","96.57","","","","-28","","NA"
"-89.73","68.44","PELLY BAY","2303093","2019-03-30 12:00","2019","03","30","12:00","-18.0","","","","","M","","","34","","17","","","M","96.57","","","","-27","","NA"
"-89.73","68.44","PELLY BAY","2303093","2019-03-30 13:00","2019","03","30","13:00","-18.3","","","","","M","","","35","","17","","","M","96.58","","","","-28","","NA"
"-89.73","68.44","PELLY BAY","2303093","2019-03-30 14:00","2019","03","30","14:00","-18.5","","","","","M","","","36","","17","","","M","96.58","","","","-28","","NA"
"-89.73","68.44","PELLY BAY","2303093","2019-03-30 15:00","2019","03","30","15:00","-18.8","","","","","M","","","35","","15","","","M","96.59","","","","-28","","NA"
"-89.73","68.44","PELLY BAY","2303093","2019-03-30 16:00","2019","03","30","16:00","-19.9","","","","","M","","","36","","17","","","M","96.60","","","","-30","","NA"
"-89.73","68.44","PELLY BAY","2303093","2019-03-30 17:00","2019","03","30","17:00","-20.7","","","","","M","","","36","","19","","","M","96.59","","","","-31","","NA"
"-89.73","68.44","PELLY BAY","2303093","2019-03-30 18:00","2019","03","30","18:00","-21.8","","","","","M","","","36","","19","","","M","96.61","","","","-32","","NA"
"-89.73","68.44","PELLY BAY","2303093","2019-03-30 19:00","2019","03","30","19:00","-22.6","","","","","M","","","33","","22","","","M","96.59","","","","-34","","NA"
"-89.73","68.44","PELLY BAY","2303093","2019-03-30 20:00","2019","03","30","20:00","-22.7","","","","","M","","","35","","31","","","M","96.59","","","","-36","","NA"
"-89.73","68.44","PELLY BAY","2303093","2019-03-30 21:00","2019","03","30","21:00","-23.7","","","","","M","","","34","","30","","","M","96.58","","","","-37","","NA"
"-89.73","68.44","PELLY BAY","2303093","2019-03-30 22:00","2019","03","30","22:00","-24.0","","","","","M","","","34","","30","","","M","96.57","","","","-38","","NA"
"-89.73","68.44","PELLY BAY","2303093","2019-03-30 23:00","2019","03","30","23:00","-23.9","","","","","M","","","36","","30","","","M","96.58","","","","-38","","NA"
"-89.73","68.44","PELLY BAY","2303093","2019-03-31 00:00","2019","03","31","00:00","-23.1","","","","","M","","","33","","33","","","M","96.60","","","","-37","","NA"
"-89.73","68.44","PELLY BAY","2303093","2019-03-31 01:00","2019","03","31","01:00","-23.4","","","","","M","","","32","","31","","","M","96.60","","","","-37","","NA"
"-89.73","68.44","PELLY BAY","2303093","2019-03-31 02:00","2019","03","31","02:00","-23.0","","","","","M","","","33","","28","","","M","96.63","","","","-36","","NA"
"-89.73","68.44","PELLY BAY","2303093","2019-03-31 03:00","2019","03","31","03:00","-22.6","","","","","M","","","33","","30","","","M","96.65","","","","-36","","NA"
"-89.73","68.44","PELLY BAY","2303093","2019-03-31 04:00","2019","03","31","04:00","-22.4","","","","","M","","","34","","31","","","M","96.64","","","","-36","","NA"
"-89.73","68.44","PELLY BAY","2303093","2019-03-31 05:00","2019","03","31","05:00","-22.3","","","","","M","","","34","","31","","","M","96.68","","","","-36","","NA"
"-89.73","68.44","PELLY BAY","2303093","2019-03-31 06:00","2019","03","31","06:00","-22.0","","","","","M","","","33","","28","","","M","96.68","","","","-35","","NA"
"-89.73","68.44","PELLY BAY","2303093","2019-03-31 07:00","2019","03","31","07:00","-21.5","","","","","M","","","32","","26","","","M","96.67","","","","-34","","NA"
"-89.73","68.44","PELLY BAY","2303093","2019-03-31 08:00","2019","03","31","08:00","-21.1","","","","","M","","","34","","31","","","M","96.62","","","","-34","","NA"
"-89.73","68.44","PELLY BAY","2303093","2019-03-31 09:00","2019","03","31","09:00","-21.5","","","","","M","","","32","","26","","","M","96.62","","","","-34","","NA"
"-89.73","68.44","PELLY BAY","2303093","2019-03-31 10:00","2019","03","31","10:00","-21.3","","","","","M","","","33","","26","","","M","96.61","","","","-33","","NA"
"-89.73","68.44","PELLY BAY","2303093","2019-03-31 11:00","2019","03","31","11:00","-20.5","","","","","M","","","32","","24","","","M","96.60","","","","-32","","NA"
"-89.73","68.44","PELLY BAY","2303093","2019-03-31 12:00","2019","03","31","12:00","-20.4","","","","","M","","","32","","22","","","M","96.63","","","","-31","","NA"
"-89.73","68.44","PELLY BAY","2303093","2019-03-31 13:00","2019","03","31","13:00","-19.7","","","","","M","","","33","","20","","","M","96.63","","","","-30","","NA"
"-89.73","68.44","PELLY BAY","2303093","2019-03-31 14:00","2019","03","31","14:00","-19.4","","","","","M","","","35","","28","","","M","96.63","","","","-31","","NA"
"-89.73","68.44","PELLY BAY","2303093","2019-03-31 15:00","2019","03","31","15:00","-19.2","","","","","M","","","35","","22","","","M","96.65","","","","-30","","NA"
"-89.73","68.44","PELLY BAY","2303093","2019-03-31 16:00","2019","03","31","16:00","-19.6","","","","","M","","","36","","22","","","M","96.63","","","","-30","","NA"
"-89.73","68.44","PELLY BAY","2303093","2019-03-31 17:00","2019","03","31","17:00","-19.9","","","","","M","","","36","","22","","","M","96.64","","","","-31","","NA"
"-89.73","68.44","PELLY BAY","2303093","2019-03-31 18:00","2019","03","31","18:00","-19.8","","","","","M","","","35","","17","","","M","96.65","","","","-29","","NA"
"-89.73","68.44","PELLY BAY","2303093","2019-03-31 19:00","2019","03","31","19:00","-19.6","","","","","M","","","34","","15","","","M","96.64","","","","-29","","NA"
"-89.73","68.44","PELLY BAY","2303093","2019-03-31 20:00","2019","03","31","20:00","-19.3","","","","","M","","","33","","15","","","M","96.62","","","","-28","","NA"
"-89.73","68.44","PELLY BAY","2303093","2019-03-31 21:00","2019","03","31","21:00","-19.2","","","","","M","","","35","","13","","","M","96.60","","","","-27","","NA"
"-89.73","68.44","PELLY BAY","2303093","2019-03-31 22:00","2019","03","31","22:00","-19.0","","","","","M","","","2","","15","","","M","96.59","","","","-28","","NA"
"-89.73","68.44","PELLY BAY","2303093","2019-03-31 23:00","2019","03","31","23:00","-19.2","","","","","M","","","35","","15","","","M","96.60","","","","-28","","NA"
