"Longitude (x)","Latitude (y)","Station Name","Climate ID","Date/Time (LST)","Year","Month","Day","Time (LST)","Temp (°C)","Temp Flag","Dew Point Temp (°C)","Dew Point Temp Flag","Rel Hum (%)","Rel Hum Flag","Precip. Amount (mm)","Precip. Amount Flag","Wind Dir (10s deg)","Wind Dir Flag","Wind Spd (km/h)","Wind Spd Flag","Visibility (km)","Visibility Flag","Stn Press (kPa)","Stn Press Flag","Hmdx","Hmdx Flag","Wind Chill","Wind Chill Flag","Weather"
"-93.58","69.55","TALOYOAK A","2403854","2012-02-01 00:00","2012","02","01","00:00","-27.4","","-31.7","","67","","","","","","0","","24.1","","100.92","","","","","","Mostly Cloudy"
"-93.58","69.55","TALOYOAK A","2403854","2012-02-01 01:00","2012","02","01","01:00","-26.8","","-29.6","","77","","","","6","","7","","16.1","","100.92","","","","-34","","Snow"
"-93.58","69.55","TALOYOAK A","2403854","2012-02-01 02:00","2012","02","01","02:00","-27.1","","-29.9","","77","","","","8","","7","","16.1","","100.93","","","","-34","","Snow"
"-93.58","69.55","TALOYOAK A","2403854","2012-02-01 03:00","2012","02","01","03:00","-27.6","","-30.5","","76","","","","9","","9","","19.3","","100.93","","","","-36","","Snow"
"-93.58","69.55","TALOYOAK A","2403854","2012-02-01 04:00","2012","02","01","04:00","-27.5","","-30.4","","76","","","","9","","4","","19.3","","100.92","","","","-32","","Snow"
"-93.58","69.55","TALOYOAK A","2403854","2012-02-01 05:00","2012","02","01","05:00","-27.3","","-30.2","","76","","","","6","","13","","19.3","","100.89","","","","-37","","Snow"
"-93.58","69.55","TALOYOAK A","2403854","2012-02-01 06:00","2012","02","01","06:00","-27.4","","-30.3","","76","","","","7","","11","","19.3","","100.91","","","","-37","","Snow"
"-93.58","69.55","TALOYOAK A","2403854","2012-02-01 07:00","2012","02","01","07:00","-27.8","","-30.7","","76","","","","8","","7","","19.3","","100.91","","","","-35","","Snow"
"-93.58","69.55","TALOYOAK A","2403854","2012-02-01 08:00","2012","02","01","08:00","-25.8","","-28.5","","78","","","","14","","6","","16.1","","100.88","","","","-32","","Snow"
"-93.58","69.55","TALOYOAK A","2403854","2012-02-01 09:00","2012","02","01","09:00","-25.7","","-27.3","","86","","","","","","0","","12.9","","100.91","","","","","","Snow"
"-93.58","69.55","TALOYOAK A","2403854","2012-02-01 10:00","2012","02","01","10:00","-25.2","","-29.1","","70","","","","15","","6","","9.7","","100.89","","","","-31","","Snow"
"-93.58","69.55","TALOYOAK A","2403854","2012-02-01 11:00","2012","02","01","11:00","-25.9","","-29.9","","69","","","","18","","7","","11.3","","100.92","","","","-33","","Snow"
"-93.58","69.55","TALOYOAK A","2403854","2012-02-01 12:00","2012","02","01","12:00","-26.7","","-29.5","","77","","","","17","","7","","9.7","","100.95","","","","-33","","Snow"
"-93.58","69.55","TALOYOAK A","2403854","2012-02-01 13:00","2012","02","01","13:00","-26.2","","-30.2","","69","","","","18","","7","","12.9","","101.00","","","","-33","","Snow"
"-93.58","69.55","TALOYOAK A","2403854","2012-02-01 14:00","2012","02","01","14:00","-26.3","","-31.8","","60","","","","19","","4","","24.1","","101.07","","","","-30","","Snow"
"-93.58","69.55","TALOYOAK A","2403854","2012-02-01 15:00","2012","02","01","15:00","-26.0","","-31.4","","60","","","","19","","13","","24.1","","101.12","","","","-36","","Ice Crystals"
"-93.58","69.55","TALOYOAK A","2403854","2012-02-01 16:00","2012","02","01","16:00","-28.5","","-33.0","","65","","","","17","","13","","24.1","","101.18","","","","-39","","Ice Crystals"
"-93.58","69.55","TALOYOAK A","2403854","2012-02-01 17:00","2012","02","01","17:00","-30.6","","-35.6","","62","","","","16","","17","","24.1","","101.25","","","","-43","","Ice Crystals"
"-93.58","69.55","TALOYOAK A","2403854","2012-02-01 18:00","2012","02","01","18:00","-30.8","","-33.9","","74","","","","16","","19","","24.1","","101.27","","","","-44","","Ice Crystals"
"-93.58","69.55","TALOYOAK A","2403854","2012-02-01 19:00","2012","02","01","19:00","-31.6","","-34.8","","73","","","","16","","15","","24.1","","101.32","","","","-43","","Ice Crystals"
"-93.58","69.55","TALOYOAK A","2403854","2012-02-01 20:00","2012","02","01","20:00","-31.4","","-36.6","","60","","","","16","","17","","24.1","","101.36","","","","-44","","Ice Crystals"
"-93.58","69.55","TALOYOAK A","2403854","2012-02-01 21:00","2012","02","01","21:00","-31.6","","-34.8","","73","","","","16","","15","","24.1","","101.40","","","","-43","","Ice Crystals"
"-93.58","69.55","TALOYOAK A","2403854","2012-02-01 22:00","2012","02","01","22:00","-31.6","","-34.8","","73","","","","15","","19","","24.1","","101.43","","","","-45","","Ice Crystals"
"-93.58","69.55","TALOYOAK A","2403854","2012-02-01 23:00","2012","02","01","23:00","-31.7","","-34.9","","73","","","","15","","19","","24.1","","101.45","","","","-45","","Ice Crystals"
"-93.58","69.55","TALOYOAK A","2403854","2012-02-02 00:00","2012","02","02","00:00","-31.2","","-34.3","","74","","","","15","","15","","24.1","","101.48","","","","-43","","Ice Crystals"
"-93.58","69.55","TALOYOAK A","2403854","2012-02-02 01:00","2012","02","02","01:00","-31.1","","-34.2","","74","","","","15","","13","","24.1","","101.50","","","","-42","","Ice Crystals"
"-93.58","69.55","TALOYOAK A","2403854","2012-02-02 02:00","2012","02","02","02:00","-30.9","","-34.0","","74","","","","16","","19","","24.1","","101.52","","","","-44","","Ice Crystals"
"-93.58","69.55","TALOYOAK A","2403854","2012-02-02 03:00","2012","02","02","03:00","-29.5","","-34.2","","64","","","","16","","13","","24.1","","101.56","","","","-40","","Ice Crystals"
"-93.58","69.55","TALOYOAK A","2403854","2012-02-02 04:00","2012","02","02","04:00","-28.7","","-33.2","","65","","","","17","","7","","24.1","","101.58","","","","-36","","Snow"
"-93.58","69.55","TALOYOAK A","2403854","2012-02-02 05:00","2012","02","02","05:00","-28.4","","-32.9","","65","","","","18","","15","","24.1","","101.59","","","","-39","","Snow"
"-93.58","69.55","TALOYOAK A","2403854","2012-02-02 06:00","2012","02","02","06:00","-28.2","","-31.1","","76","","","","16","","13","","24.1","","101.62","","","","-38","","Snow"
"-93.58","69.55","TALOYOAK A","2403854","2012-02-02 07:00","2012","02","02","07:00","-28.0","","-32.4","","66","","","","16","","13","","24.1","","101.64","","","","-38","","Ice Crystals"
"-93.58","69.55","TALOYOAK A","2403854","2012-02-02 08:00","2012","02","02","08:00","-29.6","","-34.4","","63","","","","16","","9","","16.1","","101.63","","","","-38","","Ice Crystals"
"-93.58","69.55","TALOYOAK A","2403854","2012-02-02 09:00","2012","02","02","09:00","-29.7","","-34.5","","63","","","","18","","19","","24.1","","101.59","","","","-42","","Ice Crystals"
"-93.58","69.55","TALOYOAK A","2403854","2012-02-02 10:00","2012","02","02","10:00","-30.7","","-35.7","","61","","","","19","","9","","24.1","","101.63","","","","-39","","Ice Crystals"
"-93.58","69.55","TALOYOAK A","2403854","2012-02-02 11:00","2012","02","02","11:00","-30.3","","-35.2","","62","","","","20","","7","","24.1","","101.69","","","","-38","","Ice Crystals"
"-93.58","69.55","TALOYOAK A","2403854","2012-02-02 12:00","2012","02","02","12:00","-29.8","","-34.6","","63","","","","15","","17","","24.1","","101.60","","","","-42","","Cloudy"
"-93.58","69.55","TALOYOAK A","2403854","2012-02-02 13:00","2012","02","02","13:00","-28.9","","-33.5","","64","","","","16","","28","","24.1","","101.53","","","","-44","","Snow"
"-93.58","69.55","TALOYOAK A","2403854","2012-02-02 14:00","2012","02","02","14:00","-28.6","","-33.1","","65","","","","16","","22","","24.1","","101.55","","","","-42","","Mostly Cloudy"
"-93.58","69.55","TALOYOAK A","2403854","2012-02-02 15:00","2012","02","02","15:00","-27.8","","-32.2","","66","","","","17","","19","","19.3","","101.45","","","","-40","","Ice Crystals"
"-93.58","69.55","TALOYOAK A","2403854","2012-02-02 16:00","2012","02","02","16:00","-27.2","","-31.4","","67","","","","18","","20","","19.3","","101.45","","","","-40","","Ice Crystals"
"-93.58","69.55","TALOYOAK A","2403854","2012-02-02 17:00","2012","02","02","17:00","-27.0","","-31.2","","67","","","","17","","24","","19.3","","101.35","","","","-40","","Ice Crystals"
"-93.58","69.55","TALOYOAK A","2403854","2012-02-02 18:00","2012","02","02","18:00","-27.1","","-31.3","","67","","","","16","","20","","19.3","","101.24","","","","-39","","Ice Crystals"
"-93.58","69.55","TALOYOAK A","2403854","2012-02-02 19:00","2012","02","02","19:00","-26.6","","-29.4","","77","","","","16","","20","","19.3","","101.18","","","","-39","","Ice Crystals"
"-93.58","69.55","TALOYOAK A","2403854","2012-02-02 20:00","2012","02","02","20:00","-24.4","","-28.1","","71","","","","16","","28","","19.3","","101.01","","","","-38","","Snow"
"-93.58","69.55","TALOYOAK A","2403854","2012-02-02 21:00","2012","02","02","21:00","-23.1","","-25.6","","80","","","","17","","26","","19.3","","100.89","","","","-36","","Snow"
"-93.58","69.55","TALOYOAK A","2403854","2012-02-02 22:00","2012","02","02","22:00","-26.8","","-31.0","","68","","","","17","","28","","24.1","","100.78","","","","-41","","Snow"
"-93.58","69.55","TALOYOAK A","2403854","2012-02-02 23:00","2012","02","02","23:00","-21.1","","-23.4","","82","","","","16","","35","","16.1","","100.61","","","","-35","","Snow"
"-93.58","69.55","TALOYOAK A","2403854","2012-02-03 00:00","2012","02","03","00:00","-19.8","","-22.8","","77","","","","16","","37","","16.1","","100.46","","","","-33","","Snow"
"-93.58","69.55","TALOYOAK A","2403854","2012-02-03 01:00","2012","02","03","01:00","-18.3","","-21.1","","79","","","","16","","46","","6.4","","100.24","","","","-33","","Snow,Blowing Snow"
"-93.58","69.55","TALOYOAK A","2403854","2012-02-03 02:00","2012","02","03","02:00","-17.6","","-20.3","","79","","","","15","","46","","1.6","","100.13","","","","-32","","Snow,Blowing Snow"
"-93.58","69.55","TALOYOAK A","2403854","2012-02-03 03:00","2012","02","03","03:00","-16.7","","-19.2","","81","","","","16","","56","","0.8","","99.86","","","","-32","","Snow,Blowing Snow"
"-93.58","69.55","TALOYOAK A","2403854","2012-02-03 04:00","2012","02","03","04:00","-16.7","","-19.2","","81","","","","16","","41","","0.8","","99.97","","","","-30","","Snow,Blowing Snow"
"-93.58","69.55","TALOYOAK A","2403854","2012-02-03 05:00","2012","02","03","05:00","-16.4","","-18.9","","81","","","","17","","46","","1.6","","99.79","","","","-30","","Snow,Blowing Snow"
"-93.58","69.55","TALOYOAK A","2403854","2012-02-03 06:00","2012","02","03","06:00","-16.1","","-18.5","","82","","","","18","","56","","1.0","","99.69","","","","-31","","Snow,Blowing Snow"
"-93.58","69.55","TALOYOAK A","2403854","2012-02-03 07:00","2012","02","03","07:00","-16.1","","-19.1","","78","","","","18","","50","","0.2","","99.58","","","","-30","","Moderate Snow,Blowing Snow"
"-93.58","69.55","TALOYOAK A","2403854","2012-02-03 08:00","2012","02","03","08:00","-15.8","","-18.2","","82","","","","18","","43","","0.2","","99.52","","","","-29","","Moderate Snow,Blowing Snow"
"-93.58","69.55","TALOYOAK A","2403854","2012-02-03 09:00","2012","02","03","09:00","-15.6","","-18.6","","78","","","","19","","50","","0.0","","99.39","","","","-29","","Moderate Snow,Blowing Snow"
"-93.58","69.55","TALOYOAK A","2403854","2012-02-03 10:00","2012","02","03","10:00","-15.4","","-18.3","","78","","","","20","","46","","0.6","","99.31","","","","-29","","Snow,Blowing Snow"
"-93.58","69.55","TALOYOAK A","2403854","2012-02-03 11:00","2012","02","03","11:00","-16.1","","-18.0","","85","","","","23","","33","","0.8","","99.34","","","","-28","","Snow,Blowing Snow"
"-93.58","69.55","TALOYOAK A","2403854","2012-02-03 12:00","2012","02","03","12:00","-18.0","","-20.7","","79","","","","25","","33","","0.8","","99.47","","","","-30","","Snow,Blowing Snow"
"-93.58","69.55","TALOYOAK A","2403854","2012-02-03 13:00","2012","02","03","13:00","-19.3","","-22.2","","78","","","","26","","33","","0.8","","99.54","","","","-32","","Snow,Blowing Snow"
"-93.58","69.55","TALOYOAK A","2403854","2012-02-03 14:00","2012","02","03","14:00","-19.6","","-22.5","","78","","","","26","","24","","1.6","","99.67","","","","-31","","Snow,Blowing Snow"
"-93.58","69.55","TALOYOAK A","2403854","2012-02-03 15:00","2012","02","03","15:00","-20.5","","-23.6","","76","","","","28","","43","","0.4","","99.74","","","","-35","","Snow,Blowing Snow"
"-93.58","69.55","TALOYOAK A","2403854","2012-02-03 16:00","2012","02","03","16:00","-21.6","","-24.8","","75","","","","29","","50","","0.2","","99.84","","","","-38","","Snow,Blowing Snow"
"-93.58","69.55","TALOYOAK A","2403854","2012-02-03 17:00","2012","02","03","17:00","-22.7","","-26.1","","74","","","","29","","26","","3.2","","100.03","","","","-35","","Snow,Blowing Snow"
"-93.58","69.55","TALOYOAK A","2403854","2012-02-03 18:00","2012","02","03","18:00","-23.5","","-27.1","","72","","","","28","","20","","3.2","","100.14","","","","-35","","Snow,Blowing Snow"
"-93.58","69.55","TALOYOAK A","2403854","2012-02-03 19:00","2012","02","03","19:00","-23.7","","-27.3","","72","","","","29","","37","","3.2","","100.21","","","","-39","","Snow,Blowing Snow"
"-93.58","69.55","TALOYOAK A","2403854","2012-02-03 20:00","2012","02","03","20:00","-24.0","","-27.6","","72","","","","31","","50","","1.6","","100.23","","","","-41","","Snow,Blowing Snow"
"-93.58","69.55","TALOYOAK A","2403854","2012-02-03 21:00","2012","02","03","21:00","-24.6","","-28.3","","71","","","","30","","54","","0.8","","100.35","","","","-42","","Snow,Blowing Snow"
"-93.58","69.55","TALOYOAK A","2403854","2012-02-03 22:00","2012","02","03","22:00","-25.1","","-28.9","","71","","","","30","","46","","2.0","","100.39","","","","-42","","Snow,Blowing Snow"
"-93.58","69.55","TALOYOAK A","2403854","2012-02-03 23:00","2012","02","03","23:00","-25.2","","-29.1","","70","","","","30","","37","","4.8","","100.48","","","","-41","","Snow,Blowing Snow"
"-93.58","69.55","TALOYOAK A","2403854","2012-02-04 00:00","2012","02","04","00:00","-25.1","","-28.9","","71","","","","31","","35","","6.4","","100.60","","","","-40","","Blowing Snow"
"-93.58","69.55","TALOYOAK A","2403854","2012-02-04 01:00","2012","02","04","01:00","-24.8","","-28.6","","71","","","","31","","28","","24.1","","100.64","","","","-38","","Mainly Clear"
"-93.58","69.55","TALOYOAK A","2403854","2012-02-04 02:00","2012","02","04","02:00","-26.7","","-30.8","","68","","","","36","","22","","24.1","","100.64","","","","-39","","Mostly Cloudy"
"-93.58","69.55","TALOYOAK A","2403854","2012-02-04 03:00","2012","02","04","03:00","-27.2","","-31.4","","67","","","","16","","7","","24.1","","100.73","","","","-34","","Mostly Cloudy"
"-93.58","69.55","TALOYOAK A","2403854","2012-02-04 04:00","2012","02","04","04:00","-26.8","","-31.0","","68","","","","18","","11","","24.1","","100.77","","","","-36","","Mostly Cloudy"
"-93.58","69.55","TALOYOAK A","2403854","2012-02-04 05:00","2012","02","04","05:00","-28.3","","-32.8","","65","","","","14","","13","","24.1","","100.71","","","","-39","","Mostly Cloudy"
"-93.58","69.55","TALOYOAK A","2403854","2012-02-04 06:00","2012","02","04","06:00","-28.5","","-33.0","","65","","","","14","","11","","24.1","","100.73","","","","-38","","Mostly Cloudy"
"-93.58","69.55","TALOYOAK A","2403854","2012-02-04 07:00","2012","02","04","07:00","-29.0","","-33.6","","64","","","","8","","7","","24.1","","100.62","","","","-36","","Mostly Cloudy"
"-93.58","69.55","TALOYOAK A","2403854","2012-02-04 08:00","2012","02","04","08:00","-29.2","","-35.8","","53","","","","35","","9","","16.1","","100.64","","","","-38","","Mostly Cloudy"
"-93.58","69.55","TALOYOAK A","2403854","2012-02-04 09:00","2012","02","04","09:00","-28.9","","-33.5","","64","","","","1","","13","","16.1","","100.57","","","","-39","","Mainly Clear"
"-93.58","69.55","TALOYOAK A","2403854","2012-02-04 10:00","2012","02","04","10:00","-29.3","","-32.3","","75","","","","2","","17","","20.9","","100.54","","","","-41","","Mainly Clear"
"-93.58","69.55","TALOYOAK A","2403854","2012-02-04 11:00","2012","02","04","11:00","-28.4","","-32.9","","65","","","","1","","19","","20.9","","100.45","","","","-41","","Mostly Cloudy"
"-93.58","69.55","TALOYOAK A","2403854","2012-02-04 12:00","2012","02","04","12:00","-25.1","","-28.9","","71","","","","3","","33","","24.1","","100.40","","","","-40","","Mainly Clear"
"-93.58","69.55","TALOYOAK A","2403854","2012-02-04 13:00","2012","02","04","13:00","-26.0","","-30.0","","69","","","","4","","19","","24.1","","100.45","","","","-38","","Mainly Clear"
"-93.58","69.55","TALOYOAK A","2403854","2012-02-04 14:00","2012","02","04","14:00","-24.9","","-28.7","","71","","","","4","","46","","0.8","","100.52","","","","-42","","Blowing Snow"
"-93.58","69.55","TALOYOAK A","2403854","2012-02-04 15:00","2012","02","04","15:00","-24.7","","-28.5","","71","","","","4","","43","","1.2","","100.69","","","","-41","","Blowing Snow"
"-93.58","69.55","TALOYOAK A","2403854","2012-02-04 16:00","2012","02","04","16:00","-26.0","","-30.0","","69","","","","36","","13","","24.1","","100.86","","","","-36","","Clear"
"-93.58","69.55","TALOYOAK A","2403854","2012-02-04 17:00","2012","02","04","17:00","-26.5","","-30.6","","68","","","","2","","22","","24.1","","100.93","","","","-39","","Clear"
"-93.58","69.55","TALOYOAK A","2403854","2012-02-04 18:00","2012","02","04","18:00","-27.0","","-31.2","","67","","","","35","","9","","24.1","","101.10","","","","-35","","Clear"
"-93.58","69.55","TALOYOAK A","2403854","2012-02-04 19:00","2012","02","04","19:00","-27.5","","-31.8","","67","","","","1","","20","","24.1","","101.22","","","","-40","","Clear"
"-93.58","69.55","TALOYOAK A","2403854","2012-02-04 20:00","2012","02","04","20:00","-28.6","","-33.1","","65","","","","3","","20","","24.1","","101.27","","","","-41","","Clear"
"-93.58","69.55","TALOYOAK A","2403854","2012-02-04 21:00","2012","02","04","21:00","-28.8","","-33.4","","64","","","","1","","28","","24.1","","101.33","","","","-44","","Clear"
"-93.58","69.55","TALOYOAK A","2403854","2012-02-04 22:00","2012","02","04","22:00","-30.5","","-35.5","","62","","","","36","","13","","24.1","","101.44","","","","-41","","Clear"
"-93.58","69.55","TALOYOAK A","2403854","2012-02-04 23:00","2012","02","04","23:00","-30.6","","-35.6","","62","","","","35","","7","","24.1","","101.53","","","","-38","","Clear"
"-93.58","69.55","TALOYOAK A","2403854","2012-02-05 00:00","2012","02","05","00:00","-30.5","","-35.5","","62","","","","34","","9","","24.1","","101.60","","","","-39","","Mainly Clear"
"-93.58","69.55","TALOYOAK A","2403854","2012-02-05 01:00","2012","02","05","01:00","-30.7","","-38.1","","48","","","","35","","9","","24.1","","101.73","","","","-39","","Mainly Clear"
"-93.58","69.55","TALOYOAK A","2403854","2012-02-05 02:00","2012","02","05","02:00","-32.0","","-37.4","","59","","","","33","","15","","24.1","","101.80","","","","-44","","Mainly Clear"
"-93.58","69.55","TALOYOAK A","2403854","2012-02-05 03:00","2012","02","05","03:00","-33.1","","-38.8","","57","","","","34","","17","","24.1","","101.89","","","","-46","","Clear"
"-93.58","69.55","TALOYOAK A","2403854","2012-02-05 04:00","2012","02","05","04:00","-30.3","","-35.2","","62","","","","36","","24","","24.1","","101.92","","","","-45","","Clear"
"-93.58","69.55","TALOYOAK A","2403854","2012-02-05 05:00","2012","02","05","05:00","-30.7","","-35.7","","61","","","","34","","24","","24.1","","101.92","","","","-45","","Mainly Clear"
"-93.58","69.55","TALOYOAK A","2403854","2012-02-05 06:00","2012","02","05","06:00","-29.5","","-34.2","","64","","","","2","","6","","24.1","","102.05","","","","-36","","Mainly Clear"
"-93.58","69.55","TALOYOAK A","2403854","2012-02-05 07:00","2012","02","05","07:00","-31.5","","-36.7","","60","","","","","","0","","24.1","","102.05","","","","","","Clear"
"-93.58","69.55","TALOYOAK A","2403854","2012-02-05 08:00","2012","02","05","08:00","-29.6","","-34.4","","63","","","","33","","13","","24.1","","102.10","","","","-40","","Clear"
"-93.58","69.55","TALOYOAK A","2403854","2012-02-05 09:00","2012","02","05","09:00","-28.5","","-33.0","","65","","","","31","","28","","24.1","","102.12","","","","-43","","Clear"
"-93.58","69.55","TALOYOAK A","2403854","2012-02-05 10:00","2012","02","05","10:00","-29.8","","-34.6","","63","","","","30","","28","","24.1","","102.08","","","","-45","","Clear"
"-93.58","69.55","TALOYOAK A","2403854","2012-02-05 11:00","2012","02","05","11:00","-27.4","","-31.7","","67","","","","31","","32","","24.1","","102.12","","","","-43","","Mostly Cloudy"
"-93.58","69.55","TALOYOAK A","2403854","2012-02-05 12:00","2012","02","05","12:00","-25.9","","-29.9","","69","","","","35","","28","","24.1","","102.12","","","","-40","","Mostly Cloudy"
"-93.58","69.55","TALOYOAK A","2403854","2012-02-05 13:00","2012","02","05","13:00","-25.5","","-29.4","","70","","","","27","","22","","24.1","","102.16","","","","-38","","Mostly Cloudy"
"-93.58","69.55","TALOYOAK A","2403854","2012-02-05 14:00","2012","02","05","14:00","-26.1","","-30.1","","69","","","","30","","30","","24.1","","102.18","","","","-41","","Mainly Clear"
"-93.58","69.55","TALOYOAK A","2403854","2012-02-05 15:00","2012","02","05","15:00","-27.5","","-31.8","","67","","","","29","","17","","24.1","","102.23","","","","-39","","Mostly Cloudy"
"-93.58","69.55","TALOYOAK A","2403854","2012-02-05 16:00","2012","02","05","16:00","-26.9","","-31.1","","68","","","","30","","30","","24.1","","102.24","","","","-42","","Ice Crystals"
"-93.58","69.55","TALOYOAK A","2403854","2012-02-05 17:00","2012","02","05","17:00","-26.4","","-30.5","","68","","","","32","","35","","24.1","","102.20","","","","-42","","Ice Crystals"
"-93.58","69.55","TALOYOAK A","2403854","2012-02-05 18:00","2012","02","05","18:00","-27.0","","-31.2","","67","","","","30","","46","","3.2","","102.18","","","","-44","","Blowing Snow"
"-93.58","69.55","TALOYOAK A","2403854","2012-02-05 19:00","2012","02","05","19:00","-26.5","","-30.6","","68","","","","28","","17","","12.9","","102.17","","","","-38","","Cloudy"
"-93.58","69.55","TALOYOAK A","2403854","2012-02-05 20:00","2012","02","05","20:00","-25.2","","-29.1","","70","","","","32","","32","","4.8","","102.09","","","","-40","","Blowing Snow"
"-93.58","69.55","TALOYOAK A","2403854","2012-02-05 21:00","2012","02","05","21:00","-26.0","","-30.0","","69","","","","31","","43","","4.8","","101.97","","","","-43","","Blowing Snow"
"-93.58","69.55","TALOYOAK A","2403854","2012-02-05 22:00","2012","02","05","22:00","-26.2","","-30.2","","69","","","","31","","48","","1.6","","101.85","","","","-44","","Blowing Snow"
"-93.58","69.55","TALOYOAK A","2403854","2012-02-05 23:00","2012","02","05","23:00","-26.8","","-31.0","","68","","","","31","","41","","4.8","","101.83","","","","-43","","Blowing Snow"
"-93.58","69.55","TALOYOAK A","2403854","2012-02-06 00:00","2012","02","06","00:00","-27.7","","-32.0","","67","","","","30","","33","","4.8","","101.81","","","","-43","","Blowing Snow"
"-93.58","69.55","TALOYOAK A","2403854","2012-02-06 01:00","2012","02","06","01:00","-28.3","","-32.8","","65","","","","31","","44","","4.8","","101.78","","","","-46","","Blowing Snow"
"-93.58","69.55","TALOYOAK A","2403854","2012-02-06 02:00","2012","02","06","02:00","-28.5","","-33.0","","65","","","","30","","41","","4.8","","101.83","","","","-46","","Blowing Snow"
"-93.58","69.55","TALOYOAK A","2403854","2012-02-06 03:00","2012","02","06","03:00","-28.0","","-32.4","","66","","","","33","","26","","6.4","","101.76","","","","-42","","Blowing Snow"
"-93.58","69.55","TALOYOAK A","2403854","2012-02-06 04:00","2012","02","06","04:00","-27.2","","-31.4","","67","","","","32","","37","","16.1","","101.70","","","","-43","","Mainly Clear"
"-93.58","69.55","TALOYOAK A","2403854","2012-02-06 05:00","2012","02","06","05:00","-27.6","","-31.9","","67","","","","30","","20","","24.1","","101.66","","","","-40","","Mainly Clear"
"-93.58","69.55","TALOYOAK A","2403854","2012-02-06 06:00","2012","02","06","06:00","-25.7","","-29.6","","70","","","","31","","19","","24.1","","101.59","","","","-37","","Mostly Cloudy"
"-93.58","69.55","TALOYOAK A","2403854","2012-02-06 07:00","2012","02","06","07:00","-25.1","","-28.9","","71","","","","31","","37","","24.1","","101.44","","","","-40","","Mostly Cloudy"
"-93.58","69.55","TALOYOAK A","2403854","2012-02-06 08:00","2012","02","06","08:00","-25.1","","-28.9","","71","","","","33","","4","","11.3","","101.45","","","","-29","","Mostly Cloudy"
"-93.58","69.55","TALOYOAK A","2403854","2012-02-06 09:00","2012","02","06","09:00","-25.4","","-29.3","","70","","","","29","","13","","12.9","","101.27","","","","-35","","Ice Crystals"
"-93.58","69.55","TALOYOAK A","2403854","2012-02-06 10:00","2012","02","06","10:00","-24.0","","-27.6","","72","","","","28","","24","","19.3","","101.14","","","","-37","","Ice Crystals"
"-93.58","69.55","TALOYOAK A","2403854","2012-02-06 11:00","2012","02","06","11:00","-23.8","","-27.4","","72","","","","27","","33","","6.4","","101.00","","","","-38","","Ice Crystals,Blowing Snow"
"-93.58","69.55","TALOYOAK A","2403854","2012-02-06 12:00","2012","02","06","12:00","-24.0","","-27.6","","72","","","","23","","24","","16.1","","100.85","","","","-37","","Ice Crystals"
"-93.58","69.55","TALOYOAK A","2403854","2012-02-06 13:00","2012","02","06","13:00","-24.4","","-28.1","","71","","","","26","","22","","16.1","","100.70","","","","-37","","Ice Crystals"
"-93.58","69.55","TALOYOAK A","2403854","2012-02-06 14:00","2012","02","06","14:00","-24.4","","-28.1","","71","","","","32","","17","","2.4","","100.53","","","","-35","","Ice Crystals"
"-93.58","69.55","TALOYOAK A","2403854","2012-02-06 15:00","2012","02","06","15:00","-25.1","","-28.9","","71","","","","27","","35","","2.4","","100.41","","","","-40","","Ice Crystals,Blowing Snow"
"-93.58","69.55","TALOYOAK A","2403854","2012-02-06 16:00","2012","02","06","16:00","-25.9","","-29.9","","69","","","","30","","37","","9.7","","100.27","","","","-42","","Ice Crystals,Blowing Snow"
"-93.58","69.55","TALOYOAK A","2403854","2012-02-06 17:00","2012","02","06","17:00","-25.2","","-27.9","","78","","","","29","","33","","9.7","","100.19","","","","-40","","Ice Crystals,Blowing Snow"
"-93.58","69.55","TALOYOAK A","2403854","2012-02-06 18:00","2012","02","06","18:00","-25.3","","-28.0","","78","","","","31","","35","","9.7","","100.13","","","","-40","","Ice Crystals"
"-93.58","69.55","TALOYOAK A","2403854","2012-02-06 19:00","2012","02","06","19:00","-26.1","","-30.1","","69","","","","29","","32","","3.2","","100.03","","","","-41","","Ice Crystals,Blowing Snow"
"-93.58","69.55","TALOYOAK A","2403854","2012-02-06 20:00","2012","02","06","20:00","-27.4","","-31.7","","67","","","","30","","43","","1.6","","99.95","","","","-44","","Blowing Snow"
"-93.58","69.55","TALOYOAK A","2403854","2012-02-06 21:00","2012","02","06","21:00","-28.9","","-33.5","","64","","","","31","","41","","0.8","","99.91","","","","-46","","Blowing Snow"
"-93.58","69.55","TALOYOAK A","2403854","2012-02-06 22:00","2012","02","06","22:00","-29.5","","-34.2","","64","","","","31","","57","","0.4","","99.82","","","","-49","","Blowing Snow"
"-93.58","69.55","TALOYOAK A","2403854","2012-02-06 23:00","2012","02","06","23:00","-31.0","","-34.1","","74","","","","32","","56","","0.2","","99.77","","","","-51","","Blowing Snow"
"-93.58","69.55","TALOYOAK A","2403854","2012-02-07 00:00","2012","02","07","00:00","-32.1","","-37.5","","59","","","","32","","61","","0.0","","99.85","","","","-53","","Blowing Snow"
"-93.58","69.55","TALOYOAK A","2403854","2012-02-07 01:00","2012","02","07","01:00","-33.1","","-36.4","","72","","","","32","","63","","0.0","","99.84","","","","-55","","Blowing Snow"
"-93.58","69.55","TALOYOAK A","2403854","2012-02-07 02:00","2012","02","07","02:00","-34.1","","-40.2","","54","","","","32","","59","","0.0","","99.91","","","","-56","","Blowing Snow"
"-93.58","69.55","TALOYOAK A","2403854","2012-02-07 03:00","2012","02","07","03:00","-34.5","","-37.9","","71","","","","31","","82","","0.0","","99.81","","","","-59","","Blowing Snow"
"-93.58","69.55","TALOYOAK A","2403854","2012-02-07 04:00","2012","02","07","04:00","-34.6","","-38.0","","71","","","","31","","67","","0.0","","99.91","","","","-58","","Blowing Snow"
"-93.58","69.55","TALOYOAK A","2403854","2012-02-07 05:00","2012","02","07","05:00","-35.5","","-42.1","","51","","","","32","","67","","0.0","","99.87","","","","-59","","Blowing Snow"
"-93.58","69.55","TALOYOAK A","2403854","2012-02-07 06:00","2012","02","07","06:00","-35.3","","-38.7","","71","","","","32","","59","","0.0","","99.91","","","","-58","","Blowing Snow"
"-93.58","69.55","TALOYOAK A","2403854","2012-02-07 07:00","2012","02","07","07:00","-35.1","","-38.5","","71","","","","33","","44","","0.2","","100.01","","","","-55","","Blowing Snow"
"-93.58","69.55","TALOYOAK A","2403854","2012-02-07 08:00","2012","02","07","08:00","-32.2","","-35.4","","73","","","","33","","61","","0.0","","99.94","","","","-53","","Blowing Snow"
"-93.58","69.55","TALOYOAK A","2403854","2012-02-07 09:00","2012","02","07","09:00","-32.4","","-35.6","","73","","","","33","","54","","0.0","","100.02","","","","-53","","Blowing Snow"
"-93.58","69.55","TALOYOAK A","2403854","2012-02-07 10:00","2012","02","07","10:00","-32.5","","-38.0","","58","","","","33","","61","","0.0","","100.04","","","","-54","","Blowing Snow"
"-93.58","69.55","TALOYOAK A","2403854","2012-02-07 11:00","2012","02","07","11:00","-32.5","","-35.7","","73","","","","33","","59","","0.0","","99.98","","","","-54","","Blowing Snow"
"-93.58","69.55","TALOYOAK A","2403854","2012-02-07 12:00","2012","02","07","12:00","-32.0","","-35.2","","73","","","","32","","46","","0.2","","100.04","","","","-51","","Blowing Snow"
"-93.58","69.55","TALOYOAK A","2403854","2012-02-07 13:00","2012","02","07","13:00","-32.0","","-35.2","","73","","","","32","","41","","0.2","","100.08","","","","-50","","Blowing Snow"
"-93.58","69.55","TALOYOAK A","2403854","2012-02-07 14:00","2012","02","07","14:00","-32.4","","-35.6","","73","","","","32","","37","","0.2","","100.08","","","","-50","","Blowing Snow"
"-93.58","69.55","TALOYOAK A","2403854","2012-02-07 15:00","2012","02","07","15:00","-32.5","","-35.7","","73","","","","32","","43","","0.4","","100.13","","","","-51","","Blowing Snow"
"-93.58","69.55","TALOYOAK A","2403854","2012-02-07 16:00","2012","02","07","16:00","-32.1","","-37.5","","59","","","","33","","37","","1.0","","100.15","","","","-50","","Blowing Snow"
"-93.58","69.55","TALOYOAK A","2403854","2012-02-07 17:00","2012","02","07","17:00","-32.4","","-37.9","","58","","","","32","","30","","1.2","","100.18","","","","-49","","Blowing Snow"
"-93.58","69.55","TALOYOAK A","2403854","2012-02-07 18:00","2012","02","07","18:00","-32.4","","-37.9","","58","","","","33","","26","","1.6","","100.24","","","","-48","","Blowing Snow"
"-93.58","69.55","TALOYOAK A","2403854","2012-02-07 19:00","2012","02","07","19:00","-32.0","","-37.4","","59","","","","32","","28","","2.4","","100.27","","","","-48","","Blowing Snow"
"-93.58","69.55","TALOYOAK A","2403854","2012-02-07 20:00","2012","02","07","20:00","-32.5","","-35.7","","73","","","","32","","17","","11.3","","100.33","","","","-45","","Mainly Clear"
"-93.58","69.55","TALOYOAK A","2403854","2012-02-07 21:00","2012","02","07","21:00","-33.2","","-38.9","","57","","","","30","","19","","12.9","","100.36","","","","-47","","Clear"
"-93.58","69.55","TALOYOAK A","2403854","2012-02-07 22:00","2012","02","07","22:00","-33.6","","-36.9","","72","","","","31","","30","","14.5","","100.39","","","","-50","","Clear"
"-93.58","69.55","TALOYOAK A","2403854","2012-02-07 23:00","2012","02","07","23:00","-32.5","","-35.7","","73","","","","31","","24","","19.3","","100.42","","","","-47","","Clear"
"-93.58","69.55","TALOYOAK A","2403854","2012-02-08 00:00","2012","02","08","00:00","-32.6","","-38.2","","57","","","","32","","26","","24.1","","100.43","","","","-48","","Clear"
"-93.58","69.55","TALOYOAK A","2403854","2012-02-08 01:00","2012","02","08","01:00","-32.6","","-38.2","","57","","","","30","","26","","24.1","","100.44","","","","-48","","Mainly Clear"
"-93.58","69.55","TALOYOAK A","2403854","2012-02-08 02:00","2012","02","08","02:00","-32.3","","-37.8","","58","","","","31","","17","","24.1","","100.49","","","","-45","","Mainly Clear"
"-93.58","69.55","TALOYOAK A","2403854","2012-02-08 03:00","2012","02","08","03:00","-32.4","","-37.9","","58","","","","31","","17","","24.1","","100.48","","","","-45","","Mainly Clear"
"-93.58","69.55","TALOYOAK A","2403854","2012-02-08 04:00","2012","02","08","04:00","-28.0","","-32.4","","66","","","","30","","22","","24.1","","100.43","","","","-41","","Snow"
"-93.58","69.55","TALOYOAK A","2403854","2012-02-08 05:00","2012","02","08","05:00","-26.8","","-31.0","","68","","","","32","","28","","24.1","","100.43","","","","-41","","Snow"
"-93.58","69.55","TALOYOAK A","2403854","2012-02-08 06:00","2012","02","08","06:00","-25.8","","-28.5","","78","","","","31","","22","","24.1","","100.45","","","","-38","","Snow"
"-93.58","69.55","TALOYOAK A","2403854","2012-02-08 07:00","2012","02","08","07:00","-25.5","","-28.2","","78","","","","31","","20","","24.1","","100.44","","","","-37","","Snow"
"-93.58","69.55","TALOYOAK A","2403854","2012-02-08 08:00","2012","02","08","08:00","-24.5","","-28.2","","71","","","","32","","15","","22.5","","100.43","","","","-35","","Snow"
"-93.58","69.55","TALOYOAK A","2403854","2012-02-08 09:00","2012","02","08","09:00","-25.0","","-28.8","","71","","","","","","0","","22.5","","100.42","","","","","","Snow"
"-93.58","69.55","TALOYOAK A","2403854","2012-02-08 10:00","2012","02","08","10:00","-24.0","","-27.6","","72","","","","","","0","","24.1","","100.47","","","","","","Snow"
"-93.58","69.55","TALOYOAK A","2403854","2012-02-08 11:00","2012","02","08","11:00","-24.0","","-27.6","","72","","","","17","","6","","22.5","","100.51","","","","-30","","Snow"
"-93.58","69.55","TALOYOAK A","2403854","2012-02-08 12:00","2012","02","08","12:00","-23.4","","-26.9","","73","","","","","","0","","24.1","","100.57","","","","","","Snow"
"-93.58","69.55","TALOYOAK A","2403854","2012-02-08 13:00","2012","02","08","13:00","-23.4","","-26.9","","73","","","","","","0","","24.1","","100.65","","","","","","Snow"
"-93.58","69.55","TALOYOAK A","2403854","2012-02-08 14:00","2012","02","08","14:00","-22.9","","-26.4","","73","","","","","","0","","24.1","","100.79","","","","","","Snow"
"-93.58","69.55","TALOYOAK A","2403854","2012-02-08 15:00","2012","02","08","15:00","-23.2","","-26.7","","73","","","","","","0","","24.1","","100.85","","","","","","Snow"
"-93.58","69.55","TALOYOAK A","2403854","2012-02-08 16:00","2012","02","08","16:00","-23.5","","-27.1","","72","","","","34","","22","","24.1","","100.91","","","","-35","","Snow"
"-93.58","69.55","TALOYOAK A","2403854","2012-02-08 17:00","2012","02","08","17:00","-22.5","","-25.9","","74","","","","2","","7","","24.1","","101.01","","","","-29","","Snow"
"-93.58","69.55","TALOYOAK A","2403854","2012-02-08 18:00","2012","02","08","18:00","-22.5","","-25.0","","80","","","","36","","13","","24.1","","101.07","","","","-31","","Snow"
"-93.58","69.55","TALOYOAK A","2403854","2012-02-08 19:00","2012","02","08","19:00","-22.4","","-25.8","","74","","","","2","","15","","24.1","","101.14","","","","-32","","Snow"
"-93.58","69.55","TALOYOAK A","2403854","2012-02-08 20:00","2012","02","08","20:00","-22.3","","-24.7","","81","","","","36","","15","","24.1","","101.20","","","","-32","","Snow"
"-93.58","69.55","TALOYOAK A","2403854","2012-02-08 21:00","2012","02","08","21:00","-22.6","","-26.0","","74","","","","36","","7","","24.1","","101.30","","","","-29","","Snow"
"-93.58","69.55","TALOYOAK A","2403854","2012-02-08 22:00","2012","02","08","22:00","-23.0","","-26.5","","73","","","","36","","9","","24.1","","101.36","","","","-30","","Snow"
"-93.58","69.55","TALOYOAK A","2403854","2012-02-08 23:00","2012","02","08","23:00","-24.5","","-28.2","","71","","","","36","","13","","24.1","","101.43","","","","-34","","Snow"
"-93.58","69.55","TALOYOAK A","2403854","2012-02-09 00:00","2012","02","09","00:00","-23.5","","-26.0","","80","","","","30","","9","","24.1","","101.54","","","","-31","","Mainly Clear"
"-93.58","69.55","TALOYOAK A","2403854","2012-02-09 01:00","2012","02","09","01:00","-23.5","","-26.0","","80","","","","33","","6","","24.1","","101.60","","","","-29","","Mainly Clear"
"-93.58","69.55","TALOYOAK A","2403854","2012-02-09 02:00","2012","02","09","02:00","-25.3","","-29.2","","70","","","","32","","7","","24.1","","101.66","","","","-32","","Mostly Cloudy"
"-93.58","69.55","TALOYOAK A","2403854","2012-02-09 03:00","2012","02","09","03:00","-24.9","","-28.7","","71","","","","32","","6","","24.1","","101.70","","","","-31","","Mostly Cloudy"
"-93.58","69.55","TALOYOAK A","2403854","2012-02-09 04:00","2012","02","09","04:00","-25.0","","-27.7","","78","","","","12","","4","","24.1","","101.74","","","","-29","","Mostly Cloudy"
"-93.58","69.55","TALOYOAK A","2403854","2012-02-09 05:00","2012","02","09","05:00","-25.3","","-29.2","","70","","","","","","0","","24.1","","101.78","","","","","","Mainly Clear"
"-93.58","69.55","TALOYOAK A","2403854","2012-02-09 06:00","2012","02","09","06:00","-25.4","","-29.3","","70","","","","32","","4","","24.1","","101.82","","","","-29","","Mainly Clear"
"-93.58","69.55","TALOYOAK A","2403854","2012-02-09 07:00","2012","02","09","07:00","-26.3","","-30.4","","68","","","","4","","4","","24.1","","101.80","","","","-30","","Mainly Clear"
"-93.58","69.55","TALOYOAK A","2403854","2012-02-09 08:00","2012","02","09","08:00","-28.3","","-32.8","","65","","","","36","","17","","24.1","","101.81","","","","-40","","Mainly Clear"
"-93.58","69.55","TALOYOAK A","2403854","2012-02-09 09:00","2012","02","09","09:00","-29.3","","-34.0","","64","","","","36","","15","","24.1","","101.86","","","","-41","","Mainly Clear"
"-93.58","69.55","TALOYOAK A","2403854","2012-02-09 10:00","2012","02","09","10:00","-27.5","","-31.8","","67","","","","","","0","","24.1","","101.88","","","","","","Clear"
"-93.58","69.55","TALOYOAK A","2403854","2012-02-09 11:00","2012","02","09","11:00","-29.5","","-34.2","","64","","","","27","","4","","24.1","","101.91","","","","-34","","Mainly Clear"
"-93.58","69.55","TALOYOAK A","2403854","2012-02-09 12:00","2012","02","09","12:00","-29.0","","-33.6","","64","","","","","","0","","24.1","","101.92","","","","","","Mainly Clear"
"-93.58","69.55","TALOYOAK A","2403854","2012-02-09 13:00","2012","02","09","13:00","-28.6","","-33.1","","65","","","","","","0","","24.1","","101.94","","","","","","Mainly Clear"
"-93.58","69.55","TALOYOAK A","2403854","2012-02-09 14:00","2012","02","09","14:00","-29.0","","-33.6","","64","","","","","","0","","24.1","","101.97","","","","","","Mainly Clear"
"-93.58","69.55","TALOYOAK A","2403854","2012-02-09 15:00","2012","02","09","15:00","-29.2","","-33.9","","64","","","","","","0","","24.1","","102.02","","","","","","Mainly Clear"
"-93.58","69.55","TALOYOAK A","2403854","2012-02-09 16:00","2012","02","09","16:00","-24.7","","-28.5","","71","","","","31","","26","","24.1","","102.05","","","","-38","","Mostly Cloudy"
"-93.58","69.55","TALOYOAK A","2403854","2012-02-09 17:00","2012","02","09","17:00","-22.0","","-24.4","","81","","","","31","","28","","24.1","","102.04","","","","-35","","Mostly Cloudy"
"-93.58","69.55","TALOYOAK A","2403854","2012-02-09 18:00","2012","02","09","18:00","-19.8","","-22.0","","83","","","","30","","24","","24.1","","102.03","","","","-31","","Mostly Cloudy"
"-93.58","69.55","TALOYOAK A","2403854","2012-02-09 19:00","2012","02","09","19:00","-18.5","","-21.3","","79","","","","30","","35","","9.7","","102.02","","","","-31","","Blowing Snow"
"-93.58","69.55","TALOYOAK A","2403854","2012-02-09 20:00","2012","02","09","20:00","-19.0","","-21.9","","78","","","","31","","32","","9.7","","102.01","","","","-32","","Blowing Snow"
"-93.58","69.55","TALOYOAK A","2403854","2012-02-09 21:00","2012","02","09","21:00","-18.3","","-21.8","","74","","","","31","","32","","8.0","","101.96","","","","-31","","Blowing Snow"
"-93.58","69.55","TALOYOAK A","2403854","2012-02-09 22:00","2012","02","09","22:00","-16.8","","-18.7","","85","","","","29","","24","","11.3","","101.91","","","","-27","","Cloudy"
"-93.58","69.55","TALOYOAK A","2403854","2012-02-09 23:00","2012","02","09","23:00","-17.1","","-19.1","","84","","","","30","","26","","19.3","","101.88","","","","-28","","Cloudy"
"-93.58","69.55","TALOYOAK A","2403854","2012-02-10 00:00","2012","02","10","00:00","-18.3","","-21.1","","79","","","","30","","11","","24.1","","101.86","","","","-26","","Cloudy"
"-93.58","69.55","TALOYOAK A","2403854","2012-02-10 01:00","2012","02","10","01:00","-18.0","","-20.7","","79","","","","32","","11","","24.1","","101.79","","","","-25","","Cloudy"
"-93.58","69.55","TALOYOAK A","2403854","2012-02-10 02:00","2012","02","10","02:00","-18.6","","-21.4","","79","","","","18","","6","","24.1","","101.68","","","","-23","","Mostly Cloudy"
"-93.58","69.55","TALOYOAK A","2403854","2012-02-10 03:00","2012","02","10","03:00","-18.0","","-20.7","","79","","","","17","","7","","24.1","","101.61","","","","-23","","Cloudy"
"-93.58","69.55","TALOYOAK A","2403854","2012-02-10 04:00","2012","02","10","04:00","-18.1","","-20.8","","79","","","","27","","15","","24.1","","101.51","","","","-27","","Cloudy"
"-93.58","69.55","TALOYOAK A","2403854","2012-02-10 05:00","2012","02","10","05:00","-18.6","","-21.4","","79","","","","22","","28","","24.1","","101.41","","","","-30","","Cloudy"
"-93.58","69.55","TALOYOAK A","2403854","2012-02-10 06:00","2012","02","10","06:00","-18.7","","-21.5","","79","","","","18","","26","","24.1","","101.22","","","","-30","","Cloudy"
"-93.58","69.55","TALOYOAK A","2403854","2012-02-10 07:00","2012","02","10","07:00","-16.4","","-18.3","","85","","","","24","","37","","20.9","","100.96","","","","-29","","Cloudy"
"-93.58","69.55","TALOYOAK A","2403854","2012-02-10 08:00","2012","02","10","08:00","-15.9","","-17.7","","86","","","","26","","50","","1.2","","100.65","","","","-30","","Blowing Snow"
"-93.58","69.55","TALOYOAK A","2403854","2012-02-10 09:00","2012","02","10","09:00","-15.3","","-17.6","","83","","","","28","","39","","4.8","","100.70","","","","-28","","Blowing Snow"
"-93.58","69.55","TALOYOAK A","2403854","2012-02-10 10:00","2012","02","10","10:00","-15.2","","-17.5","","83","","","","31","","44","","24.1","","100.58","","","","-28","","Mainly Clear"
"-93.58","69.55","TALOYOAK A","2403854","2012-02-10 11:00","2012","02","10","11:00","-16.5","","-19.0","","81","","","","29","","32","","24.1","","100.51","","","","-28","","Mainly Clear"
"-93.58","69.55","TALOYOAK A","2403854","2012-02-10 12:00","2012","02","10","12:00","-17.2","","-19.8","","80","","","","30","","24","","24.1","","100.54","","","","-28","","Mainly Clear"
"-93.58","69.55","TALOYOAK A","2403854","2012-02-10 13:00","2012","02","10","13:00","-17.4","","-20.0","","80","","","","31","","35","","24.1","","100.50","","","","-30","","Mostly Cloudy"
"-93.58","69.55","TALOYOAK A","2403854","2012-02-10 14:00","2012","02","10","14:00","-17.9","","-20.6","","79","","","","31","","28","","24.1","","100.51","","","","-29","","Mostly Cloudy"
"-93.58","69.55","TALOYOAK A","2403854","2012-02-10 15:00","2012","02","10","15:00","-19.3","","-22.2","","78","","","","32","","22","","24.1","","100.52","","","","-30","","Mostly Cloudy"
"-93.58","69.55","TALOYOAK A","2403854","2012-02-10 16:00","2012","02","10","16:00","-18.4","","-21.2","","79","","","","32","","22","","24.1","","100.55","","","","-29","","Mostly Cloudy"
"-93.58","69.55","TALOYOAK A","2403854","2012-02-10 17:00","2012","02","10","17:00","-19.4","","-22.3","","78","","","","35","","9","","24.1","","100.57","","","","-26","","Mostly Cloudy"
"-93.58","69.55","TALOYOAK A","2403854","2012-02-10 18:00","2012","02","10","18:00","-19.5","","-22.4","","78","","","","36","","7","","24.1","","100.56","","","","-25","","Mostly Cloudy"
"-93.58","69.55","TALOYOAK A","2403854","2012-02-10 19:00","2012","02","10","19:00","-20.4","","-23.5","","76","","","","36","","7","","24.1","","100.50","","","","-26","","Mostly Cloudy"
"-93.58","69.55","TALOYOAK A","2403854","2012-02-10 20:00","2012","02","10","20:00","-21.4","","-24.6","","75","","","","3","","4","","24.1","","100.46","","","","-25","","Mainly Clear"
"-93.58","69.55","TALOYOAK A","2403854","2012-02-10 21:00","2012","02","10","21:00","-22.4","","-25.8","","74","","","","12","","6","","24.1","","100.46","","","","-28","","Mainly Clear"
"-93.58","69.55","TALOYOAK A","2403854","2012-02-10 22:00","2012","02","10","22:00","-22.4","","-24.9","","80","","","","19","","4","","24.1","","100.39","","","","-26","","Mostly Cloudy"
"-93.58","69.55","TALOYOAK A","2403854","2012-02-10 23:00","2012","02","10","23:00","-22.3","","-24.7","","81","","","","24","","7","","24.1","","100.38","","","","-28","","Mostly Cloudy"
"-93.58","69.55","TALOYOAK A","2403854","2012-02-11 00:00","2012","02","11","00:00","-23.8","","-26.4","","79","","","","21","","6","","24.1","","100.36","","","","-29","","Mostly Cloudy"
"-93.58","69.55","TALOYOAK A","2403854","2012-02-11 01:00","2012","02","11","01:00","-22.4","","-24.9","","80","","","","18","","7","","24.1","","100.34","","","","-28","","Mostly Cloudy"
"-93.58","69.55","TALOYOAK A","2403854","2012-02-11 02:00","2012","02","11","02:00","-24.1","","-26.7","","79","","","","14","","9","","19.3","","100.33","","","","-32","","Ice Crystals"
"-93.58","69.55","TALOYOAK A","2403854","2012-02-11 03:00","2012","02","11","03:00","-24.8","","-28.6","","71","","","","","","0","","24.1","","100.28","","","","","","Ice Crystals"
"-93.58","69.55","TALOYOAK A","2403854","2012-02-11 04:00","2012","02","11","04:00","-24.2","","-26.8","","79","","","","","","0","","24.1","","100.30","","","","","","Ice Crystals"
"-93.58","69.55","TALOYOAK A","2403854","2012-02-11 05:00","2012","02","11","05:00","-25.0","","-27.7","","78","","","","","","0","","24.1","","100.21","","","","","","Ice Crystals"
"-93.58","69.55","TALOYOAK A","2403854","2012-02-11 06:00","2012","02","11","06:00","-25.5","","-28.2","","78","","","","","","0","","24.1","","100.22","","","","","","Ice Crystals"
"-93.58","69.55","TALOYOAK A","2403854","2012-02-11 07:00","2012","02","11","07:00","-26.5","","-29.3","","77","","","","","","0","","24.1","","100.19","","","","","","Mainly Clear"
"-93.58","69.55","TALOYOAK A","2403854","2012-02-11 08:00","2012","02","11","08:00","-26.6","","-29.4","","77","","","","","","0","","24.1","","100.20","","","","","","Mainly Clear"
"-93.58","69.55","TALOYOAK A","2403854","2012-02-11 09:00","2012","02","11","09:00","-26.5","","-30.6","","68","","","","","","0","","24.1","","100.17","","","","","","Ice Crystals"
"-93.58","69.55","TALOYOAK A","2403854","2012-02-11 10:00","2012","02","11","10:00","-24.0","","-26.6","","79","","","","","","0","","12.9","","100.13","","","","","","Snow"
"-93.58","69.55","TALOYOAK A","2403854","2012-02-11 11:00","2012","02","11","11:00","-23.5","","-26.0","","80","","","","","","0","","12.9","","100.14","","","","","","Snow"
"-93.58","69.55","TALOYOAK A","2403854","2012-02-11 12:00","2012","02","11","12:00","-21.4","","-23.8","","81","","","","5","","7","","12.9","","100.06","","","","-27","","Snow"
"-93.58","69.55","TALOYOAK A","2403854","2012-02-11 13:00","2012","02","11","13:00","-22.5","","-25.0","","80","","","","","","0","","3.2","","100.05","","","","","","Snow"
"-93.58","69.55","TALOYOAK A","2403854","2012-02-11 14:00","2012","02","11","14:00","-21.0","","-23.3","","82","","","","4","","15","","1.2","","100.02","","","","-30","","Snow"
"-93.58","69.55","TALOYOAK A","2403854","2012-02-11 15:00","2012","02","11","15:00","-21.2","","-23.5","","82","","","","","","0","","4.8","","100.03","","","","","","Snow"
"-93.58","69.55","TALOYOAK A","2403854","2012-02-11 16:00","2012","02","11","16:00","-21.0","","-23.3","","82","","","","6","","7","","4.8","","100.02","","","","-27","","Snow"
"-93.58","69.55","TALOYOAK A","2403854","2012-02-11 17:00","2012","02","11","17:00","-20.4","","-22.7","","82","","","","9","","4","","1.6","","99.99","","","","-24","","Snow"
"-93.58","69.55","TALOYOAK A","2403854","2012-02-11 18:00","2012","02","11","18:00","-19.6","","-21.8","","83","","","","9","","6","","3.2","","99.93","","","","-25","","Snow"
"-93.58","69.55","TALOYOAK A","2403854","2012-02-11 19:00","2012","02","11","19:00","-19.4","","-21.6","","83","","","","9","","7","","4.8","","99.89","","","","-25","","Snow"
"-93.58","69.55","TALOYOAK A","2403854","2012-02-11 20:00","2012","02","11","20:00","-19.4","","-22.3","","78","","","","10","","15","","4.8","","99.79","","","","-28","","Snow"
"-93.58","69.55","TALOYOAK A","2403854","2012-02-11 21:00","2012","02","11","21:00","-18.4","","-20.5","","84","","","","11","","11","","6.4","","99.76","","","","-26","","Snow"
"-93.58","69.55","TALOYOAK A","2403854","2012-02-11 22:00","2012","02","11","22:00","-18.3","","-21.1","","79","","","","11","","7","","8.0","","99.72","","","","-24","","Snow"
"-93.58","69.55","TALOYOAK A","2403854","2012-02-11 23:00","2012","02","11","23:00","-17.9","","-19.9","","84","","","","11","","13","","9.7","","99.65","","","","-26","","Snow"
"-93.58","69.55","TALOYOAK A","2403854","2012-02-12 00:00","2012","02","12","00:00","-17.5","","-20.1","","80","","","","11","","11","","12.9","","99.60","","","","-25","","Snow"
"-93.58","69.55","TALOYOAK A","2403854","2012-02-12 01:00","2012","02","12","01:00","-17.6","","-20.3","","79","","","","10","","15","","16.1","","99.56","","","","-26","","Snow"
"-93.58","69.55","TALOYOAK A","2403854","2012-02-12 02:00","2012","02","12","02:00","-17.2","","-19.8","","80","","","","12","","13","","19.3","","99.54","","","","-25","","Snow"
"-93.58","69.55","TALOYOAK A","2403854","2012-02-12 03:00","2012","02","12","03:00","-17.1","","-19.7","","80","","","","12","","17","","22.5","","99.51","","","","-26","","Snow"
"-93.58","69.55","TALOYOAK A","2403854","2012-02-12 04:00","2012","02","12","04:00","-17.3","","-19.9","","80","","","","13","","17","","24.1","","99.48","","","","-26","","Snow"
"-93.58","69.55","TALOYOAK A","2403854","2012-02-12 05:00","2012","02","12","05:00","-17.4","","-20.0","","80","","","","13","","17","","24.1","","99.44","","","","-26","","Snow"
"-93.58","69.55","TALOYOAK A","2403854","2012-02-12 06:00","2012","02","12","06:00","-18.1","","-20.8","","79","","","","16","","6","","24.1","","99.40","","","","-23","","Snow"
"-93.58","69.55","TALOYOAK A","2403854","2012-02-12 07:00","2012","02","12","07:00","-17.8","","-20.5","","79","","","","12","","7","","19.3","","99.34","","","","-23","","Snow"
"-93.58","69.55","TALOYOAK A","2403854","2012-02-12 08:00","2012","02","12","08:00","-17.8","","-20.5","","79","","","","12","","13","","19.3","","99.29","","","","-26","","Snow"
"-93.58","69.55","TALOYOAK A","2403854","2012-02-12 09:00","2012","02","12","09:00","-17.8","","-20.5","","79","","","","12","","15","","19.3","","99.25","","","","-26","","Snow"
"-93.58","69.55","TALOYOAK A","2403854","2012-02-12 10:00","2012","02","12","10:00","-18.6","","-21.4","","79","","","","13","","17","","9.7","","99.26","","","","-28","","Snow"
"-93.58","69.55","TALOYOAK A","2403854","2012-02-12 11:00","2012","02","12","11:00","-17.5","","-19.5","","84","","","","12","","15","","6.4","","99.25","","","","-26","","Snow"
"-93.58","69.55","TALOYOAK A","2403854","2012-02-12 12:00","2012","02","12","12:00","-17.4","","-20.0","","80","","","","11","","19","","2.4","","99.22","","","","-27","","Snow"
"-93.58","69.55","TALOYOAK A","2403854","2012-02-12 13:00","2012","02","12","13:00","-17.4","","-20.0","","80","","","","11","","13","","9.7","","99.23","","","","-25","","Snow"
"-93.58","69.55","TALOYOAK A","2403854","2012-02-12 14:00","2012","02","12","14:00","-17.5","","-20.1","","80","","","","14","","17","","6.4","","99.27","","","","-27","","Snow"
"-93.58","69.55","TALOYOAK A","2403854","2012-02-12 15:00","2012","02","12","15:00","-17.7","","-20.4","","79","","","","12","","15","","2.4","","99.28","","","","-26","","Snow"
"-93.58","69.55","TALOYOAK A","2403854","2012-02-12 16:00","2012","02","12","16:00","-18.0","","-21.4","","75","","","","14","","15","","4.0","","99.29","","","","-27","","Snow"
"-93.58","69.55","TALOYOAK A","2403854","2012-02-12 17:00","2012","02","12","17:00","-18.2","","-20.9","","79","","","","14","","13","","6.4","","99.32","","","","-26","","Snow"
"-93.58","69.55","TALOYOAK A","2403854","2012-02-12 18:00","2012","02","12","18:00","-17.9","","-20.6","","79","","","","13","","15","","8.0","","99.31","","","","-26","","Snow"
"-93.58","69.55","TALOYOAK A","2403854","2012-02-12 19:00","2012","02","12","19:00","-17.8","","-20.5","","79","","","","9","","15","","9.7","","99.34","","","","-26","","Snow"
"-93.58","69.55","TALOYOAK A","2403854","2012-02-12 20:00","2012","02","12","20:00","-17.4","","-20.0","","80","","","","8","","11","","9.7","","99.38","","","","-25","","Snow"
"-93.58","69.55","TALOYOAK A","2403854","2012-02-12 21:00","2012","02","12","21:00","-16.9","","-19.5","","80","","","","7","","6","","9.7","","99.39","","","","-21","","Snow"
"-93.58","69.55","TALOYOAK A","2403854","2012-02-12 22:00","2012","02","12","22:00","-16.8","","-19.3","","81","","","","9","","7","","11.3","","99.41","","","","-22","","Snow"
"-93.58","69.55","TALOYOAK A","2403854","2012-02-12 23:00","2012","02","12","23:00","-16.3","","-18.8","","81","","","","9","","17","","14.5","","99.46","","","","-25","","Snow"
"-93.58","69.55","TALOYOAK A","2403854","2012-02-13 00:00","2012","02","13","00:00","-16.5","","-19.0","","81","","","","7","","20","","16.1","","99.53","","","","-26","","Snow"
"-93.58","69.55","TALOYOAK A","2403854","2012-02-13 01:00","2012","02","13","01:00","-16.2","","-18.7","","81","","","","8","","20","","17.7","","99.58","","","","-26","","Snow"
"-93.58","69.55","TALOYOAK A","2403854","2012-02-13 02:00","2012","02","13","02:00","-16.3","","-18.8","","81","","","","8","","17","","19.3","","99.66","","","","-25","","Snow"
"-93.58","69.55","TALOYOAK A","2403854","2012-02-13 03:00","2012","02","13","03:00","-16.1","","-18.5","","82","","","","8","","15","","16.1","","99.73","","","","-24","","Snow"
"-93.58","69.55","TALOYOAK A","2403854","2012-02-13 04:00","2012","02","13","04:00","-16.0","","-18.4","","82","","","","8","","17","","16.1","","99.79","","","","-25","","Snow"
"-93.58","69.55","TALOYOAK A","2403854","2012-02-13 05:00","2012","02","13","05:00","-16.1","","-18.5","","82","","","","8","","17","","19.3","","99.84","","","","-25","","Snow"
"-93.58","69.55","TALOYOAK A","2403854","2012-02-13 06:00","2012","02","13","06:00","-17.9","","-20.6","","79","","","","6","","11","","24.1","","99.89","","","","-25","","Snow"
"-93.58","69.55","TALOYOAK A","2403854","2012-02-13 07:00","2012","02","13","07:00","-17.4","","-20.0","","80","","","","7","","9","","24.1","","99.93","","","","-24","","Snow"
"-93.58","69.55","TALOYOAK A","2403854","2012-02-13 08:00","2012","02","13","08:00","-17.0","","-19.6","","80","","","","13","","6","","24.1","","99.98","","","","-22","","Snow"
"-93.58","69.55","TALOYOAK A","2403854","2012-02-13 09:00","2012","02","13","09:00","-17.2","","-19.2","","84","","","","","","0","","19.3","","100.00","","","","","","Snow"
"-93.58","69.55","TALOYOAK A","2403854","2012-02-13 10:00","2012","02","13","10:00","-16.5","","-19.0","","81","","","","","","0","","19.3","","100.01","","","","","","Snow"
"-93.58","69.55","TALOYOAK A","2403854","2012-02-13 11:00","2012","02","13","11:00","-16.5","","-18.4","","85","","","","5","","9","","16.1","","100.05","","","","-23","","Snow"
"-93.58","69.55","TALOYOAK A","2403854","2012-02-13 12:00","2012","02","13","12:00","-16.3","","-17.6","","90","","","","5","","13","","16.1","","100.06","","","","-24","","Snow"
"-93.58","69.55","TALOYOAK A","2403854","2012-02-13 13:00","2012","02","13","13:00","-16.3","","-17.6","","90","","","","7","","11","","19.3","","100.08","","","","-23","","Snow"
"-93.58","69.55","TALOYOAK A","2403854","2012-02-13 14:00","2012","02","13","14:00","-16.3","","-17.6","","90","","","","6","","7","","19.3","","100.07","","","","-21","","Snow"
"-93.58","69.55","TALOYOAK A","2403854","2012-02-13 15:00","2012","02","13","15:00","-18.5","","-21.3","","79","","","","17","","9","","16.1","","100.11","","","","-25","","Snow"
"-93.58","69.55","TALOYOAK A","2403854","2012-02-13 16:00","2012","02","13","16:00","-18.6","","-21.4","","79","","","","17","","7","","19.3","","100.13","","","","-24","","Snow"
"-93.58","69.55","TALOYOAK A","2403854","2012-02-13 17:00","2012","02","13","17:00","-18.8","","-21.6","","79","","","","18","","7","","19.3","","100.13","","","","-24","","Snow"
"-93.58","69.55","TALOYOAK A","2403854","2012-02-13 18:00","2012","02","13","18:00","-17.9","","-20.6","","79","","","","","","0","","20.9","","100.12","","","","","","Snow"
"-93.58","69.55","TALOYOAK A","2403854","2012-02-13 19:00","2012","02","13","19:00","-19.1","","-22.0","","78","","","","","","0","","16.1","","100.13","","","","","","Snow"
"-93.58","69.55","TALOYOAK A","2403854","2012-02-13 20:00","2012","02","13","20:00","-19.1","","-21.3","","83","","","","","","0","","17.7","","100.07","","","","","","Snow"
"-93.58","69.55","TALOYOAK A","2403854","2012-02-13 21:00","2012","02","13","21:00","-19.0","","-21.1","","83","","","","36","","4","","12.9","","100.05","","","","-22","","Snow"
"-93.58","69.55","TALOYOAK A","2403854","2012-02-13 22:00","2012","02","13","22:00","-18.8","","-21.6","","79","","","","5","","11","","14.5","","100.04","","","","-26","","Snow"
"-93.58","69.55","TALOYOAK A","2403854","2012-02-13 23:00","2012","02","13","23:00","-18.5","","-21.3","","79","","","","2","","11","","19.3","","99.99","","","","-26","","Snow"
"-93.58","69.55","TALOYOAK A","2403854","2012-02-14 00:00","2012","02","14","00:00","-18.3","","-21.1","","79","","","","35","","4","","24.1","","99.98","","","","-22","","Snow"
"-93.58","69.55","TALOYOAK A","2403854","2012-02-14 01:00","2012","02","14","01:00","-18.4","","-21.2","","79","","","","36","","11","","19.3","","99.97","","","","-26","","Snow"
"-93.58","69.55","TALOYOAK A","2403854","2012-02-14 02:00","2012","02","14","02:00","-18.3","","-21.1","","79","","","","34","","7","","19.3","","99.95","","","","-24","","Snow"
"-93.58","69.55","TALOYOAK A","2403854","2012-02-14 03:00","2012","02","14","03:00","-17.4","","-20.0","","80","","","","35","","13","","16.1","","99.90","","","","-25","","Snow"
"-93.58","69.55","TALOYOAK A","2403854","2012-02-14 04:00","2012","02","14","04:00","-17.7","","-20.4","","79","","","","33","","13","","19.3","","99.87","","","","-26","","Snow"
"-93.58","69.55","TALOYOAK A","2403854","2012-02-14 05:00","2012","02","14","05:00","-16.7","","-19.2","","81","","","","1","","15","","19.3","","99.82","","","","-25","","Snow"
"-93.58","69.55","TALOYOAK A","2403854","2012-02-14 06:00","2012","02","14","06:00","-16.3","","-18.8","","81","","","","3","","22","","16.1","","99.80","","","","-26","","Snow"
"-93.58","69.55","TALOYOAK A","2403854","2012-02-14 07:00","2012","02","14","07:00","-16.5","","-19.0","","81","","","","3","","24","","19.3","","99.79","","","","-27","","Snow"
"-93.58","69.55","TALOYOAK A","2403854","2012-02-14 08:00","2012","02","14","08:00","-16.5","","-19.0","","81","","","","4","","26","","16.1","","99.75","","","","-27","","Snow"
"-93.58","69.55","TALOYOAK A","2403854","2012-02-14 09:00","2012","02","14","09:00","-16.6","","-17.9","","90","","","","4","","24","","9.7","","99.74","","","","-27","","Snow"
"-93.58","69.55","TALOYOAK A","2403854","2012-02-14 10:00","2012","02","14","10:00","-16.7","","-18.6","","85","","","","3","","22","","9.7","","99.71","","","","-27","","Snow"
"-93.58","69.55","TALOYOAK A","2403854","2012-02-14 11:00","2012","02","14","11:00","-16.9","","-18.3","","89","","","","4","","30","","8.0","","99.67","","","","-29","","Snow"
"-93.58","69.55","TALOYOAK A","2403854","2012-02-14 12:00","2012","02","14","12:00","-16.8","","-18.7","","85","","","","4","","24","","8.0","","99.66","","","","-27","","Snow"
"-93.58","69.55","TALOYOAK A","2403854","2012-02-14 13:00","2012","02","14","13:00","-16.7","","-19.2","","81","","","","4","","30","","12.9","","99.66","","","","-28","","Snow"
"-93.58","69.55","TALOYOAK A","2403854","2012-02-14 14:00","2012","02","14","14:00","-17.3","","-19.3","","84","","","","4","","35","","4.8","","99.68","","","","-30","","Snow,Blowing Snow"
"-93.58","69.55","TALOYOAK A","2403854","2012-02-14 15:00","2012","02","14","15:00","-17.6","","-20.9","","75","","","","4","","33","","8.0","","99.68","","","","-30","","Snow"
"-93.58","69.55","TALOYOAK A","2403854","2012-02-14 16:00","2012","02","14","16:00","-18.6","","-20.7","","83","","","","3","","32","","8.0","","99.72","","","","-31","","Snow"
"-93.58","69.55","TALOYOAK A","2403854","2012-02-14 17:00","2012","02","14","17:00","-19.2","","-22.1","","78","","","","4","","30","","12.9","","99.71","","","","-32","","Snow"
"-93.58","69.55","TALOYOAK A","2403854","2012-02-14 18:00","2012","02","14","18:00","-19.8","","-22.8","","77","","","","4","","35","","12.9","","99.74","","","","-33","","Snow"
"-93.58","69.55","TALOYOAK A","2403854","2012-02-14 19:00","2012","02","14","19:00","-20.4","","-23.5","","76","","","","5","","30","","9.7","","99.73","","","","-33","","Snow"
"-93.58","69.55","TALOYOAK A","2403854","2012-02-14 20:00","2012","02","14","20:00","-20.4","","-23.5","","76","","","","5","","28","","12.9","","99.71","","","","-33","","Snow"
"-93.58","69.55","TALOYOAK A","2403854","2012-02-14 21:00","2012","02","14","21:00","-20.5","","-24.4","","71","","","","5","","26","","16.1","","99.71","","","","-32","","Snow"
"-93.58","69.55","TALOYOAK A","2403854","2012-02-14 22:00","2012","02","14","22:00","-20.5","","-23.6","","76","","","","5","","30","","12.9","","99.67","","","","-33","","Snow"
"-93.58","69.55","TALOYOAK A","2403854","2012-02-14 23:00","2012","02","14","23:00","-20.1","","-23.1","","77","","","","4","","28","","8.0","","99.71","","","","-32","","Snow"
"-93.58","69.55","TALOYOAK A","2403854","2012-02-15 00:00","2012","02","15","00:00","-19.9","","-22.9","","77","","","","5","","32","","6.4","","99.74","","","","-33","","Snow"
"-93.58","69.55","TALOYOAK A","2403854","2012-02-15 01:00","2012","02","15","01:00","-20.2","","-23.2","","77","","","","5","","28","","6.4","","99.78","","","","-32","","Snow"
"-93.58","69.55","TALOYOAK A","2403854","2012-02-15 02:00","2012","02","15","02:00","-20.3","","-23.3","","77","","","","5","","24","","6.4","","99.82","","","","-32","","Snow"
"-93.58","69.55","TALOYOAK A","2403854","2012-02-15 03:00","2012","02","15","03:00","-20.5","","-23.6","","76","","","","5","","22","","9.7","","99.83","","","","-32","","Snow"
"-93.58","69.55","TALOYOAK A","2403854","2012-02-15 04:00","2012","02","15","04:00","-20.2","","-23.2","","77","","","","5","","13","","12.9","","99.87","","","","-29","","Snow"
"-93.58","69.55","TALOYOAK A","2403854","2012-02-15 05:00","2012","02","15","05:00","-20.2","","-23.2","","77","","","","2","","11","","12.9","","99.92","","","","-28","","Snow"
"-93.58","69.55","TALOYOAK A","2403854","2012-02-15 06:00","2012","02","15","06:00","-20.0","","-23.0","","77","","","","2","","11","","16.1","","99.94","","","","-28","","Snow"
"-93.58","69.55","TALOYOAK A","2403854","2012-02-15 07:00","2012","02","15","07:00","-19.9","","-22.9","","77","","","","36","","11","","24.1","","99.93","","","","-28","","Snow"
"-93.58","69.55","TALOYOAK A","2403854","2012-02-15 08:00","2012","02","15","08:00","-19.9","","-22.9","","77","","","","1","","7","","24.1","","99.99","","","","-26","","Snow"
"-93.58","69.55","TALOYOAK A","2403854","2012-02-15 09:00","2012","02","15","09:00","-20.0","","-22.2","","83","","","","4","","11","","19.3","","100.01","","","","-28","","Snow"
"-93.58","69.55","TALOYOAK A","2403854","2012-02-15 10:00","2012","02","15","10:00","-20.7","","-23.8","","76","","","","36","","7","","19.3","","100.05","","","","-26","","Snow"
"-93.58","69.55","TALOYOAK A","2403854","2012-02-15 11:00","2012","02","15","11:00","-20.3","","-22.6","","82","","","","1","","7","","24.1","","100.08","","","","-26","","Mostly Cloudy"
"-93.58","69.55","TALOYOAK A","2403854","2012-02-15 12:00","2012","02","15","12:00","-21.1","","-23.4","","82","","","","2","","4","","24.1","","100.12","","","","-25","","Mostly Cloudy"
"-93.58","69.55","TALOYOAK A","2403854","2012-02-15 13:00","2012","02","15","13:00","-21.2","","-23.5","","82","","","","","","0","","24.1","","100.15","","","","","","Mostly Cloudy"
"-93.58","69.55","TALOYOAK A","2403854","2012-02-15 14:00","2012","02","15","14:00","-21.1","","-23.4","","82","","","","35","","9","","24.1","","100.22","","","","-28","","Mostly Cloudy"
"-93.58","69.55","TALOYOAK A","2403854","2012-02-15 15:00","2012","02","15","15:00","-20.3","","-23.3","","77","","","","2","","13","","24.1","","100.27","","","","-29","","Mostly Cloudy"
"-93.58","69.55","TALOYOAK A","2403854","2012-02-15 16:00","2012","02","15","16:00","-19.4","","-22.3","","78","","","","2","","9","","24.1","","100.33","","","","-26","","Mostly Cloudy"
"-93.58","69.55","TALOYOAK A","2403854","2012-02-15 17:00","2012","02","15","17:00","-20.1","","-23.1","","77","","","","36","","9","","24.1","","100.39","","","","-27","","Mostly Cloudy"
"-93.58","69.55","TALOYOAK A","2403854","2012-02-15 18:00","2012","02","15","18:00","-20.1","","-23.1","","77","","","","2","","11","","24.1","","100.42","","","","-28","","Mostly Cloudy"
"-93.58","69.55","TALOYOAK A","2403854","2012-02-15 19:00","2012","02","15","19:00","-19.8","","-22.8","","77","","","","1","","11","","24.1","","100.44","","","","-27","","Mostly Cloudy"
"-93.58","69.55","TALOYOAK A","2403854","2012-02-15 20:00","2012","02","15","20:00","-19.8","","-22.8","","77","","","","30","","11","","24.1","","100.49","","","","-27","","Snow"
"-93.58","69.55","TALOYOAK A","2403854","2012-02-15 21:00","2012","02","15","21:00","-19.4","","-22.3","","78","","","","32","","15","","24.1","","100.51","","","","-28","","Snow"
"-93.58","69.55","TALOYOAK A","2403854","2012-02-15 22:00","2012","02","15","22:00","-19.5","","-22.4","","78","","","","33","","19","","24.1","","100.56","","","","-30","","Snow"
"-93.58","69.55","TALOYOAK A","2403854","2012-02-15 23:00","2012","02","15","23:00","-19.1","","-22.0","","78","","","","34","","20","","24.1","","100.59","","","","-29","","Snow"
"-93.58","69.55","TALOYOAK A","2403854","2012-02-16 00:00","2012","02","16","00:00","-18.9","","-21.7","","79","","","","35","","17","","24.1","","100.64","","","","-28","","Snow"
"-93.58","69.55","TALOYOAK A","2403854","2012-02-16 01:00","2012","02","16","01:00","-19.2","","-22.1","","78","","","","35","","20","","24.1","","100.67","","","","-29","","Snow"
"-93.58","69.55","TALOYOAK A","2403854","2012-02-16 02:00","2012","02","16","02:00","-20.0","","-23.0","","77","","","","32","","20","","24.1","","100.74","","","","-30","","Snow"
"-93.58","69.55","TALOYOAK A","2403854","2012-02-16 03:00","2012","02","16","03:00","-22.9","","-26.4","","73","","","","33","","22","","24.1","","100.82","","","","-35","","Snow"
"-93.58","69.55","TALOYOAK A","2403854","2012-02-16 04:00","2012","02","16","04:00","-25.5","","-29.4","","70","","","","32","","19","","24.1","","100.85","","","","-37","","Mainly Clear"
"-93.58","69.55","TALOYOAK A","2403854","2012-02-16 05:00","2012","02","16","05:00","-26.2","","-30.2","","69","","","","30","","22","","24.1","","100.88","","","","-39","","Mainly Clear"
"-93.58","69.55","TALOYOAK A","2403854","2012-02-16 06:00","2012","02","16","06:00","-26.6","","-30.7","","68","","","","31","","20","","24.1","","100.89","","","","-39","","Clear"
"-93.58","69.55","TALOYOAK A","2403854","2012-02-16 07:00","2012","02","16","07:00","-28.0","","-32.4","","66","","","","32","","22","","24.1","","100.90","","","","-41","","Clear"
"-93.58","69.55","TALOYOAK A","2403854","2012-02-16 08:00","2012","02","16","08:00","-28.8","","-33.4","","64","","","","33","","17","","24.1","","100.91","","","","-41","","Mainly Clear"
"-93.58","69.55","TALOYOAK A","2403854","2012-02-16 09:00","2012","02","16","09:00","-28.6","","-33.1","","65","","","","35","","11","","24.1","","100.92","","","","-38","","Mainly Clear"
"-93.58","69.55","TALOYOAK A","2403854","2012-02-16 10:00","2012","02","16","10:00","-28.2","","-31.1","","76","","","","33","","17","","24.1","","100.95","","","","-40","","Mainly Clear"
"-93.58","69.55","TALOYOAK A","2403854","2012-02-16 11:00","2012","02","16","11:00","-27.9","","-32.3","","66","","","","34","","15","","24.1","","100.96","","","","-39","","Mainly Clear"
"-93.58","69.55","TALOYOAK A","2403854","2012-02-16 12:00","2012","02","16","12:00","-27.5","","-30.4","","76","","","","34","","13","","24.1","","101.00","","","","-38","","Mainly Clear"
"-93.58","69.55","TALOYOAK A","2403854","2012-02-16 13:00","2012","02","16","13:00","-27.6","","-30.5","","76","","","","35","","15","","24.1","","101.04","","","","-38","","Mainly Clear"
"-93.58","69.55","TALOYOAK A","2403854","2012-02-16 14:00","2012","02","16","14:00","-27.0","","-31.2","","67","","","","","","0","","24.1","","101.09","","","","","","Mainly Clear"
"-93.58","69.55","TALOYOAK A","2403854","2012-02-16 15:00","2012","02","16","15:00","-27.5","","-31.8","","67","","","","35","","6","","24.1","","101.15","","","","-34","","Mainly Clear"
"-93.58","69.55","TALOYOAK A","2403854","2012-02-16 16:00","2012","02","16","16:00","-29.4","","-34.1","","64","","","","","","0","","24.1","","101.18","","","","","","Mainly Clear"
"-93.58","69.55","TALOYOAK A","2403854","2012-02-16 17:00","2012","02","16","17:00","-29.0","","-33.6","","64","","","","","","0","","24.1","","101.19","","","","","","Mainly Clear"
"-93.58","69.55","TALOYOAK A","2403854","2012-02-16 18:00","2012","02","16","18:00","-29.2","","-33.9","","64","","","","","","0","","24.1","","101.23","","","","","","Mainly Clear"
"-93.58","69.55","TALOYOAK A","2403854","2012-02-16 19:00","2012","02","16","19:00","-31.8","","-37.1","","59","","","","","","0","","24.1","","101.25","","","","","","Mainly Clear"
"-93.58","69.55","TALOYOAK A","2403854","2012-02-16 20:00","2012","02","16","20:00","-32.4","","-40.8","","43","","","","","","0","","24.1","","101.27","","","","","","Mainly Clear"
"-93.58","69.55","TALOYOAK A","2403854","2012-02-16 21:00","2012","02","16","21:00","-32.0","","-37.4","","59","","","","16","","6","","24.1","","101.28","","","","-39","","Mainly Clear"
"-93.58","69.55","TALOYOAK A","2403854","2012-02-16 22:00","2012","02","16","22:00","-32.0","","-37.4","","59","","","","17","","4","","24.1","","101.30","","","","-37","","Mainly Clear"
"-93.58","69.55","TALOYOAK A","2403854","2012-02-16 23:00","2012","02","16","23:00","-33.5","","-39.3","","56","","","","23","","4","","24.1","","101.31","","","","-38","","Clear"
"-93.58","69.55","TALOYOAK A","2403854","2012-02-17 00:00","2012","02","17","00:00","-34.4","","-37.8","","71","","","","18","","11","","24.1","","101.36","","","","-45","","Clear"
"-93.58","69.55","TALOYOAK A","2403854","2012-02-17 01:00","2012","02","17","01:00","-34.2","","-40.3","","54","","","","19","","7","","24.1","","101.40","","","","-42","","Clear"
"-93.58","69.55","TALOYOAK A","2403854","2012-02-17 02:00","2012","02","17","02:00","-34.6","","-38.0","","71","","","","20","","7","","24.1","","101.40","","","","-43","","Mainly Clear"
"-93.58","69.55","TALOYOAK A","2403854","2012-02-17 03:00","2012","02","17","03:00","-33.6","","-36.9","","72","","","","15","","11","","24.1","","101.41","","","","-44","","Mainly Clear"
"-93.58","69.55","TALOYOAK A","2403854","2012-02-17 04:00","2012","02","17","04:00","-33.3","","-36.6","","72","","","","17","","9","","24.1","","101.43","","","","-43","","Ice Crystals"
"-93.58","69.55","TALOYOAK A","2403854","2012-02-17 05:00","2012","02","17","05:00","-33.2","","-36.5","","72","","","","16","","11","","24.1","","101.42","","","","-44","","Ice Crystals"
"-93.58","69.55","TALOYOAK A","2403854","2012-02-17 06:00","2012","02","17","06:00","-32.2","","-37.6","","59","","","","17","","11","","24.1","","101.42","","","","-42","","Ice Crystals"
"-93.58","69.55","TALOYOAK A","2403854","2012-02-17 07:00","2012","02","17","07:00","-33.0","","-36.3","","72","","","","16","","11","","24.1","","101.41","","","","-43","","Snow"
"-93.58","69.55","TALOYOAK A","2403854","2012-02-17 08:00","2012","02","17","08:00","-33.5","","-39.3","","56","","","","17","","13","","24.1","","101.43","","","","-45","","Snow"
"-93.58","69.55","TALOYOAK A","2403854","2012-02-17 09:00","2012","02","17","09:00","-32.4","","-37.9","","58","","","","17","","9","","24.1","","101.41","","","","-41","","Mainly Clear"
"-93.58","69.55","TALOYOAK A","2403854","2012-02-17 10:00","2012","02","17","10:00","-32.9","","-38.6","","57","","","","16","","11","","24.1","","101.40","","","","-43","","Mainly Clear"
"-93.58","69.55","TALOYOAK A","2403854","2012-02-17 11:00","2012","02","17","11:00","-32.5","","-35.7","","73","","","","17","","9","","24.1","","101.41","","","","-42","","Mainly Clear"
"-93.58","69.55","TALOYOAK A","2403854","2012-02-17 12:00","2012","02","17","12:00","-32.8","","-38.4","","57","","","","16","","15","","24.1","","101.40","","","","-45","","Mostly Cloudy"
"-93.58","69.55","TALOYOAK A","2403854","2012-02-17 13:00","2012","02","17","13:00","-32.7","","-35.9","","73","","","","17","","13","","24.1","","101.38","","","","-44","","Mainly Clear"
"-93.58","69.55","TALOYOAK A","2403854","2012-02-17 14:00","2012","02","17","14:00","-33.4","","-36.7","","72","","","","15","","11","","24.1","","101.39","","","","-44","","Mainly Clear"
"-93.58","69.55","TALOYOAK A","2403854","2012-02-17 15:00","2012","02","17","15:00","-32.5","","-35.7","","73","","","","14","","9","","24.1","","101.38","","","","-42","","Mainly Clear"
"-93.58","69.55","TALOYOAK A","2403854","2012-02-17 16:00","2012","02","17","16:00","-33.1","","-36.4","","72","","","","15","","9","","24.1","","101.36","","","","-42","","Mainly Clear"
"-93.58","69.55","TALOYOAK A","2403854","2012-02-17 17:00","2012","02","17","17:00","-33.6","","-36.9","","72","","","","16","","9","","24.1","","101.34","","","","-43","","Mainly Clear"
"-93.58","69.55","TALOYOAK A","2403854","2012-02-17 18:00","2012","02","17","18:00","-31.2","","-34.3","","74","","","","15","","9","","24.1","","101.31","","","","-40","","Snow"
"-93.58","69.55","TALOYOAK A","2403854","2012-02-17 19:00","2012","02","17","19:00","-30.3","","-33.4","","74","","","","16","","9","","24.1","","101.30","","","","-39","","Snow"
"-93.58","69.55","TALOYOAK A","2403854","2012-02-17 20:00","2012","02","17","20:00","-30.0","","-33.1","","74","","","","15","","6","","24.1","","101.25","","","","-37","","Snow"
"-93.58","69.55","TALOYOAK A","2403854","2012-02-17 21:00","2012","02","17","21:00","-30.1","","-33.2","","74","","","","18","","4","","24.1","","101.21","","","","-35","","Snow"
"-93.58","69.55","TALOYOAK A","2403854","2012-02-17 22:00","2012","02","17","22:00","-30.0","","-33.1","","74","","","","","","0","","24.1","","101.16","","","","","","Cloudy"
"-93.58","69.55","TALOYOAK A","2403854","2012-02-17 23:00","2012","02","17","23:00","-30.1","","-33.2","","74","","","","36","","4","","24.1","","101.15","","","","-35","","Mostly Cloudy"
"-93.58","69.55","TALOYOAK A","2403854","2012-02-18 00:00","2012","02","18","00:00","-30.6","","-33.7","","74","","","","4","","11","","24.1","","101.10","","","","-40","","Snow"
"-93.58","69.55","TALOYOAK A","2403854","2012-02-18 01:00","2012","02","18","01:00","-30.6","","-33.7","","74","","","","2","","11","","24.1","","101.08","","","","-40","","Snow"
"-93.58","69.55","TALOYOAK A","2403854","2012-02-18 02:00","2012","02","18","02:00","-30.5","","-33.6","","74","","","","1","","17","","24.1","","101.04","","","","-43","","Snow"
"-93.58","69.55","TALOYOAK A","2403854","2012-02-18 03:00","2012","02","18","03:00","-30.5","","-33.6","","74","","","","1","","17","","24.1","","101.00","","","","-43","","Snow"
"-93.58","69.55","TALOYOAK A","2403854","2012-02-18 04:00","2012","02","18","04:00","-29.8","","-32.8","","75","","","","2","","19","","24.1","","100.94","","","","-43","","Snow"
"-93.58","69.55","TALOYOAK A","2403854","2012-02-18 05:00","2012","02","18","05:00","-29.2","","-32.2","","75","","","","2","","19","","24.1","","100.88","","","","-42","","Snow"
"-93.58","69.55","TALOYOAK A","2403854","2012-02-18 06:00","2012","02","18","06:00","-28.6","","-31.6","","75","","","","3","","17","","24.1","","100.87","","","","-40","","Snow"
"-93.58","69.55","TALOYOAK A","2403854","2012-02-18 07:00","2012","02","18","07:00","-28.0","","-30.9","","76","","","","4","","26","","12.9","","100.83","","","","-42","","Snow"
"-93.58","69.55","TALOYOAK A","2403854","2012-02-18 08:00","2012","02","18","08:00","-27.5","","-30.4","","76","","","","4","","15","","12.9","","100.82","","","","-38","","Snow"
"-93.58","69.55","TALOYOAK A","2403854","2012-02-18 09:00","2012","02","18","09:00","-26.9","","-31.1","","68","","","","4","","22","","12.9","","100.79","","","","-40","","Snow"
"-93.58","69.55","TALOYOAK A","2403854","2012-02-18 10:00","2012","02","18","10:00","-26.4","","-29.2","","77","","","","4","","28","","12.9","","100.77","","","","-41","","Snow"
"-93.58","69.55","TALOYOAK A","2403854","2012-02-18 11:00","2012","02","18","11:00","-26.4","","-29.2","","77","","","","4","","30","","12.9","","100.77","","","","-41","","Snow"
"-93.58","69.55","TALOYOAK A","2403854","2012-02-18 12:00","2012","02","18","12:00","-26.3","","-29.1","","77","","","","5","","30","","14.5","","100.79","","","","-41","","Snow"
"-93.58","69.55","TALOYOAK A","2403854","2012-02-18 13:00","2012","02","18","13:00","-26.4","","-29.2","","77","","","","5","","28","","14.5","","100.80","","","","-41","","Snow"
"-93.58","69.55","TALOYOAK A","2403854","2012-02-18 14:00","2012","02","18","14:00","-26.4","","-29.2","","77","","","","4","","32","","12.9","","100.81","","","","-41","","Snow"
"-93.58","69.55","TALOYOAK A","2403854","2012-02-18 15:00","2012","02","18","15:00","-26.1","","-28.9","","77","","","","5","","37","","8.0","","100.85","","","","-42","","Snow"
"-93.58","69.55","TALOYOAK A","2403854","2012-02-18 16:00","2012","02","18","16:00","-26.7","","-29.5","","77","","","","5","","30","","12.9","","100.90","","","","-41","","Snow"
"-93.58","69.55","TALOYOAK A","2403854","2012-02-18 17:00","2012","02","18","17:00","-27.9","","-32.3","","66","","","","4","","22","","16.1","","100.96","","","","-41","","Snow"
"-93.58","69.55","TALOYOAK A","2403854","2012-02-18 18:00","2012","02","18","18:00","-29.3","","-32.3","","75","","","","2","","19","","16.1","","100.98","","","","-42","","Snow"
"-93.58","69.55","TALOYOAK A","2403854","2012-02-18 19:00","2012","02","18","19:00","-30.6","","-33.7","","74","","","","36","","19","","16.1","","101.04","","","","-44","","Ice Crystals"
"-93.58","69.55","TALOYOAK A","2403854","2012-02-18 20:00","2012","02","18","20:00","-30.8","","-33.9","","74","","","","2","","22","","19.3","","101.05","","","","-45","","Ice Crystals"
"-93.58","69.55","TALOYOAK A","2403854","2012-02-18 21:00","2012","02","18","21:00","-31.1","","-34.2","","74","","","","2","","22","","24.1","","101.10","","","","-45","","Ice Crystals"
"-93.58","69.55","TALOYOAK A","2403854","2012-02-18 22:00","2012","02","18","22:00","-32.6","","-35.8","","73","","","","1","","20","","24.1","","101.12","","","","-46","","Ice Crystals"
"-93.58","69.55","TALOYOAK A","2403854","2012-02-18 23:00","2012","02","18","23:00","-33.1","","-36.4","","72","","","","1","","22","","24.1","","101.15","","","","-48","","Ice Crystals"
"-93.58","69.55","TALOYOAK A","2403854","2012-02-19 00:00","2012","02","19","00:00","-32.7","","-35.9","","73","","","","1","","15","","24.1","","101.16","","","","-45","","Ice Crystals"
"-93.58","69.55","TALOYOAK A","2403854","2012-02-19 01:00","2012","02","19","01:00","-34.0","","-40.0","","55","","","","1","","15","","24.1","","101.22","","","","-46","","Ice Crystals"
"-93.58","69.55","TALOYOAK A","2403854","2012-02-19 02:00","2012","02","19","02:00","-34.5","","-37.9","","71","","","","36","","17","","24.1","","101.25","","","","-48","","Ice Crystals"
"-93.58","69.55","TALOYOAK A","2403854","2012-02-19 03:00","2012","02","19","03:00","-34.0","","-37.3","","72","","","","36","","17","","24.1","","101.29","","","","-47","","Ice Crystals"
"-93.58","69.55","TALOYOAK A","2403854","2012-02-19 04:00","2012","02","19","04:00","-33.5","","-36.8","","72","","","","36","","17","","24.1","","101.33","","","","-46","","Ice Crystals"
"-93.58","69.55","TALOYOAK A","2403854","2012-02-19 05:00","2012","02","19","05:00","-34.1","","-37.4","","72","","","","36","","17","","24.1","","101.35","","","","-47","","Clear"
"-93.58","69.55","TALOYOAK A","2403854","2012-02-19 06:00","2012","02","19","06:00","-34.0","","-37.3","","72","","","","36","","17","","24.1","","101.39","","","","-47","","Clear"
"-93.58","69.55","TALOYOAK A","2403854","2012-02-19 07:00","2012","02","19","07:00","-32.5","","-35.7","","73","","","","1","","11","","24.1","","101.40","","","","-43","","Clear"
"-93.58","69.55","TALOYOAK A","2403854","2012-02-19 08:00","2012","02","19","08:00","-32.0","","-35.2","","73","","","","2","","15","","24.1","","101.42","","","","-44","","Clear"
"-93.58","69.55","TALOYOAK A","2403854","2012-02-19 09:00","2012","02","19","09:00","-31.9","","-35.1","","73","","","","2","","4","","24.1","","101.45","","","","-37","","Clear"
"-93.58","69.55","TALOYOAK A","2403854","2012-02-19 10:00","2012","02","19","10:00","-32.9","","-36.2","","72","","","","","","0","","24.1","","101.48","","","","","","Clear"
"-93.58","69.55","TALOYOAK A","2403854","2012-02-19 11:00","2012","02","19","11:00","-32.4","","-37.9","","58","","","","10","","4","","24.1","","101.49","","","","-37","","Clear"
"-93.58","69.55","TALOYOAK A","2403854","2012-02-19 12:00","2012","02","19","12:00","-32.3","","-37.8","","58","","","","","","0","","24.1","","101.52","","","","","","Clear"
"-93.58","69.55","TALOYOAK A","2403854","2012-02-19 13:00","2012","02","19","13:00","-34.2","","-37.5","","72","","","","19","","4","","24.1","","101.56","","","","-39","","Clear"
"-93.58","69.55","TALOYOAK A","2403854","2012-02-19 14:00","2012","02","19","14:00","-34.8","","-41.1","","53","","","","10","","7","","24.1","","101.59","","","","-43","","Clear"
"-93.58","69.55","TALOYOAK A","2403854","2012-02-19 15:00","2012","02","19","15:00","-34.9","","-38.3","","71","","","","","","0","","24.1","","101.66","","","","","","Clear"
"-93.58","69.55","TALOYOAK A","2403854","2012-02-19 16:00","2012","02","19","16:00","-34.5","","-40.7","","53","","","","","","0","","24.1","","101.71","","","","","","Clear"
"-93.58","69.55","TALOYOAK A","2403854","2012-02-19 17:00","2012","02","19","17:00","-35.2","","-38.6","","71","","","","","","0","","24.1","","101.76","","","","","","Clear"
"-93.58","69.55","TALOYOAK A","2403854","2012-02-19 18:00","2012","02","19","18:00","-35.8","","-39.2","","71","","","","","","0","","24.1","","101.78","","","","","","Clear"
"-93.58","69.55","TALOYOAK A","2403854","2012-02-19 19:00","2012","02","19","19:00","-34.9","","-41.3","","52","","","","","","0","","24.1","","101.82","","","","","","Clear"
"-93.58","69.55","TALOYOAK A","2403854","2012-02-19 20:00","2012","02","19","20:00","-35.5","","-38.9","","71","","","","","","0","","24.1","","101.86","","","","","","Clear"
"-93.58","69.55","TALOYOAK A","2403854","2012-02-19 21:00","2012","02","19","21:00","-35.9","","-39.3","","71","","","","","","0","","24.1","","101.88","","","","","","Clear"
"-93.58","69.55","TALOYOAK A","2403854","2012-02-19 22:00","2012","02","19","22:00","-36.5","","-40.0","","70","","","","16","","7","","24.1","","101.88","","","","-45","","Clear"
"-93.58","69.55","TALOYOAK A","2403854","2012-02-19 23:00","2012","02","19","23:00","-37.0","","-40.5","","70","","","","17","","9","","24.1","","101.91","","","","-47","","Clear"
"-93.58","69.55","TALOYOAK A","2403854","2012-02-20 00:00","2012","02","20","00:00","-37.7","","","M","","M","","","16","","9","","24.1","","101.95","","","","-48","","Clear"
"-93.58","69.55","TALOYOAK A","2403854","2012-02-20 01:00","2012","02","20","01:00","-37.7","","","M","","M","","","18","","6","","24.1","","102.00","","","","-45","","Clear"
"-93.58","69.55","TALOYOAK A","2403854","2012-02-20 02:00","2012","02","20","02:00","-37.8","","","M","","M","","","16","","11","","24.1","","102.02","","","","-49","","Clear"
"-93.58","69.55","TALOYOAK A","2403854","2012-02-20 03:00","2012","02","20","03:00","-37.8","","","M","","M","","","16","","13","","24.1","","102.05","","","","-50","","Clear"
"-93.58","69.55","TALOYOAK A","2403854","2012-02-20 04:00","2012","02","20","04:00","-37.6","","","M","","M","","","17","","11","","24.1","","102.09","","","","-49","","Clear"
"-93.58","69.55","TALOYOAK A","2403854","2012-02-20 05:00","2012","02","20","05:00","-37.9","","","M","","M","","","17","","13","","24.1","","102.10","","","","-50","","Clear"
"-93.58","69.55","TALOYOAK A","2403854","2012-02-20 06:00","2012","02","20","06:00","-37.7","","","M","","M","","","17","","15","","24.1","","102.12","","","","-51","","Clear"
"-93.58","69.55","TALOYOAK A","2403854","2012-02-20 07:00","2012","02","20","07:00","-38.3","","","M","","M","","","16","","13","","24.1","","102.13","","","","-51","","Mainly Clear"
"-93.58","69.55","TALOYOAK A","2403854","2012-02-20 08:00","2012","02","20","08:00","-38.4","","","M","","M","","","17","","13","","24.1","","102.13","","","","-51","","Clear"
"-93.58","69.55","TALOYOAK A","2403854","2012-02-20 09:00","2012","02","20","09:00","-38.9","","","M","","M","","","16","","15","","24.1","","102.13","","","","-52","","Clear"
"-93.58","69.55","TALOYOAK A","2403854","2012-02-20 10:00","2012","02","20","10:00","-38.2","","","M","","M","","","16","","11","","24.1","","102.12","","","","-50","","Clear"
"-93.58","69.55","TALOYOAK A","2403854","2012-02-20 11:00","2012","02","20","11:00","-38.0","","","M","","M","","","17","","11","","24.1","","102.14","","","","-49","","Clear"
"-93.58","69.55","TALOYOAK A","2403854","2012-02-20 12:00","2012","02","20","12:00","-38.0","","","M","","M","","","18","","11","","24.1","","102.15","","","","-49","","Clear"
"-93.58","69.55","TALOYOAK A","2403854","2012-02-20 13:00","2012","02","20","13:00","-37.5","","","M","","M","","","17","","11","","24.1","","102.15","","","","-49","","Clear"
"-93.58","69.55","TALOYOAK A","2403854","2012-02-20 14:00","2012","02","20","14:00","-37.4","","","M","","M","","","17","","11","","24.1","","102.15","","","","-49","","Clear"
"-93.58","69.55","TALOYOAK A","2403854","2012-02-20 15:00","2012","02","20","15:00","-37.4","","","M","","M","","","17","","11","","24.1","","102.16","","","","-49","","Clear"
"-93.58","69.55","TALOYOAK A","2403854","2012-02-20 16:00","2012","02","20","16:00","-37.7","","","M","","M","","","16","","13","","24.1","","102.14","","","","-50","","Clear"
"-93.58","69.55","TALOYOAK A","2403854","2012-02-20 17:00","2012","02","20","17:00","-37.4","","","M","","M","","","16","","15","","24.1","","102.12","","","","-51","","Clear"
"-93.58","69.55","TALOYOAK A","2403854","2012-02-20 18:00","2012","02","20","18:00","-37.8","","","M","","M","","","16","","17","","24.1","","102.12","","","","-52","","Clear"
"-93.58","69.55","TALOYOAK A","2403854","2012-02-20 19:00","2012","02","20","19:00","-37.7","","","M","","M","","","16","","15","","24.1","","102.08","","","","-51","","Clear"
"-93.58","69.55","TALOYOAK A","2403854","2012-02-20 20:00","2012","02","20","20:00","-37.5","","","M","","M","","","17","","15","","24.1","","102.04","","","","-51","","Clear"
"-93.58","69.55","TALOYOAK A","2403854","2012-02-20 21:00","2012","02","20","21:00","-37.5","","","M","","M","","","16","","13","","24.1","","101.98","","","","-50","","Ice Crystals"
"-93.58","69.55","TALOYOAK A","2403854","2012-02-20 22:00","2012","02","20","22:00","-37.7","","","M","","M","","","17","","11","","24.1","","101.97","","","","-49","","Ice Crystals"
"-93.58","69.55","TALOYOAK A","2403854","2012-02-20 23:00","2012","02","20","23:00","-37.8","","","M","","M","","","17","","15","","24.1","","101.94","","","","-51","","Ice Crystals"
"-93.58","69.55","TALOYOAK A","2403854","2012-02-21 00:00","2012","02","21","00:00","-37.9","","","M","","M","","","18","","15","","24.1","","101.90","","","","-51","","Ice Crystals"
"-93.58","69.55","TALOYOAK A","2403854","2012-02-21 01:00","2012","02","21","01:00","-38.1","","","M","","M","","","18","","13","","24.1","","101.90","","","","-50","","Ice Crystals"
"-93.58","69.55","TALOYOAK A","2403854","2012-02-21 02:00","2012","02","21","02:00","-38.1","","","M","","M","","","16","","13","","24.1","","101.85","","","","-50","","Ice Crystals"
"-93.58","69.55","TALOYOAK A","2403854","2012-02-21 03:00","2012","02","21","03:00","-38.1","","","M","","M","","","17","","13","","24.1","","101.84","","","","-50","","Ice Crystals"
"-93.58","69.55","TALOYOAK A","2403854","2012-02-21 04:00","2012","02","21","04:00","-38.0","","","M","","M","","","16","","15","","24.1","","101.79","","","","-51","","Ice Crystals"
"-93.58","69.55","TALOYOAK A","2403854","2012-02-21 05:00","2012","02","21","05:00","-37.9","","","M","","M","","","16","","15","","24.1","","101.76","","","","-51","","Ice Crystals"
"-93.58","69.55","TALOYOAK A","2403854","2012-02-21 06:00","2012","02","21","06:00","-37.9","","","M","","M","","","16","","11","","24.1","","101.70","","","","-49","","Ice Crystals"
"-93.58","69.55","TALOYOAK A","2403854","2012-02-21 07:00","2012","02","21","07:00","-37.6","","","M","","M","","","17","","9","","24.1","","101.68","","","","-48","","Ice Crystals"
"-93.58","69.55","TALOYOAK A","2403854","2012-02-21 08:00","2012","02","21","08:00","-37.4","","","M","","M","","","17","","6","","24.1","","101.63","","","","-45","","Mainly Clear"
"-93.58","69.55","TALOYOAK A","2403854","2012-02-21 09:00","2012","02","21","09:00","-37.1","","","M","","M","","","19","","6","","24.1","","101.57","","","","-45","","Mainly Clear"
"-93.58","69.55","TALOYOAK A","2403854","2012-02-21 10:00","2012","02","21","10:00","-36.1","","-39.6","","70","","","","","","0","","24.1","","101.51","","","","","","Mainly Clear"
"-93.58","69.55","TALOYOAK A","2403854","2012-02-21 11:00","2012","02","21","11:00","-35.2","","-41.7","","51","","","","","","0","","24.1","","101.45","","","","","","Mostly Cloudy"
"-93.58","69.55","TALOYOAK A","2403854","2012-02-21 12:00","2012","02","21","12:00","-35.0","","-41.4","","52","","","","","","0","","24.1","","101.42","","","","","","Mostly Cloudy"
"-93.58","69.55","TALOYOAK A","2403854","2012-02-21 13:00","2012","02","21","13:00","-35.4","","-38.8","","71","","","","","","0","","24.1","","101.40","","","","","","Mostly Cloudy"
"-93.58","69.55","TALOYOAK A","2403854","2012-02-21 14:00","2012","02","21","14:00","-34.8","","-38.2","","71","","","","","","0","","24.1","","101.38","","","","","","Mostly Cloudy"
"-93.58","69.55","TALOYOAK A","2403854","2012-02-21 15:00","2012","02","21","15:00","-34.7","","-38.1","","71","","","","","","0","","24.1","","101.35","","","","","","Mostly Cloudy"
"-93.58","69.55","TALOYOAK A","2403854","2012-02-21 16:00","2012","02","21","16:00","-33.6","","-36.9","","72","","","","","","0","","24.1","","101.29","","","","","","Mostly Cloudy"
"-93.58","69.55","TALOYOAK A","2403854","2012-02-21 17:00","2012","02","21","17:00","-33.3","","-36.6","","72","","","","","","0","","24.1","","101.27","","","","","","Mostly Cloudy"
"-93.58","69.55","TALOYOAK A","2403854","2012-02-21 18:00","2012","02","21","18:00","-33.0","","-36.3","","72","","","","","","0","","24.1","","101.21","","","","","","Mostly Cloudy"
"-93.58","69.55","TALOYOAK A","2403854","2012-02-21 19:00","2012","02","21","19:00","-33.2","","-36.5","","72","","","","","","0","","24.1","","101.17","","","","","","Mostly Cloudy"
"-93.58","69.55","TALOYOAK A","2403854","2012-02-21 20:00","2012","02","21","20:00","-31.9","","-35.1","","73","","","","","","0","","24.1","","101.12","","","","","","Mostly Cloudy"
"-93.58","69.55","TALOYOAK A","2403854","2012-02-21 21:00","2012","02","21","21:00","-31.9","","-35.1","","73","","","","","","0","","24.1","","101.07","","","","","","Mostly Cloudy"
"-93.58","69.55","TALOYOAK A","2403854","2012-02-21 22:00","2012","02","21","22:00","-31.8","","-35.0","","73","","","","","","0","","24.1","","101.05","","","","","","Mostly Cloudy"
"-93.58","69.55","TALOYOAK A","2403854","2012-02-21 23:00","2012","02","21","23:00","-31.2","","-34.3","","74","","","","","","0","","24.1","","101.04","","","","","","Mostly Cloudy"
"-93.58","69.55","TALOYOAK A","2403854","2012-02-22 00:00","2012","02","22","00:00","-30.5","","-33.6","","74","","","","","","0","","24.1","","101.03","","","","","","Snow"
"-93.58","69.55","TALOYOAK A","2403854","2012-02-22 01:00","2012","02","22","01:00","-30.5","","-33.6","","74","","","","","","0","","24.1","","101.02","","","","","","Snow"
"-93.58","69.55","TALOYOAK A","2403854","2012-02-22 02:00","2012","02","22","02:00","-31.0","","-34.1","","74","","","","","","0","","19.3","","101.01","","","","","","Snow"
"-93.58","69.55","TALOYOAK A","2403854","2012-02-22 03:00","2012","02","22","03:00","-29.4","","-32.4","","75","","","","","","0","","19.3","","101.00","","","","","","Snow"
"-93.58","69.55","TALOYOAK A","2403854","2012-02-22 04:00","2012","02","22","04:00","-29.6","","-32.6","","75","","","","","","0","","19.3","","100.98","","","","","","Snow"
"-93.58","69.55","TALOYOAK A","2403854","2012-02-22 05:00","2012","02","22","05:00","-28.3","","-31.2","","76","","","","","","0","","19.3","","100.95","","","","","","Snow"
"-93.58","69.55","TALOYOAK A","2403854","2012-02-22 06:00","2012","02","22","06:00","-28.2","","-31.1","","76","","","","","","0","","19.3","","100.93","","","","","","Snow"
"-93.58","69.55","TALOYOAK A","2403854","2012-02-22 07:00","2012","02","22","07:00","-28.4","","-31.3","","76","","","","","","0","","16.1","","100.90","","","","","","Snow"
"-93.58","69.55","TALOYOAK A","2403854","2012-02-22 08:00","2012","02","22","08:00","-27.8","","-30.7","","76","","","","","","0","","16.1","","100.87","","","","","","Snow"
"-93.58","69.55","TALOYOAK A","2403854","2012-02-22 09:00","2012","02","22","09:00","-26.6","","-30.7","","68","","","","","","0","","16.1","","100.86","","","","","","Snow"
"-93.58","69.55","TALOYOAK A","2403854","2012-02-22 10:00","2012","02","22","10:00","-27.0","","-29.8","","77","","","","","","0","","16.1","","100.86","","","","","","Snow"
"-93.58","69.55","TALOYOAK A","2403854","2012-02-22 11:00","2012","02","22","11:00","-26.3","","-30.4","","68","","","","","","0","","16.1","","100.85","","","","","","Snow"
"-93.58","69.55","TALOYOAK A","2403854","2012-02-22 12:00","2012","02","22","12:00","-26.3","","-30.4","","68","","","","","","0","","19.3","","100.85","","","","","","Snow"
"-93.58","69.55","TALOYOAK A","2403854","2012-02-22 13:00","2012","02","22","13:00","-27.0","","-31.2","","67","","","","","","0","","19.3","","100.86","","","","","","Snow"
"-93.58","69.55","TALOYOAK A","2403854","2012-02-22 14:00","2012","02","22","14:00","-26.5","","-30.6","","68","","","","","","0","","24.1","","100.86","","","","","","Snow"
"-93.58","69.55","TALOYOAK A","2403854","2012-02-22 15:00","2012","02","22","15:00","-27.5","","-30.4","","76","","","","","","0","","12.9","","100.85","","","","","","Snow"
"-93.58","69.55","TALOYOAK A","2403854","2012-02-22 16:00","2012","02","22","16:00","-27.5","","-30.4","","76","","","","","","0","","9.7","","100.84","","","","","","Snow"
"-93.58","69.55","TALOYOAK A","2403854","2012-02-22 17:00","2012","02","22","17:00","-27.7","","-30.6","","76","","","","","","0","","12.9","","100.84","","","","","","Snow"
"-93.58","69.55","TALOYOAK A","2403854","2012-02-22 18:00","2012","02","22","18:00","-28.2","","-31.1","","76","","","","","","0","","12.9","","100.83","","","","","","Snow"
"-93.58","69.55","TALOYOAK A","2403854","2012-02-22 19:00","2012","02","22","19:00","-27.4","","-31.7","","67","","","","","","0","","16.1","","100.82","","","","","","Snow"
"-93.58","69.55","TALOYOAK A","2403854","2012-02-22 20:00","2012","02","22","20:00","-29.2","","-32.2","","75","","","","","","0","","16.1","","100.81","","","","","","Snow"
"-93.58","69.55","TALOYOAK A","2403854","2012-02-22 21:00","2012","02","22","21:00","-27.1","","-29.9","","77","","","","","","0","","16.1","","100.78","","","","","","Snow"
"-93.58","69.55","TALOYOAK A","2403854","2012-02-22 22:00","2012","02","22","22:00","-27.5","","-30.4","","76","","","","","","0","","16.1","","100.78","","","","","","Snow"
"-93.58","69.55","TALOYOAK A","2403854","2012-02-22 23:00","2012","02","22","23:00","-28.3","","-31.2","","76","","","","","","0","","16.1","","100.76","","","","","","Snow"
"-93.58","69.55","TALOYOAK A","2403854","2012-02-23 00:00","2012","02","23","00:00","-27.2","","-30.0","","77","","","","","","0","","12.9","","100.75","","","","","","Snow"
"-93.58","69.55","TALOYOAK A","2403854","2012-02-23 01:00","2012","02","23","01:00","-27.4","","-30.3","","76","","","","","","0","","12.9","","100.77","","","","","","Snow"
"-93.58","69.55","TALOYOAK A","2403854","2012-02-23 02:00","2012","02","23","02:00","-27.8","","-30.7","","76","","","","","","0","","12.9","","100.80","","","","","","Snow"
"-93.58","69.55","TALOYOAK A","2403854","2012-02-23 03:00","2012","02","23","03:00","-28.0","","-30.9","","76","","","","","","0","","12.9","","100.78","","","","","","Snow"
"-93.58","69.55","TALOYOAK A","2403854","2012-02-23 04:00","2012","02","23","04:00","-29.4","","-32.4","","75","","","","","","0","","16.1","","100.78","","","","","","Snow"
"-93.58","69.55","TALOYOAK A","2403854","2012-02-23 05:00","2012","02","23","05:00","-29.0","","-32.0","","75","","","","","","0","","20.9","","100.77","","","","","","Ice Crystals"
"-93.58","69.55","TALOYOAK A","2403854","2012-02-23 06:00","2012","02","23","06:00","-29.2","","-32.2","","75","","","","","","0","","20.9","","100.77","","","","","","Ice Crystals"
"-93.58","69.55","TALOYOAK A","2403854","2012-02-23 07:00","2012","02","23","07:00","-30.5","","-33.6","","74","","","","","","0","","24.1","","100.75","","","","","","Mainly Clear"
"-93.58","69.55","TALOYOAK A","2403854","2012-02-23 08:00","2012","02","23","08:00","-30.9","","-36.0","","61","","","","","","0","","24.1","","100.76","","","","","","Mainly Clear"
"-93.58","69.55","TALOYOAK A","2403854","2012-02-23 09:00","2012","02","23","09:00","-31.0","","-36.1","","61","","","","","","0","","24.1","","100.75","","","","","","Mainly Clear"
"-93.58","69.55","TALOYOAK A","2403854","2012-02-23 10:00","2012","02","23","10:00","-30.5","","-33.6","","74","","","","16","","13","","24.1","","100.74","","","","-41","","Mainly Clear"
"-93.58","69.55","TALOYOAK A","2403854","2012-02-23 11:00","2012","02","23","11:00","-30.2","","-33.3","","74","","","","15","","11","","24.1","","100.75","","","","-40","","Mainly Clear"
"-93.58","69.55","TALOYOAK A","2403854","2012-02-23 12:00","2012","02","23","12:00","-30.1","","-33.2","","74","","","","14","","11","","24.1","","100.76","","","","-40","","Mainly Clear"
"-93.58","69.55","TALOYOAK A","2403854","2012-02-23 13:00","2012","02","23","13:00","-29.5","","-34.2","","64","","","","15","","11","","24.1","","100.77","","","","-39","","Mainly Clear"
"-93.58","69.55","TALOYOAK A","2403854","2012-02-23 14:00","2012","02","23","14:00","-29.5","","-32.5","","75","","","","17","","7","","24.1","","100.78","","","","-37","","Mainly Clear"
"-93.58","69.55","TALOYOAK A","2403854","2012-02-23 15:00","2012","02","23","15:00","-30.0","","-33.1","","74","","","","16","","9","","24.1","","100.82","","","","-39","","Mostly Cloudy"
"-93.58","69.55","TALOYOAK A","2403854","2012-02-23 16:00","2012","02","23","16:00","-30.2","","-33.3","","74","","","","16","","9","","16.1","","100.84","","","","-39","","Snow"
"-93.58","69.55","TALOYOAK A","2403854","2012-02-23 17:00","2012","02","23","17:00","-29.5","","-32.5","","75","","","","16","","9","","16.1","","100.85","","","","-38","","Snow"
"-93.58","69.55","TALOYOAK A","2403854","2012-02-23 18:00","2012","02","23","18:00","-29.0","","-33.6","","64","","","","16","","7","","12.9","","100.85","","","","-36","","Snow"
"-93.58","69.55","TALOYOAK A","2403854","2012-02-23 19:00","2012","02","23","19:00","-29.2","","-32.2","","75","","","","16","","6","","19.3","","100.84","","","","-36","","Snow"
"-93.58","69.55","TALOYOAK A","2403854","2012-02-23 20:00","2012","02","23","20:00","-29.9","","-34.7","","63","","","","14","","11","","12.9","","100.86","","","","-40","","Snow"
"-93.58","69.55","TALOYOAK A","2403854","2012-02-23 21:00","2012","02","23","21:00","-31.0","","-34.1","","74","","","","13","","6","","19.3","","100.90","","","","-38","","Snow"
"-93.58","69.55","TALOYOAK A","2403854","2012-02-23 22:00","2012","02","23","22:00","-29.9","","-34.7","","63","","","","34","","4","","24.1","","100.94","","","","-34","","Snow"
"-93.58","69.55","TALOYOAK A","2403854","2012-02-23 23:00","2012","02","23","23:00","-31.6","","-34.8","","73","","","","","","0","","24.1","","100.98","","","","","","Snow"
"-93.58","69.55","TALOYOAK A","2403854","2012-02-24 00:00","2012","02","24","00:00","-32.0","","-35.2","","73","","","","36","","6","","24.1","","101.06","","","","-39","","Snow"
"-93.58","69.55","TALOYOAK A","2403854","2012-02-24 01:00","2012","02","24","01:00","-32.5","","-35.7","","73","","","","35","","7","","24.1","","101.12","","","","-40","","Snow"
"-93.58","69.55","TALOYOAK A","2403854","2012-02-24 02:00","2012","02","24","02:00","-33.4","","-36.7","","72","","","","36","","7","","24.1","","101.20","","","","-41","","Mainly Clear"
"-93.58","69.55","TALOYOAK A","2403854","2012-02-24 03:00","2012","02","24","03:00","-34.0","","-37.3","","72","","","","7","","6","","24.1","","101.25","","","","-41","","Mainly Clear"
"-93.58","69.55","TALOYOAK A","2403854","2012-02-24 04:00","2012","02","24","04:00","-35.6","","-39.0","","71","","","","1","","7","","24.1","","101.30","","","","-44","","Mainly Clear"
"-93.58","69.55","TALOYOAK A","2403854","2012-02-24 05:00","2012","02","24","05:00","-35.4","","-36.4","","91","","","","36","","11","","24.1","","101.37","","","","-46","","Mainly Clear"
"-93.58","69.55","TALOYOAK A","2403854","2012-02-24 06:00","2012","02","24","06:00","-33.9","","-37.2","","72","","","","1","","9","","24.1","","101.41","","","","-43","","Mainly Clear"
"-93.58","69.55","TALOYOAK A","2403854","2012-02-24 07:00","2012","02","24","07:00","-34.6","","-38.0","","71","","","","36","","7","","24.1","","101.45","","","","-43","","Clear"
"-93.58","69.55","TALOYOAK A","2403854","2012-02-24 08:00","2012","02","24","08:00","-34.6","","-38.0","","71","","","","1","","9","","24.1","","101.50","","","","-44","","Clear"
"-93.58","69.55","TALOYOAK A","2403854","2012-02-24 09:00","2012","02","24","09:00","-35.5","","-42.1","","51","","","","11","","4","","24.1","","101.55","","","","-41","","Clear"
"-93.58","69.55","TALOYOAK A","2403854","2012-02-24 10:00","2012","02","24","10:00","-35.6","","-39.0","","71","","","","","","0","","24.1","","101.59","","","","","","Clear"
"-93.58","69.55","TALOYOAK A","2403854","2012-02-24 11:00","2012","02","24","11:00","-35.6","","-39.0","","71","","","","16","","4","","24.1","","101.64","","","","-41","","Clear"
"-93.58","69.55","TALOYOAK A","2403854","2012-02-24 12:00","2012","02","24","12:00","-36.2","","-39.7","","70","","","","18","","6","","24.1","","101.68","","","","-44","","Ice Crystals"
"-93.58","69.55","TALOYOAK A","2403854","2012-02-24 13:00","2012","02","24","13:00","-36.4","","-39.9","","70","","","","17","","9","","24.1","","101.75","","","","-46","","Ice Crystals"
"-93.58","69.55","TALOYOAK A","2403854","2012-02-24 14:00","2012","02","24","14:00","-36.8","","-40.3","","70","","","","16","","9","","24.1","","101.77","","","","-47","","Ice Crystals"
"-93.58","69.55","TALOYOAK A","2403854","2012-02-24 15:00","2012","02","24","15:00","-37.5","","","M","","M","","","16","","11","","24.1","","101.83","","","","-49","","Ice Crystals"
"-93.58","69.55","TALOYOAK A","2403854","2012-02-24 16:00","2012","02","24","16:00","-38.8","","","M","","M","","","15","","11","","24.1","","101.87","","","","-50","","Ice Crystals"
"-93.58","69.55","TALOYOAK A","2403854","2012-02-24 17:00","2012","02","24","17:00","-38.8","","","M","","M","","","16","","15","","24.1","","101.90","","","","-52","","Ice Crystals"
"-93.58","69.55","TALOYOAK A","2403854","2012-02-24 18:00","2012","02","24","18:00","-38.6","","","M","","M","","","15","","17","","24.1","","101.92","","","","-53","","Ice Crystals"
"-93.58","69.55","TALOYOAK A","2403854","2012-02-24 19:00","2012","02","24","19:00","-39.3","","","M","","M","","","16","","15","","24.1","","101.92","","","","-53","","Ice Crystals"
"-93.58","69.55","TALOYOAK A","2403854","2012-02-24 20:00","2012","02","24","20:00","-39.3","","","M","","M","","","16","","13","","24.1","","101.94","","","","-52","","Ice Crystals"
"-93.58","69.55","TALOYOAK A","2403854","2012-02-24 21:00","2012","02","24","21:00","-39.4","","","M","","M","","","15","","9","","24.1","","101.99","","","","-50","","Ice Crystals"
"-93.58","69.55","TALOYOAK A","2403854","2012-02-24 22:00","2012","02","24","22:00","-39.4","","","M","","M","","","16","","7","","24.1","","102.02","","","","-48","","Ice Crystals"
"-93.58","69.55","TALOYOAK A","2403854","2012-02-24 23:00","2012","02","24","23:00","-40.8","","","M","","M","","","16","","7","","24.1","","102.04","","","","-50","","Ice Crystals"
"-93.58","69.55","TALOYOAK A","2403854","2012-02-25 00:00","2012","02","25","00:00","-41.0","","","M","","M","","","19","","4","","24.1","","102.09","","","","-47","","Clear"
"-93.58","69.55","TALOYOAK A","2403854","2012-02-25 01:00","2012","02","25","01:00","-41.3","","","M","","M","","","","","0","","24.1","","102.10","","","","","","Clear"
"-93.58","69.55","TALOYOAK A","2403854","2012-02-25 02:00","2012","02","25","02:00","-41.7","","","M","","M","","","","","0","","24.1","","102.13","","","","","","Clear"
"-93.58","69.55","TALOYOAK A","2403854","2012-02-25 03:00","2012","02","25","03:00","-42.1","","","M","","M","","","","","0","","24.1","","102.17","","","","","","Clear"
"-93.58","69.55","TALOYOAK A","2403854","2012-02-25 04:00","2012","02","25","04:00","-42.8","","","M","","M","","","","","0","","6.4","","102.19","","","","","","Fog"
"-93.58","69.55","TALOYOAK A","2403854","2012-02-25 05:00","2012","02","25","05:00","-43.0","","","M","","M","","","","","0","","4.8","","102.20","","","","","","Fog"
"-93.58","69.55","TALOYOAK A","2403854","2012-02-25 06:00","2012","02","25","06:00","-43.5","","","M","","M","","","","","0","","3.2","","102.18","","","","","","Fog"
"-93.58","69.55","TALOYOAK A","2403854","2012-02-25 07:00","2012","02","25","07:00","-42.5","","","M","","M","","","","","0","","1.6","","102.17","","","","","","Fog"
"-93.58","69.55","TALOYOAK A","2403854","2012-02-25 08:00","2012","02","25","08:00","-42.2","","","M","","M","","","","","0","","24.1","","102.20","","","","","","Clear"
"-93.58","69.55","TALOYOAK A","2403854","2012-02-25 09:00","2012","02","25","09:00","-40.2","","","M","","M","","","","","0","","24.1","","102.22","","","","","","Clear"
"-93.58","69.55","TALOYOAK A","2403854","2012-02-25 10:00","2012","02","25","10:00","-41.0","","","M","","M","","","16","","7","","24.1","","102.23","","","","-50","","Mostly Cloudy"
"-93.58","69.55","TALOYOAK A","2403854","2012-02-25 11:00","2012","02","25","11:00","-40.2","","","M","","M","","","16","","11","","24.1","","102.27","","","","-52","","Mostly Cloudy"
"-93.58","69.55","TALOYOAK A","2403854","2012-02-25 12:00","2012","02","25","12:00","-39.8","","","M","","M","","","18","","6","","24.1","","102.30","","","","-48","","Mostly Cloudy"
"-93.58","69.55","TALOYOAK A","2403854","2012-02-25 13:00","2012","02","25","13:00","-39.4","","","M","","M","","","18","","6","","24.1","","102.34","","","","-47","","Ice Crystals"
"-93.58","69.55","TALOYOAK A","2403854","2012-02-25 14:00","2012","02","25","14:00","-39.8","","","M","","M","","","18","","6","","24.1","","102.37","","","","-48","","Ice Crystals"
"-93.58","69.55","TALOYOAK A","2403854","2012-02-25 15:00","2012","02","25","15:00","-39.9","","","M","","M","","","","","0","","24.1","","102.42","","","","","","Ice Crystals"
"-93.58","69.55","TALOYOAK A","2403854","2012-02-25 16:00","2012","02","25","16:00","-40.8","","","M","","M","","","12","","4","","24.1","","102.45","","","","-46","","Ice Crystals"
"-93.58","69.55","TALOYOAK A","2403854","2012-02-25 17:00","2012","02","25","17:00","-41.4","","","M","","M","","","","","0","","24.1","","102.46","","","","","","Ice Crystals"
"-93.58","69.55","TALOYOAK A","2403854","2012-02-25 18:00","2012","02","25","18:00","-41.3","","","M","","M","","","20","","4","","24.1","","102.46","","","","-47","","Ice Crystals"
"-93.58","69.55","TALOYOAK A","2403854","2012-02-25 19:00","2012","02","25","19:00","-41.9","","","M","","M","","","16","","4","","24.1","","102.47","","","","-48","","Ice Crystals"
"-93.58","69.55","TALOYOAK A","2403854","2012-02-25 20:00","2012","02","25","20:00","-42.0","","","M","","M","","","17","","9","","24.1","","102.47","","","","-53","","Ice Crystals"
"-93.58","69.55","TALOYOAK A","2403854","2012-02-25 21:00","2012","02","25","21:00","-41.9","","","M","","M","","","16","","13","","24.1","","102.45","","","","-55","","Ice Crystals"
"-93.58","69.55","TALOYOAK A","2403854","2012-02-25 22:00","2012","02","25","22:00","-41.7","","","M","","M","","","15","","17","","24.1","","102.43","","","","-57","","Ice Crystals"
"-93.58","69.55","TALOYOAK A","2403854","2012-02-25 23:00","2012","02","25","23:00","-41.1","","","M","","M","","","15","","19","","24.1","","102.43","","","","-57","","Ice Crystals"
"-93.58","69.55","TALOYOAK A","2403854","2012-02-26 00:00","2012","02","26","00:00","-40.9","","","M","","M","","","15","","19","","24.1","","102.47","","","","-56","","Ice Crystals"
"-93.58","69.55","TALOYOAK A","2403854","2012-02-26 01:00","2012","02","26","01:00","-41.0","","","M","","M","","","14","","19","","24.1","","102.46","","","","-57","","Ice Crystals"
"-93.58","69.55","TALOYOAK A","2403854","2012-02-26 02:00","2012","02","26","02:00","-40.7","","","M","","M","","","15","","17","","24.1","","102.46","","","","-55","","Ice Crystals"
"-93.58","69.55","TALOYOAK A","2403854","2012-02-26 03:00","2012","02","26","03:00"
"-93.58","69.55","TALOYOAK A","2403854","2012-02-26 04:00","2012","02","26","04:00"
"-93.58","69.55","TALOYOAK A","2403854","2012-02-26 05:00","2012","02","26","05:00"
"-93.58","69.55","TALOYOAK A","2403854","2012-02-26 06:00","2012","02","26","06:00"
"-93.58","69.55","TALOYOAK A","2403854","2012-02-26 07:00","2012","02","26","07:00"
"-93.58","69.55","TALOYOAK A","2403854","2012-02-26 08:00","2012","02","26","08:00"
"-93.58","69.55","TALOYOAK A","2403854","2012-02-26 09:00","2012","02","26","09:00","-41.3","","","M","","M","","","16","","17","","24.1","","102.41","","","","-56","","Ice Crystals"
"-93.58","69.55","TALOYOAK A","2403854","2012-02-26 10:00","2012","02","26","10:00","-41.0","","","M","","M","","","16","","19","","24.1","","102.38","","","","-57","","Ice Crystals"
"-93.58","69.55","TALOYOAK A","2403854","2012-02-26 11:00","2012","02","26","11:00","-40.8","","","M","","M","","","16","","19","","24.1","","102.37","","","","-56","","Ice Crystals"
"-93.58","69.55","TALOYOAK A","2403854","2012-02-26 12:00","2012","02","26","12:00","-40.4","","","M","","M","","","16","","19","","24.1","","102.37","","","","-56","","Ice Crystals"
"-93.58","69.55","TALOYOAK A","2403854","2012-02-26 13:00","2012","02","26","13:00","-39.6","","","M","","M","","","15","","19","","24.1","","102.34","","","","-55","","Ice Crystals"
"-93.58","69.55","TALOYOAK A","2403854","2012-02-26 14:00","2012","02","26","14:00","-39.0","","","M","","M","","","15","","20","","24.1","","102.32","","","","-54","","Ice Crystals"
"-93.58","69.55","TALOYOAK A","2403854","2012-02-26 15:00","2012","02","26","15:00","-38.8","","","M","","M","","","15","","19","","24.1","","102.30","","","","-54","","Ice Crystals"
"-93.58","69.55","TALOYOAK A","2403854","2012-02-26 16:00","2012","02","26","16:00","-38.2","","","M","","M","","","16","","17","","24.1","","102.29","","","","-52","","Ice Crystals"
"-93.58","69.55","TALOYOAK A","2403854","2012-02-26 17:00","2012","02","26","17:00","-38.1","","","M","","M","","","14","","17","","24.1","","102.26","","","","-52","","Ice Crystals"
"-93.58","69.55","TALOYOAK A","2403854","2012-02-26 18:00","2012","02","26","18:00","-37.2","","","M","","M","","","14","","17","","24.1","","102.21","","","","-51","","Ice Crystals"
"-93.58","69.55","TALOYOAK A","2403854","2012-02-26 19:00","2012","02","26","19:00","-37.1","","","M","","M","","","14","","17","","24.1","","102.17","","","","-51","","Ice Crystals"
"-93.58","69.55","TALOYOAK A","2403854","2012-02-26 20:00","2012","02","26","20:00","-36.5","","-40.0","","70","","","","14","","19","","19.3","","102.11","","","","-51","","Ice Crystals"
"-93.58","69.55","TALOYOAK A","2403854","2012-02-26 21:00","2012","02","26","21:00","-35.7","","-39.1","","71","","","","14","","20","","12.9","","102.08","","","","-50","","Ice Crystals"
"-93.58","69.55","TALOYOAK A","2403854","2012-02-26 22:00","2012","02","26","22:00","-35.7","","-39.1","","71","","","","17","","15","","11.3","","102.03","","","","-48","","Ice Crystals"
"-93.58","69.55","TALOYOAK A","2403854","2012-02-26 23:00","2012","02","26","23:00","-34.2","","-37.5","","72","","","","18","","19","","6.4","","102.01","","","","-48","","Ice Crystals"
"-93.58","69.55","TALOYOAK A","2403854","2012-02-27 00:00","2012","02","27","00:00","-33.5","","-39.3","","56","","","","21","","19","","6.4","","101.98","","","","-47","","Ice Crystals"
"-93.58","69.55","TALOYOAK A","2403854","2012-02-27 01:00","2012","02","27","01:00","-33.0","","-36.3","","72","","","","20","","19","","4.8","","101.93","","","","-47","","Ice Crystals"
"-93.58","69.55","TALOYOAK A","2403854","2012-02-27 02:00","2012","02","27","02:00","-33.0","","-36.3","","72","","","","19","","11","","4.8","","101.91","","","","-43","","Ice Crystals"
"-93.58","69.55","TALOYOAK A","2403854","2012-02-27 03:00","2012","02","27","03:00","-32.4","","-35.6","","73","","","","21","","24","","3.2","","101.87","","","","-47","","Ice Crystals"
"-93.58","69.55","TALOYOAK A","2403854","2012-02-27 04:00","2012","02","27","04:00","-33.8","","-37.1","","72","","","","20","","17","","3.2","","101.86","","","","-47","","Ice Crystals"
"-93.58","69.55","TALOYOAK A","2403854","2012-02-27 05:00","2012","02","27","05:00","-34.2","","-37.5","","72","","","","21","","19","","3.2","","101.83","","","","-48","","Ice Crystals"
"-93.58","69.55","TALOYOAK A","2403854","2012-02-27 06:00","2012","02","27","06:00","-34.0","","-37.3","","72","","","","18","","20","","4.8","","101.82","","","","-48","","Ice Crystals"
"-93.58","69.55","TALOYOAK A","2403854","2012-02-27 07:00","2012","02","27","07:00","-35.2","","-38.6","","71","","","","18","","20","","6.4","","101.78","","","","-50","","Ice Crystals"
"-93.58","69.55","TALOYOAK A","2403854","2012-02-27 08:00","2012","02","27","08:00","-34.2","","-37.5","","72","","","","18","","28","","9.7","","101.74","","","","-51","","Ice Crystals"
"-93.58","69.55","TALOYOAK A","2403854","2012-02-27 09:00","2012","02","27","09:00","-34.6","","-38.0","","71","","","","19","","28","","9.7","","101.69","","","","-51","","Ice Crystals"
"-93.58","69.55","TALOYOAK A","2403854","2012-02-27 10:00","2012","02","27","10:00","-35.4","","-38.8","","71","","","","18","","28","","9.7","","101.62","","","","-52","","Ice Crystals"
"-93.58","69.55","TALOYOAK A","2403854","2012-02-27 11:00","2012","02","27","11:00","-35.5","","-38.9","","71","","","","19","","32","","9.7","","101.58","","","","-53","","Ice Crystals"
"-93.58","69.55","TALOYOAK A","2403854","2012-02-27 12:00","2012","02","27","12:00","-35.3","","-38.7","","71","","","","18","","22","","9.7","","101.57","","","","-50","","Ice Crystals"
"-93.58","69.55","TALOYOAK A","2403854","2012-02-27 13:00","2012","02","27","13:00","-34.8","","-41.1","","53","","","","18","","30","","9.7","","101.54","","","","-52","","Ice Crystals"
"-93.58","69.55","TALOYOAK A","2403854","2012-02-27 14:00","2012","02","27","14:00","-34.2","","-40.3","","54","","","","19","","33","","11.3","","101.49","","","","-52","","Ice Crystals"
"-93.58","69.55","TALOYOAK A","2403854","2012-02-27 15:00","2012","02","27","15:00","-33.5","","-36.8","","72","","","","18","","32","","9.7","","101.47","","","","-51","","Ice Crystals"
"-93.58","69.55","TALOYOAK A","2403854","2012-02-27 16:00","2012","02","27","16:00","-33.1","","-36.4","","72","","","","18","","28","","11.3","","101.45","","","","-49","","Ice Crystals"
"-93.58","69.55","TALOYOAK A","2403854","2012-02-27 17:00","2012","02","27","17:00","-32.7","","-35.9","","73","","","","18","","26","","16.1","","101.41","","","","-48","","Ice Crystals"
"-93.58","69.55","TALOYOAK A","2403854","2012-02-27 18:00","2012","02","27","18:00","-32.4","","-35.6","","73","","","","18","","28","","12.9","","101.37","","","","-48","","Ice Crystals"
"-93.58","69.55","TALOYOAK A","2403854","2012-02-27 19:00","2012","02","27","19:00","-32.7","","-34.0","","88","","","","18","","19","","12.9","","101.33","","","","-46","","Ice Crystals"
"-93.58","69.55","TALOYOAK A","2403854","2012-02-27 20:00","2012","02","27","20:00","-32.0","","-35.2","","73","","","","18","","26","","12.9","","101.29","","","","-47","","Ice Crystals"
"-93.58","69.55","TALOYOAK A","2403854","2012-02-27 21:00","2012","02","27","21:00","-31.6","","-34.8","","73","","","","19","","24","","12.9","","101.24","","","","-46","","Ice Crystals"
"-93.58","69.55","TALOYOAK A","2403854","2012-02-27 22:00","2012","02","27","22:00","-31.9","","-35.1","","73","","","","18","","15","","16.1","","101.24","","","","-44","","Ice Crystals"
"-93.58","69.55","TALOYOAK A","2403854","2012-02-27 23:00","2012","02","27","23:00","-31.4","","-36.6","","60","","","","18","","15","","19.3","","101.22","","","","-43","","Ice Crystals"
"-93.58","69.55","TALOYOAK A","2403854","2012-02-28 00:00","2012","02","28","00:00","-32.0","","-37.4","","59","","","","20","","26","","19.3","","101.16","","","","-47","","Ice Crystals"
"-93.58","69.55","TALOYOAK A","2403854","2012-02-28 01:00","2012","02","28","01:00","-32.2","","-35.4","","73","","","","20","","22","","16.1","","101.16","","","","-46","","Ice Crystals"
"-93.58","69.55","TALOYOAK A","2403854","2012-02-28 02:00","2012","02","28","02:00","-31.5","","-34.7","","73","","","","21","","26","","16.1","","101.13","","","","-47","","Ice Crystals"
"-93.58","69.55","TALOYOAK A","2403854","2012-02-28 03:00","2012","02","28","03:00","-31.1","","-34.2","","74","","","","20","","22","","16.1","","101.10","","","","-45","","Ice Crystals"
"-93.58","69.55","TALOYOAK A","2403854","2012-02-28 04:00","2012","02","28","04:00","-32.8","","-36.0","","73","","","","21","","26","","16.1","","101.07","","","","-48","","Ice Crystals"
"-93.58","69.55","TALOYOAK A","2403854","2012-02-28 05:00","2012","02","28","05:00","-32.9","","-36.2","","72","","","","20","","22","","24.1","","101.03","","","","-47","","Ice Crystals"
"-93.58","69.55","TALOYOAK A","2403854","2012-02-28 06:00","2012","02","28","06:00","-33.2","","-36.5","","72","","","","19","","13","","24.1","","101.03","","","","-44","","Ice Crystals"
"-93.58","69.55","TALOYOAK A","2403854","2012-02-28 07:00","2012","02","28","07:00","-33.2","","-36.5","","72","","","","19","","15","","12.9","","100.99","","","","-45","","Ice Crystals"
"-93.58","69.55","TALOYOAK A","2403854","2012-02-28 08:00","2012","02","28","08:00","-34.0","","-37.3","","72","","","","21","","11","","9.7","","100.99","","","","-44","","Ice Crystals"
"-93.58","69.55","TALOYOAK A","2403854","2012-02-28 09:00","2012","02","28","09:00","-34.1","","-37.4","","72","","","","18","","11","","6.4","","100.97","","","","-45","","Ice Crystals"
"-93.58","69.55","TALOYOAK A","2403854","2012-02-28 10:00","2012","02","28","10:00","-34.0","","-37.3","","72","","","","20","","15","","6.4","","100.96","","","","-46","","Ice Crystals"
"-93.58","69.55","TALOYOAK A","2403854","2012-02-28 11:00","2012","02","28","11:00","-33.4","","-36.7","","72","","","","21","","11","","8.0","","100.96","","","","-44","","Ice Crystals"
"-93.58","69.55","TALOYOAK A","2403854","2012-02-28 12:00","2012","02","28","12:00","-33.0","","-36.3","","72","","","","21","","11","","6.4","","100.96","","","","-43","","Ice Crystals"
"-93.58","69.55","TALOYOAK A","2403854","2012-02-28 13:00","2012","02","28","13:00","-33.0","","-36.3","","72","","","","22","","15","","6.4","","100.98","","","","-45","","Ice Crystals"
"-93.58","69.55","TALOYOAK A","2403854","2012-02-28 14:00","2012","02","28","14:00","-34.0","","-37.3","","72","","","","27","","11","","9.7","","101.01","","","","-44","","Ice Crystals"
"-93.58","69.55","TALOYOAK A","2403854","2012-02-28 15:00","2012","02","28","15:00","-33.5","","-36.8","","72","","","","26","","20","","9.7","","101.04","","","","-48","","Ice Crystals"
"-93.58","69.55","TALOYOAK A","2403854","2012-02-28 16:00","2012","02","28","16:00","-35.0","","-38.4","","71","","","","24","","20","","12.9","","101.10","","","","-49","","Ice Crystals"
"-93.58","69.55","TALOYOAK A","2403854","2012-02-28 17:00","2012","02","28","17:00","-35.6","","-39.0","","71","","","","25","","7","","12.9","","101.10","","","","-44","","Ice Crystals"
"-93.58","69.55","TALOYOAK A","2403854","2012-02-28 18:00","2012","02","28","18:00","-35.9","","-39.3","","71","","","","26","","24","","9.7","","101.05","","","","-52","","Ice Crystals"
"-93.58","69.55","TALOYOAK A","2403854","2012-02-28 19:00","2012","02","28","19:00","-37.2","","-40.7","","70","","","","26","","9","","4.8","","101.09","","","","-47","","Ice Crystals"
"-93.58","69.55","TALOYOAK A","2403854","2012-02-28 20:00","2012","02","28","20:00","-37.2","","","M","","M","","","27","","7","","9.7","","101.10","","","","-46","","Ice Crystals"
"-93.58","69.55","TALOYOAK A","2403854","2012-02-28 21:00","2012","02","28","21:00","-37.5","","","M","","M","","","26","","7","","12.9","","101.10","","","","-46","","Ice Crystals"
"-93.58","69.55","TALOYOAK A","2403854","2012-02-28 22:00","2012","02","28","22:00","-39.2","","","M","","M","","","29","","17","","16.1","","101.12","","","","-54","","Ice Crystals"
"-93.58","69.55","TALOYOAK A","2403854","2012-02-28 23:00","2012","02","28","23:00","-39.4","","","M","","M","","","28","","19","","16.1","","101.13","","","","-55","","Ice Crystals"
"-93.58","69.55","TALOYOAK A","2403854","2012-02-29 00:00","2012","02","29","00:00","-39.4","","","M","","M","","","8","","4","","16.1","","101.17","","","","-45","","Ice Crystals"
"-93.58","69.55","TALOYOAK A","2403854","2012-02-29 01:00","2012","02","29","01:00","-39.4","","","M","","M","","","28","","19","","24.1","","101.15","","","","-55","","Ice Crystals"
"-93.58","69.55","TALOYOAK A","2403854","2012-02-29 02:00","2012","02","29","02:00","-39.7","","","M","","M","","","30","","35","","9.7","","101.17","","","","-59","","Ice Crystals,Blowing Snow"
"-93.58","69.55","TALOYOAK A","2403854","2012-02-29 03:00","2012","02","29","03:00","-39.9","","","M","","M","","","32","","24","","12.9","","101.22","","","","-57","","Ice Crystals"
"-93.58","69.55","TALOYOAK A","2403854","2012-02-29 04:00","2012","02","29","04:00","-39.5","","","M","","M","","","34","","19","","12.9","","101.21","","","","-55","","Ice Crystals"
"-93.58","69.55","TALOYOAK A","2403854","2012-02-29 05:00","2012","02","29","05:00","-40.2","","","M","","M","","","32","","9","","12.9","","101.23","","","","-51","","Ice Crystals"
"-93.58","69.55","TALOYOAK A","2403854","2012-02-29 06:00","2012","02","29","06:00","-39.8","","","M","","M","","","34","","6","","12.9","","101.23","","","","-48","","Ice Crystals"
"-93.58","69.55","TALOYOAK A","2403854","2012-02-29 07:00","2012","02","29","07:00","-39.3","","","M","","M","","","29","","20","","6.4","","101.21","","","","-55","","Ice Crystals"
"-93.58","69.55","TALOYOAK A","2403854","2012-02-29 08:00","2012","02","29","08:00","-38.5","","","M","","M","","","32","","17","","9.7","","101.20","","","","-53","","Ice Crystals"
"-93.58","69.55","TALOYOAK A","2403854","2012-02-29 09:00","2012","02","29","09:00","-38.6","","","M","","M","","","31","","17","","9.7","","101.16","","","","-53","","Ice Crystals"
"-93.58","69.55","TALOYOAK A","2403854","2012-02-29 10:00","2012","02","29","10:00","-38.5","","","M","","M","","","31","","24","","9.7","","101.15","","","","-55","","Ice Crystals"
"-93.58","69.55","TALOYOAK A","2403854","2012-02-29 11:00","2012","02","29","11:00","-36.6","","-40.1","","70","","","","11","","4","","12.9","","101.15","","","","-42","","Ice Crystals"
"-93.58","69.55","TALOYOAK A","2403854","2012-02-29 12:00","2012","02","29","12:00","-36.6","","-40.1","","70","","","","11","","4","","24.1","","101.14","","","","-42","","Mainly Clear"
"-93.58","69.55","TALOYOAK A","2403854","2012-02-29 13:00","2012","02","29","13:00","-37.1","","","M","","M","","","29","","24","","24.1","","101.09","","","","-53","","Mainly Clear"
"-93.58","69.55","TALOYOAK A","2403854","2012-02-29 14:00","2012","02","29","14:00","-36.7","","-40.2","","70","","","","","","0","","24.1","","101.13","","","","","","Clear"
"-93.58","69.55","TALOYOAK A","2403854","2012-02-29 15:00","2012","02","29","15:00","-37.8","","","M","","M","","","27","","6","","24.1","","101.13","","","","-45","","Mainly Clear"
"-93.58","69.55","TALOYOAK A","2403854","2012-02-29 16:00","2012","02","29","16:00","-38.4","","","M","","M","","","30","","22","","24.1","","101.05","","","","-54","","Mainly Clear"
"-93.58","69.55","TALOYOAK A","2403854","2012-02-29 17:00","2012","02","29","17:00","-39.4","","","M","","M","","","28","","17","","24.1","","101.03","","","","-54","","Mainly Clear"
"-93.58","69.55","TALOYOAK A","2403854","2012-02-29 18:00","2012","02","29","18:00","-38.2","","","M","","M","","","28","","13","","24.1","","100.99","","","","-51","","Mainly Clear"
"-93.58","69.55","TALOYOAK A","2403854","2012-02-29 19:00","2012","02","29","19:00","-37.7","","","M","","M","","","26","","9","","24.1","","100.93","","","","-48","","Mainly Clear"
"-93.58","69.55","TALOYOAK A","2403854","2012-02-29 20:00","2012","02","29","20:00","-37.1","","","M","","M","","","28","","13","","24.1","","100.89","","","","-49","","Mainly Clear"
"-93.58","69.55","TALOYOAK A","2403854","2012-02-29 21:00","2012","02","29","21:00","-37.4","","","M","","M","","","31","","17","","24.1","","100.84","","","","-51","","Ice Crystals"
"-93.58","69.55","TALOYOAK A","2403854","2012-02-29 22:00","2012","02","29","22:00","-37.2","","","M","","M","","","30","","22","","24.1","","100.76","","","","-53","","Ice Crystals"
"-93.58","69.55","TALOYOAK A","2403854","2012-02-29 23:00","2012","02","29","23:00","-36.5","","-40.0","","70","","","","31","","20","","16.1","","100.75","","","","-51","","Ice Crystals"
