"Longitude (x)","Latitude (y)","Station Name","Climate ID","Date/Time (LST)","Year","Month","Day","Time (LST)","Temp (°C)","Temp Flag","Dew Point Temp (°C)","Dew Point Temp Flag","Rel Hum (%)","Rel Hum Flag","Precip. Amount (mm)","Precip. Amount Flag","Wind Dir (10s deg)","Wind Dir Flag","Wind Spd (km/h)","Wind Spd Flag","Visibility (km)","Visibility Flag","Stn Press (kPa)","Stn Press Flag","Hmdx","Hmdx Flag","Wind Chill","Wind Chill Flag","Weather"
"-133.48","68.30","INUVIK A","2202571","2019-01-01 00:00","2019","01","01","00:00","-6.7","","-8.7","","86","","","","20","","9","","24.1","","98.32","","","","-11","","NA"
"-133.48","68.30","INUVIK A","2202571","2019-01-01 01:00","2019","01","01","01:00","-6.5","","-8.8","","84","","","","17","","14","","24.1","","98.37","","","","-12","","NA"
"-133.48","68.30","INUVIK A","2202571","2019-01-01 02:00","2019","01","01","02:00","-6.0","","-9.1","","79","","","","4","","4","","24.1","","98.43","","","","-8","","Mainly Clear"
"-133.48","68.30","INUVIK A","2202571","2019-01-01 03:00","2019","01","01","03:00","-4.6","","-8.2","","76","","","","12","","16","","24.1","","98.40","","","","-10","","NA"
"-133.48","68.30","INUVIK A","2202571","2019-01-01 04:00","2019","01","01","04:00","-3.7","","-7.2","","77","","","","14","","11","","24.1","","98.40","","","","-8","","NA"
"-133.48","68.30","INUVIK A","2202571","2019-01-01 05:00","2019","01","01","05:00","-3.1","","-6.3","","79","","","","17","","12","","24.1","","98.42","","","","-8","","Mainly Clear"
"-133.48","68.30","INUVIK A","2202571","2019-01-01 06:00","2019","01","01","06:00","-2.3","","-5.8","","77","","","","19","","19","","24.1","","98.38","","","","-8","","NA"
"-133.48","68.30","INUVIK A","2202571","2019-01-01 07:00","2019","01","01","07:00","-2.1","","-5.6","","77","","","","17","","16","","24.1","","98.30","","","","-7","","NA"
"-133.48","68.30","INUVIK A","2202571","2019-01-01 08:00","2019","01","01","08:00","-2.6","","-6.3","","76","","","","9","","10","","24.1","","98.31","","","","-6","","Clear"
"-133.48","68.30","INUVIK A","2202571","2019-01-01 09:00","2019","01","01","09:00","-2.8","","-6.5","","75","","","","4","","9","","24.1","","98.27","","","","-6","","NA"
"-133.48","68.30","INUVIK A","2202571","2019-01-01 10:00","2019","01","01","10:00","-1.9","","-6.4","","72","","","","12","","8","","24.1","","98.19","","","","-5","","NA"
"-133.48","68.30","INUVIK A","2202571","2019-01-01 11:00","2019","01","01","11:00","-3.2","","-7.1","","74","","","","17","","8","","24.1","","98.12","","","","-6","","Mainly Clear"
"-133.48","68.30","INUVIK A","2202571","2019-01-01 12:00","2019","01","01","12:00","-3.1","","-7.3","","73","","","","16","","17","","24.1","","98.03","","","","-9","","NA"
"-133.48","68.30","INUVIK A","2202571","2019-01-01 13:00","2019","01","01","13:00","-3.0","","-7.7","","71","","","","13","","9","","24.1","","97.88","","","","-7","","NA"
"-133.48","68.30","INUVIK A","2202571","2019-01-01 14:00","2019","01","01","14:00","-5.0","","-8.7","","76","","","","12","","11","","24.1","","97.86","","","","-10","","Mostly Cloudy"
"-133.48","68.30","INUVIK A","2202571","2019-01-01 15:00","2019","01","01","15:00","-5.6","","-8.9","","77","","","","10","","12","","24.1","","97.72","","","","-11","","NA"
"-133.48","68.30","INUVIK A","2202571","2019-01-01 16:00","2019","01","01","16:00","-6.1","","-9.7","","76","","","","7","","13","","24.1","","97.63","","","","-11","","NA"
"-133.48","68.30","INUVIK A","2202571","2019-01-01 17:00","2019","01","01","17:00","-6.7","","-10.2","","76","","","","8","","16","","24.1","","97.52","","","","-13","","Mostly Cloudy"
"-133.48","68.30","INUVIK A","2202571","2019-01-01 18:00","2019","01","01","18:00","-5.5","","-9.7","","72","","","","6","","7","","24.1","","97.42","","","","-9","","NA"
"-133.48","68.30","INUVIK A","2202571","2019-01-01 19:00","2019","01","01","19:00","-5.5","","-9.7","","73","","","","6","","12","","24.1","","97.28","","","","-10","","NA"
"-133.48","68.30","INUVIK A","2202571","2019-01-01 20:00","2019","01","01","20:00","-4.8","","-9.7","","69","","","","5","","9","","24.1","","97.13","","","","-9","","Mostly Cloudy"
"-133.48","68.30","INUVIK A","2202571","2019-01-01 21:00","2019","01","01","21:00","-5.7","","-9.7","","74","","","","36","","1","","24.1","","97.01","","","","-6","","NA"
"-133.48","68.30","INUVIK A","2202571","2019-01-01 22:00","2019","01","01","22:00","-4.5","","-8.8","","72","","","","2","","10","","24.1","","96.96","","","","-9","","NA"
"-133.48","68.30","INUVIK A","2202571","2019-01-01 23:00","2019","01","01","23:00","-5.7","","-9.7","","74","","","","4","","5","","24.1","","96.91","","","","-8","","Cloudy"
"-133.48","68.30","INUVIK A","2202571","2019-01-02 00:00","2019","01","02","00:00","-5.4","","-9.4","","73","","","","4","","14","","24.1","","96.88","","","","-11","","NA"
"-133.48","68.30","INUVIK A","2202571","2019-01-02 01:00","2019","01","02","01:00","-6.5","","-10.1","","76","","","","5","","13","","24.1","","96.88","","","","-12","","NA"
"-133.48","68.30","INUVIK A","2202571","2019-01-02 02:00","2019","01","02","02:00","-8.0","","-11.3","","77","","","","5","","19","","24.1","","96.90","","","","-15","","Cloudy"
"-133.48","68.30","INUVIK A","2202571","2019-01-02 03:00","2019","01","02","03:00","-8.5","","-11.7","","78","","","","6","","12","","24.1","","96.93","","","","-14","","NA"
"-133.48","68.30","INUVIK A","2202571","2019-01-02 04:00","2019","01","02","04:00","-9.0","","-12.0","","79","","","","6","","7","","24.1","","96.99","","","","-13","","NA"
"-133.48","68.30","INUVIK A","2202571","2019-01-02 05:00","2019","01","02","05:00","-9.3","","-11.8","","82","","","","36","","3","","24.1","","97.03","","","","-11","","Cloudy"
"-133.48","68.30","INUVIK A","2202571","2019-01-02 06:00","2019","01","02","06:00","-10.3","","-12.3","","86","","","","28","","6","","24.1","","97.08","","","","-14","","Snow"
"-133.48","68.30","INUVIK A","2202571","2019-01-02 07:00","2019","01","02","07:00","-11.2","","-13.1","","86","","","","28","","7","","24.1","","97.09","","","","-15","","Snow"
"-133.48","68.30","INUVIK A","2202571","2019-01-02 08:00","2019","01","02","08:00","-11.7","","-13.6","","86","","","","29","","12","","24.1","","97.19","","","","-18","","Snow"
"-133.48","68.30","INUVIK A","2202571","2019-01-02 09:00","2019","01","02","09:00","-11.9","","-13.9","","85","","","","27","","6","","24.1","","97.27","","","","-16","","NA"
"-133.48","68.30","INUVIK A","2202571","2019-01-02 10:00","2019","01","02","10:00","-12.0","","-14.3","","83","","","","28","","7","","16.1","","97.34","","","","-16","","Snow"
"-133.48","68.30","INUVIK A","2202571","2019-01-02 11:00","2019","01","02","11:00","-11.9","","-14.2","","84","","","","27","","4","","24.1","","97.43","","","","-14","","Snow"
"-133.48","68.30","INUVIK A","2202571","2019-01-02 12:00","2019","01","02","12:00","-12.1","","-14.4","","83","","","","28","","8","","24.1","","97.51","","","","-17","","Snow"
"-133.48","68.30","INUVIK A","2202571","2019-01-02 13:00","2019","01","02","13:00","-12.2","","-14.6","","83","","","","29","","8","","24.1","","97.60","","","","-17","","Snow"
"-133.48","68.30","INUVIK A","2202571","2019-01-02 14:00","2019","01","02","14:00","-12.8","","-15.3","","81","","","","25","","6","","24.1","","97.72","","","","-17","","Cloudy"
"-133.48","68.30","INUVIK A","2202571","2019-01-02 15:00","2019","01","02","15:00","-12.8","","-14.9","","85","","","","27","","7","","24.1","","97.78","","","","-17","","NA"
"-133.48","68.30","INUVIK A","2202571","2019-01-02 16:00","2019","01","02","16:00","-12.6","","-14.6","","85","","","","28","","4","","24.1","","97.88","","","","-15","","NA"
"-133.48","68.30","INUVIK A","2202571","2019-01-02 17:00","2019","01","02","17:00","-12.8","","-14.7","","86","","","","29","","4","","24.1","","97.95","","","","-15","","Snow"
"-133.48","68.30","INUVIK A","2202571","2019-01-02 18:00","2019","01","02","18:00","-12.6","","-14.9","","84","","","","33","","5","","24.1","","98.04","","","","-16","","Snow"
"-133.48","68.30","INUVIK A","2202571","2019-01-02 19:00","2019","01","02","19:00","-12.8","","-15.3","","82","","","","33","","3","","24.1","","98.11","","","","-15","","Snow"
"-133.48","68.30","INUVIK A","2202571","2019-01-02 20:00","2019","01","02","20:00","-12.6","","-15.1","","82","","","","30","","3","","24.1","","98.20","","","","-15","","Snow"
"-133.48","68.30","INUVIK A","2202571","2019-01-02 21:00","2019","01","02","21:00","-12.3","","-14.9","","81","","","","36","","2","","24.1","","98.25","","","","-14","","Snow"
"-133.48","68.30","INUVIK A","2202571","2019-01-02 22:00","2019","01","02","22:00","-12.5","","-14.1","","87","","","","30","","3","","6.4","","98.34","","","","-14","","Snow,Fog"
"-133.48","68.30","INUVIK A","2202571","2019-01-02 23:00","2019","01","02","23:00","-12.4","","-14.1","","87","","","","36","","3","","2.4","","98.41","","","","-14","","Snow,Fog"
"-133.48","68.30","INUVIK A","2202571","2019-01-03 00:00","2019","01","03","00:00","-12.3","","-14.1","","86","","","","0","","1","","1.6","","98.48","","","","-13","","Snow,Fog"
"-133.48","68.30","INUVIK A","2202571","2019-01-03 01:00","2019","01","03","01:00","-12.5","","-14.4","","86","","","","1","","4","","2.4","","98.59","","","","-15","","Snow,Fog"
"-133.48","68.30","INUVIK A","2202571","2019-01-03 02:00","2019","01","03","02:00","-13.4","","-15.5","","85","","","","1","","11","","2.4","","98.65","","","","-20","","Snow,Fog"
"-133.48","68.30","INUVIK A","2202571","2019-01-03 03:00","2019","01","03","03:00","-14.7","","-16.9","","84","","","","1","","7","","24.1","","98.72","","","","-19","","Snow"
"-133.48","68.30","INUVIK A","2202571","2019-01-03 04:00","2019","01","03","04:00","-15.4","","-17.6","","83","","","","36","","1","","24.1","","98.82","","","","-16","","Snow"
"-133.48","68.30","INUVIK A","2202571","2019-01-03 05:00","2019","01","03","05:00","-15.7","","-18.0","","83","","","","4","","6","","24.1","","98.85","","","","-20","","Snow"
"-133.48","68.30","INUVIK A","2202571","2019-01-03 06:00","2019","01","03","06:00","-15.6","","-17.9","","83","","","","6","","5","","24.1","","98.91","","","","-19","","Snow"
"-133.48","68.30","INUVIK A","2202571","2019-01-03 07:00","2019","01","03","07:00","-15.4","","-17.7","","83","","","","8","","13","","24.1","","98.96","","","","-23","","Snow"
"-133.48","68.30","INUVIK A","2202571","2019-01-03 08:00","2019","01","03","08:00","-15.3","","-17.6","","83","","","","7","","5","","24.1","","99.03","","","","-19","","Snow"
"-133.48","68.30","INUVIK A","2202571","2019-01-03 09:00","2019","01","03","09:00","-15.5","","-17.8","","83","","","","7","","11","","8.1","","99.07","","","","-22","","Snow"
"-133.48","68.30","INUVIK A","2202571","2019-01-03 10:00","2019","01","03","10:00","-15.4","","-17.7","","83","","","","8","","10","","12.9","","99.11","","","","-22","","Snow"
"-133.48","68.30","INUVIK A","2202571","2019-01-03 11:00","2019","01","03","11:00","-15.2","","-17.5","","83","","","","7","","8","","16.1","","99.18","","","","-21","","Snow"
"-133.48","68.30","INUVIK A","2202571","2019-01-03 12:00","2019","01","03","12:00","-14.8","","-17.1","","83","","","","8","","8","","24.1","","99.23","","","","-20","","Snow"
"-133.48","68.30","INUVIK A","2202571","2019-01-03 13:00","2019","01","03","13:00","-14.8","","-17.0","","83","","","","7","","4","","24.1","","99.31","","","","-18","","Snow"
"-133.48","68.30","INUVIK A","2202571","2019-01-03 14:00","2019","01","03","14:00","-14.3","","-16.5","","84","","","","6","","5","","24.1","","99.40","","","","-18","","Snow"
"-133.48","68.30","INUVIK A","2202571","2019-01-03 15:00","2019","01","03","15:00","-14.6","","-16.8","","84","","","","10","","8","","4.0","","99.49","","","","-20","","Snow"
"-133.48","68.30","INUVIK A","2202571","2019-01-03 16:00","2019","01","03","16:00","-14.3","","-16.4","","84","","","","32","","4","","12.9","","99.60","","","","-17","","Snow"
"-133.48","68.30","INUVIK A","2202571","2019-01-03 17:00","2019","01","03","17:00","-14.2","","-16.4","","84","","","","22","","4","","16.1","","99.66","","","","-17","","Snow"
"-133.48","68.30","INUVIK A","2202571","2019-01-03 18:00","2019","01","03","18:00","-14.0","","-16.2","","84","","","","26","","5","","16.1","","99.73","","","","-17","","Snow"
"-133.48","68.30","INUVIK A","2202571","2019-01-03 19:00","2019","01","03","19:00","-13.8","","-15.9","","84","","","","30","","4","","8.1","","99.79","","","","-17","","Snow"
"-133.48","68.30","INUVIK A","2202571","2019-01-03 20:00","2019","01","03","20:00","-12.7","","-14.7","","85","","","","30","","16","","8.1","","99.86","","","","-20","","Snow"
"-133.48","68.30","INUVIK A","2202571","2019-01-03 21:00","2019","01","03","21:00","-14.1","","-16.2","","84","","","","29","","13","","9.7","","99.98","","","","-21","","Snow"
"-133.48","68.30","INUVIK A","2202571","2019-01-03 22:00","2019","01","03","22:00","-14.7","","-16.9","","84","","","","30","","18","","16.1","","100.10","","","","-23","","Snow"
"-133.48","68.30","INUVIK A","2202571","2019-01-03 23:00","2019","01","03","23:00","-14.1","","-16.2","","84","","","","32","","14","","24.1","","100.15","","","","-22","","Snow"
"-133.48","68.30","INUVIK A","2202571","2019-01-04 00:00","2019","01","04","00:00","-14.2","","-16.3","","84","","","","25","","5","","24.1","","100.22","","","","-18","","Snow"
"-133.48","68.30","INUVIK A","2202571","2019-01-04 01:00","2019","01","04","01:00","-13.4","","-15.5","","85","","","","30","","19","","16.1","","100.27","","","","-22","","Snow"
"-133.48","68.30","INUVIK A","2202571","2019-01-04 02:00","2019","01","04","02:00","-13.7","","-15.8","","84","","","","29","","15","","16.1","","100.31","","","","-21","","Snow"
"-133.48","68.30","INUVIK A","2202571","2019-01-04 03:00","2019","01","04","03:00","-13.9","","-16.0","","84","","","","29","","13","","24.1","","100.35","","","","-21","","Snow"
"-133.48","68.30","INUVIK A","2202571","2019-01-04 04:00","2019","01","04","04:00","-14.3","","-16.5","","84","","","","30","","17","","24.1","","100.41","","","","-23","","Snow"
"-133.48","68.30","INUVIK A","2202571","2019-01-04 05:00","2019","01","04","05:00","-14.6","","-16.8","","84","","","","29","","15","","24.1","","100.45","","","","-22","","Snow"
"-133.48","68.30","INUVIK A","2202571","2019-01-04 06:00","2019","01","04","06:00","-14.8","","-17.1","","83","","","","30","","14","","24.1","","100.46","","","","-22","","Snow"
"-133.48","68.30","INUVIK A","2202571","2019-01-04 07:00","2019","01","04","07:00","-15.0","","-17.3","","83","","","","30","","12","","24.1","","100.49","","","","-22","","Snow"
"-133.48","68.30","INUVIK A","2202571","2019-01-04 08:00","2019","01","04","08:00","-15.3","","-17.6","","83","","","","28","","12","","9.7","","100.53","","","","-22","","Snow"
"-133.48","68.30","INUVIK A","2202571","2019-01-04 09:00","2019","01","04","09:00","-15.4","","-17.7","","83","","","","29","","11","","16.1","","100.55","","","","-22","","Snow"
"-133.48","68.30","INUVIK A","2202571","2019-01-04 10:00","2019","01","04","10:00","-15.6","","-18.0","","82","","","","29","","12","","16.1","","100.56","","","","-23","","Snow"
"-133.48","68.30","INUVIK A","2202571","2019-01-04 11:00","2019","01","04","11:00","-15.8","","-18.2","","82","","","","28","","11","","6.4","","100.58","","","","-23","","Snow"
"-133.48","68.30","INUVIK A","2202571","2019-01-04 12:00","2019","01","04","12:00","-15.9","","-18.3","","82","","","","29","","10","","9.7","","100.61","","","","-22","","Snow"
"-133.48","68.30","INUVIK A","2202571","2019-01-04 13:00","2019","01","04","13:00","-16.2","","-18.7","","82","","","","29","","14","","9.7","","100.64","","","","-24","","Snow"
"-133.48","68.30","INUVIK A","2202571","2019-01-04 14:00","2019","01","04","14:00","-17.0","","-19.5","","81","","","","27","","8","","16.1","","100.67","","","","-23","","Snow"
"-133.48","68.30","INUVIK A","2202571","2019-01-04 15:00","2019","01","04","15:00","-17.6","","-20.2","","81","","","","27","","7","","24.1","","100.67","","","","-23","","Snow"
"-133.48","68.30","INUVIK A","2202571","2019-01-04 16:00","2019","01","04","16:00","-17.6","","-20.1","","81","","","","28","","5","","16.1","","100.67","","","","-22","","Snow"
"-133.48","68.30","INUVIK A","2202571","2019-01-04 17:00","2019","01","04","17:00","-17.3","","-19.8","","81","","","","28","","4","","24.1","","100.69","","","","-20","","Snow"
"-133.48","68.30","INUVIK A","2202571","2019-01-04 18:00","2019","01","04","18:00","-17.2","","-19.7","","81","","","","30","","7","","24.1","","100.72","","","","-22","","Snow"
"-133.48","68.30","INUVIK A","2202571","2019-01-04 19:00","2019","01","04","19:00","-17.2","","-19.7","","81","","","","27","","4","","16.1","","100.72","","","","-20","","Snow"
"-133.48","68.30","INUVIK A","2202571","2019-01-04 20:00","2019","01","04","20:00","-17.4","","-19.9","","81","","","","27","","4","","24.1","","100.72","","","","-21","","Snow"
"-133.48","68.30","INUVIK A","2202571","2019-01-04 21:00","2019","01","04","21:00","-17.5","","-19.9","","81","","","","25","","5","","24.1","","100.74","","","","-21","","Snow"
"-133.48","68.30","INUVIK A","2202571","2019-01-04 22:00","2019","01","04","22:00","-17.5","","-19.9","","81","","","","25","","4","","24.1","","100.74","","","","-21","","Snow"
"-133.48","68.30","INUVIK A","2202571","2019-01-04 23:00","2019","01","04","23:00","-17.4","","-19.9","","81","","","","26","","5","","24.1","","100.74","","","","-21","","Snow"
"-133.48","68.30","INUVIK A","2202571","2019-01-05 00:00","2019","01","05","00:00","-17.5","","-20.0","","81","","","","28","","4","","24.1","","100.74","","","","-21","","Snow"
"-133.48","68.30","INUVIK A","2202571","2019-01-05 01:00","2019","01","05","01:00","-17.6","","-20.1","","81","","","","21","","4","","24.1","","100.75","","","","-21","","Snow"
"-133.48","68.30","INUVIK A","2202571","2019-01-05 02:00","2019","01","05","02:00","-17.6","","-20.1","","81","","","","25","","5","","24.1","","100.77","","","","-22","","Snow"
"-133.48","68.30","INUVIK A","2202571","2019-01-05 03:00","2019","01","05","03:00","-17.7","","-20.2","","81","","","","26","","3","","24.1","","100.78","","","","-20","","Snow"
"-133.48","68.30","INUVIK A","2202571","2019-01-05 04:00","2019","01","05","04:00","-17.9","","-20.5","","81","","","","27","","5","","24.1","","100.78","","","","-22","","Snow"
"-133.48","68.30","INUVIK A","2202571","2019-01-05 05:00","2019","01","05","05:00","-17.9","","-20.4","","81","","","","36","","3","","24.1","","100.78","","","","-20","","Snow"
"-133.48","68.30","INUVIK A","2202571","2019-01-05 06:00","2019","01","05","06:00","-17.9","","-20.5","","81","","","","36","","3","","24.1","","100.79","","","","-20","","Snow"
"-133.48","68.30","INUVIK A","2202571","2019-01-05 07:00","2019","01","05","07:00","-19.4","","-22.0","","80","","","","36","","2","","24.1","","100.79","","","","-21","","Snow"
"-133.48","68.30","INUVIK A","2202571","2019-01-05 08:00","2019","01","05","08:00","-21.5","","-24.4","","78","","","","36","","1","","24.1","","100.79","","","","-22","","Snow"
"-133.48","68.30","INUVIK A","2202571","2019-01-05 09:00","2019","01","05","09:00","-22.4","","-25.4","","77","","","","36","","3","","24.1","","100.79","","","","-25","","Snow"
"-133.48","68.30","INUVIK A","2202571","2019-01-05 10:00","2019","01","05","10:00","-21.4","","-24.4","","78","","","","6","","4","","24.1","","100.79","","","","-25","","Snow"
"-133.48","68.30","INUVIK A","2202571","2019-01-05 11:00","2019","01","05","11:00","-20.8","","-23.6","","79","","","","7","","7","","24.1","","100.82","","","","-27","","Snow"
"-133.48","68.30","INUVIK A","2202571","2019-01-05 12:00","2019","01","05","12:00","-20.3","","-23.1","","79","","","","8","","5","","24.1","","100.84","","","","-25","","Snow"
"-133.48","68.30","INUVIK A","2202571","2019-01-05 13:00","2019","01","05","13:00","-19.8","","-22.6","","79","","","","4","","9","","24.1","","100.86","","","","-27","","Snow"
"-133.48","68.30","INUVIK A","2202571","2019-01-05 14:00","2019","01","05","14:00","-19.1","","-21.8","","80","","","","6","","5","","24.1","","100.88","","","","-23","","Snow"
"-133.48","68.30","INUVIK A","2202571","2019-01-05 15:00","2019","01","05","15:00","-18.9","","-21.5","","80","","","","5","","4","","24.1","","100.89","","","","-22","","Snow"
"-133.48","68.30","INUVIK A","2202571","2019-01-05 16:00","2019","01","05","16:00","-19.3","","-22.0","","79","","","","36","","2","","24.1","","100.91","","","","-21","","Snow"
"-133.48","68.30","INUVIK A","2202571","2019-01-05 17:00","2019","01","05","17:00","-19.5","","-22.2","","79","","","","8","","6","","24.1","","100.94","","","","-24","","Snow"
"-133.48","68.30","INUVIK A","2202571","2019-01-05 18:00","2019","01","05","18:00","-19.2","","-21.9","","79","","","","5","","8","","24.1","","100.94","","","","-25","","Snow"
"-133.48","68.30","INUVIK A","2202571","2019-01-05 19:00","2019","01","05","19:00","-19.1","","-21.8","","79","","","","36","","2","","24.1","","100.97","","","","-21","","Snow"
"-133.48","68.30","INUVIK A","2202571","2019-01-05 20:00","2019","01","05","20:00","-19.0","","-21.7","","80","","","","8","","4","","24.1","","100.99","","","","-22","","Snow"
"-133.48","68.30","INUVIK A","2202571","2019-01-05 21:00","2019","01","05","21:00","-18.9","","-21.6","","80","","","","7","","3","","24.1","","101.02","","","","-21","","Snow"
"-133.48","68.30","INUVIK A","2202571","2019-01-05 22:00","2019","01","05","22:00","-18.8","","-21.5","","80","","","","36","","1","","24.1","","101.06","","","","-20","","Snow"
"-133.48","68.30","INUVIK A","2202571","2019-01-05 23:00","2019","01","05","23:00","-18.7","","-21.4","","80","","","","3","","3","","24.1","","101.09","","","","-21","","Snow"
"-133.48","68.30","INUVIK A","2202571","2019-01-06 00:00","2019","01","06","00:00","-18.8","","-21.5","","80","","","","36","","3","","24.1","","101.12","","","","-21","","Snow"
"-133.48","68.30","INUVIK A","2202571","2019-01-06 01:00","2019","01","06","01:00","-19.3","","-22.0","","79","","","","25","","3","","24.1","","101.18","","","","-22","","Snow"
"-133.48","68.30","INUVIK A","2202571","2019-01-06 02:00","2019","01","06","02:00","-19.4","","-22.2","","79","","","","36","","3","","24.1","","101.21","","","","-22","","Snow"
"-133.48","68.30","INUVIK A","2202571","2019-01-06 03:00","2019","01","06","03:00","-19.8","","-22.5","","79","","","","27","","4","","24.1","","101.23","","","","-23","","Snow"
"-133.48","68.30","INUVIK A","2202571","2019-01-06 04:00","2019","01","06","04:00","-19.8","","-22.6","","79","","","","25","","3","","16.1","","101.25","","","","-22","","Snow"
"-133.48","68.30","INUVIK A","2202571","2019-01-06 05:00","2019","01","06","05:00","-19.7","","-22.5","","79","","","","26","","5","","16.1","","101.28","","","","-24","","Snow"
"-133.48","68.30","INUVIK A","2202571","2019-01-06 06:00","2019","01","06","06:00","-19.8","","-22.6","","79","","","","25","","4","","12.9","","101.31","","","","-23","","Snow"
"-133.48","68.30","INUVIK A","2202571","2019-01-06 07:00","2019","01","06","07:00","-19.8","","-22.6","","79","","","","28","","5","","9.7","","101.33","","","","-24","","Snow"
"-133.48","68.30","INUVIK A","2202571","2019-01-06 08:00","2019","01","06","08:00","-19.7","","-22.4","","79","","","","25","","4","","16.1","","101.34","","","","-23","","Snow"
"-133.48","68.30","INUVIK A","2202571","2019-01-06 09:00","2019","01","06","09:00","-19.9","","-22.6","","79","","","","26","","4","","16.1","","101.36","","","","-23","","Snow"
"-133.48","68.30","INUVIK A","2202571","2019-01-06 10:00","2019","01","06","10:00","-20.0","","-22.8","","79","","","","29","","5","","16.1","","101.38","","","","-24","","Snow"
"-133.48","68.30","INUVIK A","2202571","2019-01-06 11:00","2019","01","06","11:00","-19.8","","-22.6","","79","","","","25","","4","","16.1","","101.41","","","","-23","","Snow"
"-133.48","68.30","INUVIK A","2202571","2019-01-06 12:00","2019","01","06","12:00","-19.9","","-22.7","","79","","","","26","","7","","16.1","","101.41","","","","-26","","Snow"
"-133.48","68.30","INUVIK A","2202571","2019-01-06 13:00","2019","01","06","13:00","-20.3","","-23.1","","79","","","","27","","5","","16.1","","101.44","","","","-25","","Snow"
"-133.48","68.30","INUVIK A","2202571","2019-01-06 14:00","2019","01","06","14:00","-20.7","","-23.6","","78","","","","27","","4","","16.1","","101.46","","","","-24","","Snow"
"-133.48","68.30","INUVIK A","2202571","2019-01-06 15:00","2019","01","06","15:00","-21.6","","-24.6","","77","","","","26","","3","","16.1","","101.46","","","","-24","","Snow"
"-133.48","68.30","INUVIK A","2202571","2019-01-06 16:00","2019","01","06","16:00","-21.2","","-24.1","","78","","","","36","","3","","16.1","","101.48","","","","-24","","Snow"
"-133.48","68.30","INUVIK A","2202571","2019-01-06 17:00","2019","01","06","17:00","-21.8","","-24.8","","77","","","","29","","5","","9.7","","101.49","","","","-26","","Snow"
"-133.48","68.30","INUVIK A","2202571","2019-01-06 18:00","2019","01","06","18:00","-22.1","","-25.2","","77","","","","29","","5","","24.1","","101.52","","","","-27","","Snow"
"-133.48","68.30","INUVIK A","2202571","2019-01-06 19:00","2019","01","06","19:00","-22.1","","-25.1","","77","","","","30","","4","","24.1","","101.53","","","","-26","","Snow"
"-133.48","68.30","INUVIK A","2202571","2019-01-06 20:00","2019","01","06","20:00","-21.9","","-24.8","","77","","","","36","","2","","24.1","","101.54","","","","-24","","Snow"
"-133.48","68.30","INUVIK A","2202571","2019-01-06 21:00","2019","01","06","21:00","-22.0","","-25.0","","77","","","","36","","2","","24.1","","101.55","","","","-24","","Snow"
"-133.48","68.30","INUVIK A","2202571","2019-01-06 22:00","2019","01","06","22:00","-22.9","","-26.0","","76","","","","36","","1","","24.1","","101.56","","","","-24","","Snow"
"-133.48","68.30","INUVIK A","2202571","2019-01-06 23:00","2019","01","06","23:00","-22.9","","-25.9","","76","","","","36","","1","","24.1","","101.58","","","","-24","","Snow"
"-133.48","68.30","INUVIK A","2202571","2019-01-07 00:00","2019","01","07","00:00","-23.3","","-26.4","","76","","","","36","","1","","24.1","","101.59","","","","-24","","Snow"
"-133.48","68.30","INUVIK A","2202571","2019-01-07 01:00","2019","01","07","01:00","-23.7","","-26.9","","75","","","","3","","4","","24.1","","101.62","","","","-28","","Snow"
"-133.48","68.30","INUVIK A","2202571","2019-01-07 02:00","2019","01","07","02:00","-23.1","","-26.2","","76","","","","5","","10","","24.1","","101.65","","","","-31","","Snow"
"-133.48","68.30","INUVIK A","2202571","2019-01-07 03:00","2019","01","07","03:00","-23.8","","-27.0","","76","","","","8","","10","","24.1","","101.70","","","","-32","","Snow"
"-133.48","68.30","INUVIK A","2202571","2019-01-07 04:00","2019","01","07","04:00","-24.2","","-27.4","","75","","","","9","","8","","24.1","","101.70","","","","-31","","Snow"
"-133.48","68.30","INUVIK A","2202571","2019-01-07 05:00","2019","01","07","05:00","-25.2","","-28.5","","75","","","","8","","12","","24.1","","101.72","","","","-34","","Snow"
"-133.48","68.30","INUVIK A","2202571","2019-01-07 06:00","2019","01","07","06:00","-25.5","","-28.8","","74","","","","8","","9","","24.1","","101.75","","","","-33","","Snow"
"-133.48","68.30","INUVIK A","2202571","2019-01-07 07:00","2019","01","07","07:00","-24.5","","-27.8","","75","","","","6","","11","","24.1","","101.79","","","","-33","","Snow"
"-133.48","68.30","INUVIK A","2202571","2019-01-07 08:00","2019","01","07","08:00","-24.8","","-28.1","","75","","","","6","","12","","24.1","","101.80","","","","-34","","Snow"
"-133.48","68.30","INUVIK A","2202571","2019-01-07 09:00","2019","01","07","09:00","-24.6","","-27.9","","75","","","","7","","8","","24.1","","101.82","","","","-32","","Snow"
"-133.48","68.30","INUVIK A","2202571","2019-01-07 10:00","2019","01","07","10:00","-24.8","","-28.1","","75","","","","7","","5","","24.1","","101.84","","","","-30","","Snow"
"-133.48","68.30","INUVIK A","2202571","2019-01-07 11:00","2019","01","07","11:00","-25.0","","-28.3","","75","","","","6","","10","","24.1","","101.87","","","","-33","","Snow"
"-133.48","68.30","INUVIK A","2202571","2019-01-07 12:00","2019","01","07","12:00","-24.8","","-28.1","","75","","","","6","","9","","24.1","","101.90","","","","-32","","NA"
"-133.48","68.30","INUVIK A","2202571","2019-01-07 13:00","2019","01","07","13:00","-25.9","","-29.3","","74","","","","6","","7","","24.1","","101.93","","","","-33","","NA"
"-133.48","68.30","INUVIK A","2202571","2019-01-07 14:00","2019","01","07","14:00","-27.7","","-31.2","","73","","","","6","","5","","24.1","","101.94","","","","-33","","Mostly Cloudy"
"-133.48","68.30","INUVIK A","2202571","2019-01-07 15:00","2019","01","07","15:00","-26.4","","-29.7","","74","","","","10","","6","","24.1","","101.97","","","","-32","","NA"
"-133.48","68.30","INUVIK A","2202571","2019-01-07 16:00","2019","01","07","16:00","-26.6","","-30.0","","74","","","","7","","4","","24.1","","102.00","","","","-31","","NA"
"-133.48","68.30","INUVIK A","2202571","2019-01-07 17:00","2019","01","07","17:00","-27.7","","-31.2","","73","","","","36","","1","","24.1","","102.01","","","","-29","","Snow"
"-133.48","68.30","INUVIK A","2202571","2019-01-07 18:00","2019","01","07","18:00","-29.6","","-33.2","","71","","","","36","","2","","24.1","","102.05","","","","-32","","Snow"
"-133.48","68.30","INUVIK A","2202571","2019-01-07 19:00","2019","01","07","19:00","-29.3","","-32.9","","72","","","","8","","4","","24.1","","102.07","","","","-34","","Ice Crystals"
"-133.48","68.30","INUVIK A","2202571","2019-01-07 20:00","2019","01","07","20:00","-30.3","","-34.0","","71","","","","4","","3","","24.1","","102.08","","","","-34","","Ice Crystals"
"-133.48","68.30","INUVIK A","2202571","2019-01-07 21:00","2019","01","07","21:00","-30.4","","-34.2","","70","","","","36","","3","","24.1","","102.07","","","","-34","","Ice Crystals"
"-133.48","68.30","INUVIK A","2202571","2019-01-07 22:00","2019","01","07","22:00","-30.9","","-34.7","","70","","","","4","","3","","24.1","","102.06","","","","-34","","Ice Crystals"
"-133.48","68.30","INUVIK A","2202571","2019-01-07 23:00","2019","01","07","23:00","-31.9","","-35.8","","70","","","","12","","4","","24.1","","102.10","","","","-37","","Ice Crystals"
"-133.48","68.30","INUVIK A","2202571","2019-01-08 00:00","2019","01","08","00:00","-30.5","","-34.3","","70","","","","36","","2","","24.1","","102.09","","","","-33","","Ice Crystals"
"-133.48","68.30","INUVIK A","2202571","2019-01-08 01:00","2019","01","08","01:00","-32.1","","-35.9","","70","","","","36","","2","","24.1","","102.09","","","","-34","","Ice Crystals"
"-133.48","68.30","INUVIK A","2202571","2019-01-08 02:00","2019","01","08","02:00","-30.1","","-33.8","","71","","","","14","","7","","24.1","","102.12","","","","-37","","Mainly Clear"
"-133.48","68.30","INUVIK A","2202571","2019-01-08 03:00","2019","01","08","03:00","-28.9","","-32.6","","71","","","","36","","3","","24.1","","102.13","","","","-32","","NA"
"-133.48","68.30","INUVIK A","2202571","2019-01-08 04:00","2019","01","08","04:00","-30.4","","-34.2","","70","","","","12","","5","","24.1","","102.13","","","","-36","","NA"
"-133.48","68.30","INUVIK A","2202571","2019-01-08 05:00","2019","01","08","05:00","-29.5","","-33.1","","71","","","","10","","4","","24.1","","102.11","","","","-34","","Mostly Cloudy"
"-133.48","68.30","INUVIK A","2202571","2019-01-08 06:00","2019","01","08","06:00","-28.7","","-32.3","","72","","","","13","","8","","24.1","","102.13","","","","-36","","NA"
"-133.48","68.30","INUVIK A","2202571","2019-01-08 07:00","2019","01","08","07:00","-29.0","","-32.6","","72","","","","8","","6","","24.1","","102.15","","","","-35","","NA"
"-133.48","68.30","INUVIK A","2202571","2019-01-08 08:00","2019","01","08","08:00","-29.9","","-33.6","","71","","","","8","","3","","24.1","","102.14","","","","-33","","Mainly Clear"
"-133.48","68.30","INUVIK A","2202571","2019-01-08 09:00","2019","01","08","09:00","-29.9","","-33.6","","71","","","","7","","7","","24.1","","102.13","","","","-37","","NA"
"-133.48","68.30","INUVIK A","2202571","2019-01-08 10:00","2019","01","08","10:00","-30.6","","-34.3","","70","","","","6","","5","","24.1","","102.15","","","","-36","","NA"
"-133.48","68.30","INUVIK A","2202571","2019-01-08 11:00","2019","01","08","11:00","-30.7","","-34.5","","70","","","","9","","3","","24.1","","102.16","","","","-34","","Mainly Clear"
"-133.48","68.30","INUVIK A","2202571","2019-01-08 12:00","2019","01","08","12:00","-30.1","","-33.8","","71","","","","36","","2","","24.1","","102.16","","","","-32","","Ice Crystals"
"-133.48","68.30","INUVIK A","2202571","2019-01-08 13:00","2019","01","08","13:00","-30.6","","-34.4","","70","","","","7","","7","","24.1","","102.16","","","","-38","","Ice Crystals"
"-133.48","68.30","INUVIK A","2202571","2019-01-08 14:00","2019","01","08","14:00","-30.8","","-34.5","","70","","","","8","","5","","24.1","","102.18","","","","-37","","Ice Crystals"
"-133.48","68.30","INUVIK A","2202571","2019-01-08 15:00","2019","01","08","15:00","-30.6","","-34.4","","70","","","","7","","5","","24.1","","102.15","","","","-36","","Ice Crystals"
"-133.48","68.30","INUVIK A","2202571","2019-01-08 16:00","2019","01","08","16:00","-31.4","","-35.3","","70","","","","5","","5","","24.1","","102.16","","","","-37","","Ice Crystals"
"-133.48","68.30","INUVIK A","2202571","2019-01-08 17:00","2019","01","08","17:00","-31.2","","-35.0","","70","","","","7","","7","","24.1","","102.16","","","","-39","","Clear"
"-133.48","68.30","INUVIK A","2202571","2019-01-08 18:00","2019","01","08","18:00","-31.2","","-35.1","","70","","","","6","","6","","24.1","","102.18","","","","-38","","NA"
"-133.48","68.30","INUVIK A","2202571","2019-01-08 19:00","2019","01","08","19:00","-32.8","","-36.7","","69","","","","36","","2","","24.1","","102.19","","","","-35","","Ice Crystals"
"-133.48","68.30","INUVIK A","2202571","2019-01-08 20:00","2019","01","08","20:00","-34.0","","-38.0","","68","","","","33","","3","","24.1","","102.19","","","","-38","","Ice Crystals"
"-133.48","68.30","INUVIK A","2202571","2019-01-08 21:00","2019","01","08","21:00","-35.5","","-39.5","","67","","","","36","","2","","24.1","","102.21","","","","-38","","Ice Crystals"
"-133.48","68.30","INUVIK A","2202571","2019-01-08 22:00","2019","01","08","22:00","-35.0","","-39.0","","68","","","","0","","1","","24.1","","102.22","","","","-36","","Ice Crystals"
"-133.48","68.30","INUVIK A","2202571","2019-01-08 23:00","2019","01","08","23:00","-36.2","","-40.3","","67","","","","11","","4","","24.1","","102.23","","","","-41","","Ice Crystals"
"-133.48","68.30","INUVIK A","2202571","2019-01-09 00:00","2019","01","09","00:00","-35.5","","-39.5","","67","","","","27","","4","","24.1","","102.24","","","","-41","","NA"
"-133.48","68.30","INUVIK A","2202571","2019-01-09 01:00","2019","01","09","01:00","-36.1","","-40.2","","67","","","","36","","1","","24.1","","102.25","","","","-37","","NA"
"-133.48","68.30","INUVIK A","2202571","2019-01-09 02:00","2019","01","09","02:00","-36.5","","-40.7","","66","","","","15","","3","","24.1","","102.28","","","","-40","","Mainly Clear"
"-133.48","68.30","INUVIK A","2202571","2019-01-09 03:00","2019","01","09","03:00","-34.9","","-39.0","","67","","","","0","","1","","24.1","","102.30","","","","-36","","NA"
"-133.48","68.30","INUVIK A","2202571","2019-01-09 04:00","2019","01","09","04:00","-33.9","","-37.9","","68","","","","36","","2","","24.1","","102.29","","","","-36","","NA"
"-133.48","68.30","INUVIK A","2202571","2019-01-09 05:00","2019","01","09","05:00","-33.1","","-37.1","","68","","","","36","","2","","24.1","","102.29","","","","-36","","Mainly Clear"
"-133.48","68.30","INUVIK A","2202571","2019-01-09 06:00","2019","01","09","06:00","-33.5","","-37.5","","68","","","","28","","4","","24.1","","102.29","","","","-38","","NA"
"-133.48","68.30","INUVIK A","2202571","2019-01-09 07:00","2019","01","09","07:00","-34.6","","-38.7","","67","","","","36","","3","","24.1","","102.29","","","","-38","","NA"
"-133.48","68.30","INUVIK A","2202571","2019-01-09 08:00","2019","01","09","08:00","-34.9","","-39.0","","67","","","","31","","4","","24.1","","102.28","","","","-40","","Ice Crystals"
"-133.48","68.30","INUVIK A","2202571","2019-01-09 09:00","2019","01","09","09:00","-35.6","","-39.8","","67","","","","36","","2","","24.1","","102.27","","","","-38","","Ice Crystals"
"-133.48","68.30","INUVIK A","2202571","2019-01-09 10:00","2019","01","09","10:00","-35.9","","-40.0","","67","","","","8","","4","","24.1","","102.27","","","","-41","","Ice Crystals"
"-133.48","68.30","INUVIK A","2202571","2019-01-09 11:00","2019","01","09","11:00","-36.1","","-40.3","","66","","","","8","","4","","16.1","","102.28","","","","-41","","Ice Crystals"
"-133.48","68.30","INUVIK A","2202571","2019-01-09 12:00","2019","01","09","12:00","-35.9","","-40.0","","67","","","","6","","3","","24.1","","102.31","","","","-40","","Ice Crystals"
"-133.48","68.30","INUVIK A","2202571","2019-01-09 13:00","2019","01","09","13:00","-36.1","","-40.2","","67","","","","6","","6","","24.1","","102.28","","","","-44","","Ice Crystals"
"-133.48","68.30","INUVIK A","2202571","2019-01-09 14:00","2019","01","09","14:00","-36.4","","-40.6","","66","","","","0","","1","","24.1","","102.25","","","","-38","","Ice Crystals"
"-133.48","68.30","INUVIK A","2202571","2019-01-09 15:00","2019","01","09","15:00","-36.0","","-40.2","","67","","","","36","","3","","24.1","","102.28","","","","-40","","Ice Crystals"
"-133.48","68.30","INUVIK A","2202571","2019-01-09 16:00","2019","01","09","16:00","-37.7","","-42.0","","66","","","","7","","5","","24.1","","102.27","","","","-44","","Ice Crystals"
"-133.48","68.30","INUVIK A","2202571","2019-01-09 17:00","2019","01","09","17:00","-37.1","","-41.3","","66","","","","5","","8","","24.1","","102.25","","","","-46","","Ice Crystals"
"-133.48","68.30","INUVIK A","2202571","2019-01-09 18:00","2019","01","09","18:00","-36.5","","-40.7","","66","","","","9","","5","","24.1","","102.23","","","","-43","","Ice Crystals"
"-133.48","68.30","INUVIK A","2202571","2019-01-09 19:00","2019","01","09","19:00","-36.3","","-40.5","","66","","","","36","","2","","24.1","","102.22","","","","-39","","Ice Crystals"
"-133.48","68.30","INUVIK A","2202571","2019-01-09 20:00","2019","01","09","20:00","-36.0","","-40.2","","66","","","","10","","4","","16.1","","102.18","","","","-41","","Ice Crystals"
"-133.48","68.30","INUVIK A","2202571","2019-01-09 21:00","2019","01","09","21:00","-35.5","","-39.6","","67","","","","8","","4","","12.9","","102.19","","","","-41","","Ice Crystals"
"-133.48","68.30","INUVIK A","2202571","2019-01-09 22:00","2019","01","09","22:00","-35.8","","-40.0","","66","","","","7","","8","","16.1","","102.15","","","","-45","","Ice Crystals"
"-133.48","68.30","INUVIK A","2202571","2019-01-09 23:00","2019","01","09","23:00","-36.1","","-40.3","","66","","","","8","","3","","16.1","","102.14","","","","-40","","Ice Crystals"
"-133.48","68.30","INUVIK A","2202571","2019-01-10 00:00","2019","01","10","00:00","-36.6","","-40.8","","66","","","","12","","3","","16.1","","102.12","","","","-41","","Ice Crystals"
"-133.48","68.30","INUVIK A","2202571","2019-01-10 01:00","2019","01","10","01:00","-37.0","","-41.2","","66","","","","10","","6","","24.1","","102.08","","","","-45","","NA"
"-133.48","68.30","INUVIK A","2202571","2019-01-10 02:00","2019","01","10","02:00","-36.8","","-41.1","","66","","","","9","","6","","24.1","","102.05","","","","-44","","Mainly Clear"
"-133.48","68.30","INUVIK A","2202571","2019-01-10 03:00","2019","01","10","03:00","-37.8","","-42.1","","65","","","","36","","1","","24.1","","102.05","","","","-39","","Ice Crystals"
"-133.48","68.30","INUVIK A","2202571","2019-01-10 04:00","2019","01","10","04:00","-37.5","","-41.8","","66","","","","36","","2","","24.1","","102.01","","","","-40","","Ice Crystals"
"-133.48","68.30","INUVIK A","2202571","2019-01-10 05:00","2019","01","10","05:00","-37.1","","-41.3","","66","","","","36","","2","","24.1","","101.96","","","","-40","","Ice Crystals"
"-133.48","68.30","INUVIK A","2202571","2019-01-10 06:00","2019","01","10","06:00","-36.9","","-41.1","","66","","","","36","","1","","24.1","","101.90","","","","-38","","Ice Crystals"
"-133.48","68.30","INUVIK A","2202571","2019-01-10 07:00","2019","01","10","07:00","-35.5","","-39.7","","67","","","","4","","4","","24.1","","101.86","","","","-41","","Ice Crystals"
"-133.48","68.30","INUVIK A","2202571","2019-01-10 08:00","2019","01","10","08:00","-35.4","","-39.5","","67","","","","36","","3","","24.1","","101.85","","","","-39","","Ice Crystals"
"-133.48","68.30","INUVIK A","2202571","2019-01-10 09:00","2019","01","10","09:00","-33.3","","-37.4","","68","","","","6","","16","","24.1","","101.80","","","","-46","","Ice Crystals"
"-133.48","68.30","INUVIK A","2202571","2019-01-10 10:00","2019","01","10","10:00","-34.6","","-38.8","","67","","","","12","","6","","24.1","","101.81","","","","-42","","Ice Crystals"
"-133.48","68.30","INUVIK A","2202571","2019-01-10 11:00","2019","01","10","11:00","-33.9","","-38.0","","68","","","","6","","5","","24.1","","101.77","","","","-40","","Ice Crystals"
"-133.48","68.30","INUVIK A","2202571","2019-01-10 12:00","2019","01","10","12:00","-33.5","","-37.5","","68","","","","7","","10","","24.1","","101.76","","","","-43","","Ice Crystals"
"-133.48","68.30","INUVIK A","2202571","2019-01-10 13:00","2019","01","10","13:00","-32.1","","-36.0","","69","","","","7","","11","","24.1","","101.71","","","","-42","","Ice Crystals"
"-133.48","68.30","INUVIK A","2202571","2019-01-10 14:00","2019","01","10","14:00","-31.2","","-35.1","","69","","","","7","","12","","24.1","","101.70","","","","-42","","Ice Crystals"
"-133.48","68.30","INUVIK A","2202571","2019-01-10 15:00","2019","01","10","15:00","-31.2","","-35.1","","69","","","","6","","16","","24.1","","101.68","","","","-43","","Ice Crystals,Blowing Snow"
"-133.48","68.30","INUVIK A","2202571","2019-01-10 16:00","2019","01","10","16:00","-31.0","","-34.9","","69","","","","8","","8","","24.1","","101.67","","","","-39","","Ice Crystals"
"-133.48","68.30","INUVIK A","2202571","2019-01-10 17:00","2019","01","10","17:00","-30.6","","-34.5","","70","","","","5","","9","","24.1","","101.63","","","","-39","","Ice Crystals"
"-133.48","68.30","INUVIK A","2202571","2019-01-10 18:00","2019","01","10","18:00","-31.1","","-35.0","","69","","","","8","","5","","24.1","","101.59","","","","-37","","Ice Crystals"
"-133.48","68.30","INUVIK A","2202571","2019-01-10 19:00","2019","01","10","19:00","-31.2","","-35.1","","69","","","","8","","4","","24.1","","101.57","","","","-36","","Ice Crystals"
"-133.48","68.30","INUVIK A","2202571","2019-01-10 20:00","2019","01","10","20:00","-31.2","","-35.2","","69","","","","24","","4","","24.1","","101.51","","","","-36","","Ice Crystals"
"-133.48","68.30","INUVIK A","2202571","2019-01-10 21:00","2019","01","10","21:00","-31.2","","-35.1","","69","","","","5","","3","","24.1","","101.46","","","","-35","","Snow"
"-133.48","68.30","INUVIK A","2202571","2019-01-10 22:00","2019","01","10","22:00","-30.9","","-34.8","","70","","","","9","","5","","9.7","","101.45","","","","-37","","Snow"
"-133.48","68.30","INUVIK A","2202571","2019-01-10 23:00","2019","01","10","23:00","-32.0","","-36.0","","69","","","","28","","5","","4.8","","101.41","","","","-38","","Snow"
"-133.48","68.30","INUVIK A","2202571","2019-01-11 00:00","2019","01","11","00:00","-32.0","","-36.0","","69","","","","36","","3","","4.8","","101.37","","","","-36","","Snow"
"-133.48","68.30","INUVIK A","2202571","2019-01-11 01:00","2019","01","11","01:00","-31.8","","-35.7","","69","","","","28","","4","","4.8","","101.34","","","","-36","","Snow"
"-133.48","68.30","INUVIK A","2202571","2019-01-11 02:00","2019","01","11","02:00","-31.5","","-35.5","","69","","","","36","","1","","6.4","","101.30","","","","-33","","Snow"
"-133.48","68.30","INUVIK A","2202571","2019-01-11 03:00","2019","01","11","03:00","-31.4","","-35.3","","69","","","","30","","3","","9.7","","101.26","","","","-35","","Snow"
"-133.48","68.30","INUVIK A","2202571","2019-01-11 04:00","2019","01","11","04:00","-31.6","","-35.5","","69","","","","26","","5","","16.1","","101.24","","","","-37","","Snow"
"-133.48","68.30","INUVIK A","2202571","2019-01-11 05:00","2019","01","11","05:00","-31.7","","-35.6","","69","","","","26","","4","","9.7","","101.23","","","","-36","","Snow"
"-133.48","68.30","INUVIK A","2202571","2019-01-11 06:00","2019","01","11","06:00","-31.3","","-35.2","","69","","","","30","","5","","16.1","","101.18","","","","-37","","Snow"
"-133.48","68.30","INUVIK A","2202571","2019-01-11 07:00","2019","01","11","07:00","-31.1","","-35.0","","69","","","","26","","3","","16.1","","101.13","","","","-35","","Snow"
"-133.48","68.30","INUVIK A","2202571","2019-01-11 08:00","2019","01","11","08:00","-31.4","","-35.2","","69","","","","24","","7","","16.1","","101.09","","","","-39","","Snow"
"-133.48","68.30","INUVIK A","2202571","2019-01-11 09:00","2019","01","11","09:00","-31.6","","-35.5","","69","","","","32","","4","","16.1","","101.03","","","","-36","","Snow"
"-133.48","68.30","INUVIK A","2202571","2019-01-11 10:00","2019","01","11","10:00","-31.6","","-35.5","","69","","","","28","","5","","16.1","","101.00","","","","-37","","Snow"
"-133.48","68.30","INUVIK A","2202571","2019-01-11 11:00","2019","01","11","11:00","-31.6","","-35.6","","69","","","","26","","6","","9.7","","100.98","","","","-38","","Snow"
"-133.48","68.30","INUVIK A","2202571","2019-01-11 12:00","2019","01","11","12:00","-31.5","","-35.5","","69","","","","27","","8","","9.7","","100.95","","","","-40","","Snow"
"-133.48","68.30","INUVIK A","2202571","2019-01-11 13:00","2019","01","11","13:00","-31.3","","-35.2","","69","","","","28","","5","","6.4","","100.89","","","","-37","","Snow"
"-133.48","68.30","INUVIK A","2202571","2019-01-11 14:00","2019","01","11","14:00","-31.1","","-35.0","","69","","","","29","","5","","6.4","","100.87","","","","-37","","Snow"
"-133.48","68.30","INUVIK A","2202571","2019-01-11 15:00","2019","01","11","15:00","-30.8","","-34.6","","70","","","","26","","3","","6.4","","100.87","","","","-34","","Snow"
"-133.48","68.30","INUVIK A","2202571","2019-01-11 16:00","2019","01","11","16:00","-30.9","","-34.8","","70","","","","28","","7","","9.7","","100.82","","","","-38","","Snow"
"-133.48","68.30","INUVIK A","2202571","2019-01-11 17:00","2019","01","11","17:00","-30.6","","-34.4","","70","","","","27","","4","","9.7","","100.79","","","","-35","","Snow"
"-133.48","68.30","INUVIK A","2202571","2019-01-11 18:00","2019","01","11","18:00","-30.2","","-34.0","","70","","","","28","","4","","8.1","","100.75","","","","-35","","Snow"
"-133.48","68.30","INUVIK A","2202571","2019-01-11 19:00","2019","01","11","19:00","-29.9","","-33.7","","70","","","","28","","6","","6.4","","100.72","","","","-36","","Snow"
"-133.48","68.30","INUVIK A","2202571","2019-01-11 20:00","2019","01","11","20:00","-29.6","","-33.4","","71","","","","28","","7","","8.1","","100.72","","","","-37","","Snow"
"-133.48","68.30","INUVIK A","2202571","2019-01-11 21:00","2019","01","11","21:00","-29.2","","-33.0","","71","","","","27","","4","","6.4","","100.73","","","","-34","","Snow"
"-133.48","68.30","INUVIK A","2202571","2019-01-11 22:00","2019","01","11","22:00","-28.9","","-32.6","","71","","","","29","","8","","6.4","","100.74","","","","-37","","Snow"
"-133.48","68.30","INUVIK A","2202571","2019-01-11 23:00","2019","01","11","23:00","-28.6","","-32.3","","71","","","","28","","7","","8.1","","100.76","","","","-36","","Snow"
"-133.48","68.30","INUVIK A","2202571","2019-01-12 00:00","2019","01","12","00:00","-28.4","","-32.1","","71","","","","27","","7","","9.7","","100.81","","","","-35","","Snow"
"-133.48","68.30","INUVIK A","2202571","2019-01-12 01:00","2019","01","12","01:00","-28.4","","-32.0","","71","","","","27","","4","","9.7","","100.84","","","","-33","","Snow,Ice Crystals"
"-133.48","68.30","INUVIK A","2202571","2019-01-12 02:00","2019","01","12","02:00","-28.6","","-32.2","","71","","","","27","","4","","9.7","","100.89","","","","-33","","Snow"
"-133.48","68.30","INUVIK A","2202571","2019-01-12 03:00","2019","01","12","03:00","-28.6","","-32.2","","71","","","","28","","3","","9.7","","100.93","","","","-32","","Snow"
"-133.48","68.30","INUVIK A","2202571","2019-01-12 04:00","2019","01","12","04:00","-28.3","","-31.9","","71","","","","29","","7","","9.7","","100.96","","","","-35","","Snow"
"-133.48","68.30","INUVIK A","2202571","2019-01-12 05:00","2019","01","12","05:00","-27.4","","-31.0","","72","","","","28","","7","","9.7","","101.03","","","","-34","","Snow"
"-133.48","68.30","INUVIK A","2202571","2019-01-12 06:00","2019","01","12","06:00","-25.9","","-29.4","","73","","","","28","","21","","4.8","","101.10","","","","-38","","Snow"
"-133.48","68.30","INUVIK A","2202571","2019-01-12 07:00","2019","01","12","07:00","-26.2","","-29.7","","73","","","","28","","17","","4.8","","101.17","","","","-37","","Snow,Blowing Snow"
"-133.48","68.30","INUVIK A","2202571","2019-01-12 08:00","2019","01","12","08:00","-27.9","","-31.5","","72","","","","28","","17","","4.8","","101.27","","","","-40","","Snow,Blowing Snow"
"-133.48","68.30","INUVIK A","2202571","2019-01-12 09:00","2019","01","12","09:00","-29.1","","-32.9","","71","","","","28","","16","","9.7","","101.40","","","","-41","","Snow,Blowing Snow"
"-133.48","68.30","INUVIK A","2202571","2019-01-12 10:00","2019","01","12","10:00","-29.2","","-32.9","","71","","","","28","","12","","6.4","","101.51","","","","-39","","Snow,Blowing Snow"
"-133.48","68.30","INUVIK A","2202571","2019-01-12 11:00","2019","01","12","11:00","-29.6","","-33.3","","71","","","","28","","13","","4.8","","101.62","","","","-40","","Snow"
"-133.48","68.30","INUVIK A","2202571","2019-01-12 12:00","2019","01","12","12:00","-30.3","","-34.1","","70","","","","29","","10","","9.7","","101.72","","","","-40","","Ice Crystals"
"-133.48","68.30","INUVIK A","2202571","2019-01-12 13:00","2019","01","12","13:00","-31.3","","-35.1","","70","","","","27","","12","","16.1","","101.85","","","","-42","","Ice Crystals"
"-133.48","68.30","INUVIK A","2202571","2019-01-12 14:00","2019","01","12","14:00","-31.7","","-35.6","","69","","","","27","","9","","16.1","","101.96","","","","-41","","Ice Crystals"
"-133.48","68.30","INUVIK A","2202571","2019-01-12 15:00","2019","01","12","15:00","-32.4","","-36.3","","69","","","","26","","5","","24.1","","102.09","","","","-38","","Ice Crystals"
"-133.48","68.30","INUVIK A","2202571","2019-01-12 16:00","2019","01","12","16:00","-32.8","","-36.8","","69","","","","26","","8","","24.1","","102.17","","","","-41","","Ice Crystals"
"-133.48","68.30","INUVIK A","2202571","2019-01-12 17:00","2019","01","12","17:00","-33.6","","-37.6","","68","","","","27","","6","","24.1","","102.22","","","","-41","","Ice Crystals"
"-133.48","68.30","INUVIK A","2202571","2019-01-12 18:00","2019","01","12","18:00","-33.9","","-37.9","","68","","","","25","","5","","24.1","","102.26","","","","-40","","Ice Crystals"
"-133.48","68.30","INUVIK A","2202571","2019-01-12 19:00","2019","01","12","19:00","-35.3","","-39.4","","67","","","","36","","2","","24.1","","102.33","","","","-38","","Ice Crystals"
"-133.48","68.30","INUVIK A","2202571","2019-01-12 20:00","2019","01","12","20:00","-36.0","","-40.2","","67","","","","4","","5","","24.1","","102.33","","","","-42","","Ice Crystals"
"-133.48","68.30","INUVIK A","2202571","2019-01-12 21:00","2019","01","12","21:00","-36.7","","-40.9","","66","","","","5","","6","","24.1","","102.35","","","","-44","","Ice Crystals"
"-133.48","68.30","INUVIK A","2202571","2019-01-12 22:00","2019","01","12","22:00","-37.1","","-41.3","","66","","","","7","","4","","24.1","","102.40","","","","-42","","Ice Crystals"
"-133.48","68.30","INUVIK A","2202571","2019-01-12 23:00","2019","01","12","23:00","-36.4","","-40.6","","66","","","","8","","7","","24.1","","102.43","","","","-45","","Ice Crystals"
"-133.48","68.30","INUVIK A","2202571","2019-01-13 00:00","2019","01","13","00:00","-35.5","","-39.6","","67","","","","8","","8","","24.1","","102.45","","","","-44","","NA"
"-133.48","68.30","INUVIK A","2202571","2019-01-13 01:00","2019","01","13","01:00","-35.4","","-39.5","","67","","","","7","","5","","24.1","","102.46","","","","-42","","NA"
"-133.48","68.30","INUVIK A","2202571","2019-01-13 02:00","2019","01","13","02:00","-36.4","","-40.7","","66","","","","8","","9","","24.1","","102.42","","","","-46","","Clear"
"-133.48","68.30","INUVIK A","2202571","2019-01-13 03:00","2019","01","13","03:00","-33.6","","-37.6","","68","","","","7","","11","","24.1","","102.42","","","","-44","","NA"
"-133.48","68.30","INUVIK A","2202571","2019-01-13 04:00","2019","01","13","04:00","-33.5","","-37.6","","68","","","","6","","15","","24.1","","102.44","","","","-46","","NA"
"-133.48","68.30","INUVIK A","2202571","2019-01-13 05:00","2019","01","13","05:00","-31.8","","-35.7","","69","","","","7","","14","","24.1","","102.40","","","","-43","","Clear"
"-133.48","68.30","INUVIK A","2202571","2019-01-13 06:00","2019","01","13","06:00","-32.4","","-36.4","","68","","","","7","","11","","24.1","","102.37","","","","-43","","NA"
"-133.48","68.30","INUVIK A","2202571","2019-01-13 07:00","2019","01","13","07:00","-31.5","","-35.4","","69","","","","8","","14","","24.1","","102.30","","","","-43","","NA"
"-133.48","68.30","INUVIK A","2202571","2019-01-13 08:00","2019","01","13","08:00","-31.2","","-35.1","","69","","","","8","","14","","24.1","","102.28","","","","-42","","Clear"
"-133.48","68.30","INUVIK A","2202571","2019-01-13 09:00","2019","01","13","09:00","-31.5","","-35.4","","69","","","","8","","10","","24.1","","102.27","","","","-41","","NA"
"-133.48","68.30","INUVIK A","2202571","2019-01-13 10:00","2019","01","13","10:00","-31.5","","-35.4","","69","","","","9","","11","","24.1","","102.24","","","","-41","","NA"
"-133.48","68.30","INUVIK A","2202571","2019-01-13 11:00","2019","01","13","11:00","-31.2","","-35.1","","69","","","","9","","16","","24.1","","102.20","","","","-43","","Mostly Cloudy"
"-133.48","68.30","INUVIK A","2202571","2019-01-13 12:00","2019","01","13","12:00","-31.0","","-34.9","","70","","","","8","","11","","24.1","","102.14","","","","-41","","NA"
"-133.48","68.30","INUVIK A","2202571","2019-01-13 13:00","2019","01","13","13:00","-30.1","","-33.9","","70","","","","9","","14","","24.1","","102.10","","","","-41","","NA"
"-133.48","68.30","INUVIK A","2202571","2019-01-13 14:00","2019","01","13","14:00","-30.5","","-34.3","","70","","","","9","","17","","24.1","","102.05","","","","-43","","Mainly Clear"
"-133.48","68.30","INUVIK A","2202571","2019-01-13 15:00","2019","01","13","15:00","-30.7","","-34.6","","70","","","","10","","16","","24.1","","101.99","","","","-43","","NA"
"-133.48","68.30","INUVIK A","2202571","2019-01-13 16:00","2019","01","13","16:00","-31.1","","-35.0","","69","","","","10","","17","","24.1","","101.97","","","","-44","","NA"
"-133.48","68.30","INUVIK A","2202571","2019-01-13 17:00","2019","01","13","17:00","-31.2","","-35.1","","70","","","","9","","17","","24.1","","101.97","","","","-44","","Mainly Clear"
"-133.48","68.30","INUVIK A","2202571","2019-01-13 18:00","2019","01","13","18:00","-30.9","","-34.7","","70","","","","6","","15","","24.1","","101.93","","","","-43","","NA"
"-133.48","68.30","INUVIK A","2202571","2019-01-13 19:00","2019","01","13","19:00","-30.5","","-34.3","","70","","","","8","","16","","24.1","","101.87","","","","-42","","NA"
"-133.48","68.30","INUVIK A","2202571","2019-01-13 20:00","2019","01","13","20:00","-30.3","","-34.2","","70","","","","8","","18","","24.1","","101.87","","","","-43","","Mainly Clear"
"-133.48","68.30","INUVIK A","2202571","2019-01-13 21:00","2019","01","13","21:00","-30.3","","-34.1","","70","","","","9","","12","","24.1","","101.87","","","","-41","","NA"
"-133.48","68.30","INUVIK A","2202571","2019-01-13 22:00","2019","01","13","22:00","-30.2","","-34.0","","70","","","","13","","9","","24.1","","101.91","","","","-39","","NA"
"-133.48","68.30","INUVIK A","2202571","2019-01-13 23:00","2019","01","13","23:00","-30.4","","-34.2","","70","","","","11","","13","","24.1","","101.90","","","","-41","","Mainly Clear"
"-133.48","68.30","INUVIK A","2202571","2019-01-14 00:00","2019","01","14","00:00","-29.3","","-33.1","","71","","","","11","","17","","24.1","","101.88","","","","-41","","NA"
"-133.48","68.30","INUVIK A","2202571","2019-01-14 01:00","2019","01","14","01:00","-28.7","","-32.4","","71","","","","11","","14","","24.1","","101.89","","","","-39","","NA"
"-133.48","68.30","INUVIK A","2202571","2019-01-14 02:00","2019","01","14","02:00","-27.9","","-31.6","","72","","","","12","","13","","24.1","","101.89","","","","-38","","Mostly Cloudy"
"-133.48","68.30","INUVIK A","2202571","2019-01-14 03:00","2019","01","14","03:00","-28.5","","-32.2","","71","","","","11","","11","","24.1","","101.92","","","","-38","","NA"
"-133.48","68.30","INUVIK A","2202571","2019-01-14 04:00","2019","01","14","04:00","-29.2","","-33.0","","71","","","","8","","13","","24.1","","101.94","","","","-40","","NA"
"-133.48","68.30","INUVIK A","2202571","2019-01-14 05:00","2019","01","14","05:00","-28.8","","-32.5","","71","","","","9","","19","","24.1","","101.95","","","","-41","","Clear"
"-133.48","68.30","INUVIK A","2202571","2019-01-14 06:00","2019","01","14","06:00","-28.9","","-32.6","","71","","","","9","","17","","24.1","","101.97","","","","-41","","NA"
"-133.48","68.30","INUVIK A","2202571","2019-01-14 07:00","2019","01","14","07:00","-28.9","","-32.7","","71","","","","9","","17","","24.1","","101.99","","","","-41","","NA"
"-133.48","68.30","INUVIK A","2202571","2019-01-14 08:00","2019","01","14","08:00","-29.0","","-32.7","","71","","","","9","","14","","24.1","","101.98","","","","-40","","Clear"
"-133.48","68.30","INUVIK A","2202571","2019-01-14 09:00","2019","01","14","09:00","-28.9","","-32.6","","71","","","","8","","14","","24.1","","102.04","","","","-40","","NA"
"-133.48","68.30","INUVIK A","2202571","2019-01-14 10:00","2019","01","14","10:00","-28.7","","-32.4","","71","","","","8","","13","","24.1","","102.08","","","","-39","","NA"
"-133.48","68.30","INUVIK A","2202571","2019-01-14 11:00","2019","01","14","11:00","-28.9","","-32.5","","71","","","","8","","14","","24.1","","102.10","","","","-40","","Clear"
"-133.48","68.30","INUVIK A","2202571","2019-01-14 12:00","2019","01","14","12:00","-28.7","","-32.4","","71","","","","8","","16","","24.1","","102.12","","","","-40","","NA"
"-133.48","68.30","INUVIK A","2202571","2019-01-14 13:00","2019","01","14","13:00","-28.3","","-32.0","","71","","","","8","","15","","24.1","","102.13","","","","-39","","NA"
"-133.48","68.30","INUVIK A","2202571","2019-01-14 14:00","2019","01","14","14:00","-28.4","","-32.1","","71","","","","8","","11","","24.1","","102.19","","","","-38","","Mainly Clear"
"-133.48","68.30","INUVIK A","2202571","2019-01-14 15:00","2019","01","14","15:00","-29.0","","-32.7","","71","","","","8","","9","","24.1","","102.22","","","","-37","","NA"
"-133.48","68.30","INUVIK A","2202571","2019-01-14 16:00","2019","01","14","16:00","-28.7","","-32.4","","71","","","","8","","7","","24.1","","102.22","","","","-36","","NA"
"-133.48","68.30","INUVIK A","2202571","2019-01-14 17:00","2019","01","14","17:00","-28.9","","-32.6","","71","","","","8","","7","","24.1","","102.28","","","","-36","","Mainly Clear"
"-133.48","68.30","INUVIK A","2202571","2019-01-14 18:00","2019","01","14","18:00","-28.5","","-32.2","","71","","","","6","","10","","24.1","","102.30","","","","-37","","NA"
"-133.48","68.30","INUVIK A","2202571","2019-01-14 19:00","2019","01","14","19:00","-28.2","","-31.9","","72","","","","7","","11","","24.1","","102.31","","","","-38","","NA"
"-133.48","68.30","INUVIK A","2202571","2019-01-14 20:00","2019","01","14","20:00","-27.3","","-30.9","","72","","","","6","","10","","24.1","","102.33","","","","-36","","Clear"
"-133.48","68.30","INUVIK A","2202571","2019-01-14 21:00","2019","01","14","21:00","-27.9","","-31.5","","72","","","","6","","10","","24.1","","102.36","","","","-37","","NA"
"-133.48","68.30","INUVIK A","2202571","2019-01-14 22:00","2019","01","14","22:00","-27.9","","-31.5","","72","","","","7","","8","","24.1","","102.36","","","","-36","","NA"
"-133.48","68.30","INUVIK A","2202571","2019-01-14 23:00","2019","01","14","23:00","-27.1","","-30.6","","72","","","","7","","8","","24.1","","102.41","","","","-35","","Clear"
"-133.48","68.30","INUVIK A","2202571","2019-01-15 00:00","2019","01","15","00:00","-27.3","","-30.9","","72","","","","8","","8","","24.1","","102.47","","","","-35","","NA"
"-133.48","68.30","INUVIK A","2202571","2019-01-15 01:00","2019","01","15","01:00","-26.3","","-29.8","","73","","","","8","","9","","24.1","","102.51","","","","-34","","NA"
"-133.48","68.30","INUVIK A","2202571","2019-01-15 02:00","2019","01","15","02:00","-25.1","","-28.5","","74","","","","8","","11","","16.1","","102.54","","","","-34","","Snow"
"-133.48","68.30","INUVIK A","2202571","2019-01-15 03:00","2019","01","15","03:00","-24.4","","-27.8","","74","","","","8","","10","","24.1","","102.56","","","","-32","","Snow"
"-133.48","68.30","INUVIK A","2202571","2019-01-15 04:00","2019","01","15","04:00","-24.3","","-27.6","","74","","","","8","","13","","24.1","","102.56","","","","-34","","Moderate Snow"
"-133.48","68.30","INUVIK A","2202571","2019-01-15 05:00","2019","01","15","05:00","-24.1","","-27.4","","75","","","","8","","11","","16.1","","102.62","","","","-33","","Snow"
"-133.48","68.30","INUVIK A","2202571","2019-01-15 06:00","2019","01","15","06:00","-24.1","","-27.4","","75","","","","6","","8","","24.1","","102.65","","","","-31","","Snow"
"-133.48","68.30","INUVIK A","2202571","2019-01-15 07:00","2019","01","15","07:00","-24.7","","-28.1","","74","","","","8","","11","","24.1","","102.67","","","","-33","","NA"
"-133.48","68.30","INUVIK A","2202571","2019-01-15 08:00","2019","01","15","08:00","-24.7","","-28.1","","74","","","","8","","9","","24.1","","102.72","","","","-32","","Cloudy"
"-133.48","68.30","INUVIK A","2202571","2019-01-15 09:00","2019","01","15","09:00","-25.4","","-28.8","","74","","","","11","","8","","24.1","","102.72","","","","-33","","NA"
"-133.48","68.30","INUVIK A","2202571","2019-01-15 10:00","2019","01","15","10:00","-25.3","","-28.6","","74","","","","11","","5","","24.1","","102.78","","","","-30","","NA"
"-133.48","68.30","INUVIK A","2202571","2019-01-15 11:00","2019","01","15","11:00","-27.3","","-30.9","","72","","","","8","","4","","24.1","","102.81","","","","-32","","Mainly Clear"
"-133.48","68.30","INUVIK A","2202571","2019-01-15 12:00","2019","01","15","12:00","-26.7","","-30.2","","73","","","","8","","15","","24.1","","102.83","","","","-37","","NA"
"-133.48","68.30","INUVIK A","2202571","2019-01-15 13:00","2019","01","15","13:00","-27.6","","-31.2","","72","","","","8","","12","","24.1","","102.87","","","","-37","","NA"
"-133.48","68.30","INUVIK A","2202571","2019-01-15 14:00","2019","01","15","14:00","-26.8","","-30.3","","73","","","","10","","10","","24.1","","102.90","","","","-35","","Mostly Cloudy"
"-133.48","68.30","INUVIK A","2202571","2019-01-15 15:00","2019","01","15","15:00","-26.1","","-29.6","","73","","","","9","","14","","24.1","","102.89","","","","-36","","NA"
"-133.48","68.30","INUVIK A","2202571","2019-01-15 16:00","2019","01","15","16:00","-25.3","","-28.7","","74","","","","11","","14","","24.1","","102.90","","","","-35","","NA"
"-133.48","68.30","INUVIK A","2202571","2019-01-15 17:00","2019","01","15","17:00","-24.9","","-28.2","","74","","","","11","","12","","24.1","","102.91","","","","-34","","Cloudy"
"-133.48","68.30","INUVIK A","2202571","2019-01-15 18:00","2019","01","15","18:00","-26.0","","-29.4","","73","","","","10","","12","","24.1","","102.92","","","","-35","","NA"
"-133.48","68.30","INUVIK A","2202571","2019-01-15 19:00","2019","01","15","19:00","-26.2","","-29.7","","73","","","","9","","14","","24.1","","102.94","","","","-36","","NA"
"-133.48","68.30","INUVIK A","2202571","2019-01-15 20:00","2019","01","15","20:00","-26.8","","-30.3","","73","","","","9","","16","","24.1","","102.94","","","","-38","","Clear"
"-133.48","68.30","INUVIK A","2202571","2019-01-15 21:00","2019","01","15","21:00","-27.1","","-30.6","","73","","","","8","","8","","24.1","","102.93","","","","-35","","NA"
"-133.48","68.30","INUVIK A","2202571","2019-01-15 22:00","2019","01","15","22:00","-26.2","","-29.6","","73","","","","8","","18","","24.1","","102.91","","","","-38","","NA"
"-133.48","68.30","INUVIK A","2202571","2019-01-15 23:00","2019","01","15","23:00","-27.8","","-31.4","","72","","","","9","","13","","24.1","","102.92","","","","-38","","Clear"
"-133.48","68.30","INUVIK A","2202571","2019-01-16 00:00","2019","01","16","00:00","-27.5","","-31.1","","72","","","","8","","16","","24.1","","102.88","","","","-39","","NA"
"-133.48","68.30","INUVIK A","2202571","2019-01-16 01:00","2019","01","16","01:00","-26.5","","-29.9","","73","","","","9","","17","","24.1","","102.88","","","","-38","","NA"
"-133.48","68.30","INUVIK A","2202571","2019-01-16 02:00","2019","01","16","02:00","-25.1","","-28.5","","74","","","","9","","15","","24.1","","102.90","","","","-35","","Clear"
"-133.48","68.30","INUVIK A","2202571","2019-01-16 03:00","2019","01","16","03:00","-25.7","","-29.2","","73","","","","7","","11","","24.1","","102.90","","","","-34","","NA"
"-133.48","68.30","INUVIK A","2202571","2019-01-16 04:00","2019","01","16","04:00","-26.6","","-30.0","","73","","","","7","","13","","24.1","","102.84","","","","-36","","NA"
"-133.48","68.30","INUVIK A","2202571","2019-01-16 05:00","2019","01","16","05:00","-27.2","","-30.8","","72","","","","7","","11","","24.1","","102.81","","","","-36","","Clear"
"-133.48","68.30","INUVIK A","2202571","2019-01-16 06:00","2019","01","16","06:00","-27.8","","-31.3","","72","","","","8","","13","","24.1","","102.76","","","","-38","","NA"
"-133.48","68.30","INUVIK A","2202571","2019-01-16 07:00","2019","01","16","07:00","-26.2","","-29.6","","74","","","","11","","11","","24.1","","102.76","","","","-35","","NA"
"-133.48","68.30","INUVIK A","2202571","2019-01-16 08:00","2019","01","16","08:00","-25.6","","-29.0","","74","","","","8","","12","","24.1","","102.72","","","","-35","","Mainly Clear"
"-133.48","68.30","INUVIK A","2202571","2019-01-16 09:00","2019","01","16","09:00","-25.6","","-29.1","","73","","","","8","","9","","24.1","","102.69","","","","-33","","NA"
"-133.48","68.30","INUVIK A","2202571","2019-01-16 10:00","2019","01","16","10:00","-26.0","","-29.4","","73","","","","7","","7","","24.1","","102.65","","","","-33","","NA"
"-133.48","68.30","INUVIK A","2202571","2019-01-16 11:00","2019","01","16","11:00","-27.5","","-31.1","","72","","","","13","","8","","24.1","","102.60","","","","-35","","Mainly Clear"
"-133.48","68.30","INUVIK A","2202571","2019-01-16 12:00","2019","01","16","12:00","-27.8","","-31.4","","72","","","","12","","6","","24.1","","102.57","","","","-34","","NA"
"-133.48","68.30","INUVIK A","2202571","2019-01-16 13:00","2019","01","16","13:00","-26.2","","-29.8","","72","","","","8","","7","","24.1","","102.53","","","","-33","","NA"
"-133.48","68.30","INUVIK A","2202571","2019-01-16 14:00","2019","01","16","14:00","-24.3","","-27.9","","73","","","","8","","10","","24.1","","102.48","","","","-32","","Mainly Clear"
"-133.48","68.30","INUVIK A","2202571","2019-01-16 15:00","2019","01","16","15:00","-23.7","","-27.0","","74","","","","8","","5","","24.1","","102.42","","","","-28","","NA"
"-133.48","68.30","INUVIK A","2202571","2019-01-16 16:00","2019","01","16","16:00","-25.8","","-29.3","","73","","","","10","","6","","24.1","","102.36","","","","-32","","NA"
"-133.48","68.30","INUVIK A","2202571","2019-01-16 17:00","2019","01","16","17:00","-26.1","","-29.5","","73","","","","7","","9","","24.1","","102.32","","","","-34","","Mainly Clear"
"-133.48","68.30","INUVIK A","2202571","2019-01-16 18:00","2019","01","16","18:00","-24.1","","-27.5","","74","","","","7","","13","","24.1","","102.24","","","","-33","","NA"
"-133.48","68.30","INUVIK A","2202571","2019-01-16 19:00","2019","01","16","19:00","-21.7","","-25.1","","74","","","","7","","14","","24.1","","102.15","","","","-31","","NA"
"-133.48","68.30","INUVIK A","2202571","2019-01-16 20:00","2019","01","16","20:00","-20.7","","-24.4","","73","","","","7","","26","","24.1","","102.08","","","","-33","","Mainly Clear"
"-133.48","68.30","INUVIK A","2202571","2019-01-16 21:00","2019","01","16","21:00","-21.0","","-24.7","","73","","","","8","","30","","24.1","","102.00","","","","-34","","NA"
"-133.48","68.30","INUVIK A","2202571","2019-01-16 22:00","2019","01","16","22:00","-21.4","","-25.4","","71","","","","6","","17","","24.1","","101.98","","","","-31","","NA"
"-133.48","68.30","INUVIK A","2202571","2019-01-16 23:00","2019","01","16","23:00","-21.8","","-26.1","","69","","","","7","","13","","24.1","","101.91","","","","-31","","Mainly Clear"
"-133.48","68.30","INUVIK A","2202571","2019-01-17 00:00","2019","01","17","00:00","-20.7","","-25.1","","68","","","","6","","19","","24.1","","101.87","","","","-31","","NA"
"-133.48","68.30","INUVIK A","2202571","2019-01-17 01:00","2019","01","17","01:00","-21.1","","-25.4","","69","","","","8","","19","","24.1","","101.83","","","","-32","","NA"
"-133.48","68.30","INUVIK A","2202571","2019-01-17 02:00","2019","01","17","02:00","-19.5","","-24.0","","68","","","","7","","15","","24.1","","101.80","","","","-28","","Mostly Cloudy"
"-133.48","68.30","INUVIK A","2202571","2019-01-17 03:00","2019","01","17","03:00","-19.9","","-24.0","","71","","","","8","","17","","24.1","","101.77","","","","-30","","NA"
"-133.48","68.30","INUVIK A","2202571","2019-01-17 04:00","2019","01","17","04:00","-19.4","","-23.8","","68","","","","9","","17","","24.1","","101.76","","","","-29","","NA"
"-133.48","68.30","INUVIK A","2202571","2019-01-17 05:00","2019","01","17","05:00","-18.9","","-23.6","","67","","","","8","","17","","24.1","","101.76","","","","-28","","Mostly Cloudy"
"-133.48","68.30","INUVIK A","2202571","2019-01-17 06:00","2019","01","17","06:00","-18.8","","-23.4","","67","","","","9","","19","","24.1","","101.74","","","","-29","","NA"
"-133.48","68.30","INUVIK A","2202571","2019-01-17 07:00","2019","01","17","07:00","-19.0","","-23.8","","67","","","","9","","17","","24.1","","101.75","","","","-28","","NA"
"-133.48","68.30","INUVIK A","2202571","2019-01-17 08:00","2019","01","17","08:00","-19.8","","-24.6","","66","","","","9","","16","","24.1","","101.75","","","","-29","","Mostly Cloudy"
"-133.48","68.30","INUVIK A","2202571","2019-01-17 09:00","2019","01","17","09:00","-20.6","","-25.2","","67","","","","9","","20","","24.1","","101.76","","","","-31","","NA"
"-133.48","68.30","INUVIK A","2202571","2019-01-17 10:00","2019","01","17","10:00","-19.5","","-24.6","","65","","","","8","","22","","24.1","","101.79","","","","-30","","NA"
"-133.48","68.30","INUVIK A","2202571","2019-01-17 11:00","2019","01","17","11:00","-20.0","","-25.2","","64","","","","8","","24","","24.1","","101.83","","","","-31","","Mainly Clear"
"-133.48","68.30","INUVIK A","2202571","2019-01-17 12:00","2019","01","17","12:00","-19.4","","-24.9","","63","","","","7","","22","","24.1","","101.85","","","","-30","","NA"
"-133.48","68.30","INUVIK A","2202571","2019-01-17 13:00","2019","01","17","13:00","-20.2","","-25.4","","64","","","","7","","14","","24.1","","101.89","","","","-29","","NA"
"-133.48","68.30","INUVIK A","2202571","2019-01-17 14:00","2019","01","17","14:00","-19.9","","-25.5","","62","","","","8","","19","","24.1","","101.91","","","","-30","","Mainly Clear"
"-133.48","68.30","INUVIK A","2202571","2019-01-17 15:00","2019","01","17","15:00","-20.6","","-25.9","","64","","","","8","","15","","24.1","","101.92","","","","-30","","NA"
"-133.48","68.30","INUVIK A","2202571","2019-01-17 16:00","2019","01","17","16:00","-20.5","","-25.7","","64","","","","8","","14","","24.1","","101.94","","","","-29","","NA"
"-133.48","68.30","INUVIK A","2202571","2019-01-17 17:00","2019","01","17","17:00","-20.2","","-25.6","","63","","","","7","","14","","24.1","","101.92","","","","-29","","Clear"
"-133.48","68.30","INUVIK A","2202571","2019-01-17 18:00","2019","01","17","18:00","-21.9","","-26.8","","65","","","","5","","11","","24.1","","101.93","","","","-30","","NA"
"-133.48","68.30","INUVIK A","2202571","2019-01-17 19:00","2019","01","17","19:00","-22.0","","-27.0","","64","","","","5","","14","","24.1","","101.95","","","","-31","","NA"
"-133.48","68.30","INUVIK A","2202571","2019-01-17 20:00","2019","01","17","20:00","-22.4","","-27.6","","63","","","","8","","9","","24.1","","101.97","","","","-30","","Clear"
"-133.48","68.30","INUVIK A","2202571","2019-01-17 21:00","2019","01","17","21:00","-21.4","","-27.2","","60","","","","11","","18","","24.1","","101.96","","","","-32","","NA"
"-133.48","68.30","INUVIK A","2202571","2019-01-17 22:00","2019","01","17","22:00","-22.4","","-27.9","","62","","","","9","","15","","24.1","","101.95","","","","-32","","NA"
"-133.48","68.30","INUVIK A","2202571","2019-01-17 23:00","2019","01","17","23:00","-21.4","","-27.2","","60","","","","7","","11","","24.1","","101.96","","","","-29","","Mainly Clear"
"-133.48","68.30","INUVIK A","2202571","2019-01-18 00:00","2019","01","18","00:00","-21.3","","-27.4","","59","","","","11","","12","","24.1","","101.96","","","","-30","","NA"
"-133.48","68.30","INUVIK A","2202571","2019-01-18 01:00","2019","01","18","01:00","-21.6","","-27.7","","59","","","","10","","12","","24.1","","101.96","","","","-30","","NA"
"-133.48","68.30","INUVIK A","2202571","2019-01-18 02:00","2019","01","18","02:00","-21.4","","-27.6","","59","","","","9","","8","","24.1","","101.97","","","","-28","","Mainly Clear"
"-133.48","68.30","INUVIK A","2202571","2019-01-18 03:00","2019","01","18","03:00","-21.1","","-27.4","","58","","","","8","","14","","24.1","","101.99","","","","-30","","NA"
"-133.48","68.30","INUVIK A","2202571","2019-01-18 04:00","2019","01","18","04:00","-21.9","","-27.2","","63","","","","5","","14","","24.1","","101.98","","","","-31","","NA"
"-133.48","68.30","INUVIK A","2202571","2019-01-18 05:00","2019","01","18","05:00","-22.9","","-27.9","","64","","","","6","","15","","24.1","","101.93","","","","-33","","Clear"
"-133.48","68.30","INUVIK A","2202571","2019-01-18 06:00","2019","01","18","06:00","-22.5","","-27.7","","63","","","","7","","14","","24.1","","101.91","","","","-32","","NA"
"-133.48","68.30","INUVIK A","2202571","2019-01-18 07:00","2019","01","18","07:00","-22.5","","-27.9","","62","","","","7","","19","","24.1","","101.82","","","","-33","","NA"
"-133.48","68.30","INUVIK A","2202571","2019-01-18 08:00","2019","01","18","08:00","-23.2","","-28.3","","64","","","","8","","19","","24.1","","101.79","","","","-34","","Blowing Snow"
"-133.48","68.30","INUVIK A","2202571","2019-01-18 09:00","2019","01","18","09:00","-21.7","","-27.5","","61","","","","8","","22","","24.1","","101.74","","","","-33","","Blowing Snow"
"-133.48","68.30","INUVIK A","2202571","2019-01-18 10:00","2019","01","18","10:00","-21.5","","-27.5","","59","","","","8","","23","","24.1","","101.69","","","","-33","","NA"
"-133.48","68.30","INUVIK A","2202571","2019-01-18 11:00","2019","01","18","11:00","-20.8","","-27.1","","58","","","","8","","18","","24.1","","101.66","","","","-31","","Mainly Clear"
"-133.48","68.30","INUVIK A","2202571","2019-01-18 12:00","2019","01","18","12:00","-20.5","","-26.4","","60","","","","9","","23","","24.1","","101.57","","","","-32","","NA"
"-133.48","68.30","INUVIK A","2202571","2019-01-18 13:00","2019","01","18","13:00","-20.5","","-26.1","","62","","","","8","","21","","24.1","","101.55","","","","-31","","NA"
"-133.48","68.30","INUVIK A","2202571","2019-01-18 14:00","2019","01","18","14:00","-19.8","","-25.5","","62","","","","9","","22","","24.1","","101.49","","","","-31","","Mostly Cloudy"
"-133.48","68.30","INUVIK A","2202571","2019-01-18 15:00","2019","01","18","15:00","-19.7","","-25.0","","63","","","","9","","25","","24.1","","101.40","","","","-31","","NA"
"-133.48","68.30","INUVIK A","2202571","2019-01-18 16:00","2019","01","18","16:00","-20.1","","-24.9","","66","","","","9","","28","","24.1","","101.34","","","","-32","","NA"
"-133.48","68.30","INUVIK A","2202571","2019-01-18 17:00","2019","01","18","17:00","-19.4","","-24.0","","68","","","","9","","25","","24.1","","101.28","","","","-31","","Cloudy"
"-133.48","68.30","INUVIK A","2202571","2019-01-18 18:00","2019","01","18","18:00","-18.6","","-23.5","","66","","","","9","","28","","24.1","","101.21","","","","-30","","NA"
"-133.48","68.30","INUVIK A","2202571","2019-01-18 19:00","2019","01","18","19:00","-19.7","","-24.5","","67","","","","7","","19","","24.1","","101.14","","","","-30","","NA"
"-133.48","68.30","INUVIK A","2202571","2019-01-18 20:00","2019","01","18","20:00","-20.6","","-25.2","","67","","","","7","","23","","24.1","","101.08","","","","-32","","Mostly Cloudy"
"-133.48","68.30","INUVIK A","2202571","2019-01-18 21:00","2019","01","18","21:00","-21.1","","-25.5","","68","","","","6","","21","","24.1","","101.02","","","","-32","","NA"
"-133.48","68.30","INUVIK A","2202571","2019-01-18 22:00","2019","01","18","22:00","-20.4","","-24.4","","71","","","","7","","22","","9.7","","100.96","","","","-31","","Snow"
"-133.48","68.30","INUVIK A","2202571","2019-01-18 23:00","2019","01","18","23:00","-19.6","","-23.4","","73","","","","8","","23","","16.1","","100.88","","","","-31","","Snow"
"-133.48","68.30","INUVIK A","2202571","2019-01-19 00:00","2019","01","19","00:00","-19.6","","-23.1","","74","","","","7","","16","","16.1","","100.85","","","","-29","","Snow"
"-133.48","68.30","INUVIK A","2202571","2019-01-19 01:00","2019","01","19","01:00","-19.4","","-22.7","","75","","","","8","","12","","12.9","","100.80","","","","-27","","Snow"
"-133.48","68.30","INUVIK A","2202571","2019-01-19 02:00","2019","01","19","02:00","-19.2","","-22.5","","76","","","","8","","9","","12.9","","100.76","","","","-26","","Snow"
"-133.48","68.30","INUVIK A","2202571","2019-01-19 03:00","2019","01","19","03:00","-18.9","","-22.1","","76","","","","9","","14","","12.9","","100.73","","","","-27","","Snow"
"-133.48","68.30","INUVIK A","2202571","2019-01-19 04:00","2019","01","19","04:00","-18.9","","-22.3","","75","","","","9","","12","","16.1","","100.71","","","","-27","","Snow"
"-133.48","68.30","INUVIK A","2202571","2019-01-19 05:00","2019","01","19","05:00","-18.4","","-22.0","","74","","","","9","","17","","16.1","","100.66","","","","-28","","Snow"
"-133.48","68.30","INUVIK A","2202571","2019-01-19 06:00","2019","01","19","06:00","-18.6","","-21.9","","76","","","","9","","13","","16.1","","100.61","","","","-27","","Snow"
"-133.48","68.30","INUVIK A","2202571","2019-01-19 07:00","2019","01","19","07:00","-18.8","","-22.0","","76","","","","8","","14","","24.1","","100.58","","","","-27","","Snow"
"-133.48","68.30","INUVIK A","2202571","2019-01-19 08:00","2019","01","19","08:00","-18.1","","-21.6","","75","","","","8","","11","","24.1","","100.55","","","","-25","","Snow"
"-133.48","68.30","INUVIK A","2202571","2019-01-19 09:00","2019","01","19","09:00","-17.9","","-21.6","","74","","","","8","","13","","24.1","","100.56","","","","-26","","Snow"
"-133.48","68.30","INUVIK A","2202571","2019-01-19 10:00","2019","01","19","10:00","-18.5","","-21.7","","76","","","","16","","6","","24.1","","100.54","","","","-23","","Snow"
"-133.48","68.30","INUVIK A","2202571","2019-01-19 11:00","2019","01","19","11:00","-19.1","","-22.1","","77","","","","36","","1","","24.1","","100.53","","","","-20","","Snow"
"-133.48","68.30","INUVIK A","2202571","2019-01-19 12:00","2019","01","19","12:00","-19.0","","-22.1","","77","","","","26","","3","","24.1","","100.50","","","","-21","","Snow"
"-133.48","68.30","INUVIK A","2202571","2019-01-19 13:00","2019","01","19","13:00","-19.1","","-22.2","","77","","","","33","","3","","24.1","","100.51","","","","-22","","Snow"
"-133.48","68.30","INUVIK A","2202571","2019-01-19 14:00","2019","01","19","14:00","-19.0","","-22.1","","77","","","","36","","2","","9.7","","100.50","","","","-21","","Snow"
"-133.48","68.30","INUVIK A","2202571","2019-01-19 15:00","2019","01","19","15:00","-19.1","","-22.1","","77","","","","36","","2","","16.1","","100.50","","","","-21","","Snow"
"-133.48","68.30","INUVIK A","2202571","2019-01-19 16:00","2019","01","19","16:00","-19.7","","-22.4","","79","","","","36","","1","","16.1","","100.51","","","","-21","","Snow"
"-133.48","68.30","INUVIK A","2202571","2019-01-19 17:00","2019","01","19","17:00","-19.9","","-22.7","","79","","","","36","","2","","16.1","","100.52","","","","-22","","Snow"
"-133.48","68.30","INUVIK A","2202571","2019-01-19 18:00","2019","01","19","18:00","-20.0","","-22.8","","79","","","","36","","1","","16.1","","100.52","","","","-21","","Snow"
"-133.48","68.30","INUVIK A","2202571","2019-01-19 19:00","2019","01","19","19:00","-20.4","","-23.2","","78","","","","30","","5","","16.1","","100.52","","","","-25","","Snow"
"-133.48","68.30","INUVIK A","2202571","2019-01-19 20:00","2019","01","19","20:00","-20.3","","-23.3","","78","","","","36","","1","","9.7","","100.53","","","","-21","","Snow"
"-133.48","68.30","INUVIK A","2202571","2019-01-19 21:00","2019","01","19","21:00","-20.2","","-23.6","","75","","","","20","","4","","9.7","","100.54","","","","-24","","Snow"
"-133.48","68.30","INUVIK A","2202571","2019-01-19 22:00","2019","01","19","22:00","-20.6","","-24.0","","75","","","","21","","3","","9.7","","100.56","","","","-23","","Snow"
"-133.48","68.30","INUVIK A","2202571","2019-01-19 23:00","2019","01","19","23:00","-20.9","","-24.4","","74","","","","24","","4","","16.1","","100.58","","","","-24","","Snow"
"-133.48","68.30","INUVIK A","2202571","2019-01-20 00:00","2019","01","20","00:00","-21.1","","-24.5","","74","","","","19","","3","","24.1","","100.61","","","","-24","","Snow"
"-133.48","68.30","INUVIK A","2202571","2019-01-20 01:00","2019","01","20","01:00","-21.9","","-25.1","","75","","","","22","","6","","24.1","","100.65","","","","-27","","Snow"
"-133.48","68.30","INUVIK A","2202571","2019-01-20 02:00","2019","01","20","02:00","-23.4","","-26.4","","77","","","","22","","5","","24.1","","100.70","","","","-28","","Mainly Clear"
"-133.48","68.30","INUVIK A","2202571","2019-01-20 03:00","2019","01","20","03:00","-27.2","","-30.5","","74","","","","36","","3","","24.1","","100.73","","","","-30","","NA"
"-133.48","68.30","INUVIK A","2202571","2019-01-20 04:00","2019","01","20","04:00","-29.3","","-32.9","","72","","","","36","","1","","24.1","","100.75","","","","-30","","NA"
"-133.48","68.30","INUVIK A","2202571","2019-01-20 05:00","2019","01","20","05:00","-29.8","","-33.4","","72","","","","36","","1","","24.1","","100.78","","","","-31","","Clear"
"-133.48","68.30","INUVIK A","2202571","2019-01-20 06:00","2019","01","20","06:00","-29.1","","-32.5","","73","","","","7","","4","","24.1","","100.79","","","","-34","","NA"
"-133.48","68.30","INUVIK A","2202571","2019-01-20 07:00","2019","01","20","07:00","-28.9","","-32.4","","73","","","","8","","5","","24.1","","100.78","","","","-34","","NA"
"-133.48","68.30","INUVIK A","2202571","2019-01-20 08:00","2019","01","20","08:00","-28.7","","-32.1","","73","","","","5","","9","","24.1","","100.78","","","","-37","","Mainly Clear"
"-133.48","68.30","INUVIK A","2202571","2019-01-20 09:00","2019","01","20","09:00","-30.4","","-34.0","","71","","","","36","","2","","24.1","","100.83","","","","-33","","NA"
"-133.48","68.30","INUVIK A","2202571","2019-01-20 10:00","2019","01","20","10:00","-30.4","","-34.1","","71","","","","36","","2","","24.1","","100.85","","","","-33","","NA"
"-133.48","68.30","INUVIK A","2202571","2019-01-20 11:00","2019","01","20","11:00","-30.5","","-34.1","","71","","","","10","","4","","24.1","","100.89","","","","-35","","Ice Crystals"
"-133.48","68.30","INUVIK A","2202571","2019-01-20 12:00","2019","01","20","12:00","-29.3","","-33.0","","71","","","","36","","2","","24.1","","100.89","","","","-32","","Ice Crystals"
"-133.48","68.30","INUVIK A","2202571","2019-01-20 13:00","2019","01","20","13:00","-29.7","","-33.3","","71","","","","15","","4","","24.1","","100.94","","","","-34","","Ice Crystals"
"-133.48","68.30","INUVIK A","2202571","2019-01-20 14:00","2019","01","20","14:00","-28.6","","-32.2","","72","","","","11","","6","","24.1","","100.96","","","","-35","","Ice Crystals"
"-133.48","68.30","INUVIK A","2202571","2019-01-20 15:00","2019","01","20","15:00","-27.3","","-30.8","","73","","","","5","","8","","24.1","","100.97","","","","-35","","Ice Crystals"
"-133.48","68.30","INUVIK A","2202571","2019-01-20 16:00","2019","01","20","16:00","-26.8","","-30.3","","73","","","","36","","3","","24.1","","100.96","","","","-30","","Ice Crystals"
"-133.48","68.30","INUVIK A","2202571","2019-01-20 17:00","2019","01","20","17:00","-26.6","","-30.1","","73","","","","22","","4","","24.1","","100.99","","","","-31","","Ice Crystals"
"-133.48","68.30","INUVIK A","2202571","2019-01-20 18:00","2019","01","20","18:00","-27.0","","-30.5","","73","","","","30","","3","","24.1","","100.97","","","","-30","","Ice Crystals"
"-133.48","68.30","INUVIK A","2202571","2019-01-20 19:00","2019","01","20","19:00","-26.1","","-29.5","","73","","","","26","","5","","24.1","","100.99","","","","-31","","Ice Crystals"
"-133.48","68.30","INUVIK A","2202571","2019-01-20 20:00","2019","01","20","20:00","-25.3","","-28.7","","74","","","","27","","6","","24.1","","101.01","","","","-31","","Snow"
"-133.48","68.30","INUVIK A","2202571","2019-01-20 21:00","2019","01","20","21:00","-25.7","","-29.1","","74","","","","30","","6","","24.1","","101.00","","","","-32","","Snow"
"-133.48","68.30","INUVIK A","2202571","2019-01-20 22:00","2019","01","20","22:00","-26.6","","-30.0","","73","","","","31","","5","","24.1","","101.02","","","","-32","","Snow"
"-133.48","68.30","INUVIK A","2202571","2019-01-20 23:00","2019","01","20","23:00","-26.7","","-30.1","","73","","","","33","","5","","24.1","","101.01","","","","-32","","Snow"
"-133.48","68.30","INUVIK A","2202571","2019-01-21 00:00","2019","01","21","00:00","-27.9","","-31.5","","72","","","","36","","3","","24.1","","101.02","","","","-31","","NA"
"-133.48","68.30","INUVIK A","2202571","2019-01-21 01:00","2019","01","21","01:00","-26.3","","-29.7","","73","","","","32","","5","","24.1","","101.03","","","","-31","","NA"
"-133.48","68.30","INUVIK A","2202571","2019-01-21 02:00","2019","01","21","02:00","-24.8","","-28.2","","74","","","","30","","6","","24.1","","101.07","","","","-31","","Mostly Cloudy"
"-133.48","68.30","INUVIK A","2202571","2019-01-21 03:00","2019","01","21","03:00","-23.5","","-26.7","","75","","","","31","","5","","24.1","","101.06","","","","-28","","NA"
"-133.48","68.30","INUVIK A","2202571","2019-01-21 04:00","2019","01","21","04:00","-23.6","","-26.9","","75","","","","30","","7","","24.1","","101.07","","","","-30","","NA"
"-133.48","68.30","INUVIK A","2202571","2019-01-21 05:00","2019","01","21","05:00","-23.3","","-26.5","","76","","","","29","","7","","24.1","","101.06","","","","-29","","Cloudy"
"-133.48","68.30","INUVIK A","2202571","2019-01-21 06:00","2019","01","21","06:00","-23.1","","-26.3","","76","","","","30","","5","","16.1","","101.06","","","","-28","","Snow"
"-133.48","68.30","INUVIK A","2202571","2019-01-21 07:00","2019","01","21","07:00","-23.1","","-26.3","","76","","","","29","","3","","16.1","","101.06","","","","-26","","Snow"
"-133.48","68.30","INUVIK A","2202571","2019-01-21 08:00","2019","01","21","08:00","-23.1","","-26.3","","76","","","","29","","6","","24.1","","101.06","","","","-29","","Snow"
"-133.48","68.30","INUVIK A","2202571","2019-01-21 09:00","2019","01","21","09:00","-23.5","","-26.7","","75","","","","30","","6","","16.1","","101.07","","","","-29","","Snow"
"-133.48","68.30","INUVIK A","2202571","2019-01-21 10:00","2019","01","21","10:00","-24.1","","-27.4","","75","","","","31","","5","","9.7","","101.09","","","","-29","","Snow"
"-133.48","68.30","INUVIK A","2202571","2019-01-21 11:00","2019","01","21","11:00","-25.1","","-28.5","","74","","","","30","","6","","6.4","","101.15","","","","-31","","Snow"
"-133.48","68.30","INUVIK A","2202571","2019-01-21 12:00","2019","01","21","12:00","-25.1","","-28.5","","74","","","","36","","2","","6.4","","101.18","","","","-27","","Snow"
"-133.48","68.30","INUVIK A","2202571","2019-01-21 13:00","2019","01","21","13:00","-25.8","","-29.2","","74","","","","30","","8","","16.1","","101.24","","","","-33","","Snow"
"-133.48","68.30","INUVIK A","2202571","2019-01-21 14:00","2019","01","21","14:00","-25.6","","-29.0","","74","","","","29","","5","","16.1","","101.28","","","","-31","","Snow"
"-133.48","68.30","INUVIK A","2202571","2019-01-21 15:00","2019","01","21","15:00","-25.4","","-28.8","","74","","","","28","","6","","16.1","","101.31","","","","-31","","Snow"
"-133.48","68.30","INUVIK A","2202571","2019-01-21 16:00","2019","01","21","16:00","-26.1","","-29.6","","73","","","","29","","7","","16.1","","101.35","","","","-33","","Snow"
"-133.48","68.30","INUVIK A","2202571","2019-01-21 17:00","2019","01","21","17:00","-27.0","","-30.5","","73","","","","30","","7","","24.1","","101.36","","","","-34","","Mostly Cloudy"
"-133.48","68.30","INUVIK A","2202571","2019-01-21 18:00","2019","01","21","18:00","-27.0","","-30.5","","73","","","","30","","7","","24.1","","101.40","","","","-34","","NA"
"-133.48","68.30","INUVIK A","2202571","2019-01-21 19:00","2019","01","21","19:00","-27.5","","-31.0","","73","","","","30","","8","","24.1","","101.42","","","","-35","","NA"
"-133.48","68.30","INUVIK A","2202571","2019-01-21 20:00","2019","01","21","20:00","-26.8","","-30.3","","73","","","","30","","3","","16.1","","101.43","","","","-30","","Snow"
"-133.48","68.30","INUVIK A","2202571","2019-01-21 21:00","2019","01","21","21:00","-27.1","","-30.6","","73","","","","30","","7","","16.1","","101.47","","","","-34","","Snow"
"-133.48","68.30","INUVIK A","2202571","2019-01-21 22:00","2019","01","21","22:00","-27.1","","-30.6","","73","","","","29","","8","","16.1","","101.50","","","","-35","","Snow"
"-133.48","68.30","INUVIK A","2202571","2019-01-21 23:00","2019","01","21","23:00","-26.1","","-29.6","","73","","","","29","","7","","16.1","","101.56","","","","-33","","Snow"
"-133.48","68.30","INUVIK A","2202571","2019-01-22 00:00","2019","01","22","00:00","-25.9","","-29.3","","74","","","","30","","5","","24.1","","101.60","","","","-31","","Snow"
"-133.48","68.30","INUVIK A","2202571","2019-01-22 01:00","2019","01","22","01:00","-25.6","","-28.9","","74","","","","36","","3","","24.1","","101.62","","","","-29","","Snow"
"-133.48","68.30","INUVIK A","2202571","2019-01-22 02:00","2019","01","22","02:00","-25.3","","-28.7","","74","","","","29","","5","","24.1","","101.66","","","","-30","","Snow"
"-133.48","68.30","INUVIK A","2202571","2019-01-22 03:00","2019","01","22","03:00","-25.0","","-28.3","","74","","","","28","","4","","24.1","","101.71","","","","-29","","Snow"
"-133.48","68.30","INUVIK A","2202571","2019-01-22 04:00","2019","01","22","04:00","-24.7","","-28.0","","74","","","","29","","4","","24.1","","101.75","","","","-29","","Snow"
"-133.48","68.30","INUVIK A","2202571","2019-01-22 05:00","2019","01","22","05:00","-24.6","","-27.9","","75","","","","25","","3","","24.1","","101.77","","","","-28","","Snow"
"-133.48","68.30","INUVIK A","2202571","2019-01-22 06:00","2019","01","22","06:00","-24.4","","-27.7","","75","","","","29","","3","","24.1","","101.79","","","","-27","","Snow"
"-133.48","68.30","INUVIK A","2202571","2019-01-22 07:00","2019","01","22","07:00","-24.2","","-27.4","","75","","","","36","","2","","16.1","","101.83","","","","-26","","Snow"
"-133.48","68.30","INUVIK A","2202571","2019-01-22 08:00","2019","01","22","08:00","-24.1","","-27.3","","75","","","","27","","3","","16.1","","101.82","","","","-27","","Snow"
"-133.48","68.30","INUVIK A","2202571","2019-01-22 09:00","2019","01","22","09:00","-24.0","","-27.2","","75","","","","16","","3","","16.1","","101.87","","","","-27","","Snow"
"-133.48","68.30","INUVIK A","2202571","2019-01-22 10:00","2019","01","22","10:00","-23.6","","-26.8","","75","","","","29","","3","","16.1","","101.90","","","","-26","","Ice Crystals"
"-133.48","68.30","INUVIK A","2202571","2019-01-22 11:00","2019","01","22","11:00","-22.7","","-25.8","","76","","","","30","","6","","16.1","","101.95","","","","-28","","Snow"
"-133.48","68.30","INUVIK A","2202571","2019-01-22 12:00","2019","01","22","12:00","-22.7","","-25.9","","76","","","","32","","4","","16.1","","102.01","","","","-26","","Snow"
"-133.48","68.30","INUVIK A","2202571","2019-01-22 13:00","2019","01","22","13:00","-22.9","","-26.0","","76","","","","26","","3","","24.1","","102.04","","","","-26","","Snow"
"-133.48","68.30","INUVIK A","2202571","2019-01-22 14:00","2019","01","22","14:00","-22.8","","-25.9","","76","","","","23","","7","","24.1","","102.07","","","","-29","","Snow"
"-133.48","68.30","INUVIK A","2202571","2019-01-22 15:00","2019","01","22","15:00","-22.4","","-25.5","","76","","","","36","","3","","24.1","","102.08","","","","-25","","Snow"
"-133.48","68.30","INUVIK A","2202571","2019-01-22 16:00","2019","01","22","16:00","-22.2","","-25.3","","77","","","","36","","3","","24.1","","102.08","","","","-25","","Snow"
"-133.48","68.30","INUVIK A","2202571","2019-01-22 17:00","2019","01","22","17:00","-22.3","","-25.4","","76","","","","15","","5","","24.1","","102.05","","","","-27","","Snow"
"-133.48","68.30","INUVIK A","2202571","2019-01-22 18:00","2019","01","22","18:00","-21.8","","-24.8","","77","","","","17","","7","","24.1","","102.04","","","","-28","","Snow"
"-133.48","68.30","INUVIK A","2202571","2019-01-22 19:00","2019","01","22","19:00","-22.0","","-25.0","","77","","","","17","","6","","24.1","","102.00","","","","-27","","Snow"
"-133.48","68.30","INUVIK A","2202571","2019-01-22 20:00","2019","01","22","20:00","-22.8","","-26.0","","76","","","","16","","8","","24.1","","101.96","","","","-30","","Mainly Clear"
"-133.48","68.30","INUVIK A","2202571","2019-01-22 21:00","2019","01","22","21:00","-23.0","","-26.1","","76","","","","14","","9","","24.1","","101.93","","","","-30","","NA"
"-133.48","68.30","INUVIK A","2202571","2019-01-22 22:00","2019","01","22","22:00","-23.8","","-27.0","","75","","","","12","","8","","24.1","","101.90","","","","-31","","NA"
"-133.48","68.30","INUVIK A","2202571","2019-01-22 23:00","2019","01","22","23:00","-23.9","","-27.2","","75","","","","15","","10","","24.1","","101.84","","","","-32","","Clear"
"-133.48","68.30","INUVIK A","2202571","2019-01-23 00:00","2019","01","23","00:00","-24.6","","-27.9","","75","","","","12","","9","","24.1","","101.79","","","","-32","","NA"
"-133.48","68.30","INUVIK A","2202571","2019-01-23 01:00","2019","01","23","01:00","-24.0","","-27.2","","75","","","","13","","11","","24.1","","101.72","","","","-32","","NA"
"-133.48","68.30","INUVIK A","2202571","2019-01-23 02:00","2019","01","23","02:00","-24.5","","-27.7","","75","","","","10","","11","","24.1","","101.66","","","","-33","","Clear"
"-133.48","68.30","INUVIK A","2202571","2019-01-23 03:00","2019","01","23","03:00","-24.3","","-27.5","","75","","","","17","","8","","24.1","","101.64","","","","-31","","NA"
"-133.48","68.30","INUVIK A","2202571","2019-01-23 04:00","2019","01","23","04:00","-23.5","","-26.7","","76","","","","16","","21","","24.1","","101.55","","","","-35","","NA"
"-133.48","68.30","INUVIK A","2202571","2019-01-23 05:00","2019","01","23","05:00","-23.9","","-27.1","","75","","","","13","","14","","24.1","","101.42","","","","-34","","Clear"
"-133.48","68.30","INUVIK A","2202571","2019-01-23 06:00","2019","01","23","06:00","-23.8","","-27.0","","75","","","","12","","12","","24.1","","101.33","","","","-33","","NA"
"-133.48","68.30","INUVIK A","2202571","2019-01-23 07:00","2019","01","23","07:00","-24.5","","-27.8","","75","","","","13","","9","","24.1","","101.22","","","","-32","","NA"
"-133.48","68.30","INUVIK A","2202571","2019-01-23 08:00","2019","01","23","08:00","-24.3","","-27.6","","75","","","","11","","13","","24.1","","101.12","","","","-34","","Clear"
"-133.48","68.30","INUVIK A","2202571","2019-01-23 09:00","2019","01","23","09:00","-23.7","","-26.9","","75","","","","12","","9","","24.1","","101.05","","","","-31","","NA"
"-133.48","68.30","INUVIK A","2202571","2019-01-23 10:00","2019","01","23","10:00","-23.8","","-27.0","","75","","","","12","","18","","24.1","","101.00","","","","-35","","NA"
"-133.48","68.30","INUVIK A","2202571","2019-01-23 11:00","2019","01","23","11:00","-24.1","","-27.3","","75","","","","11","","15","","24.1","","100.96","","","","-34","","Clear"
"-133.48","68.30","INUVIK A","2202571","2019-01-23 12:00","2019","01","23","12:00","-24.2","","-27.5","","75","","","","11","","14","","24.1","","100.89","","","","-34","","NA"
"-133.48","68.30","INUVIK A","2202571","2019-01-23 13:00","2019","01","23","13:00","-23.9","","-27.2","","75","","","","13","","12","","24.1","","100.83","","","","-33","","NA"
"-133.48","68.30","INUVIK A","2202571","2019-01-23 14:00","2019","01","23","14:00","-24.2","","-27.5","","74","","","","11","","8","","24.1","","100.78","","","","-31","","Mainly Clear"
"-133.48","68.30","INUVIK A","2202571","2019-01-23 15:00","2019","01","23","15:00","-23.7","","-27.1","","74","","","","13","","11","","24.1","","100.66","","","","-32","","NA"
"-133.48","68.30","INUVIK A","2202571","2019-01-23 16:00","2019","01","23","16:00","-23.2","","-26.9","","73","","","","13","","13","","24.1","","100.55","","","","-32","","NA"
"-133.48","68.30","INUVIK A","2202571","2019-01-23 17:00","2019","01","23","17:00","-23.4","","-27.5","","70","","","","12","","11","","24.1","","100.48","","","","-32","","Mainly Clear"
"-133.48","68.30","INUVIK A","2202571","2019-01-23 18:00","2019","01","23","18:00","-23.1","","-27.6","","67","","","","11","","12","","24.1","","100.37","","","","-32","","NA"
"-133.48","68.30","INUVIK A","2202571","2019-01-23 19:00","2019","01","23","19:00","-22.4","","-27.2","","66","","","","12","","10","","24.1","","100.31","","","","-30","","NA"
"-133.48","68.30","INUVIK A","2202571","2019-01-23 20:00","2019","01","23","20:00","-22.4","","-27.1","","66","","","","12","","10","","24.1","","100.23","","","","-30","","Mostly Cloudy"
"-133.48","68.30","INUVIK A","2202571","2019-01-23 21:00","2019","01","23","21:00","-21.8","","-26.2","","68","","","","6","","9","","24.1","","100.15","","","","-29","","NA"
"-133.48","68.30","INUVIK A","2202571","2019-01-23 22:00","2019","01","23","22:00","-22.4","","-26.6","","69","","","","10","","4","","24.1","","100.13","","","","-26","","NA"
"-133.48","68.30","INUVIK A","2202571","2019-01-23 23:00","2019","01","23","23:00","-22.0","","-26.4","","68","","","","14","","9","","24.1","","100.09","","","","-29","","Mainly Clear"
"-133.48","68.30","INUVIK A","2202571","2019-01-24 00:00","2019","01","24","00:00","-22.1","","-26.5","","68","","","","14","","9","","24.1","","100.07","","","","-29","","NA"
"-133.48","68.30","INUVIK A","2202571","2019-01-24 01:00","2019","01","24","01:00","-21.1","","-26.1","","65","","","","36","","1","","24.1","","100.06","","","","-22","","NA"
"-133.48","68.30","INUVIK A","2202571","2019-01-24 02:00","2019","01","24","02:00","-21.4","","-26.0","","67","","","","15","","5","","24.1","","100.07","","","","-26","","Mainly Clear"
"-133.48","68.30","INUVIK A","2202571","2019-01-24 03:00","2019","01","24","03:00","-21.0","","-25.3","","69","","","","11","","9","","24.1","","100.02","","","","-28","","NA"
"-133.48","68.30","INUVIK A","2202571","2019-01-24 04:00","2019","01","24","04:00","-19.6","","-23.7","","70","","","","36","","2","","24.1","","100.05","","","","-21","","NA"
"-133.48","68.30","INUVIK A","2202571","2019-01-24 05:00","2019","01","24","05:00","-19.0","","-22.6","","74","","","","11","","5","","24.1","","100.06","","","","-23","","Cloudy"
"-133.48","68.30","INUVIK A","2202571","2019-01-24 06:00","2019","01","24","06:00","-18.7","","-22.1","","75","","","","18","","4","","24.1","","100.07","","","","-22","","NA"
"-133.48","68.30","INUVIK A","2202571","2019-01-24 07:00","2019","01","24","07:00","-19.1","","-22.4","","76","","","","9","","9","","24.1","","100.03","","","","-26","","NA"
"-133.48","68.30","INUVIK A","2202571","2019-01-24 08:00","2019","01","24","08:00","-18.6","","-21.7","","77","","","","36","","3","","24.1","","100.08","","","","-21","","Mostly Cloudy"
"-133.48","68.30","INUVIK A","2202571","2019-01-24 09:00","2019","01","24","09:00","-20.5","","-23.8","","76","","","","8","","5","","24.1","","100.07","","","","-25","","NA"
"-133.48","68.30","INUVIK A","2202571","2019-01-24 10:00","2019","01","24","10:00","-20.4","","-23.5","","76","","","","10","","5","","24.1","","100.11","","","","-25","","NA"
"-133.48","68.30","INUVIK A","2202571","2019-01-24 11:00","2019","01","24","11:00","-20.5","","-23.5","","78","","","","6","","8","","24.1","","100.09","","","","-27","","Mainly Clear"
"-133.48","68.30","INUVIK A","2202571","2019-01-24 12:00","2019","01","24","12:00","-19.7","","-22.7","","77","","","","7","","9","","24.1","","100.08","","","","-26","","NA"
"-133.48","68.30","INUVIK A","2202571","2019-01-24 13:00","2019","01","24","13:00","-19.5","","-22.4","","78","","","","7","","10","","24.1","","100.13","","","","-27","","NA"
"-133.48","68.30","INUVIK A","2202571","2019-01-24 14:00","2019","01","24","14:00","-18.9","","-22.2","","75","","","","7","","14","","24.1","","100.09","","","","-27","","Mainly Clear"
"-133.48","68.30","INUVIK A","2202571","2019-01-24 15:00","2019","01","24","15:00","-19.4","","-22.7","","76","","","","8","","11","","24.1","","100.13","","","","-27","","NA"
"-133.48","68.30","INUVIK A","2202571","2019-01-24 16:00","2019","01","24","16:00","-18.5","","-21.9","","75","","","","13","","9","","24.1","","100.09","","","","-25","","NA"
"-133.48","68.30","INUVIK A","2202571","2019-01-24 17:00","2019","01","24","17:00","-18.7","","-21.6","","78","","","","8","","8","","24.1","","100.11","","","","-25","","Mainly Clear"
"-133.48","68.30","INUVIK A","2202571","2019-01-24 18:00","2019","01","24","18:00","-19.1","","-21.9","","79","","","","7","","7","","24.1","","100.09","","","","-25","","NA"
"-133.48","68.30","INUVIK A","2202571","2019-01-24 19:00","2019","01","24","19:00","-19.5","","-22.4","","78","","","","6","","10","","24.1","","100.12","","","","-27","","NA"
"-133.48","68.30","INUVIK A","2202571","2019-01-24 20:00","2019","01","24","20:00","-18.9","","-21.8","","79","","","","5","","8","","24.1","","100.16","","","","-25","","Mainly Clear"
"-133.48","68.30","INUVIK A","2202571","2019-01-24 21:00","2019","01","24","21:00","-19.0","","-21.6","","80","","","","7","","10","","24.1","","100.15","","","","-26","","NA"
"-133.48","68.30","INUVIK A","2202571","2019-01-24 22:00","2019","01","24","22:00","-20.3","","-23.2","","78","","","","7","","11","","24.1","","100.17","","","","-28","","NA"
"-133.48","68.30","INUVIK A","2202571","2019-01-24 23:00","2019","01","24","23:00","-18.0","","-20.7","","80","","","","7","","10","","24.1","","100.19","","","","-25","","Mainly Clear"
"-133.48","68.30","INUVIK A","2202571","2019-01-25 00:00","2019","01","25","00:00","-18.1","","-20.9","","79","","","","7","","9","","24.1","","100.23","","","","-24","","NA"
"-133.48","68.30","INUVIK A","2202571","2019-01-25 01:00","2019","01","25","01:00","-20.5","","-23.2","","79","","","","7","","8","","24.1","","100.25","","","","-27","","NA"
"-133.48","68.30","INUVIK A","2202571","2019-01-25 02:00","2019","01","25","02:00","-20.0","","-22.5","","81","","","","5","","7","","24.1","","100.26","","","","-26","","Mainly Clear"
"-133.48","68.30","INUVIK A","2202571","2019-01-25 03:00","2019","01","25","03:00","-21.8","","-24.5","","79","","","","9","","9","","24.1","","100.25","","","","-29","","NA"
"-133.48","68.30","INUVIK A","2202571","2019-01-25 04:00","2019","01","25","04:00","-22.3","","-25.3","","77","","","","12","","6","","24.1","","100.25","","","","-28","","NA"
"-133.48","68.30","INUVIK A","2202571","2019-01-25 05:00","2019","01","25","05:00","-22.9","","-26.0","","77","","","","31","","4","","24.1","","100.24","","","","-27","","Ice Crystals"
"-133.48","68.30","INUVIK A","2202571","2019-01-25 06:00","2019","01","25","06:00","-23.5","","-26.4","","77","","","","7","","5","","24.1","","100.16","","","","-28","","Ice Crystals"
"-133.48","68.30","INUVIK A","2202571","2019-01-25 07:00","2019","01","25","07:00","-21.1","","-24.0","","78","","","","8","","10","","24.1","","100.12","","","","-29","","Snow"
"-133.48","68.30","INUVIK A","2202571","2019-01-25 08:00","2019","01","25","08:00","-20.8","","-23.6","","78","","","","11","","8","","6.4","","100.03","","","","-27","","Snow,Fog"
"-133.48","68.30","INUVIK A","2202571","2019-01-25 09:00","2019","01","25","09:00","-19.2","","-21.9","","80","","","","11","","5","","9.7","","99.95","","","","-23","","Fog"
"-133.48","68.30","INUVIK A","2202571","2019-01-25 10:00","2019","01","25","10:00","-19.3","","-22.0","","79","","","","9","","4","","4.8","","99.89","","","","-23","","Snow,Fog"
"-133.48","68.30","INUVIK A","2202571","2019-01-25 11:00","2019","01","25","11:00","-19.6","","-22.4","","79","","","","10","","9","","24.1","","99.83","","","","-26","","Snow"
"-133.48","68.30","INUVIK A","2202571","2019-01-25 12:00","2019","01","25","12:00","-19.5","","-22.3","","79","","","","11","","9","","24.1","","99.77","","","","-26","","NA"
"-133.48","68.30","INUVIK A","2202571","2019-01-25 13:00","2019","01","25","13:00","-19.4","","-22.2","","79","","","","9","","7","","24.1","","99.66","","","","-25","","NA"
"-133.48","68.30","INUVIK A","2202571","2019-01-25 14:00","2019","01","25","14:00","-18.1","","-20.7","","80","","","","5","","9","","24.1","","99.62","","","","-24","","Cloudy"
"-133.48","68.30","INUVIK A","2202571","2019-01-25 15:00","2019","01","25","15:00","-18.3","","-20.9","","80","","","","","","0","","24.1","","99.62","","","","","","NA"
"-133.48","68.30","INUVIK A","2202571","2019-01-25 16:00","2019","01","25","16:00","-18.7","","-21.3","","80","","","","8","","7","","24.1","","99.59","","","","-24","","NA"
"-133.48","68.30","INUVIK A","2202571","2019-01-25 17:00","2019","01","25","17:00","-18.4","","-21.1","","80","","","","8","","6","","24.1","","99.51","","","","-23","","Cloudy"
"-133.48","68.30","INUVIK A","2202571","2019-01-25 18:00","2019","01","25","18:00","-18.0","","-20.6","","80","","","","11","","14","","24.1","","99.52","","","","-26","","NA"
"-133.48","68.30","INUVIK A","2202571","2019-01-25 19:00","2019","01","25","19:00","-18.2","","-20.8","","80","","","","12","","7","","24.1","","99.55","","","","-24","","NA"
"-133.48","68.30","INUVIK A","2202571","2019-01-25 20:00","2019","01","25","20:00","-18.0","","-20.6","","80","","","","8","","5","","24.1","","99.52","","","","-22","","Cloudy"
"-133.48","68.30","INUVIK A","2202571","2019-01-25 21:00","2019","01","25","21:00","-16.8","","-19.3","","81","","","","17","","8","","9.7","","99.51","","","","-22","","Snow"
"-133.48","68.30","INUVIK A","2202571","2019-01-25 22:00","2019","01","25","22:00","-16.4","","-18.8","","82","","","","36","","2","","6.4","","99.50","","","","-18","","Snow"
"-133.48","68.30","INUVIK A","2202571","2019-01-25 23:00","2019","01","25","23:00","-16.3","","-18.7","","82","","","","22","","4","","3.2","","99.53","","","","-19","","Snow"
"-133.48","68.30","INUVIK A","2202571","2019-01-26 00:00","2019","01","26","00:00","-16.2","","-18.6","","82","","","","18","","3","","2.4","","99.55","","","","-18","","Snow"
"-133.48","68.30","INUVIK A","2202571","2019-01-26 01:00","2019","01","26","01:00","-16.6","","-19.0","","82","","","","19","","6","","4.0","","99.55","","","","-21","","Snow"
"-133.48","68.30","INUVIK A","2202571","2019-01-26 02:00","2019","01","26","02:00","-16.5","","-18.9","","82","","","","26","","8","","8.1","","99.61","","","","-22","","Snow"
"-133.48","68.30","INUVIK A","2202571","2019-01-26 03:00","2019","01","26","03:00","-16.9","","-19.4","","81","","","","29","","6","","3.2","","99.62","","","","-21","","Snow"
"-133.48","68.30","INUVIK A","2202571","2019-01-26 04:00","2019","01","26","04:00","-16.7","","-19.1","","82","","","","36","","3","","3.2","","99.65","","","","-19","","Snow"
"-133.48","68.30","INUVIK A","2202571","2019-01-26 05:00","2019","01","26","05:00","-16.4","","-18.9","","82","","","","24","","5","","24.1","","99.72","","","","-20","","Snow"
"-133.48","68.30","INUVIK A","2202571","2019-01-26 06:00","2019","01","26","06:00","-16.4","","-18.8","","82","","","","24","","8","","4.8","","99.77","","","","-22","","Snow"
"-133.48","68.30","INUVIK A","2202571","2019-01-26 07:00","2019","01","26","07:00","-16.4","","-18.8","","82","","","","22","","3","","8.1","","99.80","","","","-19","","Snow"
"-133.48","68.30","INUVIK A","2202571","2019-01-26 08:00","2019","01","26","08:00","-16.2","","-18.6","","82","","","","31","","3","","2.4","","99.84","","","","-18","","Snow"
"-133.48","68.30","INUVIK A","2202571","2019-01-26 09:00","2019","01","26","09:00","-16.1","","-18.5","","82","","","","29","","3","","3.2","","99.89","","","","-18","","Snow"
"-133.48","68.30","INUVIK A","2202571","2019-01-26 10:00","2019","01","26","10:00","-16.1","","-18.5","","82","","","","30","","5","","6.4","","99.95","","","","-20","","Snow"
"-133.48","68.30","INUVIK A","2202571","2019-01-26 11:00","2019","01","26","11:00","-16.0","","-18.4","","82","","","","31","","3","","9.7","","100.02","","","","-18","","Snow"
"-133.48","68.30","INUVIK A","2202571","2019-01-26 12:00","2019","01","26","12:00","-16.5","","-19.0","","81","","","","35","","7","","8.1","","100.14","","","","-22","","Snow"
"-133.48","68.30","INUVIK A","2202571","2019-01-26 13:00","2019","01","26","13:00","-17.0","","-19.5","","81","","","","35","","5","","4.8","","100.25","","","","-21","","Snow"
"-133.48","68.30","INUVIK A","2202571","2019-01-26 14:00","2019","01","26","14:00","-17.7","","-20.4","","80","","","","34","","10","","4.8","","100.36","","","","-24","","Snow"
"-133.48","68.30","INUVIK A","2202571","2019-01-26 15:00","2019","01","26","15:00","-18.5","","-21.4","","79","","","","33","","16","","4.8","","100.50","","","","-28","","Snow"
"-133.48","68.30","INUVIK A","2202571","2019-01-26 16:00","2019","01","26","16:00","-19.8","","-22.9","","77","","","","35","","19","","4.0","","100.66","","","","-30","","Snow,Blowing Snow"
"-133.48","68.30","INUVIK A","2202571","2019-01-26 17:00","2019","01","26","17:00","-20.5","","-23.8","","75","","","","34","","23","","6.4","","100.80","","","","-32","","Snow,Blowing Snow"
"-133.48","68.30","INUVIK A","2202571","2019-01-26 18:00","2019","01","26","18:00","-21.1","","-24.6","","74","","","","35","","9","","4.8","","100.99","","","","-28","","Snow,Blowing Snow"
"-133.48","68.30","INUVIK A","2202571","2019-01-26 19:00","2019","01","26","19:00","-21.4","","-25.1","","73","","","","33","","5","","4.8","","101.17","","","","-26","","Snow"
"-133.48","68.30","INUVIK A","2202571","2019-01-26 20:00","2019","01","26","20:00","-22.6","","-26.3","","72","","","","35","","14","","9.7","","101.37","","","","-32","","Snow"
"-133.48","68.30","INUVIK A","2202571","2019-01-26 21:00","2019","01","26","21:00","-23.6","","-27.4","","72","","","","34","","7","","16.1","","101.58","","","","-30","","Snow"
"-133.48","68.30","INUVIK A","2202571","2019-01-26 22:00","2019","01","26","22:00","-24.2","","-27.9","","72","","","","1","","7","","24.1","","101.75","","","","-31","","Snow"
"-133.48","68.30","INUVIK A","2202571","2019-01-26 23:00","2019","01","26","23:00","-24.7","","-28.4","","72","","","","3","","5","","24.1","","101.90","","","","-30","","Snow"
"-133.48","68.30","INUVIK A","2202571","2019-01-27 00:00","2019","01","27","00:00","-25.8","","-29.3","","73","","","","36","","2","","24.1","","102.04","","","","-28","","NA"
"-133.48","68.30","INUVIK A","2202571","2019-01-27 01:00","2019","01","27","01:00","-27.7","","-31.4","","72","","","","5","","12","","24.1","","102.19","","","","-37","","NA"
"-133.48","68.30","INUVIK A","2202571","2019-01-27 02:00","2019","01","27","02:00","-25.6","","-28.8","","75","","","","8","","15","","24.1","","102.29","","","","-36","","Snow"
"-133.48","68.30","INUVIK A","2202571","2019-01-27 03:00","2019","01","27","03:00","-24.9","","-28.3","","74","","","","10","","14","","24.1","","102.32","","","","-35","","NA"
"-133.48","68.30","INUVIK A","2202571","2019-01-27 04:00","2019","01","27","04:00","-25.5","","-29.0","","73","","","","10","","12","","24.1","","102.37","","","","-35","","NA"
"-133.48","68.30","INUVIK A","2202571","2019-01-27 05:00","2019","01","27","05:00","-26.7","","-30.1","","74","","","","9","","9","","24.1","","102.46","","","","-35","","Mostly Cloudy"
"-133.48","68.30","INUVIK A","2202571","2019-01-27 06:00","2019","01","27","06:00","-25.1","","-28.8","","72","","","","8","","14","","24.1","","102.45","","","","-35","","NA"
"-133.48","68.30","INUVIK A","2202571","2019-01-27 07:00","2019","01","27","07:00","-22.8","","-26.9","","69","","","","9","","15","","24.1","","102.49","","","","-33","","NA"
"-133.48","68.30","INUVIK A","2202571","2019-01-27 08:00","2019","01","27","08:00","-21.5","","-25.9","","68","","","","8","","14","","24.1","","102.45","","","","-31","","Snow"
"-133.48","68.30","INUVIK A","2202571","2019-01-27 09:00","2019","01","27","09:00","-21.4","","-25.4","","71","","","","8","","15","","24.1","","102.43","","","","-31","","Snow"
"-133.48","68.30","INUVIK A","2202571","2019-01-27 10:00","2019","01","27","10:00","-21.3","","-25.4","","70","","","","9","","14","","24.1","","102.46","","","","-30","","Snow"
"-133.48","68.30","INUVIK A","2202571","2019-01-27 11:00","2019","01","27","11:00","-21.0","","-25.7","","66","","","","8","","14","","24.1","","102.50","","","","-30","","Mostly Cloudy"
"-133.48","68.30","INUVIK A","2202571","2019-01-27 12:00","2019","01","27","12:00","-20.3","","-25.0","","67","","","","7","","11","","24.1","","102.50","","","","-28","","NA"
"-133.48","68.30","INUVIK A","2202571","2019-01-27 13:00","2019","01","27","13:00","-20.3","","-25.0","","67","","","","8","","20","","24.1","","102.45","","","","-31","","NA"
"-133.48","68.30","INUVIK A","2202571","2019-01-27 14:00","2019","01","27","14:00","-19.7","","-24.5","","66","","","","9","","11","","24.1","","102.50","","","","-27","","Mostly Cloudy"
"-133.48","68.30","INUVIK A","2202571","2019-01-27 15:00","2019","01","27","15:00","-18.2","","-23.0","","66","","","","10","","14","","24.1","","102.50","","","","-27","","NA"
"-133.48","68.30","INUVIK A","2202571","2019-01-27 16:00","2019","01","27","16:00","-17.8","","-22.9","","65","","","","12","","15","","24.1","","102.45","","","","-26","","NA"
"-133.48","68.30","INUVIK A","2202571","2019-01-27 17:00","2019","01","27","17:00","-17.6","","-22.5","","66","","","","11","","19","","24.1","","102.39","","","","-27","","Mostly Cloudy"
"-133.48","68.30","INUVIK A","2202571","2019-01-27 18:00","2019","01","27","18:00","-16.6","","-21.6","","66","","","","12","","18","","24.1","","102.31","","","","-26","","NA"
"-133.48","68.30","INUVIK A","2202571","2019-01-27 19:00","2019","01","27","19:00","-15.7","","-20.5","","67","","","","14","","14","","24.1","","102.27","","","","-23","","NA"
"-133.48","68.30","INUVIK A","2202571","2019-01-27 20:00","2019","01","27","20:00","-15.2","","-20.1","","67","","","","13","","18","","24.1","","102.22","","","","-24","","Cloudy"
"-133.48","68.30","INUVIK A","2202571","2019-01-27 21:00","2019","01","27","21:00","-14.7","","-19.8","","66","","","","13","","19","","24.1","","102.17","","","","-24","","NA"
"-133.48","68.30","INUVIK A","2202571","2019-01-27 22:00","2019","01","27","22:00","-14.6","","-19.8","","65","","","","13","","21","","24.1","","102.07","","","","-24","","NA"
"-133.48","68.30","INUVIK A","2202571","2019-01-27 23:00","2019","01","27","23:00","-14.8","","-19.9","","66","","","","13","","19","","24.1","","102.06","","","","-24","","Mainly Clear"
"-133.48","68.30","INUVIK A","2202571","2019-01-28 00:00","2019","01","28","00:00","-14.4","","-19.7","","65","","","","14","","12","","24.1","","102.02","","","","-21","","NA"
"-133.48","68.30","INUVIK A","2202571","2019-01-28 01:00","2019","01","28","01:00","-14.9","","-19.9","","66","","","","13","","14","","24.1","","101.96","","","","-22","","NA"
"-133.48","68.30","INUVIK A","2202571","2019-01-28 02:00","2019","01","28","02:00","-14.6","","-19.1","","69","","","","13","","16","","24.1","","101.90","","","","-23","","Mainly Clear"
"-133.48","68.30","INUVIK A","2202571","2019-01-28 03:00","2019","01","28","03:00","-14.2","","-18.5","","70","","","","13","","17","","24.1","","101.83","","","","-22","","NA"
"-133.48","68.30","INUVIK A","2202571","2019-01-28 04:00","2019","01","28","04:00","-13.6","","-17.8","","71","","","","15","","8","","24.1","","101.81","","","","-19","","NA"
"-133.48","68.30","INUVIK A","2202571","2019-01-28 05:00","2019","01","28","05:00","-12.7","","-16.9","","71","","","","13","","13","","24.1","","101.69","","","","-20","","Mostly Cloudy"
"-133.48","68.30","INUVIK A","2202571","2019-01-28 06:00","2019","01","28","06:00","-12.1","","-16.3","","71","","","","16","","13","","24.1","","101.64","","","","-19","","NA"
"-133.48","68.30","INUVIK A","2202571","2019-01-28 07:00","2019","01","28","07:00","-11.9","","-16.1","","71","","","","16","","20","","24.1","","101.58","","","","-20","","NA"
"-133.48","68.30","INUVIK A","2202571","2019-01-28 08:00","2019","01","28","08:00","-12.1","","-16.6","","70","","","","15","","16","","24.1","","101.49","","","","-20","","Mostly Cloudy"
"-133.48","68.30","INUVIK A","2202571","2019-01-28 09:00","2019","01","28","09:00","-11.9","","-16.1","","71","","","","17","","10","","24.1","","101.37","","","","-18","","NA"
"-133.48","68.30","INUVIK A","2202571","2019-01-28 10:00","2019","01","28","10:00","-11.8","","-15.8","","72","","","","21","","9","","24.1","","101.40","","","","-17","","NA"
"-133.48","68.30","INUVIK A","2202571","2019-01-28 11:00","2019","01","28","11:00","-11.8","","-15.9","","72","","","","19","","14","","24.1","","101.32","","","","-19","","Cloudy"
"-133.48","68.30","INUVIK A","2202571","2019-01-28 12:00","2019","01","28","12:00","-11.6","","-16.1","","70","","","","18","","30","","24.1","","101.24","","","","-22","","Blowing Snow"
"-133.48","68.30","INUVIK A","2202571","2019-01-28 13:00","2019","01","28","13:00","-11.3","","-15.8","","69","","","","17","","13","","24.1","","101.25","","","","-18","","NA"
"-133.48","68.30","INUVIK A","2202571","2019-01-28 14:00","2019","01","28","14:00","-11.1","","-15.5","","71","","","","26","","10","","24.1","","101.24","","","","-17","","Cloudy"
"-133.48","68.30","INUVIK A","2202571","2019-01-28 15:00","2019","01","28","15:00","-11.5","","-15.6","","72","","","","13","","12","","24.1","","101.21","","","","-18","","NA"
"-133.48","68.30","INUVIK A","2202571","2019-01-28 16:00","2019","01","28","16:00","-12.8","","-15.9","","78","","","","9","","9","","24.1","","101.21","","","","-18","","NA"
"-133.48","68.30","INUVIK A","2202571","2019-01-28 17:00","2019","01","28","17:00","-12.8","","-16.1","","77","","","","10","","9","","24.1","","101.19","","","","-18","","Cloudy"
"-133.48","68.30","INUVIK A","2202571","2019-01-28 18:00","2019","01","28","18:00","-13.9","","-17.1","","77","","","","11","","8","","24.1","","101.18","","","","-19","","NA"
"-133.48","68.30","INUVIK A","2202571","2019-01-28 19:00","2019","01","28","19:00","-12.6","","-16.2","","75","","","","11","","7","","24.1","","101.13","","","","-17","","NA"
"-133.48","68.30","INUVIK A","2202571","2019-01-28 20:00","2019","01","28","20:00","-12.6","","-15.9","","76","","","","36","","3","","24.1","","101.15","","","","-15","","Cloudy"
"-133.48","68.30","INUVIK A","2202571","2019-01-28 21:00","2019","01","28","21:00","-13.5","","-16.4","","79","","","","36","","3","","24.1","","101.17","","","","-16","","NA"
"-133.48","68.30","INUVIK A","2202571","2019-01-28 22:00","2019","01","28","22:00","-12.5","","-15.5","","79","","","","27","","5","","24.1","","101.15","","","","-16","","NA"
"-133.48","68.30","INUVIK A","2202571","2019-01-28 23:00","2019","01","28","23:00","-12.3","","-15.4","","78","","","","8","","4","","24.1","","101.13","","","","-15","","Snow"
"-133.48","68.30","INUVIK A","2202571","2019-01-29 00:00","2019","01","29","00:00","-12.7","","-15.4","","81","","","","2","","4","","24.1","","101.15","","","","-15","","Snow"
"-133.48","68.30","INUVIK A","2202571","2019-01-29 01:00","2019","01","29","01:00","-13.5","","-16.3","","79","","","","36","","3","","24.1","","101.16","","","","-16","","NA"
"-133.48","68.30","INUVIK A","2202571","2019-01-29 02:00","2019","01","29","02:00","-12.1","","-15.1","","79","","","","28","","6","","24.1","","101.15","","","","-16","","Cloudy"
"-133.48","68.30","INUVIK A","2202571","2019-01-29 03:00","2019","01","29","03:00","-11.7","","-14.8","","78","","","","36","","1","","24.1","","101.13","","","","-12","","NA"
"-133.48","68.30","INUVIK A","2202571","2019-01-29 04:00","2019","01","29","04:00","-11.3","","-14.0","","81","","","","36","","1","","24.1","","101.13","","","","-12","","NA"
"-133.48","68.30","INUVIK A","2202571","2019-01-29 05:00","2019","01","29","05:00","-11.3","","-14.1","","80","","","","30","","3","","24.1","","101.11","","","","-13","","Cloudy"
"-133.48","68.30","INUVIK A","2202571","2019-01-29 06:00","2019","01","29","06:00","-11.2","","-14.0","","80","","","","36","","1","","24.1","","101.07","","","","-12","","NA"
"-133.48","68.30","INUVIK A","2202571","2019-01-29 07:00","2019","01","29","07:00","-11.3","","-13.9","","82","","","","26","","3","","24.1","","101.03","","","","-13","","NA"
"-133.48","68.30","INUVIK A","2202571","2019-01-29 08:00","2019","01","29","08:00","-11.2","","-13.8","","82","","","","36","","2","","24.1","","100.99","","","","-12","","Cloudy"
"-133.48","68.30","INUVIK A","2202571","2019-01-29 09:00","2019","01","29","09:00","-11.3","","-13.7","","83","","","","28","","4","","24.1","","100.95","","","","-14","","NA"
"-133.48","68.30","INUVIK A","2202571","2019-01-29 10:00","2019","01","29","10:00","-11.5","","-13.9","","82","","","","28","","8","","24.1","","100.93","","","","-16","","Snow"
"-133.48","68.30","INUVIK A","2202571","2019-01-29 11:00","2019","01","29","11:00","-11.6","","-13.9","","83","","","","28","","5","","24.1","","100.90","","","","-15","","Snow"
"-133.48","68.30","INUVIK A","2202571","2019-01-29 12:00","2019","01","29","12:00","-11.7","","-13.8","","85","","","","29","","8","","8.1","","100.88","","","","-16","","Snow"
"-133.48","68.30","INUVIK A","2202571","2019-01-29 13:00","2019","01","29","13:00","-11.7","","-13.3","","88","","","","28","","5","","6.4","","100.83","","","","-15","","Snow"
"-133.48","68.30","INUVIK A","2202571","2019-01-29 14:00","2019","01","29","14:00","-11.7","","-13.4","","87","","","","30","","8","","6.4","","100.78","","","","-16","","Snow"
"-133.48","68.30","INUVIK A","2202571","2019-01-29 15:00","2019","01","29","15:00","-11.8","","-13.6","","86","","","","31","","11","","4.8","","100.71","","","","-18","","Freezing Drizzle,Snow,Fog"
"-133.48","68.30","INUVIK A","2202571","2019-01-29 16:00","2019","01","29","16:00","-12.3","","-14.3","","85","","","","32","","14","","4.8","","100.68","","","","-19","","Freezing Drizzle,Snow,Fog"
"-133.48","68.30","INUVIK A","2202571","2019-01-29 17:00","2019","01","29","17:00","-12.8","","-15.0","","84","","","","33","","17","","16.1","","100.63","","","","-21","","Snow"
"-133.48","68.30","INUVIK A","2202571","2019-01-29 18:00","2019","01","29","18:00","-14.0","","-16.6","","81","","","","32","","16","","1.6","","100.64","","","","-22","","Snow"
"-133.48","68.30","INUVIK A","2202571","2019-01-29 19:00","2019","01","29","19:00","-14.9","","-17.6","","80","","","","33","","14","","1.2","","100.65","","","","-22","","Snow"
"-133.48","68.30","INUVIK A","2202571","2019-01-29 20:00","2019","01","29","20:00","-15.0","","-17.6","","81","","","","31","","16","","1.2","","100.64","","","","-23","","Snow"
"-133.48","68.30","INUVIK A","2202571","2019-01-29 21:00","2019","01","29","21:00","-14.8","","-17.4","","81","","","","31","","22","","1.6","","100.65","","","","-24","","Snow"
"-133.48","68.30","INUVIK A","2202571","2019-01-29 22:00","2019","01","29","22:00","-14.6","","-17.6","","78","","","","31","","24","","4.8","","100.63","","","","-24","","Snow"
"-133.48","68.30","INUVIK A","2202571","2019-01-29 23:00","2019","01","29","23:00","-15.1","","-18.0","","79","","","","31","","23","","1.2","","100.65","","","","-25","","Snow,Blowing Snow"
"-133.48","68.30","INUVIK A","2202571","2019-01-30 00:00","2019","01","30","00:00","-15.3","","-18.2","","79","","","","31","","25","","0.8","","100.68","","","","-26","","Snow,Blowing Snow"
"-133.48","68.30","INUVIK A","2202571","2019-01-30 01:00","2019","01","30","01:00","-15.6","","-18.6","","78","","","","31","","26","","0.8","","100.74","","","","-26","","Snow,Blowing Snow"
"-133.48","68.30","INUVIK A","2202571","2019-01-30 02:00","2019","01","30","02:00","-15.9","","-19.0","","78","","","","31","","27","","0.8","","100.77","","","","-27","","Snow,Blowing Snow"
"-133.48","68.30","INUVIK A","2202571","2019-01-30 03:00","2019","01","30","03:00","-16.1","","-19.2","","77","","","","31","","28","","1.2","","100.81","","","","-27","","Snow,Blowing Snow"
"-133.48","68.30","INUVIK A","2202571","2019-01-30 04:00","2019","01","30","04:00","-16.3","","-19.5","","77","","","","31","","26","","1.6","","100.86","","","","-27","","Snow,Blowing Snow"
"-133.48","68.30","INUVIK A","2202571","2019-01-30 05:00","2019","01","30","05:00","-16.5","","-19.8","","76","","","","31","","28","","1.6","","100.90","","","","-28","","Snow,Blowing Snow"
"-133.48","68.30","INUVIK A","2202571","2019-01-30 06:00","2019","01","30","06:00","-16.7","","-20.1","","76","","","","31","","30","","1.6","","100.92","","","","-28","","Snow,Blowing Snow"
"-133.48","68.30","INUVIK A","2202571","2019-01-30 07:00","2019","01","30","07:00","-16.8","","-20.4","","74","","","","31","","31","","1.6","","100.96","","","","-29","","Snow,Blowing Snow"
"-133.48","68.30","INUVIK A","2202571","2019-01-30 08:00","2019","01","30","08:00","-17.7","","-21.4","","73","","","","31","","34","","1.6","","100.99","","","","-30","","Snow,Blowing Snow"
"-133.48","68.30","INUVIK A","2202571","2019-01-30 09:00","2019","01","30","09:00","-18.9","","-22.4","","74","","","","31","","24","","4.0","","101.04","","","","-30","","Snow,Blowing Snow"
"-133.48","68.30","INUVIK A","2202571","2019-01-30 10:00","2019","01","30","10:00","-19.8","","-23.4","","73","","","","30","","35","","4.0","","101.07","","","","-33","","Snow,Blowing Snow"
"-133.48","68.30","INUVIK A","2202571","2019-01-30 11:00","2019","01","30","11:00","-20.8","","-24.3","","74","","","","30","","31","","4.0","","101.08","","","","-34","","Snow,Blowing Snow"
"-133.48","68.30","INUVIK A","2202571","2019-01-30 12:00","2019","01","30","12:00","-20.9","","-24.4","","74","","","","30","","23","","4.0","","101.13","","","","-32","","Snow,Blowing Snow"
"-133.48","68.30","INUVIK A","2202571","2019-01-30 13:00","2019","01","30","13:00","-22.2","","-25.5","","75","","","","29","","23","","12.9","","101.16","","","","-34","","Snow,Blowing Snow"
"-133.48","68.30","INUVIK A","2202571","2019-01-30 14:00","2019","01","30","14:00","-22.0","","-25.3","","75","","","","28","","22","","6.4","","101.18","","","","-34","","Snow,Blowing Snow"
"-133.48","68.30","INUVIK A","2202571","2019-01-30 15:00","2019","01","30","15:00","-21.0","","-24.6","","73","","","","30","","25","","6.4","","101.23","","","","-33","","Snow,Blowing Snow"
"-133.48","68.30","INUVIK A","2202571","2019-01-30 16:00","2019","01","30","16:00","-20.6","","-24.4","","72","","","","30","","18","","4.0","","101.25","","","","-31","","Snow,Blowing Snow"
"-133.48","68.30","INUVIK A","2202571","2019-01-30 17:00","2019","01","30","17:00","-21.1","","-25.2","","70","","","","31","","24","","4.8","","101.28","","","","-33","","Snow,Blowing Snow"
"-133.48","68.30","INUVIK A","2202571","2019-01-30 18:00","2019","01","30","18:00","-21.7","","-25.6","","72","","","","30","","14","","6.4","","101.31","","","","-31","","Snow,Blowing Snow"
"-133.48","68.30","INUVIK A","2202571","2019-01-30 19:00","2019","01","30","19:00","-22.0","","-25.9","","71","","","","31","","23","","9.7","","101.33","","","","-34","","Snow"
"-133.48","68.30","INUVIK A","2202571","2019-01-30 20:00","2019","01","30","20:00","-22.2","","-26.0","","72","","","","31","","25","","9.7","","101.39","","","","-34","","Snow,Blowing Snow"
"-133.48","68.30","INUVIK A","2202571","2019-01-30 21:00","2019","01","30","21:00","-22.2","","-25.9","","73","","","","31","","18","","6.4","","101.45","","","","-33","","Snow,Blowing Snow"
"-133.48","68.30","INUVIK A","2202571","2019-01-30 22:00","2019","01","30","22:00","-22.2","","-25.9","","73","","","","30","","18","","16.1","","101.44","","","","-33","","Snow,Blowing Snow"
"-133.48","68.30","INUVIK A","2202571","2019-01-30 23:00","2019","01","30","23:00","-22.3","","-25.9","","73","","","","30","","15","","16.1","","101.48","","","","-32","","Snow,Blowing Snow"
"-133.48","68.30","INUVIK A","2202571","2019-01-31 00:00","2019","01","31","00:00","-22.3","","-26.0","","73","","","","31","","22","","24.1","","101.50","","","","-34","","Snow,Blowing Snow"
"-133.48","68.30","INUVIK A","2202571","2019-01-31 01:00","2019","01","31","01:00","-22.2","","-25.8","","73","","","","31","","20","","9.7","","101.54","","","","-33","","Snow,Blowing Snow"
"-133.48","68.30","INUVIK A","2202571","2019-01-31 02:00","2019","01","31","02:00","-22.3","","-25.8","","74","","","","31","","20","","9.7","","101.58","","","","-33","","Snow,Blowing Snow"
"-133.48","68.30","INUVIK A","2202571","2019-01-31 03:00","2019","01","31","03:00","-22.2","","-25.6","","74","","","","30","","13","","16.1","","101.66","","","","-31","","Snow"
"-133.48","68.30","INUVIK A","2202571","2019-01-31 04:00","2019","01","31","04:00","-21.7","","-25.3","","73","","","","31","","15","","16.1","","101.68","","","","-31","","Snow,Blowing Snow"
"-133.48","68.30","INUVIK A","2202571","2019-01-31 05:00","2019","01","31","05:00","-22.5","","-26.0","","74","","","","29","","13","","24.1","","101.73","","","","-31","","Snow"
"-133.48","68.30","INUVIK A","2202571","2019-01-31 06:00","2019","01","31","06:00","-23.8","","-26.9","","75","","","","30","","5","","24.1","","101.81","","","","-29","","Snow"
"-133.48","68.30","INUVIK A","2202571","2019-01-31 07:00","2019","01","31","07:00","-24.4","","-27.6","","75","","","","36","","2","","24.1","","101.85","","","","-26","","NA"
"-133.48","68.30","INUVIK A","2202571","2019-01-31 08:00","2019","01","31","08:00","-25.6","","-28.8","","76","","","","13","","10","","24.1","","101.88","","","","-34","","Snow"
"-133.48","68.30","INUVIK A","2202571","2019-01-31 09:00","2019","01","31","09:00","-25.1","","-28.3","","75","","","","36","","3","","16.1","","101.88","","","","-28","","Snow"
"-133.48","68.30","INUVIK A","2202571","2019-01-31 10:00","2019","01","31","10:00","-25.0","","-28.1","","76","","","","20","","4","","16.1","","101.96","","","","-29","","Snow"
"-133.48","68.30","INUVIK A","2202571","2019-01-31 11:00","2019","01","31","11:00","-25.5","","-28.7","","75","","","","36","","1","","8.1","","102.04","","","","-27","","Snow"
"-133.48","68.30","INUVIK A","2202571","2019-01-31 12:00","2019","01","31","12:00","-26.4","","-29.7","","74","","","","36","","2","","9.7","","102.10","","","","-28","","Snow"
"-133.48","68.30","INUVIK A","2202571","2019-01-31 13:00","2019","01","31","13:00","-24.9","","-28.1","","75","","","","29","","4","","9.7","","102.19","","","","-29","","Snow"
"-133.48","68.30","INUVIK A","2202571","2019-01-31 14:00","2019","01","31","14:00","-25.3","","-28.6","","75","","","","29","","5","","24.1","","102.24","","","","-30","","Snow"
"-133.48","68.30","INUVIK A","2202571","2019-01-31 15:00","2019","01","31","15:00","-25.1","","-28.4","","75","","","","25","","7","","24.1","","102.31","","","","-32","","Snow"
"-133.48","68.30","INUVIK A","2202571","2019-01-31 16:00","2019","01","31","16:00","-25.6","","-29.0","","74","","","","28","","7","","24.1","","102.37","","","","-32","","Snow"
"-133.48","68.30","INUVIK A","2202571","2019-01-31 17:00","2019","01","31","17:00","-26.2","","-29.5","","74","","","","25","","3","","16.1","","102.43","","","","-29","","Snow"
"-133.48","68.30","INUVIK A","2202571","2019-01-31 18:00","2019","01","31","18:00","-26.5","","-29.9","","74","","","","26","","5","","16.1","","102.47","","","","-32","","Snow"
"-133.48","68.30","INUVIK A","2202571","2019-01-31 19:00","2019","01","31","19:00","-26.1","","-29.5","","74","","","","28","","6","","16.1","","102.52","","","","-32","","Snow"
"-133.48","68.30","INUVIK A","2202571","2019-01-31 20:00","2019","01","31","20:00","-26.1","","-29.5","","74","","","","27","","12","","24.1","","102.56","","","","-35","","Snow"
"-133.48","68.30","INUVIK A","2202571","2019-01-31 21:00","2019","01","31","21:00","-26.6","","-30.0","","73","","","","28","","12","","24.1","","102.60","","","","-36","","Ice Crystals"
"-133.48","68.30","INUVIK A","2202571","2019-01-31 22:00","2019","01","31","22:00","-26.6","","-30.1","","73","","","","27","","9","","24.1","","102.66","","","","-35","","Ice Crystals"
"-133.48","68.30","INUVIK A","2202571","2019-01-31 23:00","2019","01","31","23:00","-27.4","","-30.9","","73","","","","23","","5","","24.1","","102.69","","","","-33","","Ice Crystals"
