"Longitude (x)","Latitude (y)","Station Name","Climate ID","Date/Time (LST)","Year","Month","Day","Time (LST)","Temp (°C)","Temp Flag","Dew Point Temp (°C)","Dew Point Temp Flag","Rel Hum (%)","Rel Hum Flag","Precip. Amount (mm)","Precip. Amount Flag","Wind Dir (10s deg)","Wind Dir Flag","Wind Spd (km/h)","Wind Spd Flag","Visibility (km)","Visibility Flag","Stn Press (kPa)","Stn Press Flag","Hmdx","Hmdx Flag","Wind Chill","Wind Chill Flag","Weather"
"-93.58","69.55","TALOYOAK A","2403856","2019-01-01 00:00","2019","01","01","00:00","-37.3","","-41.8","","64","","","M","15","","14","","","M","101.06","","","","-50","","NA"
"-93.58","69.55","TALOYOAK A","2403856","2019-01-01 01:00","2019","01","01","01:00","-37.1","","-41.6","","64","","","M","16","","9","","","M","101.01","","","","-47","","NA"
"-93.58","69.55","TALOYOAK A","2403856","2019-01-01 02:00","2019","01","01","02:00","-37.4","","-41.9","","64","","","M","20","","7","","","M","100.96","","","","-46","","NA"
"-93.58","69.55","TALOYOAK A","2403856","2019-01-01 03:00","2019","01","01","03:00","-37.2","","-41.7","","64","","","M","17","","6","","","M","100.94","","","","-45","","NA"
"-93.58","69.55","TALOYOAK A","2403856","2019-01-01 04:00","2019","01","01","04:00","-37.4","","-41.9","","64","","","M","19","","6","","","M","100.87","","","","-45","","NA"
"-93.58","69.55","TALOYOAK A","2403856","2019-01-01 05:00","2019","01","01","05:00","-37.9","","-42.4","","64","","","M","29","","4","","","M","100.83","","","","-43","","NA"
"-93.58","69.55","TALOYOAK A","2403856","2019-01-01 06:00","2019","01","01","06:00","-37.8","","-42.3","","64","","","M","8","","4","","","M","100.77","","","","-43","","NA"
"-93.58","69.55","TALOYOAK A","2403856","2019-01-01 07:00","2019","01","01","07:00","-37.4","","-41.9","","64","","","M","8","","10","","","M","100.73","","","","-48","","NA"
"-93.58","69.55","TALOYOAK A","2403856","2019-01-01 08:00","2019","01","01","08:00","-39.8","","-44.4","","63","","","M","1","","6","","","M","100.69","","","","-48","","NA"
"-93.58","69.55","TALOYOAK A","2403856","2019-01-01 09:00","2019","01","01","09:00","-38.7","","-43.2","","63","","","M","36","","9","","","M","100.61","","","","-49","","NA"
"-93.58","69.55","TALOYOAK A","2403856","2019-01-01 10:00","2019","01","01","10:00","-37.5","","-42.0","","64","","","M","5","","8","","","M","100.58","","","","-47","","NA"
"-93.58","69.55","TALOYOAK A","2403856","2019-01-01 11:00","2019","01","01","11:00","-37.4","","-41.9","","64","","","M","2","","12","","","M","100.54","","","","-49","","NA"
"-93.58","69.55","TALOYOAK A","2403856","2019-01-01 12:00","2019","01","01","12:00","-38.3","","-42.8","","63","","","M","2","","9","","","M","100.51","","","","-48","","NA"
"-93.58","69.55","TALOYOAK A","2403856","2019-01-01 13:00","2019","01","01","13:00","-39.1","","-43.6","","63","","","M","36","","12","","","M","100.47","","","","-51","","NA"
"-93.58","69.55","TALOYOAK A","2403856","2019-01-01 14:00","2019","01","01","14:00","-37.0","","-41.5","","64","","","M","5","","8","","","M","100.40","","","","-46","","NA"
"-93.58","69.55","TALOYOAK A","2403856","2019-01-01 15:00","2019","01","01","15:00","-36.8","","-41.2","","64","","","M","7","","5","","","M","100.42","","","","-43","","NA"
"-93.58","69.55","TALOYOAK A","2403856","2019-01-01 16:00","2019","01","01","16:00","-38.0","","-42.5","","64","","","M","11","","7","","","M","100.40","","","","-47","","NA"
"-93.58","69.55","TALOYOAK A","2403856","2019-01-01 17:00","2019","01","01","17:00","-34.9","","-39.3","","65","","","M","11","","7","","","M","100.36","","","","-43","","NA"
"-93.58","69.55","TALOYOAK A","2403856","2019-01-01 18:00","2019","01","01","18:00","-38.6","","-43.1","","63","","","M","36","","6","","","M","100.30","","","","-46","","NA"
"-93.58","69.55","TALOYOAK A","2403856","2019-01-01 19:00","2019","01","01","19:00","-35.5","","-39.9","","65","","","M","26","","3","","","M","100.25","","","","-39","","NA"
"-93.58","69.55","TALOYOAK A","2403856","2019-01-01 20:00","2019","01","01","20:00","-35.4","","-39.8","","65","","","M","14","","1","","","M","100.23","","","","-37","","NA"
"-93.58","69.55","TALOYOAK A","2403856","2019-01-01 21:00","2019","01","01","21:00","-36.9","","-41.4","","64","","","M","22","","2","","","M","100.23","","","","-40","","NA"
"-93.58","69.55","TALOYOAK A","2403856","2019-01-01 22:00","2019","01","01","22:00","-36.6","","-41.0","","64","","","M","15","","5","","","M","100.20","","","","-43","","NA"
"-93.58","69.55","TALOYOAK A","2403856","2019-01-01 23:00","2019","01","01","23:00","-37.2","","-41.7","","64","","","M","15","","8","","","M","100.16","","","","-46","","NA"
"-93.58","69.55","TALOYOAK A","2403856","2019-01-02 00:00","2019","01","02","00:00","-37.1","","-41.5","","64","","","M","25","","2","","","M","100.15","","","","-40","","NA"
"-93.58","69.55","TALOYOAK A","2403856","2019-01-02 01:00","2019","01","02","01:00","-35.9","","-40.3","","65","","","M","21","","5","","","M","100.16","","","","-42","","NA"
"-93.58","69.55","TALOYOAK A","2403856","2019-01-02 02:00","2019","01","02","02:00","-36.5","","-40.9","","64","","","M","20","","6","","","M","100.14","","","","-44","","NA"
"-93.58","69.55","TALOYOAK A","2403856","2019-01-02 03:00","2019","01","02","03:00","-36.2","","-40.6","","65","","","M","18","","4","","","M","100.13","","","","-41","","NA"
"-93.58","69.55","TALOYOAK A","2403856","2019-01-02 04:00","2019","01","02","04:00","-36.3","","-40.7","","65","","","M","22","","6","","","M","100.14","","","","-44","","NA"
"-93.58","69.55","TALOYOAK A","2403856","2019-01-02 05:00","2019","01","02","05:00","-36.9","","-41.3","","64","","","M","17","","7","","","M","100.11","","","","-45","","NA"
"-93.58","69.55","TALOYOAK A","2403856","2019-01-02 06:00","2019","01","02","06:00","-36.3","","-40.7","","65","","","M","20","","7","","","M","100.12","","","","-45","","NA"
"-93.58","69.55","TALOYOAK A","2403856","2019-01-02 07:00","2019","01","02","07:00","-36.7","","-41.2","","64","","","M","18","","6","","","M","100.12","","","","-44","","NA"
"-93.58","69.55","TALOYOAK A","2403856","2019-01-02 08:00","2019","01","02","08:00","-36.9","","-41.3","","64","","","M","19","","5","","","M","100.11","","","","-43","","NA"
"-93.58","69.55","TALOYOAK A","2403856","2019-01-02 09:00","2019","01","02","09:00","-36.8","","-41.3","","64","","","M","20","","4","","","M","100.08","","","","-42","","NA"
"-93.58","69.55","TALOYOAK A","2403856","2019-01-02 10:00","2019","01","02","10:00","-36.9","","-41.4","","64","","","M","35","","6","","","M","100.05","","","","-44","","NA"
"-93.58","69.55","TALOYOAK A","2403856","2019-01-02 11:00","2019","01","02","11:00","-37.2","","-41.7","","64","","","M","1","","7","","","M","100.03","","","","-46","","NA"
"-93.58","69.55","TALOYOAK A","2403856","2019-01-02 12:00","2019","01","02","12:00","-35.8","","-40.2","","65","","","M","7","","5","","","M","100.04","","","","-42","","NA"
"-93.58","69.55","TALOYOAK A","2403856","2019-01-02 13:00","2019","01","02","13:00","-35.3","","-39.7","","65","","","M","35","","2","","","M","100.07","","","","-38","","NA"
"-93.58","69.55","TALOYOAK A","2403856","2019-01-02 14:00","2019","01","02","14:00","-35.6","","-40.0","","65","","","M","2","","5","","","M","100.06","","","","-42","","NA"
"-93.58","69.55","TALOYOAK A","2403856","2019-01-02 15:00","2019","01","02","15:00","-35.5","","-39.9","","65","","","M","5","","9","","","M","100.04","","","","-45","","NA"
"-93.58","69.55","TALOYOAK A","2403856","2019-01-02 16:00","2019","01","02","16:00","-32.3","","-36.5","","67","","","M","7","","14","","","M","100.00","","","","-44","","NA"
"-93.58","69.55","TALOYOAK A","2403856","2019-01-02 17:00","2019","01","02","17:00","-33.1","","-37.4","","66","","","M","4","","13","","","M","99.97","","","","-44","","NA"
"-93.58","69.55","TALOYOAK A","2403856","2019-01-02 18:00","2019","01","02","18:00","-33.8","","-38.1","","66","","","M","2","","16","","","M","99.90","","","","-46","","NA"
"-93.58","69.55","TALOYOAK A","2403856","2019-01-02 19:00","2019","01","02","19:00","-34.8","","-39.2","","65","","","M","2","","20","","","M","99.88","","","","-49","","NA"
"-93.58","69.55","TALOYOAK A","2403856","2019-01-02 20:00","2019","01","02","20:00","-34.2","","-38.5","","66","","","M","2","","16","","","M","99.88","","","","-47","","NA"
"-93.58","69.55","TALOYOAK A","2403856","2019-01-02 21:00","2019","01","02","21:00","-34.4","","-38.8","","66","","","M","2","","22","","","M","99.87","","","","-49","","NA"
"-93.58","69.55","TALOYOAK A","2403856","2019-01-02 22:00","2019","01","02","22:00","-33.1","","-37.4","","66","","","M","2","","21","","","M","99.87","","","","-47","","NA"
"-93.58","69.55","TALOYOAK A","2403856","2019-01-02 23:00","2019","01","02","23:00","-31.4","","-35.6","","67","","","M","3","","23","","","M","99.84","","","","-46","","NA"
"-93.58","69.55","TALOYOAK A","2403856","2019-01-03 00:00","2019","01","03","00:00","-30.2","","-34.3","","68","","","M","2","","19","","","M","99.81","","","","-43","","NA"
"-93.58","69.55","TALOYOAK A","2403856","2019-01-03 01:00","2019","01","03","01:00","-29.0","","-33.0","","69","","","M","3","","22","","","M","99.77","","","","-42","","NA"
"-93.58","69.55","TALOYOAK A","2403856","2019-01-03 02:00","2019","01","03","02:00","-29.0","","-33.0","","69","","","M","4","","22","","","M","99.77","","","","-42","","NA"
"-93.58","69.55","TALOYOAK A","2403856","2019-01-03 03:00","2019","01","03","03:00","-29.5","","-33.5","","69","","","M","5","","22","","","M","99.77","","","","-43","","NA"
"-93.58","69.55","TALOYOAK A","2403856","2019-01-03 04:00","2019","01","03","04:00","-29.3","","-33.3","","69","","","M","6","","32","","","M","99.72","","","","-45","","NA"
"-93.58","69.55","TALOYOAK A","2403856","2019-01-03 05:00","2019","01","03","05:00","-29.6","","-33.6","","69","","","M","5","","35","","","M","99.70","","","","-46","","NA"
"-93.58","69.55","TALOYOAK A","2403856","2019-01-03 06:00","2019","01","03","06:00","-29.8","","-33.9","","69","","","M","5","","34","","","M","99.73","","","","-46","","NA"
"-93.58","69.55","TALOYOAK A","2403856","2019-01-03 07:00","2019","01","03","07:00","-28.4","","-32.4","","70","","","M","5","","29","","","M","99.75","","","","-43","","NA"
"-93.58","69.55","TALOYOAK A","2403856","2019-01-03 08:00","2019","01","03","08:00","-27.4","","-31.3","","70","","","M","5","","24","","","M","99.77","","","","-41","","NA"
"-93.58","69.55","TALOYOAK A","2403856","2019-01-03 09:00","2019","01","03","09:00","-26.2","","-30.0","","71","","","M","5","","21","","","M","99.80","","","","-39","","NA"
"-93.58","69.55","TALOYOAK A","2403856","2019-01-03 10:00","2019","01","03","10:00","-29.8","","-33.9","","69","","","M","1","","11","","","M","99.82","","","","-39","","NA"
"-93.58","69.55","TALOYOAK A","2403856","2019-01-03 11:00","2019","01","03","11:00","-27.2","","-31.0","","71","","","M","5","","19","","","M","99.87","","","","-39","","NA"
"-93.58","69.55","TALOYOAK A","2403856","2019-01-03 12:00","2019","01","03","12:00","-28.3","","-32.2","","70","","","M","5","","17","","","M","99.89","","","","-40","","NA"
"-93.58","69.55","TALOYOAK A","2403856","2019-01-03 13:00","2019","01","03","13:00","-28.6","","-32.5","","70","","","M","5","","23","","","M","99.89","","","","-42","","NA"
"-93.58","69.55","TALOYOAK A","2403856","2019-01-03 14:00","2019","01","03","14:00","-29.2","","-33.1","","69","","","M","5","","25","","","M","99.90","","","","-43","","NA"
"-93.58","69.55","TALOYOAK A","2403856","2019-01-03 15:00","2019","01","03","15:00","-29.3","","-33.2","","69","","","M","5","","22","","","M","99.94","","","","-43","","NA"
"-93.58","69.55","TALOYOAK A","2403856","2019-01-03 16:00","2019","01","03","16:00","-28.8","","-32.7","","70","","","M","5","","23","","","M","99.96","","","","-42","","NA"
"-93.58","69.55","TALOYOAK A","2403856","2019-01-03 17:00","2019","01","03","17:00","-29.2","","-33.2","","69","","","M","4","","21","","","M","99.97","","","","-42","","NA"
"-93.58","69.55","TALOYOAK A","2403856","2019-01-03 18:00","2019","01","03","18:00","-28.9","","-32.9","","70","","","M","5","","26","","","M","99.98","","","","-43","","NA"
"-93.58","69.55","TALOYOAK A","2403856","2019-01-03 19:00","2019","01","03","19:00","-30.1","","-34.1","","69","","","M","3","","15","","","M","100.01","","","","-42","","NA"
"-93.58","69.55","TALOYOAK A","2403856","2019-01-03 20:00","2019","01","03","20:00","-29.9","","-33.9","","69","","","M","3","","16","","","M","100.03","","","","-42","","NA"
"-93.58","69.55","TALOYOAK A","2403856","2019-01-03 21:00","2019","01","03","21:00","-29.5","","-33.5","","69","","","M","1","","15","","","M","100.02","","","","-41","","NA"
"-93.58","69.55","TALOYOAK A","2403856","2019-01-03 22:00","2019","01","03","22:00","-30.4","","-34.5","","69","","","M","2","","15","","","M","100.02","","","","-42","","NA"
"-93.58","69.55","TALOYOAK A","2403856","2019-01-03 23:00","2019","01","03","23:00","-31.3","","-35.4","","68","","","M","2","","15","","","M","100.03","","","","-43","","NA"
"-93.58","69.55","TALOYOAK A","2403856","2019-01-04 00:00","2019","01","04","00:00","-30.8","","-34.9","","68","","","M","3","","17","","","M","100.01","","","","-43","","NA"
"-93.58","69.55","TALOYOAK A","2403856","2019-01-04 01:00","2019","01","04","01:00","-30.7","","-34.8","","68","","","M","1","","16","","","M","100.00","","","","-43","","NA"
"-93.58","69.55","TALOYOAK A","2403856","2019-01-04 02:00","2019","01","04","02:00","-28.2","","-32.1","","70","","","M","1","","14","","","M","99.98","","","","-39","","NA"
"-93.58","69.55","TALOYOAK A","2403856","2019-01-04 03:00","2019","01","04","03:00","-28.2","","-32.1","","70","","","M","34","","12","","","M","99.93","","","","-38","","NA"
"-93.58","69.55","TALOYOAK A","2403856","2019-01-04 04:00","2019","01","04","04:00","-30.0","","-34.0","","69","","","M","34","","14","","","M","99.89","","","","-41","","NA"
"-93.58","69.55","TALOYOAK A","2403856","2019-01-04 05:00","2019","01","04","05:00","-29.6","","-33.6","","69","","","M","35","","15","","","M","99.86","","","","-41","","NA"
"-93.58","69.55","TALOYOAK A","2403856","2019-01-04 06:00","2019","01","04","06:00","-29.3","","-33.3","","69","","","M","35","","12","","","M","99.80","","","","-39","","NA"
"-93.58","69.55","TALOYOAK A","2403856","2019-01-04 07:00","2019","01","04","07:00","-30.3","","-34.4","","69","","","M","34","","8","","","M","99.72","","","","-38","","NA"
"-93.58","69.55","TALOYOAK A","2403856","2019-01-04 08:00","2019","01","04","08:00","-30.9","","-35.0","","68","","","M","35","","13","","","M","99.67","","","","-42","","NA"
"-93.58","69.55","TALOYOAK A","2403856","2019-01-04 09:00","2019","01","04","09:00","-31.0","","-35.1","","68","","","M","33","","12","","","M","99.61","","","","-41","","NA"
"-93.58","69.55","TALOYOAK A","2403856","2019-01-04 10:00","2019","01","04","10:00","-30.1","","-34.1","","69","","","M","34","","16","","","M","99.56","","","","-42","","NA"
"-93.58","69.55","TALOYOAK A","2403856","2019-01-04 11:00","2019","01","04","11:00","-29.1","","-33.1","","69","","","M","35","","15","","","M","99.54","","","","-40","","NA"
"-93.58","69.55","TALOYOAK A","2403856","2019-01-04 12:00","2019","01","04","12:00","-30.0","","-34.0","","69","","","M","32","","16","","","M","99.49","","","","-42","","NA"
"-93.58","69.55","TALOYOAK A","2403856","2019-01-04 13:00","2019","01","04","13:00","-28.9","","-32.8","","70","","","M","35","","9","","","M","99.46","","","","-37","","NA"
"-93.58","69.55","TALOYOAK A","2403856","2019-01-04 14:00","2019","01","04","14:00","-28.0","","-31.8","","70","","","M","32","","24","","","M","99.45","","","","-42","","NA"
"-93.58","69.55","TALOYOAK A","2403856","2019-01-04 15:00","2019","01","04","15:00","-27.1","","-30.9","","71","","","M","31","","21","","","M","99.46","","","","-40","","NA"
"-93.58","69.55","TALOYOAK A","2403856","2019-01-04 16:00","2019","01","04","16:00","-25.6","","-29.3","","72","","","M","34","","7","","","M","99.47","","","","-32","","NA"
"-93.58","69.55","TALOYOAK A","2403856","2019-01-04 17:00","2019","01","04","17:00","-25.4","","-29.1","","72","","","M","32","","23","","","M","99.46","","","","-38","","NA"
"-93.58","69.55","TALOYOAK A","2403856","2019-01-04 18:00","2019","01","04","18:00","-25.2","","-28.9","","72","","","M","32","","20","","","M","99.48","","","","-37","","NA"
"-93.58","69.55","TALOYOAK A","2403856","2019-01-04 19:00","2019","01","04","19:00","-25.2","","-28.8","","72","","","M","32","","19","","","M","99.52","","","","-37","","NA"
"-93.58","69.55","TALOYOAK A","2403856","2019-01-04 20:00","2019","01","04","20:00","-25.6","","-29.2","","72","","","M","32","","20","","","M","99.52","","","","-38","","NA"
"-93.58","69.55","TALOYOAK A","2403856","2019-01-04 21:00","2019","01","04","21:00","-25.5","","-29.1","","72","","","M","33","","17","","","M","99.54","","","","-37","","NA"
"-93.58","69.55","TALOYOAK A","2403856","2019-01-04 22:00","2019","01","04","22:00","-26.5","","-30.2","","71","","","M","35","","16","","","M","99.56","","","","-37","","NA"
"-93.58","69.55","TALOYOAK A","2403856","2019-01-04 23:00","2019","01","04","23:00","-27.8","","-31.6","","71","","","M","34","","14","","","M","99.61","","","","-38","","NA"
"-93.58","69.55","TALOYOAK A","2403856","2019-01-05 00:00","2019","01","05","00:00","-27.3","","-31.0","","71","","","M","36","","12","","","M","99.65","","","","-37","","NA"
"-93.58","69.55","TALOYOAK A","2403856","2019-01-05 01:00","2019","01","05","01:00","-26.9","","-30.6","","71","","","M","35","","9","","","M","99.71","","","","-35","","NA"
"-93.58","69.55","TALOYOAK A","2403856","2019-01-05 02:00","2019","01","05","02:00","-27.9","","-31.7","","71","","","M","1","","2","","","M","99.77","","","","-30","","NA"
"-93.58","69.55","TALOYOAK A","2403856","2019-01-05 03:00","2019","01","05","03:00","-29.2","","-33.1","","70","","","M","36","","4","","","M","99.85","","","","-34","","NA"
"-93.58","69.55","TALOYOAK A","2403856","2019-01-05 04:00","2019","01","05","04:00","-27.8","","-31.6","","71","","","M","26","","2","","","M","99.90","","","","-30","","NA"
"-93.58","69.55","TALOYOAK A","2403856","2019-01-05 05:00","2019","01","05","05:00","-27.7","","-31.5","","71","","","M","22","","4","","","M","99.93","","","","-32","","NA"
"-93.58","69.55","TALOYOAK A","2403856","2019-01-05 06:00","2019","01","05","06:00","-28.6","","-32.4","","70","","","M","16","","11","","","M","99.94","","","","-38","","NA"
"-93.58","69.55","TALOYOAK A","2403856","2019-01-05 07:00","2019","01","05","07:00","-29.2","","-33.1","","70","","","M","16","","14","","","M","100.00","","","","-40","","NA"
"-93.58","69.55","TALOYOAK A","2403856","2019-01-05 08:00","2019","01","05","08:00","-29.7","","-33.6","","69","","","M","16","","16","","","M","100.02","","","","-41","","NA"
"-93.58","69.55","TALOYOAK A","2403856","2019-01-05 09:00","2019","01","05","09:00","-29.6","","-33.5","","69","","","M","16","","15","","","M","100.06","","","","-41","","NA"
"-93.58","69.55","TALOYOAK A","2403856","2019-01-05 10:00","2019","01","05","10:00","-29.9","","-33.8","","69","","","M","16","","16","","","M","100.13","","","","-42","","NA"
"-93.58","69.55","TALOYOAK A","2403856","2019-01-05 11:00","2019","01","05","11:00","-30.2","","-34.2","","69","","","M","16","","16","","","M","100.16","","","","-42","","NA"
"-93.58","69.55","TALOYOAK A","2403856","2019-01-05 12:00","2019","01","05","12:00","-30.5","","-34.5","","69","","","M","17","","18","","","M","100.19","","","","-43","","NA"
"-93.58","69.55","TALOYOAK A","2403856","2019-01-05 13:00","2019","01","05","13:00","-30.9","","-35.0","","69","","","M","17","","19","","","M","100.25","","","","-44","","NA"
"-93.58","69.55","TALOYOAK A","2403856","2019-01-05 14:00","2019","01","05","14:00","-31.5","","-35.6","","68","","","M","18","","18","","","M","100.31","","","","-44","","NA"
"-93.58","69.55","TALOYOAK A","2403856","2019-01-05 15:00","2019","01","05","15:00","-31.9","","-36.0","","68","","","M","17","","16","","","M","100.34","","","","-44","","NA"
"-93.58","69.55","TALOYOAK A","2403856","2019-01-05 16:00","2019","01","05","16:00","-31.8","","-35.9","","68","","","M","18","","14","","","M","100.35","","","","-43","","NA"
"-93.58","69.55","TALOYOAK A","2403856","2019-01-05 17:00","2019","01","05","17:00","-32.1","","-36.2","","68","","","M","17","","18","","","M","100.38","","","","-45","","NA"
"-93.58","69.55","TALOYOAK A","2403856","2019-01-05 18:00","2019","01","05","18:00","-32.1","","-36.2","","68","","","M","17","","14","","","M","100.41","","","","-44","","NA"
"-93.58","69.55","TALOYOAK A","2403856","2019-01-05 19:00","2019","01","05","19:00","-32.2","","-36.4","","68","","","M","17","","14","","","M","100.40","","","","-44","","NA"
"-93.58","69.55","TALOYOAK A","2403856","2019-01-05 20:00","2019","01","05","20:00","-32.0","","-36.1","","68","","","M","17","","13","","","M","100.43","","","","-43","","NA"
"-93.58","69.55","TALOYOAK A","2403856","2019-01-05 21:00","2019","01","05","21:00","-31.9","","-36.0","","68","","","M","17","","13","","","M","100.43","","","","-43","","NA"
"-93.58","69.55","TALOYOAK A","2403856","2019-01-05 22:00","2019","01","05","22:00","-31.8","","-35.9","","68","","","M","16","","13","","","M","100.40","","","","-43","","NA"
"-93.58","69.55","TALOYOAK A","2403856","2019-01-05 23:00","2019","01","05","23:00","-32.1","","-36.2","","68","","","M","15","","11","","","M","100.41","","","","-42","","NA"
"-93.58","69.55","TALOYOAK A","2403856","2019-01-06 00:00","2019","01","06","00:00","-32.2","","-36.4","","68","","","M","15","","9","","","M","100.43","","","","-41","","NA"
"-93.58","69.55","TALOYOAK A","2403856","2019-01-06 01:00","2019","01","06","01:00","-32.6","","-36.7","","67","","","M","12","","9","","","M","100.47","","","","-42","","NA"
"-93.58","69.55","TALOYOAK A","2403856","2019-01-06 02:00","2019","01","06","02:00","-32.5","","-36.6","","67","","","M","14","","6","","","M","100.47","","","","-39","","NA"
"-93.58","69.55","TALOYOAK A","2403856","2019-01-06 03:00","2019","01","06","03:00","-32.8","","-37.0","","67","","","M","1","","6","","","M","100.48","","","","-40","","NA"
"-93.58","69.55","TALOYOAK A","2403856","2019-01-06 04:00","2019","01","06","04:00","-33.2","","-37.4","","67","","","M","2","","7","","","M","100.48","","","","-41","","NA"
"-93.58","69.55","TALOYOAK A","2403856","2019-01-06 05:00","2019","01","06","05:00","-34.0","","-38.2","","66","","","M","2","","8","","","M","100.48","","","","-43","","NA"
"-93.58","69.55","TALOYOAK A","2403856","2019-01-06 06:00","2019","01","06","06:00","-34.1","","-38.4","","66","","","M","1","","9","","","M","100.47","","","","-43","","NA"
"-93.58","69.55","TALOYOAK A","2403856","2019-01-06 07:00","2019","01","06","07:00","-34.1","","-38.4","","66","","","M","4","","7","","","M","100.47","","","","-42","","NA"
"-93.58","69.55","TALOYOAK A","2403856","2019-01-06 08:00","2019","01","06","08:00","-34.0","","-38.2","","67","","","M","4","","10","","","M","100.50","","","","-44","","NA"
"-93.58","69.55","TALOYOAK A","2403856","2019-01-06 09:00","2019","01","06","09:00","-34.8","","-39.1","","66","","","M","2","","5","","","M","100.51","","","","-41","","NA"
"-93.58","69.55","TALOYOAK A","2403856","2019-01-06 10:00","2019","01","06","10:00","-35.5","","-39.8","","66","","","M","4","","9","","","M","100.53","","","","-45","","NA"
"-93.58","69.55","TALOYOAK A","2403856","2019-01-06 11:00","2019","01","06","11:00","-35.0","","-39.3","","66","","","M","2","","10","","","M","100.54","","","","-45","","NA"
"-93.58","69.55","TALOYOAK A","2403856","2019-01-06 12:00","2019","01","06","12:00","-34.3","","-38.5","","66","","","M","3","","10","","","M","100.57","","","","-44","","NA"
"-93.58","69.55","TALOYOAK A","2403856","2019-01-06 13:00","2019","01","06","13:00","-34.3","","-38.6","","66","","","M","11","","3","","","M","100.57","","","","-38","","NA"
"-93.58","69.55","TALOYOAK A","2403856","2019-01-06 14:00","2019","01","06","14:00","-34.5","","-38.7","","66","","","M","12","","1","","","M","100.59","","","","-36","","NA"
"-93.58","69.55","TALOYOAK A","2403856","2019-01-06 15:00","2019","01","06","15:00","-36.0","","-40.3","","65","","","M","2","","5","","","M","100.64","","","","-42","","NA"
"-93.58","69.55","TALOYOAK A","2403856","2019-01-06 16:00","2019","01","06","16:00","-36.6","","-41.0","","65","","","M","2","","9","","","M","100.68","","","","-46","","NA"
"-93.58","69.55","TALOYOAK A","2403856","2019-01-06 17:00","2019","01","06","17:00","-35.6","","-40.0","","65","","","M","6","","4","","","M","100.74","","","","-41","","NA"
"-93.58","69.55","TALOYOAK A","2403856","2019-01-06 18:00","2019","01","06","18:00","-36.8","","-41.2","","65","","","M","14","","3","","","M","100.75","","","","-41","","NA"
"-93.58","69.55","TALOYOAK A","2403856","2019-01-06 19:00","2019","01","06","19:00","-37.0","","-41.4","","65","","","M","13","","4","","","M","100.79","","","","-42","","NA"
"-93.58","69.55","TALOYOAK A","2403856","2019-01-06 20:00","2019","01","06","20:00","-37.8","","-42.2","","64","","","M","17","","5","","","M","100.81","","","","-44","","NA"
"-93.58","69.55","TALOYOAK A","2403856","2019-01-06 21:00","2019","01","06","21:00","-38.3","","-42.8","","64","","","M","0","","1","","","M","100.84","","","","-40","","NA"
"-93.58","69.55","TALOYOAK A","2403856","2019-01-06 22:00","2019","01","06","22:00","-37.5","","-41.9","","64","","","M","18","","2","","","M","100.87","","","","-40","","NA"
"-93.58","69.55","TALOYOAK A","2403856","2019-01-06 23:00","2019","01","06","23:00","-40.0","","-44.6","","63","","","M","1","","4","","","M","100.92","","","","-46","","NA"
"-93.58","69.55","TALOYOAK A","2403856","2019-01-07 00:00","2019","01","07","00:00","-38.0","","-42.5","","64","","","M","16","","5","","","M","100.95","","","","-45","","NA"
"-93.58","69.55","TALOYOAK A","2403856","2019-01-07 01:00","2019","01","07","01:00","-39.9","","-44.4","","63","","","M","19","","12","","","M","101.01","","","","-52","","NA"
"-93.58","69.55","TALOYOAK A","2403856","2019-01-07 02:00","2019","01","07","02:00","-39.1","","-43.7","","63","","","M","17","","6","","","M","101.06","","","","-47","","NA"
"-93.58","69.55","TALOYOAK A","2403856","2019-01-07 03:00","2019","01","07","03:00","-39.0","","-43.5","","63","","","M","18","","9","","","M","101.12","","","","-49","","NA"
"-93.58","69.55","TALOYOAK A","2403856","2019-01-07 04:00","2019","01","07","04:00","-38.3","","-42.8","","64","","","M","17","","14","","","M","101.14","","","","-51","","NA"
"-93.58","69.55","TALOYOAK A","2403856","2019-01-07 05:00","2019","01","07","05:00","-38.0","","-42.4","","64","","","M","17","","14","","","M","101.17","","","","-51","","NA"
"-93.58","69.55","TALOYOAK A","2403856","2019-01-07 06:00","2019","01","07","06:00","-37.3","","-41.7","","64","","","M","16","","16","","","M","101.21","","","","-51","","NA"
"-93.58","69.55","TALOYOAK A","2403856","2019-01-07 07:00","2019","01","07","07:00","-36.2","","-40.6","","65","","","M","16","","17","","","M","101.21","","","","-50","","NA"
"-93.58","69.55","TALOYOAK A","2403856","2019-01-07 08:00","2019","01","07","08:00","-35.4","","-39.8","","65","","","M","16","","15","","","M","101.22","","","","-48","","NA"
"-93.58","69.55","TALOYOAK A","2403856","2019-01-07 09:00","2019","01","07","09:00","-34.4","","-38.7","","66","","","M","17","","17","","","M","101.25","","","","-48","","NA"
"-93.58","69.55","TALOYOAK A","2403856","2019-01-07 10:00","2019","01","07","10:00","-35.2","","-39.5","","65","","","M","20","","7","","","M","101.26","","","","-43","","NA"
"-93.58","69.55","TALOYOAK A","2403856","2019-01-07 11:00","2019","01","07","11:00","-35.8","","-40.1","","65","","","M","15","","8","","","M","101.28","","","","-45","","NA"
"-93.58","69.55","TALOYOAK A","2403856","2019-01-07 12:00","2019","01","07","12:00","-35.5","","-39.8","","65","","","M","15","","8","","","M","101.31","","","","-44","","NA"
"-93.58","69.55","TALOYOAK A","2403856","2019-01-07 13:00","2019","01","07","13:00","-34.7","","-39.0","","66","","","M","17","","6","","","M","101.33","","","","-42","","NA"
"-93.58","69.55","TALOYOAK A","2403856","2019-01-07 14:00","2019","01","07","14:00","-34.1","","-38.4","","66","","","M","17","","9","","","M","101.34","","","","-43","","NA"
"-93.58","69.55","TALOYOAK A","2403856","2019-01-07 15:00","2019","01","07","15:00","-33.7","","-38.0","","66","","","M","11","","3","","","M","101.36","","","","-37","","NA"
"-93.58","69.55","TALOYOAK A","2403856","2019-01-07 16:00","2019","01","07","16:00","-33.0","","-37.3","","67","","","M","17","","4","","","M","101.32","","","","-38","","NA"
"-93.58","69.55","TALOYOAK A","2403856","2019-01-07 17:00","2019","01","07","17:00","-33.0","","-37.2","","67","","","M","36","","5","","","M","101.31","","","","-39","","NA"
"-93.58","69.55","TALOYOAK A","2403856","2019-01-07 18:00","2019","01","07","18:00","-32.4","","-36.6","","67","","","M","35","","5","","","M","101.36","","","","-38","","NA"
"-93.58","69.55","TALOYOAK A","2403856","2019-01-07 19:00","2019","01","07","19:00","-32.4","","-36.6","","67","","","M","36","","9","","","M","101.38","","","","-41","","NA"
"-93.58","69.55","TALOYOAK A","2403856","2019-01-07 20:00","2019","01","07","20:00","-32.3","","-36.5","","67","","","M","36","","4","","","M","101.36","","","","-37","","NA"
"-93.58","69.55","TALOYOAK A","2403856","2019-01-07 21:00","2019","01","07","21:00","-32.0","","-36.2","","67","","","M","36","","4","","","M","101.34","","","","-37","","NA"
"-93.58","69.55","TALOYOAK A","2403856","2019-01-07 22:00","2019","01","07","22:00","-31.7","","-35.8","","68","","","M","1","","7","","","M","101.36","","","","-39","","NA"
"-93.58","69.55","TALOYOAK A","2403856","2019-01-07 23:00","2019","01","07","23:00","-31.7","","-35.8","","68","","","M","36","","3","","","M","101.36","","","","-35","","NA"
"-93.58","69.55","TALOYOAK A","2403856","2019-01-08 00:00","2019","01","08","00:00","-31.7","","-35.9","","68","","","M","26","","4","","","M","101.42","","","","-36","","NA"
"-93.58","69.55","TALOYOAK A","2403856","2019-01-08 01:00","2019","01","08","01:00","-31.7","","-35.9","","68","","","M","27","","3","","","M","101.45","","","","-35","","NA"
"-93.58","69.55","TALOYOAK A","2403856","2019-01-08 02:00","2019","01","08","02:00","-31.2","","-35.3","","68","","","M","30","","3","","","M","101.41","","","","-35","","NA"
"-93.58","69.55","TALOYOAK A","2403856","2019-01-08 03:00","2019","01","08","03:00","-30.9","","-35.0","","68","","","M","17","","4","","","M","101.45","","","","-35","","NA"
"-93.58","69.55","TALOYOAK A","2403856","2019-01-08 04:00","2019","01","08","04:00","-30.3","","-34.4","","68","","","M","19","","3","","","M","101.47","","","","-34","","NA"
"-93.58","69.55","TALOYOAK A","2403856","2019-01-08 05:00","2019","01","08","05:00","-30.2","","-34.2","","69","","","M","20","","4","","","M","101.46","","","","-35","","NA"
"-93.58","69.55","TALOYOAK A","2403856","2019-01-08 06:00","2019","01","08","06:00","-29.7","","-33.7","","69","","","M","19","","9","","","M","101.47","","","","-38","","NA"
"-93.58","69.55","TALOYOAK A","2403856","2019-01-08 07:00","2019","01","08","07:00","-29.9","","-33.9","","69","","","M","20","","8","","","M","101.50","","","","-38","","NA"
"-93.58","69.55","TALOYOAK A","2403856","2019-01-08 08:00","2019","01","08","08:00","-30.7","","-34.7","","68","","","M","14","","7","","","M","101.52","","","","-38","","NA"
"-93.58","69.55","TALOYOAK A","2403856","2019-01-08 09:00","2019","01","08","09:00","-33.5","","-37.7","","67","","","M","16","","10","","","M","101.51","","","","-43","","NA"
"-93.58","69.55","TALOYOAK A","2403856","2019-01-08 10:00","2019","01","08","10:00","-33.4","","-37.6","","67","","","M","14","","11","","","M","101.53","","","","-44","","NA"
"-93.58","69.55","TALOYOAK A","2403856","2019-01-08 11:00","2019","01","08","11:00","-33.9","","-38.1","","66","","","M","13","","13","","","M","101.52","","","","-45","","NA"
"-93.58","69.55","TALOYOAK A","2403856","2019-01-08 12:00","2019","01","08","12:00","-32.9","","-37.1","","67","","","M","15","","6","","","M","101.57","","","","-40","","NA"
"-93.58","69.55","TALOYOAK A","2403856","2019-01-08 13:00","2019","01","08","13:00","-32.1","","-36.3","","67","","","M","23","","5","","","M","101.65","","","","-38","","NA"
"-93.58","69.55","TALOYOAK A","2403856","2019-01-08 14:00","2019","01","08","14:00","-28.7","","-32.7","","70","","","M","28","","11","","","M","101.63","","","","-38","","NA"
"-93.58","69.55","TALOYOAK A","2403856","2019-01-08 15:00","2019","01","08","15:00","-29.4","","-33.4","","69","","","M","30","","26","","","M","101.65","","","","-44","","NA"
"-93.58","69.55","TALOYOAK A","2403856","2019-01-08 16:00","2019","01","08","16:00","-29.7","","-33.7","","69","","","M","30","","22","","","M","101.69","","","","-43","","NA"
"-93.58","69.55","TALOYOAK A","2403856","2019-01-08 17:00","2019","01","08","17:00","-30.6","","-34.7","","68","","","M","25","","13","","","M","101.74","","","","-41","","NA"
"-93.58","69.55","TALOYOAK A","2403856","2019-01-08 18:00","2019","01","08","18:00","-29.3","","-33.3","","69","","","M","26","","12","","","M","101.77","","","","-39","","NA"
"-93.58","69.55","TALOYOAK A","2403856","2019-01-08 19:00","2019","01","08","19:00","-32.7","","-36.8","","67","","","M","12","","8","","","M","101.79","","","","-41","","NA"
"-93.58","69.55","TALOYOAK A","2403856","2019-01-08 20:00","2019","01","08","20:00","-31.3","","-35.4","","68","","","M","14","","7","","","M","101.81","","","","-39","","NA"
"-93.58","69.55","TALOYOAK A","2403856","2019-01-08 21:00","2019","01","08","21:00","-31.6","","-35.7","","68","","","M","18","","6","","","M","101.82","","","","-38","","NA"
"-93.58","69.55","TALOYOAK A","2403856","2019-01-08 22:00","2019","01","08","22:00","-32.1","","-36.2","","68","","","M","20","","6","","","M","101.87","","","","-39","","NA"
"-93.58","69.55","TALOYOAK A","2403856","2019-01-08 23:00","2019","01","08","23:00","-32.0","","-36.1","","68","","","M","18","","7","","","M","101.91","","","","-40","","NA"
"-93.58","69.55","TALOYOAK A","2403856","2019-01-09 00:00","2019","01","09","00:00","-33.8","","-38.1","","67","","","M","15","","8","","","M","101.97","","","","-42","","NA"
"-93.58","69.55","TALOYOAK A","2403856","2019-01-09 01:00","2019","01","09","01:00","-33.5","","-37.7","","67","","","M","19","","12","","","M","102.04","","","","-44","","NA"
"-93.58","69.55","TALOYOAK A","2403856","2019-01-09 02:00","2019","01","09","02:00","-33.2","","-37.4","","67","","","M","13","","9","","","M","102.11","","","","-42","","NA"
"-93.58","69.55","TALOYOAK A","2403856","2019-01-09 03:00","2019","01","09","03:00","-33.7","","-37.9","","66","","","M","17","","7","","","M","102.17","","","","-42","","NA"
"-93.58","69.55","TALOYOAK A","2403856","2019-01-09 04:00","2019","01","09","04:00","-34.4","","-38.7","","66","","","M","19","","5","","","M","102.23","","","","-41","","NA"
"-93.58","69.55","TALOYOAK A","2403856","2019-01-09 05:00","2019","01","09","05:00","-34.8","","-39.1","","66","","","M","14","","16","","","M","102.30","","","","-48","","NA"
"-93.58","69.55","TALOYOAK A","2403856","2019-01-09 06:00","2019","01","09","06:00","-34.7","","-39.0","","66","","","M","15","","16","","","M","102.34","","","","-48","","NA"
"-93.58","69.55","TALOYOAK A","2403856","2019-01-09 07:00","2019","01","09","07:00","-35.0","","-39.3","","66","","","M","15","","21","","","M","102.40","","","","-50","","NA"
"-93.58","69.55","TALOYOAK A","2403856","2019-01-09 08:00","2019","01","09","08:00","-35.5","","-39.8","","65","","","M","15","","21","","","M","102.47","","","","-50","","NA"
"-93.58","69.55","TALOYOAK A","2403856","2019-01-09 09:00","2019","01","09","09:00","-36.4","","-40.8","","65","","","M","15","","22","","","M","102.53","","","","-52","","NA"
"-93.58","69.55","TALOYOAK A","2403856","2019-01-09 10:00","2019","01","09","10:00","-36.3","","-40.7","","65","","","M","16","","26","","","M","102.62","","","","-53","","NA"
"-93.58","69.55","TALOYOAK A","2403856","2019-01-09 11:00","2019","01","09","11:00","-36.6","","-41.0","","65","","","M","16","","21","","","M","102.64","","","","-52","","NA"
"-93.58","69.55","TALOYOAK A","2403856","2019-01-09 12:00","2019","01","09","12:00","-36.8","","-41.2","","65","","","M","16","","22","","","M","102.74","","","","-52","","NA"
"-93.58","69.55","TALOYOAK A","2403856","2019-01-09 13:00","2019","01","09","13:00","-36.7","","-41.2","","65","","","M","16","","21","","","M","102.80","","","","-52","","NA"
"-93.58","69.55","TALOYOAK A","2403856","2019-01-09 14:00","2019","01","09","14:00","-36.8","","-41.3","","65","","","M","16","","24","","","M","102.87","","","","-53","","NA"
"-93.58","69.55","TALOYOAK A","2403856","2019-01-09 15:00","2019","01","09","15:00","-37.0","","-41.5","","64","","","M","15","","19","","","M","102.93","","","","-52","","NA"
"-93.58","69.55","TALOYOAK A","2403856","2019-01-09 16:00","2019","01","09","16:00","-37.6","","-42.0","","64","","","M","15","","21","","","M","102.99","","","","-53","","NA"
"-93.58","69.55","TALOYOAK A","2403856","2019-01-09 17:00","2019","01","09","17:00","-37.6","","-42.0","","64","","","M","16","","23","","","M","103.04","","","","-54","","NA"
"-93.58","69.55","TALOYOAK A","2403856","2019-01-09 18:00","2019","01","09","18:00","-37.4","","-41.9","","64","","","M","15","","22","","","M","103.07","","","","-53","","NA"
"-93.58","69.55","TALOYOAK A","2403856","2019-01-09 19:00","2019","01","09","19:00","-37.7","","-42.2","","64","","","M","16","","20","","","M","103.11","","","","-53","","NA"
"-93.58","69.55","TALOYOAK A","2403856","2019-01-09 20:00","2019","01","09","20:00","-37.7","","-42.2","","64","","","M","16","","22","","","M","103.13","","","","-53","","NA"
"-93.58","69.55","TALOYOAK A","2403856","2019-01-09 21:00","2019","01","09","21:00","-37.9","","-42.4","","64","","","M","16","","21","","","M","103.16","","","","-53","","NA"
"-93.58","69.55","TALOYOAK A","2403856","2019-01-09 22:00","2019","01","09","22:00","-37.6","","-42.1","","64","","","M","16","","20","","","M","103.19","","","","-53","","NA"
"-93.58","69.55","TALOYOAK A","2403856","2019-01-09 23:00","2019","01","09","23:00","-37.9","","-42.4","","64","","","M","15","","20","","","M","103.23","","","","-53","","NA"
"-93.58","69.55","TALOYOAK A","2403856","2019-01-10 00:00","2019","01","10","00:00","-38.2","","-42.8","","64","","","M","15","","18","","","M","103.27","","","","-53","","NA"
"-93.58","69.55","TALOYOAK A","2403856","2019-01-10 01:00","2019","01","10","01:00","-38.3","","-42.9","","64","","","M","16","","18","","","M","103.33","","","","-53","","NA"
"-93.58","69.55","TALOYOAK A","2403856","2019-01-10 02:00","2019","01","10","02:00","-38.4","","-43.0","","64","","","M","16","","16","","","M","103.37","","","","-52","","NA"
"-93.58","69.55","TALOYOAK A","2403856","2019-01-10 03:00","2019","01","10","03:00","-38.5","","-43.0","","63","","","M","15","","15","","","M","103.38","","","","-52","","NA"
"-93.58","69.55","TALOYOAK A","2403856","2019-01-10 04:00","2019","01","10","04:00","-38.7","","-43.3","","63","","","M","15","","17","","","M","103.42","","","","-53","","NA"
"-93.58","69.55","TALOYOAK A","2403856","2019-01-10 05:00","2019","01","10","05:00","-38.6","","-43.2","","63","","","M","16","","16","","","M","103.42","","","","-52","","NA"
"-93.58","69.55","TALOYOAK A","2403856","2019-01-10 06:00","2019","01","10","06:00","-38.9","","-43.4","","63","","","M","15","","12","","","M","103.46","","","","-51","","NA"
"-93.58","69.55","TALOYOAK A","2403856","2019-01-10 07:00","2019","01","10","07:00","-39.0","","-43.5","","63","","","M","17","","12","","","M","103.46","","","","-51","","NA"
"-93.58","69.55","TALOYOAK A","2403856","2019-01-10 08:00","2019","01","10","08:00","-39.3","","-43.9","","63","","","M","16","","10","","","M","103.49","","","","-50","","NA"
"-93.58","69.55","TALOYOAK A","2403856","2019-01-10 09:00","2019","01","10","09:00","-39.4","","-44.0","","63","","","M","17","","9","","","M","103.48","","","","-50","","NA"
"-93.58","69.55","TALOYOAK A","2403856","2019-01-10 10:00","2019","01","10","10:00","-39.4","","-44.0","","63","","","M","17","","6","","","M","103.47","","","","-47","","NA"
"-93.58","69.55","TALOYOAK A","2403856","2019-01-10 11:00","2019","01","10","11:00","-39.7","","-44.3","","63","","","M","14","","4","","","M","103.51","","","","-45","","NA"
"-93.58","69.55","TALOYOAK A","2403856","2019-01-10 12:00","2019","01","10","12:00","-39.6","","-44.2","","63","","","M","8","","2","","","M","103.51","","","","-42","","NA"
"-93.58","69.55","TALOYOAK A","2403856","2019-01-10 13:00","2019","01","10","13:00","-39.6","","-44.2","","63","","","M","15","","2","","","M","103.53","","","","-42","","NA"
"-93.58","69.55","TALOYOAK A","2403856","2019-01-10 14:00","2019","01","10","14:00","-40.0","","-44.6","","63","","","M","24","","1","","","M","103.53","","","","-41","","NA"
"-93.58","69.55","TALOYOAK A","2403856","2019-01-10 15:00","2019","01","10","15:00","-39.8","","-44.4","","63","","","M","15","","3","","","M","103.55","","","","-44","","NA"
"-93.58","69.55","TALOYOAK A","2403856","2019-01-10 16:00","2019","01","10","16:00","-40.1","","-44.7","","63","","","M","9","","3","","","M","103.55","","","","-44","","NA"
"-93.58","69.55","TALOYOAK A","2403856","2019-01-10 17:00","2019","01","10","17:00","-39.9","","-44.6","","63","","","M","11","","4","","","M","103.51","","","","-45","","NA"
"-93.58","69.55","TALOYOAK A","2403856","2019-01-10 18:00","2019","01","10","18:00","-39.7","","-44.3","","63","","","M","15","","5","","","M","103.52","","","","-47","","NA"
"-93.58","69.55","TALOYOAK A","2403856","2019-01-10 19:00","2019","01","10","19:00","-40.1","","-44.7","","62","","","M","15","","8","","","M","103.53","","","","-50","","NA"
"-93.58","69.55","TALOYOAK A","2403856","2019-01-10 20:00","2019","01","10","20:00","-39.9","","-44.5","","63","","","M","16","","4","","","M","103.50","","","","-45","","NA"
"-93.58","69.55","TALOYOAK A","2403856","2019-01-10 21:00","2019","01","10","21:00","-40.0","","-44.6","","63","","","M","16","","7","","","M","103.47","","","","-49","","NA"
"-93.58","69.55","TALOYOAK A","2403856","2019-01-10 22:00","2019","01","10","22:00","-40.3","","-44.9","","62","","","M","17","","12","","","M","103.48","","","","-53","","NA"
"-93.58","69.55","TALOYOAK A","2403856","2019-01-10 23:00","2019","01","10","23:00","-40.1","","-44.8","","62","","","M","17","","9","","","M","103.49","","","","-51","","NA"
"-93.58","69.55","TALOYOAK A","2403856","2019-01-11 00:00","2019","01","11","00:00","-40.5","","-45.1","","62","","","M","18","","8","","","M","103.51","","","","-50","","NA"
"-93.58","69.55","TALOYOAK A","2403856","2019-01-11 01:00","2019","01","11","01:00","-40.4","","-45.0","","62","","","M","17","","10","","","M","103.52","","","","-52","","NA"
"-93.58","69.55","TALOYOAK A","2403856","2019-01-11 02:00","2019","01","11","02:00","-40.4","","-45.1","","62","","","M","16","","7","","","M","103.52","","","","-49","","NA"
"-93.58","69.55","TALOYOAK A","2403856","2019-01-11 03:00","2019","01","11","03:00","-40.3","","-45.0","","62","","","M","17","","11","","","M","103.52","","","","-52","","NA"
"-93.58","69.55","TALOYOAK A","2403856","2019-01-11 04:00","2019","01","11","04:00","-40.3","","-45.0","","62","","","M","17","","11","","","M","103.49","","","","-52","","NA"
"-93.58","69.55","TALOYOAK A","2403856","2019-01-11 05:00","2019","01","11","05:00","-40.5","","-45.2","","62","","","M","18","","13","","","M","103.46","","","","-53","","NA"
"-93.58","69.55","TALOYOAK A","2403856","2019-01-11 06:00","2019","01","11","06:00","-40.3","","-45.0","","62","","","M","16","","14","","","M","103.45","","","","-54","","NA"
"-93.58","69.55","TALOYOAK A","2403856","2019-01-11 07:00","2019","01","11","07:00","-40.2","","-44.8","","62","","","M","17","","12","","","M","103.44","","","","-53","","NA"
"-93.58","69.55","TALOYOAK A","2403856","2019-01-11 08:00","2019","01","11","08:00","-40.2","","-44.8","","62","","","M","17","","14","","","M","103.45","","","","-54","","NA"
"-93.58","69.55","TALOYOAK A","2403856","2019-01-11 09:00","2019","01","11","09:00","-40.3","","-44.9","","62","","","M","16","","15","","","M","103.44","","","","-54","","NA"
"-93.58","69.55","TALOYOAK A","2403856","2019-01-11 10:00","2019","01","11","10:00","-40.3","","-45.0","","62","","","M","17","","16","","","M","103.43","","","","-55","","NA"
"-93.58","69.55","TALOYOAK A","2403856","2019-01-11 11:00","2019","01","11","11:00","-40.2","","-44.8","","62","","","M","17","","16","","","M","103.40","","","","-54","","NA"
"-93.58","69.55","TALOYOAK A","2403856","2019-01-11 12:00","2019","01","11","12:00","-40.1","","-44.8","","62","","","M","16","","13","","","M","103.37","","","","-53","","NA"
"-93.58","69.55","TALOYOAK A","2403856","2019-01-11 13:00","2019","01","11","13:00","-40.3","","-45.0","","62","","","M","17","","15","","","M","103.36","","","","-54","","NA"
"-93.58","69.55","TALOYOAK A","2403856","2019-01-11 14:00","2019","01","11","14:00","-40.1","","-44.8","","62","","","M","17","","17","","","M","103.36","","","","-55","","NA"
"-93.58","69.55","TALOYOAK A","2403856","2019-01-11 15:00","2019","01","11","15:00","-40.1","","-44.7","","62","","","M","17","","15","","","M","103.36","","","","-54","","NA"
"-93.58","69.55","TALOYOAK A","2403856","2019-01-11 16:00","2019","01","11","16:00","-40.1","","-44.8","","62","","","M","17","","12","","","M","103.33","","","","-52","","NA"
"-93.58","69.55","TALOYOAK A","2403856","2019-01-11 17:00","2019","01","11","17:00","-40.5","","-45.2","","62","","","M","17","","13","","","M","103.29","","","","-53","","NA"
"-93.58","69.55","TALOYOAK A","2403856","2019-01-11 18:00","2019","01","11","18:00","-40.7","","-45.3","","62","","","M","18","","12","","","M","103.24","","","","-53","","NA"
"-93.58","69.55","TALOYOAK A","2403856","2019-01-11 19:00","2019","01","11","19:00","-41.0","","-45.6","","62","","","M","18","","8","","","M","103.17","","","","-51","","NA"
"-93.58","69.55","TALOYOAK A","2403856","2019-01-11 20:00","2019","01","11","20:00","-40.3","","-45.0","","62","","","M","15","","3","","","M","103.11","","","","-45","","NA"
"-93.58","69.55","TALOYOAK A","2403856","2019-01-11 21:00","2019","01","11","21:00","-41.4","","-46.1","","62","","","M","36","","1","","","M","103.05","","","","-43","","NA"
"-93.58","69.55","TALOYOAK A","2403856","2019-01-11 22:00","2019","01","11","22:00","-40.7","","-45.4","","62","","","M","11","","2","","","M","103.00","","","","-44","","NA"
"-93.58","69.55","TALOYOAK A","2403856","2019-01-11 23:00","2019","01","11","23:00","-41.5","","-46.2","","62","","","M","2","","4","","","M","102.95","","","","-47","","NA"
"-93.58","69.55","TALOYOAK A","2403856","2019-01-12 00:00","2019","01","12","00:00","-41.5","","-46.2","","62","","","M","4","","8","","","M","102.91","","","","-51","","NA"
"-93.58","69.55","TALOYOAK A","2403856","2019-01-12 01:00","2019","01","12","01:00","-40.9","","-45.6","","62","","","M","4","","11","","","M","102.86","","","","-53","","NA"
"-93.58","69.55","TALOYOAK A","2403856","2019-01-12 02:00","2019","01","12","02:00","-41.5","","-46.2","","62","","","M","3","","13","","","M","102.74","","","","-55","","NA"
"-93.58","69.55","TALOYOAK A","2403856","2019-01-12 03:00","2019","01","12","03:00","-42.5","","-47.3","","61","","","M","1","","14","","","M","102.65","","","","-56","","NA"
"-93.58","69.55","TALOYOAK A","2403856","2019-01-12 04:00","2019","01","12","04:00","-42.3","","-47.1","","61","","","M","2","","15","","","M","102.55","","","","-57","","NA"
"-93.58","69.55","TALOYOAK A","2403856","2019-01-12 05:00","2019","01","12","05:00","-42.1","","-46.8","","61","","","M","1","","21","","","M","102.47","","","","-59","","NA"
"-93.58","69.55","TALOYOAK A","2403856","2019-01-12 06:00","2019","01","12","06:00","-40.0","","-44.7","","62","","","M","2","","17","","","M","102.37","","","","-55","","NA"
"-93.58","69.55","TALOYOAK A","2403856","2019-01-12 07:00","2019","01","12","07:00","-38.4","","-43.0","","63","","","M","4","","28","","","M","102.26","","","","-56","","NA"
"-93.58","69.55","TALOYOAK A","2403856","2019-01-12 08:00","2019","01","12","08:00","-37.5","","-42.1","","63","","","M","5","","17","","","M","102.22","","","","-51","","NA"
"-93.58","69.55","TALOYOAK A","2403856","2019-01-12 09:00","2019","01","12","09:00","-36.8","","-41.3","","64","","","M","4","","18","","","M","102.14","","","","-51","","NA"
"-93.58","69.55","TALOYOAK A","2403856","2019-01-12 10:00","2019","01","12","10:00","-36.0","","-40.5","","64","","","M","5","","34","","","M","102.01","","","","-54","","NA"
"-93.58","69.55","TALOYOAK A","2403856","2019-01-12 11:00","2019","01","12","11:00","-35.3","","-39.8","","65","","","M","5","","37","","","M","101.92","","","","-54","","NA"
"-93.58","69.55","TALOYOAK A","2403856","2019-01-12 12:00","2019","01","12","12:00","-35.0","","-39.5","","65","","","M","6","","25","","","M","101.89","","","","-51","","NA"
"-93.58","69.55","TALOYOAK A","2403856","2019-01-12 13:00","2019","01","12","13:00","-33.8","","-38.2","","66","","","M","6","","29","","","M","101.79","","","","-50","","NA"
"-93.58","69.55","TALOYOAK A","2403856","2019-01-12 14:00","2019","01","12","14:00","-33.4","","-37.7","","66","","","M","5","","39","","","M","101.70","","","","-52","","NA"
"-93.58","69.55","TALOYOAK A","2403856","2019-01-12 15:00","2019","01","12","15:00","-32.6","","-36.9","","66","","","M","6","","39","","","M","101.66","","","","-51","","NA"
"-93.58","69.55","TALOYOAK A","2403856","2019-01-12 16:00","2019","01","12","16:00","-32.4","","-36.7","","67","","","M","6","","39","","","M","101.57","","","","-51","","NA"
"-93.58","69.55","TALOYOAK A","2403856","2019-01-12 17:00","2019","01","12","17:00","-32.3","","-36.6","","67","","","M","6","","48","","","M","101.49","","","","-52","","NA"
"-93.58","69.55","TALOYOAK A","2403856","2019-01-12 18:00","2019","01","12","18:00","-32.7","","-36.9","","67","","","M","6","","48","","","M","101.43","","","","-52","","NA"
"-93.58","69.55","TALOYOAK A","2403856","2019-01-12 19:00","2019","01","12","19:00","-32.6","","-36.9","","67","","","M","5","","48","","","M","101.41","","","","-52","","NA"
"-93.58","69.55","TALOYOAK A","2403856","2019-01-12 20:00","2019","01","12","20:00","-32.1","","-36.3","","67","","","M","6","","44","","","M","101.49","","","","-51","","NA"
"-93.58","69.55","TALOYOAK A","2403856","2019-01-12 21:00","2019","01","12","21:00","-31.9","","-36.1","","67","","","M","5","","52","","","M","101.45","","","","-52","","NA"
"-93.58","69.55","TALOYOAK A","2403856","2019-01-12 22:00","2019","01","12","22:00","-31.6","","-35.8","","67","","","M","4","","36","","","M","101.49","","","","-49","","NA"
"-93.58","69.55","TALOYOAK A","2403856","2019-01-12 23:00","2019","01","12","23:00","-31.1","","-35.3","","68","","","M","3","","36","","","M","101.48","","","","-48","","NA"
"-93.58","69.55","TALOYOAK A","2403856","2019-01-13 00:00","2019","01","13","00:00","-31.5","","-35.7","","67","","","M","4","","35","","","M","101.44","","","","-49","","NA"
"-93.58","69.55","TALOYOAK A","2403856","2019-01-13 01:00","2019","01","13","01:00","-31.6","","-35.8","","67","","","M","3","","36","","","M","101.44","","","","-49","","NA"
"-93.58","69.55","TALOYOAK A","2403856","2019-01-13 02:00","2019","01","13","02:00","-31.9","","-36.1","","67","","","M","3","","27","","","M","101.53","","","","-47","","NA"
"-93.58","69.55","TALOYOAK A","2403856","2019-01-13 03:00","2019","01","13","03:00","-32.2","","-36.4","","67","","","M","4","","31","","","M","101.54","","","","-49","","NA"
"-93.58","69.55","TALOYOAK A","2403856","2019-01-13 04:00","2019","01","13","04:00","-32.1","","-36.3","","67","","","M","2","","24","","","M","101.63","","","","-47","","NA"
"-93.58","69.55","TALOYOAK A","2403856","2019-01-13 05:00","2019","01","13","05:00","-32.0","","-36.2","","67","","","M","3","","24","","","M","101.68","","","","-47","","NA"
"-93.58","69.55","TALOYOAK A","2403856","2019-01-13 06:00","2019","01","13","06:00","-31.9","","-36.1","","67","","","M","4","","29","","","M","101.68","","","","-48","","NA"
"-93.58","69.55","TALOYOAK A","2403856","2019-01-13 07:00","2019","01","13","07:00","-32.5","","-36.7","","67","","","M","2","","26","","","M","101.72","","","","-48","","NA"
"-93.58","69.55","TALOYOAK A","2403856","2019-01-13 08:00","2019","01","13","08:00","-32.2","","-36.4","","67","","","M","1","","16","","","M","101.80","","","","-45","","NA"
"-93.58","69.55","TALOYOAK A","2403856","2019-01-13 09:00","2019","01","13","09:00","-32.6","","-36.9","","67","","","M","36","","13","","","M","101.89","","","","-44","","NA"
"-93.58","69.55","TALOYOAK A","2403856","2019-01-13 10:00","2019","01","13","10:00","-33.6","","-38.0","","66","","","M","1","","11","","","M","101.91","","","","-44","","NA"
"-93.58","69.55","TALOYOAK A","2403856","2019-01-13 11:00","2019","01","13","11:00","-34.1","","-38.4","","66","","","M","1","","19","","","M","101.89","","","","-48","","NA"
"-93.58","69.55","TALOYOAK A","2403856","2019-01-13 12:00","2019","01","13","12:00","-34.4","","-38.8","","66","","","M","36","","14","","","M","101.95","","","","-46","","NA"
"-93.58","69.55","TALOYOAK A","2403856","2019-01-13 13:00","2019","01","13","13:00","-34.4","","-38.7","","66","","","M","1","","11","","","M","101.97","","","","-45","","NA"
"-93.58","69.55","TALOYOAK A","2403856","2019-01-13 14:00","2019","01","13","14:00","-34.6","","-39.0","","66","","","M","36","","11","","","M","101.99","","","","-45","","NA"
"-93.58","69.55","TALOYOAK A","2403856","2019-01-13 15:00","2019","01","13","15:00","-34.4","","-38.8","","66","","","M","2","","10","","","M","102.03","","","","-44","","NA"
"-93.58","69.55","TALOYOAK A","2403856","2019-01-13 16:00","2019","01","13","16:00","-34.5","","-38.9","","66","","","M","2","","7","","","M","102.07","","","","-43","","NA"
"-93.58","69.55","TALOYOAK A","2403856","2019-01-13 17:00","2019","01","13","17:00","-34.2","","-38.5","","66","","","M","36","","5","","","M","102.07","","","","-40","","NA"
"-93.58","69.55","TALOYOAK A","2403856","2019-01-13 18:00","2019","01","13","18:00","-34.0","","-38.3","","66","","","M","1","","7","","","M","102.06","","","","-42","","NA"
"-93.58","69.55","TALOYOAK A","2403856","2019-01-13 19:00","2019","01","13","19:00","-34.7","","-39.1","","66","","","M","22","","5","","","M","102.05","","","","-41","","NA"
"-93.58","69.55","TALOYOAK A","2403856","2019-01-13 20:00","2019","01","13","20:00","-34.9","","-39.2","","66","","","M","11","","7","","","M","102.04","","","","-43","","NA"
"-93.58","69.55","TALOYOAK A","2403856","2019-01-13 21:00","2019","01","13","21:00","-36.1","","-40.5","","65","","","M","22","","2","","","M","102.03","","","","-39","","NA"
"-93.58","69.55","TALOYOAK A","2403856","2019-01-13 22:00","2019","01","13","22:00","-36.6","","-41.0","","65","","","M","12","","2","","","M","102.02","","","","-39","","NA"
"-93.58","69.55","TALOYOAK A","2403856","2019-01-13 23:00","2019","01","13","23:00","-35.0","","-39.3","","66","","","M","12","","3","","","M","102.00","","","","-39","","NA"
"-93.58","69.55","TALOYOAK A","2403856","2019-01-14 00:00","2019","01","14","00:00","-37.2","","-41.7","","64","","","M","3","","1","","","M","101.99","","","","-39","","NA"
"-93.58","69.55","TALOYOAK A","2403856","2019-01-14 01:00","2019","01","14","01:00","-38.6","","-43.2","","63","","","M","36","","4","","","M","101.99","","","","-44","","NA"
"-93.58","69.55","TALOYOAK A","2403856","2019-01-14 02:00","2019","01","14","02:00","-38.1","","-42.6","","64","","","M","11","","2","","","M","101.98","","","","-41","","NA"
"-93.58","69.55","TALOYOAK A","2403856","2019-01-14 03:00","2019","01","14","03:00","-39.2","","-43.7","","63","","","M","31","","2","","","M","101.98","","","","-42","","NA"
"-93.58","69.55","TALOYOAK A","2403856","2019-01-14 04:00","2019","01","14","04:00","-38.3","","-42.8","","64","","","M","2","","9","","","M","101.96","","","","-48","","NA"
"-93.58","69.55","TALOYOAK A","2403856","2019-01-14 05:00","2019","01","14","05:00","-38.4","","-42.9","","64","","","M","2","","7","","","M","101.93","","","","-47","","NA"
"-93.58","69.55","TALOYOAK A","2403856","2019-01-14 06:00","2019","01","14","06:00","-38.3","","-42.9","","64","","","M","36","","2","","","M","101.91","","","","-41","","NA"
"-93.58","69.55","TALOYOAK A","2403856","2019-01-14 07:00","2019","01","14","07:00","-38.9","","-43.4","","63","","","M","21","","4","","","M","101.89","","","","-44","","NA"
"-93.58","69.55","TALOYOAK A","2403856","2019-01-14 08:00","2019","01","14","08:00","-37.6","","-42.1","","64","","","M","19","","3","","","M","101.90","","","","-42","","NA"
"-93.58","69.55","TALOYOAK A","2403856","2019-01-14 09:00","2019","01","14","09:00","-38.1","","-42.6","","64","","","M","14","","7","","","M","101.87","","","","-47","","NA"
"-93.58","69.55","TALOYOAK A","2403856","2019-01-14 10:00","2019","01","14","10:00","-37.8","","-42.3","","64","","","M","17","","5","","","M","101.83","","","","-44","","NA"
"-93.58","69.55","TALOYOAK A","2403856","2019-01-14 11:00","2019","01","14","11:00","-38.7","","-43.3","","63","","","M","17","","10","","","M","101.78","","","","-50","","NA"
"-93.58","69.55","TALOYOAK A","2403856","2019-01-14 12:00","2019","01","14","12:00","-38.9","","-43.5","","63","","","M","17","","10","","","M","101.76","","","","-50","","NA"
"-93.58","69.55","TALOYOAK A","2403856","2019-01-14 13:00","2019","01","14","13:00","-38.8","","-43.4","","63","","","M","18","","7","","","M","101.70","","","","-48","","NA"
"-93.58","69.55","TALOYOAK A","2403856","2019-01-14 14:00","2019","01","14","14:00","-39.0","","-43.6","","63","","","M","17","","12","","","M","101.72","","","","-51","","NA"
"-93.58","69.55","TALOYOAK A","2403856","2019-01-14 15:00","2019","01","14","15:00","-38.5","","-43.0","","63","","","M","17","","8","","","M","101.67","","","","-48","","NA"
"-93.58","69.55","TALOYOAK A","2403856","2019-01-14 16:00","2019","01","14","16:00","-38.5","","-43.1","","63","","","M","20","","9","","","M","101.63","","","","-49","","NA"
"-93.58","69.55","TALOYOAK A","2403856","2019-01-14 17:00","2019","01","14","17:00","-38.9","","-43.5","","63","","","M","18","","11","","","M","101.57","","","","-50","","NA"
"-93.58","69.55","TALOYOAK A","2403856","2019-01-14 18:00","2019","01","14","18:00","-38.1","","-42.7","","63","","","M","18","","8","","","M","101.54","","","","-47","","NA"
"-93.58","69.55","TALOYOAK A","2403856","2019-01-14 19:00","2019","01","14","19:00","-38.4","","-43.0","","63","","","M","20","","12","","","M","101.50","","","","-50","","NA"
"-93.58","69.55","TALOYOAK A","2403856","2019-01-14 20:00","2019","01","14","20:00","-38.6","","-43.2","","63","","","M","18","","10","","","M","101.46","","","","-49","","NA"
"-93.58","69.55","TALOYOAK A","2403856","2019-01-14 21:00","2019","01","14","21:00","-38.5","","-43.0","","63","","","M","19","","11","","","M","101.42","","","","-50","","NA"
"-93.58","69.55","TALOYOAK A","2403856","2019-01-14 22:00","2019","01","14","22:00","-38.5","","-43.1","","63","","","M","20","","12","","","M","101.38","","","","-50","","NA"
"-93.58","69.55","TALOYOAK A","2403856","2019-01-14 23:00","2019","01","14","23:00","-38.2","","-42.8","","63","","","M","20","","13","","","M","101.30","","","","-51","","NA"
"-93.58","69.55","TALOYOAK A","2403856","2019-01-15 00:00","2019","01","15","00:00","-37.3","","-41.8","","64","","","M","16","","10","","","M","101.22","","","","-48","","NA"
"-93.58","69.55","TALOYOAK A","2403856","2019-01-15 01:00","2019","01","15","01:00","-37.0","","-41.5","","64","","","M","15","","9","","","M","101.16","","","","-47","","NA"
"-93.58","69.55","TALOYOAK A","2403856","2019-01-15 02:00","2019","01","15","02:00","-35.7","","-40.1","","65","","","M","12","","6","","","M","101.10","","","","-43","","NA"
"-93.58","69.55","TALOYOAK A","2403856","2019-01-15 03:00","2019","01","15","03:00","-34.7","","-39.1","","65","","","M","17","","5","","","M","101.08","","","","-41","","NA"
"-93.58","69.55","TALOYOAK A","2403856","2019-01-15 04:00","2019","01","15","04:00","-33.4","","-37.7","","66","","","M","6","","3","","","M","101.05","","","","-37","","NA"
"-93.58","69.55","TALOYOAK A","2403856","2019-01-15 05:00","2019","01","15","05:00","-32.9","","-37.2","","67","","","M","31","","7","","","M","100.97","","","","-41","","NA"
"-93.58","69.55","TALOYOAK A","2403856","2019-01-15 06:00","2019","01","15","06:00","-33.4","","-37.7","","66","","","M","32","","26","","","M","100.89","","","","-49","","NA"
"-93.58","69.55","TALOYOAK A","2403856","2019-01-15 07:00","2019","01","15","07:00","-33.1","","-37.4","","66","","","M","34","","26","","","M","100.85","","","","-49","","NA"
"-93.58","69.55","TALOYOAK A","2403856","2019-01-15 08:00","2019","01","15","08:00","-34.3","","-38.6","","66","","","M","35","","24","","","M","100.82","","","","-50","","NA"
"-93.58","69.55","TALOYOAK A","2403856","2019-01-15 09:00","2019","01","15","09:00","-34.7","","-39.1","","65","","","M","35","","19","","","M","100.82","","","","-49","","NA"
"-93.58","69.55","TALOYOAK A","2403856","2019-01-15 10:00","2019","01","15","10:00","-34.4","","-38.8","","66","","","M","34","","16","","","M","100.80","","","","-47","","NA"
"-93.58","69.55","TALOYOAK A","2403856","2019-01-15 11:00","2019","01","15","11:00","-35.1","","-39.5","","65","","","M","35","","16","","","M","100.81","","","","-48","","NA"
"-93.58","69.55","TALOYOAK A","2403856","2019-01-15 12:00","2019","01","15","12:00","-36.0","","-40.5","","65","","","M","35","","12","","","M","100.82","","","","-47","","NA"
"-93.58","69.55","TALOYOAK A","2403856","2019-01-15 13:00","2019","01","15","13:00","-36.4","","-40.9","","65","","","M","35","","16","","","M","100.81","","","","-50","","NA"
"-93.58","69.55","TALOYOAK A","2403856","2019-01-15 14:00","2019","01","15","14:00","-35.3","","-39.8","","65","","","M","36","","14","","","M","100.79","","","","-48","","NA"
"-93.58","69.55","TALOYOAK A","2403856","2019-01-15 15:00","2019","01","15","15:00","-34.1","","-38.4","","66","","","M","36","","14","","","M","100.80","","","","-46","","NA"
"-93.58","69.55","TALOYOAK A","2403856","2019-01-15 16:00","2019","01","15","16:00","-34.0","","-38.4","","66","","","M","33","","18","","","M","100.79","","","","-47","","NA"
"-93.58","69.55","TALOYOAK A","2403856","2019-01-15 17:00","2019","01","15","17:00","-34.8","","-39.1","","65","","","M","36","","12","","","M","100.80","","","","-46","","NA"
"-93.58","69.55","TALOYOAK A","2403856","2019-01-15 18:00","2019","01","15","18:00","-35.1","","-39.5","","65","","","M","34","","16","","","M","100.79","","","","-48","","NA"
"-93.58","69.55","TALOYOAK A","2403856","2019-01-15 19:00","2019","01","15","19:00","-35.5","","-39.9","","65","","","M","36","","15","","","M","100.79","","","","-48","","NA"
"-93.58","69.55","TALOYOAK A","2403856","2019-01-15 20:00","2019","01","15","20:00","-35.7","","-40.1","","65","","","M","34","","13","","","M","100.78","","","","-48","","NA"
"-93.58","69.55","TALOYOAK A","2403856","2019-01-15 21:00","2019","01","15","21:00","-35.2","","-39.6","","65","","","M","35","","13","","","M","100.74","","","","-47","","NA"
"-93.58","69.55","TALOYOAK A","2403856","2019-01-15 22:00","2019","01","15","22:00","-35.4","","-39.8","","65","","","M","36","","14","","","M","100.74","","","","-48","","NA"
"-93.58","69.55","TALOYOAK A","2403856","2019-01-15 23:00","2019","01","15","23:00","-34.9","","-39.3","","65","","","M","34","","10","","","M","100.75","","","","-45","","NA"
"-93.58","69.55","TALOYOAK A","2403856","2019-01-16 00:00","2019","01","16","00:00","-33.0","","-37.3","","66","","","M","31","","9","","","M","100.74","","","","-42","","NA"
"-93.58","69.55","TALOYOAK A","2403856","2019-01-16 01:00","2019","01","16","01:00","-33.3","","-37.6","","66","","","M","19","","1","","","M","100.75","","","","-35","","NA"
"-93.58","69.55","TALOYOAK A","2403856","2019-01-16 02:00","2019","01","16","02:00","-34.4","","-38.8","","66","","","M","23","","3","","","M","100.76","","","","-38","","NA"
"-93.58","69.55","TALOYOAK A","2403856","2019-01-16 03:00","2019","01","16","03:00","-34.5","","-38.9","","66","","","M","19","","3","","","M","100.74","","","","-38","","NA"
"-93.58","69.55","TALOYOAK A","2403856","2019-01-16 04:00","2019","01","16","04:00","-34.2","","-38.5","","66","","","M","15","","1","","","M","100.70","","","","-35","","NA"
"-93.58","69.55","TALOYOAK A","2403856","2019-01-16 05:00","2019","01","16","05:00","-34.9","","-39.2","","65","","","M","16","","8","","","M","100.63","","","","-44","","NA"
"-93.58","69.55","TALOYOAK A","2403856","2019-01-16 06:00","2019","01","16","06:00","-36.0","","-40.4","","65","","","M","14","","7","","","M","100.60","","","","-44","","NA"
"-93.58","69.55","TALOYOAK A","2403856","2019-01-16 07:00","2019","01","16","07:00","-36.2","","-40.7","","65","","","M","15","","16","","","M","100.51","","","","-49","","NA"
"-93.58","69.55","TALOYOAK A","2403856","2019-01-16 08:00","2019","01","16","08:00","-36.1","","-40.6","","65","","","M","15","","19","","","M","100.48","","","","-50","","NA"
"-93.58","69.55","TALOYOAK A","2403856","2019-01-16 09:00","2019","01","16","09:00","-36.3","","-40.7","","65","","","M","15","","16","","","M","100.46","","","","-50","","NA"
"-93.58","69.55","TALOYOAK A","2403856","2019-01-16 10:00","2019","01","16","10:00","-35.7","","-40.1","","65","","","M","9","","4","","","M","100.47","","","","-41","","NA"
"-93.58","69.55","TALOYOAK A","2403856","2019-01-16 11:00","2019","01","16","11:00","-35.0","","-39.4","","65","","","M","16","","7","","","M","100.48","","","","-43","","NA"
"-93.58","69.55","TALOYOAK A","2403856","2019-01-16 12:00","2019","01","16","12:00","-35.2","","-39.6","","65","","","M","28","","6","","","M","100.51","","","","-42","","NA"
"-93.58","69.55","TALOYOAK A","2403856","2019-01-16 13:00","2019","01","16","13:00","-35.4","","-39.8","","65","","","M","24","","6","","","M","100.56","","","","-43","","NA"
"-93.58","69.55","TALOYOAK A","2403856","2019-01-16 14:00","2019","01","16","14:00","-36.2","","-40.6","","65","","","M","20","","6","","","M","100.63","","","","-44","","NA"
"-93.58","69.55","TALOYOAK A","2403856","2019-01-16 15:00","2019","01","16","15:00","-36.1","","-40.5","","65","","","M","22","","6","","","M","100.72","","","","-44","","NA"
"-93.58","69.55","TALOYOAK A","2403856","2019-01-16 16:00","2019","01","16","16:00","-35.6","","-40.0","","65","","","M","25","","3","","","M","100.77","","","","-39","","NA"
"-93.58","69.55","TALOYOAK A","2403856","2019-01-16 17:00","2019","01","16","17:00","-36.4","","-40.8","","65","","","M","23","","1","","","M","100.80","","","","-38","","NA"
"-93.58","69.55","TALOYOAK A","2403856","2019-01-16 18:00","2019","01","16","18:00","-35.9","","-40.4","","65","","","M","21","","4","","","M","100.90","","","","-41","","NA"
"-93.58","69.55","TALOYOAK A","2403856","2019-01-16 19:00","2019","01","16","19:00","-36.3","","-40.8","","65","","","M","28","","4","","","M","100.97","","","","-41","","NA"
"-93.58","69.55","TALOYOAK A","2403856","2019-01-16 20:00","2019","01","16","20:00","-36.4","","-40.8","","65","","","M","2","","4","","","M","100.99","","","","-42","","NA"
"-93.58","69.55","TALOYOAK A","2403856","2019-01-16 21:00","2019","01","16","21:00","-38.0","","-42.5","","64","","","M","36","","6","","","M","101.06","","","","-46","","NA"
"-93.58","69.55","TALOYOAK A","2403856","2019-01-16 22:00","2019","01","16","22:00","-37.0","","-41.5","","64","","","M","36","","12","","","M","101.13","","","","-49","","NA"
"-93.58","69.55","TALOYOAK A","2403856","2019-01-16 23:00","2019","01","16","23:00","-35.5","","-39.9","","65","","","M","1","","12","","","M","101.18","","","","-47","","NA"
"-93.58","69.55","TALOYOAK A","2403856","2019-01-17 00:00","2019","01","17","00:00","-37.9","","-42.4","","64","","","M","36","","8","","","M","101.24","","","","-47","","NA"
"-93.58","69.55","TALOYOAK A","2403856","2019-01-17 01:00","2019","01","17","01:00","-34.6","","-38.9","","66","","","M","36","","10","","","M","101.22","","","","-45","","NA"
"-93.58","69.55","TALOYOAK A","2403856","2019-01-17 02:00","2019","01","17","02:00","-35.2","","-39.6","","65","","","M","36","","13","","","M","101.30","","","","-47","","NA"
"-93.58","69.55","TALOYOAK A","2403856","2019-01-17 03:00","2019","01","17","03:00","-36.1","","-40.5","","65","","","M","19","","4","","","M","101.35","","","","-41","","NA"
"-93.58","69.55","TALOYOAK A","2403856","2019-01-17 04:00","2019","01","17","04:00","-35.7","","-40.1","","65","","","M","0","","1","","","M","101.40","","","","-37","","NA"
"-93.58","69.55","TALOYOAK A","2403856","2019-01-17 05:00","2019","01","17","05:00","-35.0","","-39.4","","65","","","M","33","","8","","","M","101.41","","","","-44","","NA"
"-93.58","69.55","TALOYOAK A","2403856","2019-01-17 06:00","2019","01","17","06:00","-35.4","","-39.8","","65","","","M","31","","6","","","M","101.42","","","","-43","","NA"
"-93.58","69.55","TALOYOAK A","2403856","2019-01-17 07:00","2019","01","17","07:00","-34.6","","-38.9","","66","","","M","3","","3","","","M","101.44","","","","-38","","NA"
"-93.58","69.55","TALOYOAK A","2403856","2019-01-17 08:00","2019","01","17","08:00","-35.1","","-39.5","","65","","","M","14","","2","","","M","101.49","","","","-38","","NA"
"-93.58","69.55","TALOYOAK A","2403856","2019-01-17 09:00","2019","01","17","09:00","-36.8","","-41.2","","64","","","M","18","","3","","","M","101.51","","","","-41","","NA"
"-93.58","69.55","TALOYOAK A","2403856","2019-01-17 10:00","2019","01","17","10:00","-37.8","","-42.3","","64","","","M","20","","8","","","M","101.53","","","","-47","","NA"
"-93.58","69.55","TALOYOAK A","2403856","2019-01-17 11:00","2019","01","17","11:00","-37.9","","-42.4","","64","","","M","18","","7","","","M","101.58","","","","-46","","NA"
"-93.58","69.55","TALOYOAK A","2403856","2019-01-17 12:00","2019","01","17","12:00","-37.8","","-42.3","","64","","","M","19","","4","","","M","101.61","","","","-43","","NA"
"-93.58","69.55","TALOYOAK A","2403856","2019-01-17 13:00","2019","01","17","13:00","-38.9","","-43.4","","63","","","M","18","","7","","","M","101.67","","","","-48","","NA"
"-93.58","69.55","TALOYOAK A","2403856","2019-01-17 14:00","2019","01","17","14:00","-39.1","","-43.7","","63","","","M","23","","7","","","M","101.71","","","","-48","","NA"
"-93.58","69.55","TALOYOAK A","2403856","2019-01-17 15:00","2019","01","17","15:00","-38.6","","-43.1","","63","","","M","19","","3","","","M","101.76","","","","-43","","NA"
"-93.58","69.55","TALOYOAK A","2403856","2019-01-17 16:00","2019","01","17","16:00","-38.6","","-43.2","","63","","","M","18","","6","","","M","101.77","","","","-46","","NA"
"-93.58","69.55","TALOYOAK A","2403856","2019-01-17 17:00","2019","01","17","17:00","-39.0","","-43.6","","63","","","M","14","","1","","","M","101.82","","","","-40","","NA"
"-93.58","69.55","TALOYOAK A","2403856","2019-01-17 18:00","2019","01","17","18:00","-39.4","","-44.0","","63","","","M","20","","9","","","M","101.82","","","","-50","","NA"
"-93.58","69.55","TALOYOAK A","2403856","2019-01-17 19:00","2019","01","17","19:00","-39.3","","-43.9","","63","","","M","16","","6","","","M","101.85","","","","-47","","NA"
"-93.58","69.55","TALOYOAK A","2403856","2019-01-17 20:00","2019","01","17","20:00","-39.6","","-44.2","","63","","","M","17","","3","","","M","101.89","","","","-44","","NA"
"-93.58","69.55","TALOYOAK A","2403856","2019-01-17 21:00","2019","01","17","21:00","-39.1","","-43.7","","63","","","M","14","","3","","","M","101.94","","","","-43","","NA"
"-93.58","69.55","TALOYOAK A","2403856","2019-01-17 22:00","2019","01","17","22:00","-39.5","","-44.1","","63","","","M","25","","4","","","M","101.92","","","","-45","","NA"
"-93.58","69.55","TALOYOAK A","2403856","2019-01-17 23:00","2019","01","17","23:00","-39.4","","-44.0","","63","","","M","23","","3","","","M","101.98","","","","-44","","NA"
"-93.58","69.55","TALOYOAK A","2403856","2019-01-18 00:00","2019","01","18","00:00","-39.2","","-43.8","","63","","","M","25","","4","","","M","101.99","","","","-45","","NA"
"-93.58","69.55","TALOYOAK A","2403856","2019-01-18 01:00","2019","01","18","01:00","-39.5","","-44.1","","63","","","M","17","","5","","","M","102.02","","","","-46","","NA"
"-93.58","69.55","TALOYOAK A","2403856","2019-01-18 02:00","2019","01","18","02:00","-39.4","","-44.0","","63","","","M","20","","7","","","M","102.08","","","","-48","","NA"
"-93.58","69.55","TALOYOAK A","2403856","2019-01-18 03:00","2019","01","18","03:00","-40.5","","-45.1","","62","","","M","18","","10","","","M","102.13","","","","-52","","NA"
"-93.58","69.55","TALOYOAK A","2403856","2019-01-18 04:00","2019","01","18","04:00","-40.0","","-44.7","","62","","","M","17","","6","","","M","102.15","","","","-48","","NA"
"-93.58","69.55","TALOYOAK A","2403856","2019-01-18 05:00","2019","01","18","05:00","-40.4","","-45.0","","62","","","M","19","","11","","","M","102.19","","","","-52","","NA"
"-93.58","69.55","TALOYOAK A","2403856","2019-01-18 06:00","2019","01","18","06:00","-40.2","","-44.9","","62","","","M","17","","14","","","M","102.19","","","","-54","","NA"
"-93.58","69.55","TALOYOAK A","2403856","2019-01-18 07:00","2019","01","18","07:00","-40.0","","-44.7","","62","","","M","16","","17","","","M","102.20","","","","-55","","NA"
"-93.58","69.55","TALOYOAK A","2403856","2019-01-18 08:00","2019","01","18","08:00","-39.8","","-44.5","","62","","","M","17","","18","","","M","102.20","","","","-55","","NA"
"-93.58","69.55","TALOYOAK A","2403856","2019-01-18 09:00","2019","01","18","09:00","-39.3","","-43.9","","63","","","M","16","","19","","","M","102.19","","","","-54","","NA"
"-93.58","69.55","TALOYOAK A","2403856","2019-01-18 10:00","2019","01","18","10:00","-38.9","","-43.5","","63","","","M","16","","23","","","M","102.17","","","","-55","","NA"
"-93.58","69.55","TALOYOAK A","2403856","2019-01-18 11:00","2019","01","18","11:00","-37.6","","-42.2","","63","","","M","16","","23","","","M","102.10","","","","-54","","NA"
"-93.58","69.55","TALOYOAK A","2403856","2019-01-18 12:00","2019","01","18","12:00","-35.6","","-40.0","","65","","","M","16","","25","","","M","102.07","","","","-52","","NA"
"-93.58","69.55","TALOYOAK A","2403856","2019-01-18 13:00","2019","01","18","13:00","-32.4","","-36.6","","67","","","M","20","","21","","","M","101.97","","","","-46","","NA"
"-93.58","69.55","TALOYOAK A","2403856","2019-01-18 14:00","2019","01","18","14:00","-30.6","","-34.7","","68","","","M","24","","16","","","M","101.96","","","","-43","","NA"
"-93.58","69.55","TALOYOAK A","2403856","2019-01-18 15:00","2019","01","18","15:00","-32.5","","-36.8","","67","","","M","19","","15","","","M","101.86","","","","-44","","NA"
"-93.58","69.55","TALOYOAK A","2403856","2019-01-18 16:00","2019","01","18","16:00","-31.0","","-35.2","","68","","","M","10","","8","","","M","101.84","","","","-39","","NA"
"-93.58","69.55","TALOYOAK A","2403856","2019-01-18 17:00","2019","01","18","17:00","-29.8","","-33.9","","68","","","M","16","","10","","","M","101.68","","","","-39","","NA"
"-93.58","69.55","TALOYOAK A","2403856","2019-01-18 18:00","2019","01","18","18:00","-27.6","","-31.5","","70","","","M","25","","12","","","M","101.55","","","","-37","","NA"
"-93.58","69.55","TALOYOAK A","2403856","2019-01-18 19:00","2019","01","18","19:00","-28.5","","-32.5","","69","","","M","24","","25","","","M","101.42","","","","-43","","NA"
"-93.58","69.55","TALOYOAK A","2403856","2019-01-18 20:00","2019","01","18","20:00","-25.8","","-29.6","","71","","","M","22","","15","","","M","101.31","","","","-36","","NA"
"-93.58","69.55","TALOYOAK A","2403856","2019-01-18 21:00","2019","01","18","21:00","-24.5","","-28.1","","72","","","M","27","","25","","","M","101.16","","","","-37","","NA"
"-93.58","69.55","TALOYOAK A","2403856","2019-01-18 22:00","2019","01","18","22:00","-23.4","","-26.9","","73","","","M","25","","13","","","M","101.06","","","","-33","","NA"
"-93.58","69.55","TALOYOAK A","2403856","2019-01-18 23:00","2019","01","18","23:00","-21.3","","-24.6","","75","","","M","29","","29","","","M","100.93","","","","-34","","NA"
"-93.58","69.55","TALOYOAK A","2403856","2019-01-19 00:00","2019","01","19","00:00","-20.7","","-23.9","","76","","","M","31","","26","","","M","100.84","","","","-33","","NA"
"-93.58","69.55","TALOYOAK A","2403856","2019-01-19 01:00","2019","01","19","01:00","-20.5","","-23.7","","76","","","M","30","","33","","","M","100.74","","","","-34","","NA"
"-93.58","69.55","TALOYOAK A","2403856","2019-01-19 02:00","2019","01","19","02:00","-20.2","","-23.3","","76","","","M","31","","32","","","M","100.68","","","","-33","","NA"
"-93.58","69.55","TALOYOAK A","2403856","2019-01-19 03:00","2019","01","19","03:00","-20.8","","-24.0","","76","","","M","31","","33","","","M","100.64","","","","-34","","NA"
"-93.58","69.55","TALOYOAK A","2403856","2019-01-19 04:00","2019","01","19","04:00","-21.6","","-24.9","","75","","","M","32","","27","","","M","100.61","","","","-34","","NA"
"-93.58","69.55","TALOYOAK A","2403856","2019-01-19 05:00","2019","01","19","05:00","-22.7","","-26.1","","74","","","M","30","","30","","","M","100.52","","","","-36","","NA"
"-93.58","69.55","TALOYOAK A","2403856","2019-01-19 06:00","2019","01","19","06:00","-22.9","","-26.4","","74","","","M","31","","40","","","M","100.40","","","","-38","","NA"
"-93.58","69.55","TALOYOAK A","2403856","2019-01-19 07:00","2019","01","19","07:00","-23.2","","-26.6","","74","","","M","31","","38","","","M","100.34","","","","-38","","NA"
"-93.58","69.55","TALOYOAK A","2403856","2019-01-19 08:00","2019","01","19","08:00","-22.4","","-25.8","","75","","","M","32","","34","","","M","100.26","","","","-36","","NA"
"-93.58","69.55","TALOYOAK A","2403856","2019-01-19 09:00","2019","01","19","09:00","-22.5","","-25.9","","75","","","M","33","","26","","","M","100.23","","","","-35","","NA"
"-93.58","69.55","TALOYOAK A","2403856","2019-01-19 10:00","2019","01","19","10:00","-22.4","","-25.8","","75","","","M","32","","35","","","M","100.16","","","","-37","","NA"
"-93.58","69.55","TALOYOAK A","2403856","2019-01-19 11:00","2019","01","19","11:00","-22.8","","-26.1","","74","","","M","31","","47","","","M","100.09","","","","-39","","NA"
"-93.58","69.55","TALOYOAK A","2403856","2019-01-19 12:00","2019","01","19","12:00","-22.8","","-26.2","","74","","","M","32","","39","","","M","100.10","","","","-38","","NA"
"-93.58","69.55","TALOYOAK A","2403856","2019-01-19 13:00","2019","01","19","13:00","-24.1","","-27.6","","73","","","M","32","","39","","","M","100.10","","","","-39","","NA"
"-93.58","69.55","TALOYOAK A","2403856","2019-01-19 14:00","2019","01","19","14:00","-26.5","","-30.2","","72","","","M","34","","13","","","M","100.16","","","","-36","","NA"
"-93.58","69.55","TALOYOAK A","2403856","2019-01-19 15:00","2019","01","19","15:00","-27.3","","-31.0","","71","","","M","32","","26","","","M","100.14","","","","-41","","NA"
"-93.58","69.55","TALOYOAK A","2403856","2019-01-19 16:00","2019","01","19","16:00","-27.8","","-31.6","","71","","","M","32","","40","","","M","100.13","","","","-45","","NA"
"-93.58","69.55","TALOYOAK A","2403856","2019-01-19 17:00","2019","01","19","17:00","-29.1","","-33.0","","70","","","M","33","","35","","","M","100.11","","","","-45","","NA"
"-93.58","69.55","TALOYOAK A","2403856","2019-01-19 18:00","2019","01","19","18:00","-30.3","","-34.3","","69","","","M","32","","31","","","M","100.10","","","","-46","","NA"
"-93.58","69.55","TALOYOAK A","2403856","2019-01-19 19:00","2019","01","19","19:00","-30.5","","-34.5","","69","","","M","32","","30","","","M","100.11","","","","-46","","NA"
"-93.58","69.55","TALOYOAK A","2403856","2019-01-19 20:00","2019","01","19","20:00","-31.5","","-35.6","","68","","","M","33","","25","","","M","100.18","","","","-46","","NA"
"-93.58","69.55","TALOYOAK A","2403856","2019-01-19 21:00","2019","01","19","21:00","-32.3","","-36.5","","68","","","M","33","","22","","","M","100.20","","","","-47","","NA"
"-93.58","69.55","TALOYOAK A","2403856","2019-01-19 22:00","2019","01","19","22:00","-32.4","","-36.5","","68","","","M","33","","20","","","M","100.20","","","","-46","","NA"
"-93.58","69.55","TALOYOAK A","2403856","2019-01-19 23:00","2019","01","19","23:00","-31.6","","-35.7","","68","","","M","32","","26","","","M","100.17","","","","-47","","NA"
"-93.58","69.55","TALOYOAK A","2403856","2019-01-20 00:00","2019","01","20","00:00","-31.9","","-36.1","","68","","","M","32","","29","","","M","100.14","","","","-48","","NA"
"-93.58","69.55","TALOYOAK A","2403856","2019-01-20 01:00","2019","01","20","01:00","-32.4","","-36.6","","67","","","M","32","","27","","","M","100.16","","","","-48","","NA"
"-93.58","69.55","TALOYOAK A","2403856","2019-01-20 02:00","2019","01","20","02:00","-32.2","","-36.4","","67","","","M","33","","16","","","M","100.19","","","","-45","","NA"
"-93.58","69.55","TALOYOAK A","2403856","2019-01-20 03:00","2019","01","20","03:00","-32.3","","-36.5","","67","","","M","31","","14","","","M","100.19","","","","-44","","NA"
"-93.58","69.55","TALOYOAK A","2403856","2019-01-20 04:00","2019","01","20","04:00","-34.3","","-38.6","","66","","","M","34","","12","","","M","100.15","","","","-45","","NA"
"-93.58","69.55","TALOYOAK A","2403856","2019-01-20 05:00","2019","01","20","05:00","-33.9","","-38.2","","66","","","M","30","","18","","","M","100.08","","","","-47","","NA"
"-93.58","69.55","TALOYOAK A","2403856","2019-01-20 06:00","2019","01","20","06:00","-33.7","","-37.9","","66","","","M","31","","28","","","M","99.97","","","","-50","","NA"
"-93.58","69.55","TALOYOAK A","2403856","2019-01-20 07:00","2019","01","20","07:00","-35.0","","-39.4","","66","","","M","30","","36","","","M","99.90","","","","-53","","NA"
"-93.58","69.55","TALOYOAK A","2403856","2019-01-20 08:00","2019","01","20","08:00","-35.7","","-40.1","","65","","","M","31","","37","","","M","99.82","","","","-55","","NA"
"-93.58","69.55","TALOYOAK A","2403856","2019-01-20 09:00","2019","01","20","09:00","-36.1","","-40.5","","65","","","M","32","","36","","","M","99.80","","","","-55","","NA"
"-93.58","69.55","TALOYOAK A","2403856","2019-01-20 10:00","2019","01","20","10:00","-36.2","","-40.5","","65","","","M","32","","28","","","M","99.80","","","","-53","","NA"
"-93.58","69.55","TALOYOAK A","2403856","2019-01-20 11:00","2019","01","20","11:00","-36.4","","-40.8","","65","","","M","32","","27","","","M","99.79","","","","-53","","NA"
"-93.58","69.55","TALOYOAK A","2403856","2019-01-20 12:00","2019","01","20","12:00","-37.0","","-41.5","","64","","","M","33","","25","","","M","99.82","","","","-53","","NA"
"-93.58","69.55","TALOYOAK A","2403856","2019-01-20 13:00","2019","01","20","13:00","-38.0","","-42.5","","64","","","M","34","","17","","","M","99.84","","","","-52","","NA"
"-93.58","69.55","TALOYOAK A","2403856","2019-01-20 14:00","2019","01","20","14:00","-38.4","","-42.9","","63","","","M","36","","10","","","M","99.86","","","","-49","","NA"
"-93.58","69.55","TALOYOAK A","2403856","2019-01-20 15:00","2019","01","20","15:00","-38.7","","-43.3","","63","","","M","2","","12","","","M","99.89","","","","-51","","NA"
"-93.58","69.55","TALOYOAK A","2403856","2019-01-20 16:00","2019","01","20","16:00","-39.1","","-43.7","","63","","","M","1","","12","","","M","99.89","","","","-51","","NA"
"-93.58","69.55","TALOYOAK A","2403856","2019-01-20 17:00","2019","01","20","17:00","-38.7","","-43.3","","63","","","M","2","","10","","","M","99.91","","","","-50","","NA"
"-93.58","69.55","TALOYOAK A","2403856","2019-01-20 18:00","2019","01","20","18:00","-38.8","","-43.3","","63","","","M","15","","5","","","M","99.92","","","","-46","","NA"
"-93.58","69.55","TALOYOAK A","2403856","2019-01-20 19:00","2019","01","20","19:00","-38.5","","-42.9","","64","","","M","15","","5","","","M","99.90","","","","-45","","NA"
"-93.58","69.55","TALOYOAK A","2403856","2019-01-20 20:00","2019","01","20","20:00","-38.2","","-42.6","","64","","","M","17","","3","","","M","99.92","","","","-42","","NA"
"-93.58","69.55","TALOYOAK A","2403856","2019-01-20 21:00","2019","01","20","21:00","-38.4","","-42.8","","64","","","M","18","","3","","","M","99.93","","","","-42","","NA"
"-93.58","69.55","TALOYOAK A","2403856","2019-01-20 22:00","2019","01","20","22:00","-39.1","","-43.5","","64","","","M","16","","8","","","M","99.94","","","","-49","","NA"
"-93.58","69.55","TALOYOAK A","2403856","2019-01-20 23:00","2019","01","20","23:00","-39.7","","-44.2","","63","","","M","19","","9","","","M","99.96","","","","-50","","NA"
"-93.58","69.55","TALOYOAK A","2403856","2019-01-21 00:00","2019","01","21","00:00","-40.0","","-44.5","","63","","","M","18","","7","","","M","99.97","","","","-49","","NA"
"-93.58","69.55","TALOYOAK A","2403856","2019-01-21 01:00","2019","01","21","01:00","-40.1","","-44.6","","63","","","M","18","","9","","","M","99.98","","","","-51","","NA"
"-93.58","69.55","TALOYOAK A","2403856","2019-01-21 02:00","2019","01","21","02:00","-39.7","","-44.3","","63","","","M","16","","12","","","M","100.02","","","","-52","","NA"
"-93.58","69.55","TALOYOAK A","2403856","2019-01-21 03:00","2019","01","21","03:00","-40.5","","-45.1","","63","","","M","18","","13","","","M","100.05","","","","-53","","NA"
"-93.58","69.55","TALOYOAK A","2403856","2019-01-21 04:00","2019","01","21","04:00","-40.4","","-45.0","","63","","","M","17","","16","","","M","100.06","","","","-55","","NA"
"-93.58","69.55","TALOYOAK A","2403856","2019-01-21 05:00","2019","01","21","05:00","-40.1","","-44.7","","63","","","M","17","","15","","","M","100.08","","","","-54","","NA"
"-93.58","69.55","TALOYOAK A","2403856","2019-01-21 06:00","2019","01","21","06:00","-40.1","","-44.7","","63","","","M","16","","14","","","M","100.07","","","","-53","","NA"
"-93.58","69.55","TALOYOAK A","2403856","2019-01-21 07:00","2019","01","21","07:00","-39.6","","-44.2","","63","","","M","16","","17","","","M","100.09","","","","-54","","NA"
"-93.58","69.55","TALOYOAK A","2403856","2019-01-21 08:00","2019","01","21","08:00","-40.4","","-45.0","","63","","","M","17","","13","","","M","100.10","","","","-53","","NA"
"-93.58","69.55","TALOYOAK A","2403856","2019-01-21 09:00","2019","01","21","09:00","-40.6","","-45.2","","63","","","M","17","","13","","","M","100.14","","","","-54","","NA"
"-93.58","69.55","TALOYOAK A","2403856","2019-01-21 10:00","2019","01","21","10:00","-41.0","","-45.6","","62","","","M","17","","16","","","M","100.15","","","","-55","","NA"
"-93.58","69.55","TALOYOAK A","2403856","2019-01-21 11:00","2019","01","21","11:00","-41.1","","-45.7","","62","","","M","15","","11","","","M","100.19","","","","-53","","NA"
"-93.58","69.55","TALOYOAK A","2403856","2019-01-21 12:00","2019","01","21","12:00","-40.9","","-45.5","","62","","","M","15","","3","","","M","100.23","","","","-45","","NA"
"-93.58","69.55","TALOYOAK A","2403856","2019-01-21 13:00","2019","01","21","13:00","-41.8","","-46.5","","62","","","M","1","","9","","","M","100.30","","","","-53","","NA"
"-93.58","69.55","TALOYOAK A","2403856","2019-01-21 14:00","2019","01","21","14:00","-42.4","","-47.0","","62","","","M","2","","11","","","M","100.36","","","","-55","","NA"
"-93.58","69.55","TALOYOAK A","2403856","2019-01-21 15:00","2019","01","21","15:00","-42.5","","-47.2","","62","","","M","2","","11","","","M","100.44","","","","-55","","NA"
"-93.58","69.55","TALOYOAK A","2403856","2019-01-21 16:00","2019","01","21","16:00","-42.1","","-46.8","","62","","","M","35","","5","","","M","100.47","","","","-49","","NA"
"-93.58","69.55","TALOYOAK A","2403856","2019-01-21 17:00","2019","01","21","17:00","-41.7","","-46.4","","62","","","M","2","","9","","","M","100.51","","","","-52","","NA"
"-93.58","69.55","TALOYOAK A","2403856","2019-01-21 18:00","2019","01","21","18:00","-41.3","","-46.0","","62","","","M","2","","13","","","M","100.51","","","","-54","","NA"
"-93.58","69.55","TALOYOAK A","2403856","2019-01-21 19:00","2019","01","21","19:00","-41.5","","-46.2","","62","","","M","32","","2","","","M","100.55","","","","-44","","NA"
"-93.58","69.55","TALOYOAK A","2403856","2019-01-21 20:00","2019","01","21","20:00","-41.5","","-46.2","","62","","","M","36","","8","","","M","100.55","","","","-51","","NA"
"-93.58","69.55","TALOYOAK A","2403856","2019-01-21 21:00","2019","01","21","21:00","-42.0","","-46.7","","62","","","M","30","","8","","","M","100.55","","","","-52","","NA"
"-93.58","69.55","TALOYOAK A","2403856","2019-01-21 22:00","2019","01","21","22:00","-40.8","","-45.4","","62","","","M","34","","15","","","M","100.55","","","","-55","","NA"
"-93.58","69.55","TALOYOAK A","2403856","2019-01-21 23:00","2019","01","21","23:00","-41.8","","-46.5","","62","","","M","35","","10","","","M","100.54","","","","-53","","NA"
"-93.58","69.55","TALOYOAK A","2403856","2019-01-22 00:00","2019","01","22","00:00","-39.3","","-43.9","","63","","","M","36","","13","","","M","100.54","","","","-52","","NA"
"-93.58","69.55","TALOYOAK A","2403856","2019-01-22 01:00","2019","01","22","01:00","-38.8","","-43.4","","63","","","M","1","","16","","","M","100.55","","","","-53","","NA"
"-93.58","69.55","TALOYOAK A","2403856","2019-01-22 02:00","2019","01","22","02:00","-39.0","","-43.6","","63","","","M","35","","14","","","M","100.55","","","","-52","","NA"
"-93.58","69.55","TALOYOAK A","2403856","2019-01-22 03:00","2019","01","22","03:00","-37.2","","-41.7","","64","","","M","33","","10","","","M","100.56","","","","-48","","NA"
"-93.58","69.55","TALOYOAK A","2403856","2019-01-22 04:00","2019","01","22","04:00","-36.4","","-40.9","","64","","","M","33","","17","","","M","100.54","","","","-50","","NA"
"-93.58","69.55","TALOYOAK A","2403856","2019-01-22 05:00","2019","01","22","05:00","-36.4","","-40.9","","64","","","M","34","","6","","","M","100.53","","","","-44","","NA"
"-93.58","69.55","TALOYOAK A","2403856","2019-01-22 06:00","2019","01","22","06:00","-38.2","","-42.7","","64","","","M","33","","7","","","M","100.52","","","","-47","","NA"
"-93.58","69.55","TALOYOAK A","2403856","2019-01-22 07:00","2019","01","22","07:00","-37.6","","-42.2","","64","","","M","33","","13","","","M","100.51","","","","-50","","NA"
"-93.58","69.55","TALOYOAK A","2403856","2019-01-22 08:00","2019","01","22","08:00","-38.8","","-43.4","","63","","","M","33","","9","","","M","100.50","","","","-49","","NA"
"-93.58","69.55","TALOYOAK A","2403856","2019-01-22 09:00","2019","01","22","09:00","-37.3","","-41.9","","64","","","M","33","","10","","","M","100.50","","","","-48","","NA"
"-93.58","69.55","TALOYOAK A","2403856","2019-01-22 10:00","2019","01","22","10:00","-36.5","","-41.0","","64","","","M","34","","8","","","M","100.50","","","","-46","","NA"
"-93.58","69.55","TALOYOAK A","2403856","2019-01-22 11:00","2019","01","22","11:00","-34.2","","-38.5","","66","","","M","28","","3","","","M","100.51","","","","-38","","NA"
"-93.58","69.55","TALOYOAK A","2403856","2019-01-22 12:00","2019","01","22","12:00","-37.7","","-42.2","","64","","","M","16","","5","","","M","100.53","","","","-44","","NA"
"-93.58","69.55","TALOYOAK A","2403856","2019-01-22 13:00","2019","01","22","13:00","-38.1","","-42.6","","64","","","M","16","","7","","","M","100.52","","","","-47","","NA"
"-93.58","69.55","TALOYOAK A","2403856","2019-01-22 14:00","2019","01","22","14:00","-37.6","","-42.1","","64","","","M","18","","5","","","M","100.54","","","","-44","","NA"
"-93.58","69.55","TALOYOAK A","2403856","2019-01-22 15:00","2019","01","22","15:00","-37.4","","-41.9","","64","","","M","17","","3","","","M","100.57","","","","-41","","NA"
"-93.58","69.55","TALOYOAK A","2403856","2019-01-22 16:00","2019","01","22","16:00","-38.0","","-42.5","","64","","","M","18","","5","","","M","100.58","","","","-45","","NA"
"-93.58","69.55","TALOYOAK A","2403856","2019-01-22 17:00","2019","01","22","17:00","-37.9","","-42.5","","64","","","M","17","","4","","","M","100.58","","","","-43","","NA"
"-93.58","69.55","TALOYOAK A","2403856","2019-01-22 18:00","2019","01","22","18:00","-38.6","","-43.1","","63","","","M","18","","4","","","M","100.60","","","","-44","","NA"
"-93.58","69.55","TALOYOAK A","2403856","2019-01-22 19:00","2019","01","22","19:00","-39.0","","-43.5","","63","","","M","18","","5","","","M","100.59","","","","-46","","NA"
"-93.58","69.55","TALOYOAK A","2403856","2019-01-22 20:00","2019","01","22","20:00","-39.1","","-43.6","","63","","","M","18","","4","","","M","100.60","","","","-45","","NA"
"-93.58","69.55","TALOYOAK A","2403856","2019-01-22 21:00","2019","01","22","21:00","-39.0","","-43.5","","63","","","M","17","","7","","","M","100.59","","","","-48","","NA"
"-93.58","69.55","TALOYOAK A","2403856","2019-01-22 22:00","2019","01","22","22:00","-39.1","","-43.6","","63","","","M","18","","7","","","M","100.60","","","","-48","","NA"
"-93.58","69.55","TALOYOAK A","2403856","2019-01-22 23:00","2019","01","22","23:00","-39.6","","-44.2","","63","","","M","18","","12","","","M","100.61","","","","-52","","NA"
"-93.58","69.55","TALOYOAK A","2403856","2019-01-23 00:00","2019","01","23","00:00","-39.7","","-44.3","","63","","","M","17","","10","","","M","100.63","","","","-51","","NA"
"-93.58","69.55","TALOYOAK A","2403856","2019-01-23 01:00","2019","01","23","01:00","-39.1","","-43.7","","63","","","M","18","","8","","","M","100.60","","","","-49","","NA"
"-93.58","69.55","TALOYOAK A","2403856","2019-01-23 02:00","2019","01","23","02:00","-38.3","","-42.9","","63","","","M","18","","9","","","M","100.59","","","","-48","","NA"
"-93.58","69.55","TALOYOAK A","2403856","2019-01-23 03:00","2019","01","23","03:00","-37.8","","-42.4","","64","","","M","19","","10","","","M","100.62","","","","-48","","NA"
"-93.58","69.55","TALOYOAK A","2403856","2019-01-23 04:00","2019","01","23","04:00","-37.6","","-42.1","","64","","","M","18","","9","","","M","100.60","","","","-48","","NA"
"-93.58","69.55","TALOYOAK A","2403856","2019-01-23 05:00","2019","01","23","05:00","-37.3","","-41.8","","64","","","M","18","","8","","","M","100.58","","","","-47","","NA"
"-93.58","69.55","TALOYOAK A","2403856","2019-01-23 06:00","2019","01","23","06:00","-37.0","","-41.5","","64","","","M","18","","12","","","M","100.57","","","","-49","","NA"
"-93.58","69.55","TALOYOAK A","2403856","2019-01-23 07:00","2019","01","23","07:00","-37.6","","-42.1","","64","","","M","18","","10","","","M","100.56","","","","-48","","NA"
"-93.58","69.55","TALOYOAK A","2403856","2019-01-23 08:00","2019","01","23","08:00","-36.9","","-41.4","","64","","","M","21","","6","","","M","100.52","","","","-44","","NA"
"-93.58","69.55","TALOYOAK A","2403856","2019-01-23 09:00","2019","01","23","09:00","-36.0","","-40.4","","65","","","M","17","","8","","","M","100.52","","","","-45","","NA"
"-93.58","69.55","TALOYOAK A","2403856","2019-01-23 10:00","2019","01","23","10:00","-36.1","","-40.5","","65","","","M","18","","12","","","M","100.54","","","","-48","","NA"
"-93.58","69.55","TALOYOAK A","2403856","2019-01-23 11:00","2019","01","23","11:00","-36.0","","-40.5","","65","","","M","16","","11","","","M","100.58","","","","-47","","NA"
"-93.58","69.55","TALOYOAK A","2403856","2019-01-23 12:00","2019","01","23","12:00","-35.3","","-39.7","","65","","","M","18","","9","","","M","100.58","","","","-45","","NA"
"-93.58","69.55","TALOYOAK A","2403856","2019-01-23 13:00","2019","01","23","13:00","-34.7","","-39.1","","65","","","M","17","","7","","","M","100.58","","","","-43","","NA"
"-93.58","69.55","TALOYOAK A","2403856","2019-01-23 14:00","2019","01","23","14:00","-34.4","","-38.8","","66","","","M","17","","8","","","M","100.61","","","","-43","","NA"
"-93.58","69.55","TALOYOAK A","2403856","2019-01-23 15:00","2019","01","23","15:00","-34.4","","-38.7","","66","","","M","18","","7","","","M","100.65","","","","-42","","NA"
"-93.58","69.55","TALOYOAK A","2403856","2019-01-23 16:00","2019","01","23","16:00","-34.3","","-38.7","","66","","","M","19","","6","","","M","100.67","","","","-41","","NA"
"-93.58","69.55","TALOYOAK A","2403856","2019-01-23 17:00","2019","01","23","17:00","-34.5","","-38.8","","66","","","M","19","","4","","","M","100.66","","","","-39","","NA"
"-93.58","69.55","TALOYOAK A","2403856","2019-01-23 18:00","2019","01","23","18:00","-34.7","","-39.0","","66","","","M","20","","3","","","M","100.68","","","","-38","","NA"
"-93.58","69.55","TALOYOAK A","2403856","2019-01-23 19:00","2019","01","23","19:00","-34.6","","-39.0","","66","","","M","21","","4","","","M","100.71","","","","-40","","NA"
"-93.58","69.55","TALOYOAK A","2403856","2019-01-23 20:00","2019","01","23","20:00","-34.7","","-39.0","","66","","","M","18","","2","","","M","100.72","","","","-37","","NA"
"-93.58","69.55","TALOYOAK A","2403856","2019-01-23 21:00","2019","01","23","21:00","-35.0","","-39.4","","65","","","M","28","","4","","","M","100.74","","","","-40","","NA"
"-93.58","69.55","TALOYOAK A","2403856","2019-01-23 22:00","2019","01","23","22:00","-34.3","","-38.7","","66","","","M","36","","5","","","M","100.78","","","","-41","","NA"
"-93.58","69.55","TALOYOAK A","2403856","2019-01-23 23:00","2019","01","23","23:00","-33.1","","-37.4","","66","","","M","35","","5","","","M","100.80","","","","-39","","NA"
"-93.58","69.55","TALOYOAK A","2403856","2019-01-24 00:00","2019","01","24","00:00","-31.6","","-35.9","","67","","","M","36","","9","","","M","100.84","","","","-40","","NA"
"-93.58","69.55","TALOYOAK A","2403856","2019-01-24 01:00","2019","01","24","01:00","-31.8","","-36.0","","67","","","M","1","","11","","","M","100.89","","","","-42","","NA"
"-93.58","69.55","TALOYOAK A","2403856","2019-01-24 02:00","2019","01","24","02:00","-31.8","","-36.0","","67","","","M","1","","9","","","M","100.91","","","","-41","","NA"
"-93.58","69.55","TALOYOAK A","2403856","2019-01-24 03:00","2019","01","24","03:00","-31.5","","-35.7","","67","","","M","4","","14","","","M","100.94","","","","-43","","NA"
"-93.58","69.55","TALOYOAK A","2403856","2019-01-24 04:00","2019","01","24","04:00","-32.2","","-36.5","","67","","","M","7","","10","","","M","100.99","","","","-42","","NA"
"-93.58","69.55","TALOYOAK A","2403856","2019-01-24 05:00","2019","01","24","05:00","-34.6","","-38.9","","66","","","M","7","","17","","","M","101.04","","","","-48","","NA"
"-93.58","69.55","TALOYOAK A","2403856","2019-01-24 06:00","2019","01","24","06:00","-38.3","","-42.8","","64","","","M","1","","9","","","M","101.11","","","","-48","","NA"
"-93.58","69.55","TALOYOAK A","2403856","2019-01-24 07:00","2019","01","24","07:00","-35.4","","-39.8","","65","","","M","4","","10","","","M","101.15","","","","-46","","NA"
"-93.58","69.55","TALOYOAK A","2403856","2019-01-24 08:00","2019","01","24","08:00","-38.6","","-43.0","","64","","","M","3","","11","","","M","101.19","","","","-50","","NA"
"-93.58","69.55","TALOYOAK A","2403856","2019-01-24 09:00","2019","01","24","09:00","-37.1","","-41.5","","64","","","M","4","","15","","","M","101.28","","","","-50","","NA"
"-93.58","69.55","TALOYOAK A","2403856","2019-01-24 10:00","2019","01","24","10:00","-38.3","","-42.8","","64","","","M","2","","9","","","M","101.30","","","","-48","","NA"
"-93.58","69.55","TALOYOAK A","2403856","2019-01-24 11:00","2019","01","24","11:00","-39.7","","-44.2","","63","","","M","3","","15","","","M","101.36","","","","-53","","NA"
"-93.58","69.55","TALOYOAK A","2403856","2019-01-24 12:00","2019","01","24","12:00","-40.2","","-44.8","","63","","","M","34","","7","","","M","101.43","","","","-49","","NA"
"-93.58","69.55","TALOYOAK A","2403856","2019-01-24 13:00","2019","01","24","13:00","-40.5","","-45.1","","63","","","M","3","","25","","","M","101.44","","","","-58","","NA"
"-93.58","69.55","TALOYOAK A","2403856","2019-01-24 14:00","2019","01","24","14:00","-39.7","","-44.3","","63","","","M","4","","23","","","M","101.50","","","","-56","","NA"
"-93.58","69.55","TALOYOAK A","2403856","2019-01-24 15:00","2019","01","24","15:00","-37.8","","-42.3","","64","","","M","6","","23","","","M","101.57","","","","-54","","NA"
"-93.58","69.55","TALOYOAK A","2403856","2019-01-24 16:00","2019","01","24","16:00","-40.9","","-45.5","","62","","","M","34","","7","","","M","101.68","","","","-50","","NA"
"-93.58","69.55","TALOYOAK A","2403856","2019-01-24 17:00","2019","01","24","17:00","-39.9","","-44.5","","63","","","M","2","","14","","","M","101.70","","","","-53","","NA"
"-93.58","69.55","TALOYOAK A","2403856","2019-01-24 18:00","2019","01","24","18:00","-41.5","","-46.1","","62","","","M","1","","10","","","M","101.73","","","","-53","","NA"
"-93.58","69.55","TALOYOAK A","2403856","2019-01-24 19:00","2019","01","24","19:00","-40.7","","-45.3","","62","","","M","1","","4","","","M","101.77","","","","-46","","NA"
"-93.58","69.55","TALOYOAK A","2403856","2019-01-24 20:00","2019","01","24","20:00","-40.8","","-45.4","","62","","","M","1","","13","","","M","101.79","","","","-54","","NA"
"-93.58","69.55","TALOYOAK A","2403856","2019-01-24 21:00","2019","01","24","21:00","-41.1","","-45.7","","62","","","M","2","","14","","","M","101.82","","","","-55","","NA"
"-93.58","69.55","TALOYOAK A","2403856","2019-01-24 22:00","2019","01","24","22:00","-42.1","","-46.8","","62","","","M","35","","15","","","M","101.84","","","","-56","","NA"
"-93.58","69.55","TALOYOAK A","2403856","2019-01-24 23:00","2019","01","24","23:00","-41.0","","-45.7","","62","","","M","1","","12","","","M","101.86","","","","-53","","NA"
"-93.58","69.55","TALOYOAK A","2403856","2019-01-25 00:00","2019","01","25","00:00","-40.8","","-45.5","","62","","","M","2","","10","","","M","101.91","","","","-52","","NA"
"-93.58","69.55","TALOYOAK A","2403856","2019-01-25 01:00","2019","01","25","01:00","-41.0","","-45.7","","62","","","M","2","","14","","","M","101.93","","","","-55","","NA"
"-93.58","69.55","TALOYOAK A","2403856","2019-01-25 02:00","2019","01","25","02:00","-41.0","","-45.7","","62","","","M","1","","12","","","M","101.93","","","","-53","","NA"
"-93.58","69.55","TALOYOAK A","2403856","2019-01-25 03:00","2019","01","25","03:00","-40.6","","-45.2","","62","","","M","2","","11","","","M","101.97","","","","-52","","NA"
"-93.58","69.55","TALOYOAK A","2403856","2019-01-25 04:00","2019","01","25","04:00","-40.3","","-44.9","","62","","","M","2","","13","","","M","101.98","","","","-53","","NA"
"-93.58","69.55","TALOYOAK A","2403856","2019-01-25 05:00","2019","01","25","05:00","-42.0","","-46.7","","62","","","M","11","","4","","","M","102.02","","","","-48","","NA"
"-93.58","69.55","TALOYOAK A","2403856","2019-01-25 06:00","2019","01","25","06:00","-42.5","","-47.2","","61","","","M","2","","10","","","M","101.99","","","","-54","","NA"
"-93.58","69.55","TALOYOAK A","2403856","2019-01-25 07:00","2019","01","25","07:00","-41.8","","-46.5","","62","","","M","36","","2","","","M","102.01","","","","-45","","NA"
"-93.58","69.55","TALOYOAK A","2403856","2019-01-25 08:00","2019","01","25","08:00","-43.5","","-48.3","","61","","","M","2","","7","","","M","101.98","","","","-53","","NA"
"-93.58","69.55","TALOYOAK A","2403856","2019-01-25 09:00","2019","01","25","09:00","-42.5","","-47.3","","61","","","M","4","","7","","","M","101.99","","","","-52","","NA"
"-93.58","69.55","TALOYOAK A","2403856","2019-01-25 10:00","2019","01","25","10:00","-43.4","","-48.1","","61","","","M","13","","4","","","M","102.01","","","","-49","","NA"
"-93.58","69.55","TALOYOAK A","2403856","2019-01-25 11:00","2019","01","25","11:00","-43.3","","-48.1","","61","","","M","14","","3","","","M","101.97","","","","-48","","NA"
"-93.58","69.55","TALOYOAK A","2403856","2019-01-25 12:00","2019","01","25","12:00","-41.5","","-46.2","","61","","","M","14","","4","","","M","101.96","","","","-47","","NA"
"-93.58","69.55","TALOYOAK A","2403856","2019-01-25 13:00","2019","01","25","13:00","-41.8","","-46.5","","61","","","M","17","","4","","","M","101.96","","","","-48","","NA"
"-93.58","69.55","TALOYOAK A","2403856","2019-01-25 14:00","2019","01","25","14:00","-42.2","","-46.9","","61","","","M","18","","5","","","M","101.95","","","","-49","","NA"
"-93.58","69.55","TALOYOAK A","2403856","2019-01-25 15:00","2019","01","25","15:00","-42.9","","-47.6","","61","","","M","18","","6","","","M","101.97","","","","-51","","NA"
"-93.58","69.55","TALOYOAK A","2403856","2019-01-25 16:00","2019","01","25","16:00","-42.9","","-47.7","","61","","","M","19","","4","","","M","101.95","","","","-49","","NA"
"-93.58","69.55","TALOYOAK A","2403856","2019-01-25 17:00","2019","01","25","17:00","-42.8","","-47.5","","61","","","M","16","","10","","","M","101.89","","","","-54","","NA"
"-93.58","69.55","TALOYOAK A","2403856","2019-01-25 18:00","2019","01","25","18:00","-43.1","","-47.9","","61","","","M","18","","9","","","M","101.90","","","","-54","","NA"
"-93.58","69.55","TALOYOAK A","2403856","2019-01-25 19:00","2019","01","25","19:00","-44.0","","-48.8","","60","","","M","19","","11","","","M","101.86","","","","-57","","NA"
"-93.58","69.55","TALOYOAK A","2403856","2019-01-25 20:00","2019","01","25","20:00","-43.8","","-48.6","","60","","","M","20","","9","","","M","101.85","","","","-55","","NA"
"-93.58","69.55","TALOYOAK A","2403856","2019-01-25 21:00","2019","01","25","21:00","-43.7","","-48.5","","60","","","M","17","","12","","","M","101.80","","","","-57","","NA"
"-93.58","69.55","TALOYOAK A","2403856","2019-01-25 22:00","2019","01","25","22:00","-43.2","","-48.0","","61","","","M","17","","14","","","M","101.80","","","","-57","","NA"
"-93.58","69.55","TALOYOAK A","2403856","2019-01-25 23:00","2019","01","25","23:00","-43.2","","-48.0","","61","","","M","17","","15","","","M","101.80","","","","-58","","NA"
"-93.58","69.55","TALOYOAK A","2403856","2019-01-26 00:00","2019","01","26","00:00","-43.0","","-47.9","","61","","","M","17","","17","","","M","101.77","","","","-58","","NA"
"-93.58","69.55","TALOYOAK A","2403856","2019-01-26 01:00","2019","01","26","01:00","-43.5","","-48.3","","60","","","M","17","","16","","","M","101.75","","","","-59","","NA"
"-93.58","69.55","TALOYOAK A","2403856","2019-01-26 02:00","2019","01","26","02:00","-43.6","","-48.4","","60","","","M","17","","16","","","M","101.72","","","","-59","","NA"
"-93.58","69.55","TALOYOAK A","2403856","2019-01-26 03:00","2019","01","26","03:00","-43.4","","-48.2","","60","","","M","17","","17","","","M","101.72","","","","-59","","NA"
"-93.58","69.55","TALOYOAK A","2403856","2019-01-26 04:00","2019","01","26","04:00","-43.2","","-48.0","","61","","","M","16","","16","","","M","101.70","","","","-58","","NA"
"-93.58","69.55","TALOYOAK A","2403856","2019-01-26 05:00","2019","01","26","05:00","-43.3","","-48.1","","60","","","M","16","","17","","","M","101.67","","","","-59","","NA"
"-93.58","69.55","TALOYOAK A","2403856","2019-01-26 06:00","2019","01","26","06:00","-43.4","","-48.2","","60","","","M","17","","17","","","M","101.64","","","","-59","","NA"
"-93.58","69.55","TALOYOAK A","2403856","2019-01-26 07:00","2019","01","26","07:00","-43.3","","-48.1","","60","","","M","17","","19","","","M","101.59","","","","-60","","NA"
"-93.58","69.55","TALOYOAK A","2403856","2019-01-26 08:00","2019","01","26","08:00","-43.4","","-48.2","","60","","","M","16","","18","","","M","101.56","","","","-59","","NA"
"-93.58","69.55","TALOYOAK A","2403856","2019-01-26 09:00","2019","01","26","09:00","-43.1","","-47.9","","61","","","M","17","","17","","","M","101.54","","","","-58","","NA"
"-93.58","69.55","TALOYOAK A","2403856","2019-01-26 10:00","2019","01","26","10:00","-43.3","","-48.1","","60","","","M","16","","17","","","M","101.51","","","","-59","","NA"
"-93.58","69.55","TALOYOAK A","2403856","2019-01-26 11:00","2019","01","26","11:00","-43.3","","-48.2","","60","","","M","17","","19","","","M","101.47","","","","-60","","NA"
"-93.58","69.55","TALOYOAK A","2403856","2019-01-26 12:00","2019","01","26","12:00","-43.2","","-48.0","","60","","","M","17","","18","","","M","101.45","","","","-59","","NA"
"-93.58","69.55","TALOYOAK A","2403856","2019-01-26 13:00","2019","01","26","13:00","-43.2","","-48.0","","60","","","M","16","","17","","","M","101.41","","","","-59","","NA"
"-93.58","69.55","TALOYOAK A","2403856","2019-01-26 14:00","2019","01","26","14:00","-43.4","","-48.3","","60","","","M","17","","16","","","M","101.39","","","","-58","","NA"
"-93.58","69.55","TALOYOAK A","2403856","2019-01-26 15:00","2019","01","26","15:00","-43.4","","-48.2","","60","","","M","17","","16","","","M","101.34","","","","-58","","NA"
"-93.58","69.55","TALOYOAK A","2403856","2019-01-26 16:00","2019","01","26","16:00","-43.0","","-47.8","","60","","","M","17","","13","","","M","101.30","","","","-56","","NA"
"-93.58","69.55","TALOYOAK A","2403856","2019-01-26 17:00","2019","01","26","17:00","-43.3","","-48.2","","60","","","M","17","","16","","","M","101.25","","","","-58","","NA"
"-93.58","69.55","TALOYOAK A","2403856","2019-01-26 18:00","2019","01","26","18:00","-43.5","","-48.3","","60","","","M","18","","14","","","M","101.22","","","","-58","","NA"
"-93.58","69.55","TALOYOAK A","2403856","2019-01-26 19:00","2019","01","26","19:00","-43.0","","-47.9","","61","","","M","18","","11","","","M","101.17","","","","-55","","NA"
"-93.58","69.55","TALOYOAK A","2403856","2019-01-26 20:00","2019","01","26","20:00","-43.8","","-48.6","","60","","","M","18","","10","","","M","101.10","","","","-56","","NA"
"-93.58","69.55","TALOYOAK A","2403856","2019-01-26 21:00","2019","01","26","21:00","-43.6","","-48.4","","60","","","M","21","","7","","","M","101.05","","","","-53","","NA"
"-93.58","69.55","TALOYOAK A","2403856","2019-01-26 22:00","2019","01","26","22:00","-43.5","","-48.4","","60","","","M","22","","3","","","M","101.02","","","","-48","","NA"
"-93.58","69.55","TALOYOAK A","2403856","2019-01-26 23:00","2019","01","26","23:00","-44.3","","-49.1","","60","","","M","25","","3","","","M","100.99","","","","-49","","NA"
"-93.58","69.55","TALOYOAK A","2403856","2019-01-27 00:00","2019","01","27","00:00","-43.7","","-48.5","","60","","","M","1","","4","","","M","100.95","","","","-50","","NA"
"-93.58","69.55","TALOYOAK A","2403856","2019-01-27 01:00","2019","01","27","01:00","-42.8","","-47.7","","61","","","M","10","","3","","","M","100.93","","","","-47","","NA"
"-93.58","69.55","TALOYOAK A","2403856","2019-01-27 02:00","2019","01","27","02:00","-44.3","","-49.1","","60","","","M","","","0","","","M","100.92","","","","","","NA"
"-93.58","69.55","TALOYOAK A","2403856","2019-01-27 03:00","2019","01","27","03:00","-43.3","","-48.2","","60","","","M","2","","2","","","M","100.90","","","","-46","","NA"
"-93.58","69.55","TALOYOAK A","2403856","2019-01-27 04:00","2019","01","27","04:00","-43.2","","-48.0","","60","","","M","1","","5","","","M","100.88","","","","-51","","NA"
"-93.58","69.55","TALOYOAK A","2403856","2019-01-27 05:00","2019","01","27","05:00","-43.4","","-48.2","","60","","","M","4","","7","","","M","100.87","","","","-53","","NA"
"-93.58","69.55","TALOYOAK A","2403856","2019-01-27 06:00","2019","01","27","06:00","-42.7","","-47.5","","61","","","M","3","","9","","","M","100.86","","","","-54","","NA"
"-93.58","69.55","TALOYOAK A","2403856","2019-01-27 07:00","2019","01","27","07:00","-40.0","","-44.7","","62","","","M","4","","6","","","M","100.85","","","","-48","","NA"
"-93.58","69.55","TALOYOAK A","2403856","2019-01-27 08:00","2019","01","27","08:00","-43.4","","-48.2","","60","","","M","1","","8","","","M","100.86","","","","-54","","NA"
"-93.58","69.55","TALOYOAK A","2403856","2019-01-27 09:00","2019","01","27","09:00","-42.1","","-46.9","","61","","","M","4","","10","","","M","100.87","","","","-54","","NA"
"-93.58","69.55","TALOYOAK A","2403856","2019-01-27 10:00","2019","01","27","10:00","-42.1","","-46.9","","61","","","M","2","","10","","","M","100.89","","","","-54","","NA"
"-93.58","69.55","TALOYOAK A","2403856","2019-01-27 11:00","2019","01","27","11:00","-42.1","","-46.9","","61","","","M","2","","17","","","M","100.91","","","","-57","","NA"
"-93.58","69.55","TALOYOAK A","2403856","2019-01-27 12:00","2019","01","27","12:00","-43.0","","-47.9","","60","","","M","2","","18","","","M","100.93","","","","-59","","NA"
"-93.58","69.55","TALOYOAK A","2403856","2019-01-27 13:00","2019","01","27","13:00","-42.5","","-47.3","","61","","","M","1","","17","","","M","100.97","","","","-58","","NA"
"-93.58","69.55","TALOYOAK A","2403856","2019-01-27 14:00","2019","01","27","14:00","-42.3","","-47.1","","61","","","M","1","","18","","","M","100.99","","","","-58","","NA"
"-93.58","69.55","TALOYOAK A","2403856","2019-01-27 15:00","2019","01","27","15:00","-42.5","","-47.3","","61","","","M","2","","18","","","M","101.06","","","","-58","","NA"
"-93.58","69.55","TALOYOAK A","2403856","2019-01-27 16:00","2019","01","27","16:00","-41.8","","-46.6","","61","","","M","2","","18","","","M","101.09","","","","-57","","NA"
"-93.58","69.55","TALOYOAK A","2403856","2019-01-27 17:00","2019","01","27","17:00","-41.0","","-45.8","","61","","","M","1","","17","","","M","101.13","","","","-56","","NA"
"-93.58","69.55","TALOYOAK A","2403856","2019-01-27 18:00","2019","01","27","18:00","-39.8","","-44.5","","62","","","M","1","","6","","","M","101.17","","","","-48","","NA"
"-93.58","69.55","TALOYOAK A","2403856","2019-01-27 19:00","2019","01","27","19:00","-40.9","","-45.6","","62","","","M","6","","5","","","M","101.21","","","","-48","","NA"
"-93.58","69.55","TALOYOAK A","2403856","2019-01-27 20:00","2019","01","27","20:00","-42.5","","-47.2","","61","","","M","1","","4","","","M","101.23","","","","-48","","NA"
"-93.58","69.55","TALOYOAK A","2403856","2019-01-27 21:00","2019","01","27","21:00","-39.8","","-44.5","","62","","","M","13","","4","","","M","101.25","","","","-45","","NA"
"-93.58","69.55","TALOYOAK A","2403856","2019-01-27 22:00","2019","01","27","22:00","-41.1","","-45.8","","61","","","M","15","","6","","","M","101.27","","","","-49","","NA"
"-93.58","69.55","TALOYOAK A","2403856","2019-01-27 23:00","2019","01","27","23:00","-40.3","","-45.0","","62","","","M","16","","6","","","M","101.30","","","","-48","","NA"
"-93.58","69.55","TALOYOAK A","2403856","2019-01-28 00:00","2019","01","28","00:00","-41.5","","-46.2","","61","","","M","19","","1","","","M","101.32","","","","-43","","NA"
"-93.58","69.55","TALOYOAK A","2403856","2019-01-28 01:00","2019","01","28","01:00","-39.5","","-44.1","","62","","","M","14","","4","","","M","101.35","","","","-45","","NA"
"-93.58","69.55","TALOYOAK A","2403856","2019-01-28 02:00","2019","01","28","02:00","-40.1","","-44.8","","62","","","M","23","","6","","","M","101.36","","","","-48","","NA"
"-93.58","69.55","TALOYOAK A","2403856","2019-01-28 03:00","2019","01","28","03:00","-41.5","","-46.3","","61","","","M","20","","9","","","M","101.41","","","","-52","","NA"
"-93.58","69.55","TALOYOAK A","2403856","2019-01-28 04:00","2019","01","28","04:00","-41.2","","-46.0","","61","","","M","19","","10","","","M","101.44","","","","-53","","NA"
"-93.58","69.55","TALOYOAK A","2403856","2019-01-28 05:00","2019","01","28","05:00","-40.7","","-45.5","","62","","","M","16","","11","","","M","101.46","","","","-53","","NA"
"-93.58","69.55","TALOYOAK A","2403856","2019-01-28 06:00","2019","01","28","06:00","-41.0","","-45.7","","61","","","M","19","","11","","","M","101.50","","","","-53","","NA"
"-93.58","69.55","TALOYOAK A","2403856","2019-01-28 07:00","2019","01","28","07:00","-41.6","","-46.3","","61","","","M","21","","9","","","M","101.52","","","","-52","","NA"
"-93.58","69.55","TALOYOAK A","2403856","2019-01-28 08:00","2019","01","28","08:00","-41.7","","-46.5","","61","","","M","20","","8","","","M","101.54","","","","-52","","NA"
"-93.58","69.55","TALOYOAK A","2403856","2019-01-28 09:00","2019","01","28","09:00","-41.3","","-46.0","","61","","","M","18","","11","","","M","101.58","","","","-53","","NA"
"-93.58","69.55","TALOYOAK A","2403856","2019-01-28 10:00","2019","01","28","10:00","-41.8","","-46.6","","61","","","M","19","","5","","","M","101.60","","","","-49","","NA"
"-93.58","69.55","TALOYOAK A","2403856","2019-01-28 11:00","2019","01","28","11:00","-41.7","","-46.5","","61","","","M","21","","9","","","M","101.62","","","","-52","","NA"
"-93.58","69.55","TALOYOAK A","2403856","2019-01-28 12:00","2019","01","28","12:00","-41.5","","-46.3","","61","","","M","19","","7","","","M","101.65","","","","-51","","NA"
"-93.58","69.55","TALOYOAK A","2403856","2019-01-28 13:00","2019","01","28","13:00","-41.2","","-46.0","","61","","","M","20","","8","","","M","101.69","","","","-51","","NA"
"-93.58","69.55","TALOYOAK A","2403856","2019-01-28 14:00","2019","01","28","14:00","-41.8","","-46.6","","61","","","M","19","","8","","","M","101.74","","","","-52","","NA"
"-93.58","69.55","TALOYOAK A","2403856","2019-01-28 15:00","2019","01","28","15:00"
"-93.58","69.55","TALOYOAK A","2403856","2019-01-28 16:00","2019","01","28","16:00"
"-93.58","69.55","TALOYOAK A","2403856","2019-01-28 17:00","2019","01","28","17:00"
"-93.58","69.55","TALOYOAK A","2403856","2019-01-28 18:00","2019","01","28","18:00"
"-93.58","69.55","TALOYOAK A","2403856","2019-01-28 19:00","2019","01","28","19:00","-41.4","","-46.1","","61","","","M","17","","14","","","M","101.85","","","","-55","","NA"
"-93.58","69.55","TALOYOAK A","2403856","2019-01-28 20:00","2019","01","28","20:00","-41.0","","-45.8","","61","","","M","15","","11","","","M","101.87","","","","-53","","NA"
"-93.58","69.55","TALOYOAK A","2403856","2019-01-28 21:00","2019","01","28","21:00","-42.1","","-46.9","","61","","","M","26","","3","","","M","101.91","","","","-46","","NA"
"-93.58","69.55","TALOYOAK A","2403856","2019-01-28 22:00","2019","01","28","22:00","-40.7","","-45.5","","61","","","M","21","","12","","","M","101.95","","","","-53","","NA"
"-93.58","69.55","TALOYOAK A","2403856","2019-01-28 23:00","2019","01","28","23:00","-40.3","","-45.0","","62","","","M","15","","17","","","M","101.99","","","","-55","","NA"
"-93.58","69.55","TALOYOAK A","2403856","2019-01-29 00:00","2019","01","29","00:00","-40.1","","-44.8","","62","","","M","17","","10","","","M","101.99","","","","-51","","NA"
"-93.58","69.55","TALOYOAK A","2403856","2019-01-29 01:00","2019","01","29","01:00","-39.5","","-44.2","","62","","","M","14","","8","","","M","102.03","","","","-49","","NA"
"-93.58","69.55","TALOYOAK A","2403856","2019-01-29 02:00","2019","01","29","02:00","-38.5","","-43.1","","63","","","M","15","","8","","","M","102.09","","","","-48","","NA"
"-93.58","69.55","TALOYOAK A","2403856","2019-01-29 03:00","2019","01","29","03:00","-38.7","","-43.4","","63","","","M","16","","13","","","M","102.11","","","","-51","","NA"
"-93.58","69.55","TALOYOAK A","2403856","2019-01-29 04:00","2019","01","29","04:00","-39.6","","-44.3","","62","","","M","16","","13","","","M","102.13","","","","-52","","NA"
"-93.58","69.55","TALOYOAK A","2403856","2019-01-29 05:00","2019","01","29","05:00","-39.6","","-44.3","","62","","","M","17","","15","","","M","102.15","","","","-53","","NA"
"-93.58","69.55","TALOYOAK A","2403856","2019-01-29 06:00","2019","01","29","06:00","-39.5","","-44.1","","62","","","M","15","","9","","","M","102.17","","","","-50","","NA"
"-93.58","69.55","TALOYOAK A","2403856","2019-01-29 07:00","2019","01","29","07:00","-39.3","","-44.0","","62","","","M","16","","8","","","M","102.17","","","","-49","","NA"
"-93.58","69.55","TALOYOAK A","2403856","2019-01-29 08:00","2019","01","29","08:00","-39.1","","-43.8","","62","","","M","16","","13","","","M","102.18","","","","-52","","NA"
"-93.58","69.55","TALOYOAK A","2403856","2019-01-29 09:00","2019","01","29","09:00","-39.8","","-44.5","","62","","","M","15","","13","","","M","102.20","","","","-53","","NA"
"-93.58","69.55","TALOYOAK A","2403856","2019-01-29 10:00","2019","01","29","10:00","-40.4","","-45.1","","62","","","M","16","","13","","","M","102.18","","","","-53","","NA"
"-93.58","69.55","TALOYOAK A","2403856","2019-01-29 11:00","2019","01","29","11:00","-40.6","","-45.3","","62","","","M","16","","14","","","M","102.19","","","","-54","","NA"
"-93.58","69.55","TALOYOAK A","2403856","2019-01-29 12:00","2019","01","29","12:00","-40.7","","-45.5","","62","","","M","16","","14","","","M","102.21","","","","-54","","NA"
"-93.58","69.55","TALOYOAK A","2403856","2019-01-29 13:00","2019","01","29","13:00","-41.0","","-45.8","","61","","","M","17","","12","","","M","102.23","","","","-53","","NA"
"-93.58","69.55","TALOYOAK A","2403856","2019-01-29 14:00","2019","01","29","14:00","-41.2","","-46.0","","61","","","M","17","","13","","","M","102.26","","","","-54","","NA"
"-93.58","69.55","TALOYOAK A","2403856","2019-01-29 15:00","2019","01","29","15:00","-41.4","","-46.2","","61","","","M","17","","12","","","M","102.26","","","","-54","","NA"
"-93.58","69.55","TALOYOAK A","2403856","2019-01-29 16:00","2019","01","29","16:00","-41.4","","-46.2","","61","","","M","18","","13","","","M","102.27","","","","-54","","NA"
"-93.58","69.55","TALOYOAK A","2403856","2019-01-29 17:00","2019","01","29","17:00","-41.5","","-46.3","","61","","","M","17","","13","","","M","102.26","","","","-55","","NA"
"-93.58","69.55","TALOYOAK A","2403856","2019-01-29 18:00","2019","01","29","18:00","-41.6","","-46.4","","61","","","M","16","","14","","","M","102.23","","","","-55","","NA"
"-93.58","69.55","TALOYOAK A","2403856","2019-01-29 19:00","2019","01","29","19:00","-41.7","","-46.5","","61","","","M","17","","15","","","M","102.22","","","","-56","","NA"
"-93.58","69.55","TALOYOAK A","2403856","2019-01-29 20:00","2019","01","29","20:00","-41.6","","-46.4","","61","","","M","16","","11","","","M","102.20","","","","-54","","NA"
"-93.58","69.55","TALOYOAK A","2403856","2019-01-29 21:00","2019","01","29","21:00","-41.6","","-46.4","","61","","","M","17","","14","","","M","102.19","","","","-55","","NA"
"-93.58","69.55","TALOYOAK A","2403856","2019-01-29 22:00","2019","01","29","22:00","-41.6","","-46.4","","61","","","M","17","","14","","","M","102.17","","","","-55","","NA"
"-93.58","69.55","TALOYOAK A","2403856","2019-01-29 23:00","2019","01","29","23:00","-41.6","","-46.4","","61","","","M","17","","15","","","M","102.18","","","","-56","","NA"
"-93.58","69.55","TALOYOAK A","2403856","2019-01-30 00:00","2019","01","30","00:00","-41.9","","-46.7","","61","","","M","17","","16","","","M","102.16","","","","-57","","NA"
"-93.58","69.55","TALOYOAK A","2403856","2019-01-30 01:00","2019","01","30","01:00","-41.9","","-46.7","","61","","","M","16","","13","","","M","102.16","","","","-55","","NA"
"-93.58","69.55","TALOYOAK A","2403856","2019-01-30 02:00","2019","01","30","02:00","-41.7","","-46.5","","61","","","M","17","","15","","","M","102.18","","","","-56","","NA"
"-93.58","69.55","TALOYOAK A","2403856","2019-01-30 03:00","2019","01","30","03:00","-41.4","","-46.2","","61","","","M","17","","15","","","M","102.17","","","","-55","","NA"
"-93.58","69.55","TALOYOAK A","2403856","2019-01-30 04:00","2019","01","30","04:00","-41.8","","-46.5","","61","","","M","17","","17","","","M","102.17","","","","-57","","NA"
"-93.58","69.55","TALOYOAK A","2403856","2019-01-30 05:00","2019","01","30","05:00","-41.9","","-46.7","","61","","","M","17","","17","","","M","102.17","","","","-57","","NA"
"-93.58","69.55","TALOYOAK A","2403856","2019-01-30 06:00","2019","01","30","06:00","-42.0","","-46.8","","61","","","M","16","","14","","","M","102.18","","","","-56","","NA"
"-93.58","69.55","TALOYOAK A","2403856","2019-01-30 07:00","2019","01","30","07:00","-41.9","","-46.7","","61","","","M","17","","14","","","M","102.17","","","","-56","","NA"
"-93.58","69.55","TALOYOAK A","2403856","2019-01-30 08:00","2019","01","30","08:00","-41.4","","-46.2","","61","","","M","17","","13","","","M","102.13","","","","-54","","NA"
"-93.58","69.55","TALOYOAK A","2403856","2019-01-30 09:00","2019","01","30","09:00","-41.6","","-46.4","","61","","","M","18","","14","","","M","102.13","","","","-55","","NA"
"-93.58","69.55","TALOYOAK A","2403856","2019-01-30 10:00","2019","01","30","10:00","-41.5","","-46.3","","61","","","M","18","","13","","","M","102.15","","","","-55","","NA"
"-93.58","69.55","TALOYOAK A","2403856","2019-01-30 11:00","2019","01","30","11:00","-41.4","","-46.2","","61","","","M","18","","13","","","M","102.16","","","","-54","","NA"
"-93.58","69.55","TALOYOAK A","2403856","2019-01-30 12:00","2019","01","30","12:00","-41.1","","-45.9","","61","","","M","18","","11","","","M","102.16","","","","-53","","NA"
"-93.58","69.55","TALOYOAK A","2403856","2019-01-30 13:00","2019","01","30","13:00","-41.1","","-45.9","","61","","","M","18","","10","","","M","102.19","","","","-52","","NA"
"-93.58","69.55","TALOYOAK A","2403856","2019-01-30 14:00","2019","01","30","14:00","-41.1","","-45.9","","61","","","M","17","","13","","","M","102.19","","","","-54","","NA"
"-93.58","69.55","TALOYOAK A","2403856","2019-01-30 15:00","2019","01","30","15:00","-40.9","","-45.7","","61","","","M","17","","11","","","M","102.22","","","","-53","","NA"
"-93.58","69.55","TALOYOAK A","2403856","2019-01-30 16:00","2019","01","30","16:00","-41.4","","-46.1","","61","","","M","16","","12","","","M","102.23","","","","-54","","NA"
"-93.58","69.55","TALOYOAK A","2403856","2019-01-30 17:00","2019","01","30","17:00","-41.6","","-46.4","","61","","","M","18","","10","","","M","102.24","","","","-53","","NA"
"-93.58","69.55","TALOYOAK A","2403856","2019-01-30 18:00","2019","01","30","18:00","-41.6","","-46.4","","61","","","M","17","","10","","","M","102.21","","","","-53","","NA"
"-93.58","69.55","TALOYOAK A","2403856","2019-01-30 19:00","2019","01","30","19:00","-41.6","","-46.4","","61","","","M","18","","7","","","M","102.21","","","","-51","","NA"
"-93.58","69.55","TALOYOAK A","2403856","2019-01-30 20:00","2019","01","30","20:00","-41.6","","-46.4","","61","","","M","18","","7","","","M","102.19","","","","-51","","NA"
"-93.58","69.55","TALOYOAK A","2403856","2019-01-30 21:00","2019","01","30","21:00","-41.7","","-46.5","","61","","","M","21","","5","","","M","102.20","","","","-49","","NA"
"-93.58","69.55","TALOYOAK A","2403856","2019-01-30 22:00","2019","01","30","22:00","-41.2","","-46.0","","61","","","M","18","","3","","","M","102.18","","","","-45","","NA"
"-93.58","69.55","TALOYOAK A","2403856","2019-01-30 23:00","2019","01","30","23:00","-41.9","","-46.7","","61","","","M","6","","5","","","M","102.19","","","","-49","","NA"
"-93.58","69.55","TALOYOAK A","2403856","2019-01-31 00:00","2019","01","31","00:00","-43.0","","-47.9","","60","","","M","2","","4","","","M","102.21","","","","-49","","NA"
"-93.58","69.55","TALOYOAK A","2403856","2019-01-31 01:00","2019","01","31","01:00","-42.3","","-47.1","","61","","","M","4","","5","","","M","102.21","","","","-50","","NA"
"-93.58","69.55","TALOYOAK A","2403856","2019-01-31 02:00","2019","01","31","02:00","-41.9","","-46.7","","61","","","M","3","","8","","","M","102.19","","","","-52","","NA"
"-93.58","69.55","TALOYOAK A","2403856","2019-01-31 03:00","2019","01","31","03:00","-41.6","","-46.4","","61","","","M","1","","18","","","M","102.17","","","","-57","","NA"
"-93.58","69.55","TALOYOAK A","2403856","2019-01-31 04:00","2019","01","31","04:00","-41.7","","-46.5","","61","","","M","2","","13","","","M","102.16","","","","-55","","NA"
"-93.58","69.55","TALOYOAK A","2403856","2019-01-31 05:00","2019","01","31","05:00","-41.4","","-46.2","","61","","","M","36","","9","","","M","102.15","","","","-52","","NA"
"-93.58","69.55","TALOYOAK A","2403856","2019-01-31 06:00","2019","01","31","06:00","-40.9","","-45.7","","61","","","M","35","","14","","","M","102.14","","","","-54","","NA"
"-93.58","69.55","TALOYOAK A","2403856","2019-01-31 07:00","2019","01","31","07:00","-40.9","","-45.7","","61","","","M","2","","16","","","M","102.13","","","","-55","","NA"
"-93.58","69.55","TALOYOAK A","2403856","2019-01-31 08:00","2019","01","31","08:00","-40.7","","-45.5","","61","","","M","2","","15","","","M","102.12","","","","-55","","NA"
"-93.58","69.55","TALOYOAK A","2403856","2019-01-31 09:00","2019","01","31","09:00","-40.0","","-44.8","","62","","","M","2","","10","","","M","102.15","","","","-51","","NA"
"-93.58","69.55","TALOYOAK A","2403856","2019-01-31 10:00","2019","01","31","10:00","-39.5","","-44.2","","62","","","M","2","","15","","","M","102.13","","","","-53","","NA"
"-93.58","69.55","TALOYOAK A","2403856","2019-01-31 11:00","2019","01","31","11:00","-38.8","","-43.5","","62","","","M","1","","16","","","M","102.13","","","","-53","","NA"
"-93.58","69.55","TALOYOAK A","2403856","2019-01-31 12:00","2019","01","31","12:00","-38.5","","-43.1","","63","","","M","2","","16","","","M","102.12","","","","-52","","NA"
"-93.58","69.55","TALOYOAK A","2403856","2019-01-31 13:00","2019","01","31","13:00","-37.9","","-42.6","","63","","","M","3","","17","","","M","102.15","","","","-52","","NA"
"-93.58","69.55","TALOYOAK A","2403856","2019-01-31 14:00","2019","01","31","14:00","-37.6","","-42.2","","63","","","M","2","","19","","","M","102.13","","","","-52","","NA"
"-93.58","69.55","TALOYOAK A","2403856","2019-01-31 15:00","2019","01","31","15:00","-37.1","","-41.7","","63","","","M","2","","14","","","M","102.13","","","","-50","","NA"
"-93.58","69.55","TALOYOAK A","2403856","2019-01-31 16:00","2019","01","31","16:00","-37.0","","-41.5","","63","","","M","1","","11","","","M","102.12","","","","-48","","NA"
"-93.58","69.55","TALOYOAK A","2403856","2019-01-31 17:00","2019","01","31","17:00","-37.1","","-41.7","","63","","","M","1","","17","","","M","102.12","","","","-51","","NA"
"-93.58","69.55","TALOYOAK A","2403856","2019-01-31 18:00","2019","01","31","18:00","-36.8","","-41.4","","64","","","M","3","","14","","","M","102.11","","","","-49","","NA"
"-93.58","69.55","TALOYOAK A","2403856","2019-01-31 19:00","2019","01","31","19:00","-37.4","","-42.0","","63","","","M","36","","11","","","M","102.10","","","","-49","","NA"
"-93.58","69.55","TALOYOAK A","2403856","2019-01-31 20:00","2019","01","31","20:00","-36.6","","-41.2","","64","","","M","2","","15","","","M","102.06","","","","-50","","NA"
"-93.58","69.55","TALOYOAK A","2403856","2019-01-31 21:00","2019","01","31","21:00","-35.2","","-39.7","","64","","","M","2","","15","","","M","102.03","","","","-48","","NA"
"-93.58","69.55","TALOYOAK A","2403856","2019-01-31 22:00","2019","01","31","22:00","-35.4","","-39.9","","64","","","M","2","","13","","","M","102.02","","","","-47","","NA"
"-93.58","69.55","TALOYOAK A","2403856","2019-01-31 23:00","2019","01","31","23:00","-35.9","","-40.4","","64","","","M","2","","10","","","M","102.01","","","","-46","","NA"
