"Longitude (x)","Latitude (y)","Station Name","Climate ID","Date/Time (LST)","Year","Month","Day","Time (LST)","Temp (°C)","Temp Flag","Dew Point Temp (°C)","Dew Point Temp Flag","Rel Hum (%)","Rel Hum Flag","Precip. Amount (mm)","Precip. Amount Flag","Wind Dir (10s deg)","Wind Dir Flag","Wind Spd (km/h)","Wind Spd Flag","Visibility (km)","Visibility Flag","Stn Press (kPa)","Stn Press Flag","Hmdx","Hmdx Flag","Wind Chill","Wind Chill Flag","Weather"
"-111.22","56.65","FORT MCMURRAY A","3062697","2019-01-01 00:00","2019","01","01","00:00","-17.9","","-20.3","","82","","0.0","","9","","13","","16.1","","96.54","","","","-26","","NA"
"-111.22","56.65","FORT MCMURRAY A","3062697","2019-01-01 01:00","2019","01","01","01:00","-17.0","","-19.4","","82","","0.0","","8","","11","","16.1","","96.38","","","","-24","","NA"
"-111.22","56.65","FORT MCMURRAY A","3062697","2019-01-01 02:00","2019","01","01","02:00","-15.1","","-17.4","","83","","0.0","","8","","13","","16.1","","96.16","","","","-22","","NA"
"-111.22","56.65","FORT MCMURRAY A","3062697","2019-01-01 03:00","2019","01","01","03:00","-13.2","","-15.1","","86","","0.0","","9","","15","","1.6","","95.96","","","","-21","","Snow"
"-111.22","56.65","FORT MCMURRAY A","3062697","2019-01-01 04:00","2019","01","01","04:00","-11.5","","-13.1","","88","","0.0","","10","","9","","1.2","","95.84","","","","-17","","Snow"
"-111.22","56.65","FORT MCMURRAY A","3062697","2019-01-01 05:00","2019","01","01","05:00","-6.3","","-7.5","","91","","0.0","","21","","11","","1.6","","95.66","","","","-11","","Snow"
"-111.22","56.65","FORT MCMURRAY A","3062697","2019-01-01 06:00","2019","01","01","06:00","-4.9","","-7.0","","85","","0.0","","23","","15","","9.7","","95.53","","","","-10","","Snow"
"-111.22","56.65","FORT MCMURRAY A","3062697","2019-01-01 07:00","2019","01","01","07:00","-4.6","","-6.9","","84","","0.0","","24","","15","","16.1","","95.46","","","","-10","","NA"
"-111.22","56.65","FORT MCMURRAY A","3062697","2019-01-01 08:00","2019","01","01","08:00","-3.2","","-6.0","","81","","0.0","","25","","22","","16.1","","95.47","","","","-10","","NA"
"-111.22","56.65","FORT MCMURRAY A","3062697","2019-01-01 09:00","2019","01","01","09:00","-2.2","","-5.2","","80","","0.0","","26","","22","","16.1","","95.48","","","","-8","","NA"
"-111.22","56.65","FORT MCMURRAY A","3062697","2019-01-01 10:00","2019","01","01","10:00","-1.1","","-4.3","","79","","0.0","","28","","26","","16.1","","95.57","","","","-7","","NA"
"-111.22","56.65","FORT MCMURRAY A","3062697","2019-01-01 11:00","2019","01","01","11:00","-1.1","","-4.6","","77","","0.0","","27","","24","","16.1","","95.56","","","","-7","","NA"
"-111.22","56.65","FORT MCMURRAY A","3062697","2019-01-01 12:00","2019","01","01","12:00","-0.3","","-4.5","","73","","0.0","","28","","35","","16.1","","95.51","","","","-7","","NA"
"-111.22","56.65","FORT MCMURRAY A","3062697","2019-01-01 13:00","2019","01","01","13:00","0.5","","-4.3","","71","","0.2","","27","","32","","16.1","","95.55","","","","","","NA"
"-111.22","56.65","FORT MCMURRAY A","3062697","2019-01-01 14:00","2019","01","01","14:00","0.8","","-4.3","","69","","0.0","","28","","35","","14.5","","95.60","","","","","","NA"
"-111.22","56.65","FORT MCMURRAY A","3062697","2019-01-01 15:00","2019","01","01","15:00","0.5","","-4.5","","69","","0.0","","27","","22","","16.1","","95.64","","","","","","NA"
"-111.22","56.65","FORT MCMURRAY A","3062697","2019-01-01 16:00","2019","01","01","16:00","-0.6","","-4.9","","73","","0.0","","29","","22","","16.1","","95.70","","","","-6","","NA"
"-111.22","56.65","FORT MCMURRAY A","3062697","2019-01-01 17:00","2019","01","01","17:00","-0.3","","-4.4","","74","","0.0","","30","","15","","16.1","","95.77","","","","-5","","NA"
"-111.22","56.65","FORT MCMURRAY A","3062697","2019-01-01 18:00","2019","01","01","18:00","-0.5","","-4.6","","74","","0.0","","28","","21","","16.1","","95.77","","","","-6","","NA"
"-111.22","56.65","FORT MCMURRAY A","3062697","2019-01-01 19:00","2019","01","01","19:00","-0.9","","-4.8","","75","","0.0","","27","","21","","16.1","","95.78","","","","-7","","NA"
"-111.22","56.65","FORT MCMURRAY A","3062697","2019-01-01 20:00","2019","01","01","20:00","-2.4","","-5.6","","79","","0.0","","27","","15","","16.1","","95.76","","","","-7","","NA"
"-111.22","56.65","FORT MCMURRAY A","3062697","2019-01-01 21:00","2019","01","01","21:00","-4.1","","-6.5","","84","","0.0","","26","","15","","16.1","","95.72","","","","-9","","NA"
"-111.22","56.65","FORT MCMURRAY A","3062697","2019-01-01 22:00","2019","01","01","22:00","-6.1","","-7.4","","91","","0.0","","","M","4","","16.1","","95.70","","","","-8","","NA"
"-111.22","56.65","FORT MCMURRAY A","3062697","2019-01-01 23:00","2019","01","01","23:00","-6.4","","-7.6","","91","","0.0","","22","","5","","16.1","","95.67","","","","-9","","NA"
"-111.22","56.65","FORT MCMURRAY A","3062697","2019-01-02 00:00","2019","01","02","00:00","-9.4","","-10.4","","92","","0.0","","17","","8","","16.1","","95.57","","","","-14","","NA"
"-111.22","56.65","FORT MCMURRAY A","3062697","2019-01-02 01:00","2019","01","02","01:00","-7.9","","-9.4","","89","","0.0","","23","","9","","16.1","","95.61","","","","-12","","NA"
"-111.22","56.65","FORT MCMURRAY A","3062697","2019-01-02 02:00","2019","01","02","02:00","-7.2","","-8.5","","90","","0.0","","","","0","","16.1","","95.51","","","","","","NA"
"-111.22","56.65","FORT MCMURRAY A","3062697","2019-01-02 03:00","2019","01","02","03:00","-9.1","","-10.3","","91","","0.0","","10","","11","","16.1","","95.37","","","","-15","","NA"
"-111.22","56.65","FORT MCMURRAY A","3062697","2019-01-02 04:00","2019","01","02","04:00","-9.0","","-10.4","","90","","0.0","","9","","8","","16.1","","95.23","","","","-13","","NA"
"-111.22","56.65","FORT MCMURRAY A","3062697","2019-01-02 05:00","2019","01","02","05:00","-8.2","","-9.7","","89","","0.0","","9","","9","","16.1","","95.10","","","","-13","","NA"
"-111.22","56.65","FORT MCMURRAY A","3062697","2019-01-02 06:00","2019","01","02","06:00","-7.9","","-9.3","","90","","0.0","","9","","11","","16.1","","94.99","","","","-13","","NA"
"-111.22","56.65","FORT MCMURRAY A","3062697","2019-01-02 07:00","2019","01","02","07:00","-6.8","","-8.2","","90","","0.0","","10","","11","","16.1","","94.86","","","","-12","","NA"
"-111.22","56.65","FORT MCMURRAY A","3062697","2019-01-02 08:00","2019","01","02","08:00","-7.3","","-8.7","","90","","0.0","","8","","8","","16.1","","94.79","","","","-11","","NA"
"-111.22","56.65","FORT MCMURRAY A","3062697","2019-01-02 09:00","2019","01","02","09:00","-6.1","","-7.5","","90","","0.0","","9","","5","","16.1","","94.73","","","","-9","","NA"
"-111.22","56.65","FORT MCMURRAY A","3062697","2019-01-02 10:00","2019","01","02","10:00","0.7","","-1.6","","85","","0.0","","28","","11","","16.1","","94.68","","","","","","NA"
"-111.22","56.65","FORT MCMURRAY A","3062697","2019-01-02 11:00","2019","01","02","11:00","3.9","","0.1","","76","","0.0","","25","","22","","16.1","","94.64","","","","","","NA"
"-111.22","56.65","FORT MCMURRAY A","3062697","2019-01-02 12:00","2019","01","02","12:00","4.4","","0.3","","75","","0.0","","25","","30","","16.1","","94.59","","","","","","NA"
"-111.22","56.65","FORT MCMURRAY A","3062697","2019-01-02 13:00","2019","01","02","13:00","5.3","","0.3","","70","","0.0","","26","","32","","16.1","","94.60","","","","","","NA"
"-111.22","56.65","FORT MCMURRAY A","3062697","2019-01-02 14:00","2019","01","02","14:00","5.6","","0.4","","69","","0.0","","27","","28","","16.1","","94.66","","","","","","NA"
"-111.22","56.65","FORT MCMURRAY A","3062697","2019-01-02 15:00","2019","01","02","15:00","5.6","","0.6","","70","","0.0","","28","","35","","16.1","","94.74","","","","","","NA"
"-111.22","56.65","FORT MCMURRAY A","3062697","2019-01-02 16:00","2019","01","02","16:00","5.3","","0.5","","71","","0.0","","27","","22","","16.1","","94.77","","","","","","NA"
"-111.22","56.65","FORT MCMURRAY A","3062697","2019-01-02 17:00","2019","01","02","17:00","4.3","","0.5","","76","","0.0","","28","","21","","16.1","","94.83","","","","","","NA"
"-111.22","56.65","FORT MCMURRAY A","3062697","2019-01-02 18:00","2019","01","02","18:00","3.6","","-0.1","","77","","0.0","","24","","15","","16.1","","94.88","","","","","","NA"
"-111.22","56.65","FORT MCMURRAY A","3062697","2019-01-02 19:00","2019","01","02","19:00","2.7","","-0.2","","81","","0.0","","24","","17","","16.1","","94.89","","","","","","NA"
"-111.22","56.65","FORT MCMURRAY A","3062697","2019-01-02 20:00","2019","01","02","20:00","2.1","","-0.7","","82","","0.0","","24","","9","","16.1","","94.89","","","","","","NA"
"-111.22","56.65","FORT MCMURRAY A","3062697","2019-01-02 21:00","2019","01","02","21:00","-0.8","","-2.1","","91","","0.0","","23","","13","","16.1","","94.90","","","","-5","","NA"
"-111.22","56.65","FORT MCMURRAY A","3062697","2019-01-02 22:00","2019","01","02","22:00","0.9","","-1.3","","85","","0.0","","25","","13","","16.1","","94.89","","","","","","NA"
"-111.22","56.65","FORT MCMURRAY A","3062697","2019-01-02 23:00","2019","01","02","23:00","1.4","","-1.3","","82","","0.0","","26","","11","","16.1","","94.86","","","","","","Rain"
"-111.22","56.65","FORT MCMURRAY A","3062697","2019-01-03 00:00","2019","01","03","00:00","1.3","","-0.6","","87","","0.0","","22","","8","","16.1","","94.86","","","","","","NA"
"-111.22","56.65","FORT MCMURRAY A","3062697","2019-01-03 01:00","2019","01","03","01:00","-0.3","","-1.5","","92","","0.0","","","M","4","","16.1","","94.87","","","","-2","","Rain"
"-111.22","56.65","FORT MCMURRAY A","3062697","2019-01-03 02:00","2019","01","03","02:00","0.8","","-0.7","","90","","0.0","","22","","8","","16.1","","94.91","","","","","","NA"
"-111.22","56.65","FORT MCMURRAY A","3062697","2019-01-03 03:00","2019","01","03","03:00","1.0","","-0.8","","88","","0.0","","25","","11","","16.1","","94.93","","","","","","Rain"
"-111.22","56.65","FORT MCMURRAY A","3062697","2019-01-03 04:00","2019","01","03","04:00","0.5","","-1.5","","87","","0.0","","25","","18","","16.1","","94.96","","","","","","NA"
"-111.22","56.65","FORT MCMURRAY A","3062697","2019-01-03 05:00","2019","01","03","05:00","-0.4","","-2.5","","86","","0.0","","24","","22","","16.1","","94.97","","","","-6","","NA"
"-111.22","56.65","FORT MCMURRAY A","3062697","2019-01-03 06:00","2019","01","03","06:00","-1.5","","-2.9","","90","","0.0","","23","","17","","16.1","","94.99","","","","-7","","NA"
"-111.22","56.65","FORT MCMURRAY A","3062697","2019-01-03 07:00","2019","01","03","07:00","-2.2","","-3.6","","90","","0.0","","20","","15","","16.1","","95.01","","","","-7","","NA"
"-111.22","56.65","FORT MCMURRAY A","3062697","2019-01-03 08:00","2019","01","03","08:00","-3.8","","-5.1","","91","","0.0","","20","","13","","16.1","","95.08","","","","-9","","NA"
"-111.22","56.65","FORT MCMURRAY A","3062697","2019-01-03 09:00","2019","01","03","09:00","-4.9","","-6.9","","86","","0.0","","19","","15","","16.1","","95.11","","","","-10","","NA"
"-111.22","56.65","FORT MCMURRAY A","3062697","2019-01-03 10:00","2019","01","03","10:00","-4.3","","-7.6","","78","","0.0","","20","","15","","16.1","","95.16","","","","-10","","NA"
"-111.22","56.65","FORT MCMURRAY A","3062697","2019-01-03 11:00","2019","01","03","11:00","-2.5","","-7.3","","70","","0.0","","20","","18","","16.1","","95.22","","","","-8","","NA"
"-111.22","56.65","FORT MCMURRAY A","3062697","2019-01-03 12:00","2019","01","03","12:00","-1.3","","-7.7","","62","","0.0","","22","","17","","16.1","","95.19","","","","-6","","NA"
"-111.22","56.65","FORT MCMURRAY A","3062697","2019-01-03 13:00","2019","01","03","13:00","-0.5","","-7.8","","58","","0.0","","24","","15","","16.1","","95.17","","","","-5","","NA"
"-111.22","56.65","FORT MCMURRAY A","3062697","2019-01-03 14:00","2019","01","03","14:00","0.0","","-8.3","","54","","0.0","","26","","13","","16.1","","95.20","","","","-4","","NA"
"-111.22","56.65","FORT MCMURRAY A","3062697","2019-01-03 15:00","2019","01","03","15:00","-0.1","","-9.3","","50","","0.0","","28","","13","","16.1","","95.24","","","","-4","","NA"
"-111.22","56.65","FORT MCMURRAY A","3062697","2019-01-03 16:00","2019","01","03","16:00","-2.6","","-9.8","","58","","0.0","","25","","13","","16.1","","95.30","","","","-7","","NA"
"-111.22","56.65","FORT MCMURRAY A","3062697","2019-01-03 17:00","2019","01","03","17:00","-4.3","","-10.1","","64","","0.0","","23","","15","","16.1","","95.38","","","","-10","","NA"
"-111.22","56.65","FORT MCMURRAY A","3062697","2019-01-03 18:00","2019","01","03","18:00","-4.3","","-9.9","","65","","0.0","","23","","18","","16.1","","95.39","","","","-10","","NA"
"-111.22","56.65","FORT MCMURRAY A","3062697","2019-01-03 19:00","2019","01","03","19:00","-4.8","","-10.2","","66","","0.0","","23","","17","","16.1","","95.45","","","","-11","","NA"
"-111.22","56.65","FORT MCMURRAY A","3062697","2019-01-03 20:00","2019","01","03","20:00","-6.0","","-10.6","","70","","0.0","","23","","15","","16.1","","95.50","","","","-12","","NA"
"-111.22","56.65","FORT MCMURRAY A","3062697","2019-01-03 21:00","2019","01","03","21:00","-5.6","","-10.4","","69","","0.0","","24","","21","","16.1","","95.55","","","","-12","","NA"
"-111.22","56.65","FORT MCMURRAY A","3062697","2019-01-03 22:00","2019","01","03","22:00","-6.0","","-10.4","","71","","0.0","","24","","18","","16.1","","95.60","","","","-12","","NA"
"-111.22","56.65","FORT MCMURRAY A","3062697","2019-01-03 23:00","2019","01","03","23:00","-6.5","","-10.8","","72","","0.0","","27","","9","","16.1","","95.62","","","","-11","","NA"
"-111.22","56.65","FORT MCMURRAY A","3062697","2019-01-04 00:00","2019","01","04","00:00","-6.6","","-10.9","","72","","0.0","","27","","8","","16.1","","95.70","","","","-10","","NA"
"-111.22","56.65","FORT MCMURRAY A","3062697","2019-01-04 01:00","2019","01","04","01:00","-10.6","","-13.0","","83","","0.0","","20","","15","","16.1","","95.75","","","","-17","","NA"
"-111.22","56.65","FORT MCMURRAY A","3062697","2019-01-04 02:00","2019","01","04","02:00","-10.5","","-12.9","","83","","0.0","","20","","15","","16.1","","95.79","","","","-17","","NA"
"-111.22","56.65","FORT MCMURRAY A","3062697","2019-01-04 03:00","2019","01","04","03:00","-11.1","","-13.2","","85","","0.0","","22","","9","","16.1","","95.81","","","","-16","","NA"
"-111.22","56.65","FORT MCMURRAY A","3062697","2019-01-04 04:00","2019","01","04","04:00","-11.6","","-13.8","","84","","0.0","","23","","15","","16.1","","95.84","","","","-19","","NA"
"-111.22","56.65","FORT MCMURRAY A","3062697","2019-01-04 05:00","2019","01","04","05:00","-11.9","","-14.1","","84","","0.0","","23","","11","","16.1","","95.82","","","","-18","","NA"
"-111.22","56.65","FORT MCMURRAY A","3062697","2019-01-04 06:00","2019","01","04","06:00","-12.9","","-14.5","","88","","0.0","","21","","5","","16.1","","95.86","","","","-16","","NA"
"-111.22","56.65","FORT MCMURRAY A","3062697","2019-01-04 07:00","2019","01","04","07:00","-13.0","","-14.3","","90","","0.0","","22","","5","","16.1","","95.93","","","","-16","","NA"
"-111.22","56.65","FORT MCMURRAY A","3062697","2019-01-04 08:00","2019","01","04","08:00","-13.8","","-15.5","","87","","0.0","","21","","8","","16.1","","95.95","","","","-19","","NA"
"-111.22","56.65","FORT MCMURRAY A","3062697","2019-01-04 09:00","2019","01","04","09:00","-12.5","","-14.2","","87","","0.0","","20","","9","","16.1","","96.03","","","","-18","","NA"
"-111.22","56.65","FORT MCMURRAY A","3062697","2019-01-04 10:00","2019","01","04","10:00","-12.1","","-14.0","","86","","0.0","","","M","4","","16.1","","96.10","","","","-15","","NA"
"-111.22","56.65","FORT MCMURRAY A","3062697","2019-01-04 11:00","2019","01","04","11:00","-11.6","","-13.4","","87","","0.0","","25","","5","","16.1","","96.15","","","","-15","","NA"
"-111.22","56.65","FORT MCMURRAY A","3062697","2019-01-04 12:00","2019","01","04","12:00","-10.6","","-12.5","","86","","0.0","","27","","5","","16.1","","96.19","","","","-14","","Snow"
"-111.22","56.65","FORT MCMURRAY A","3062697","2019-01-04 13:00","2019","01","04","13:00","-10.1","","-12.2","","85","","0.0","","30","","5","","16.1","","96.20","","","","-13","","Snow"
"-111.22","56.65","FORT MCMURRAY A","3062697","2019-01-04 14:00","2019","01","04","14:00","-9.9","","-11.9","","86","","0.0","","31","","9","","14.5","","96.26","","","","-15","","Snow"
"-111.22","56.65","FORT MCMURRAY A","3062697","2019-01-04 15:00","2019","01","04","15:00","-9.4","","-11.3","","86","","0.0","","32","","11","","16.1","","96.32","","","","-15","","Snow"
"-111.22","56.65","FORT MCMURRAY A","3062697","2019-01-04 16:00","2019","01","04","16:00","-9.7","","-11.8","","85","","0.0","","32","","11","","16.1","","96.42","","","","-15","","Snow"
"-111.22","56.65","FORT MCMURRAY A","3062697","2019-01-04 17:00","2019","01","04","17:00","-9.9","","-12.8","","80","","0.0","","34","","8","","16.1","","96.50","","","","-14","","Snow"
"-111.22","56.65","FORT MCMURRAY A","3062697","2019-01-04 18:00","2019","01","04","18:00","-10.3","","-13.8","","76","","0.0","","36","","13","","16.1","","96.59","","","","-17","","Snow"
"-111.22","56.65","FORT MCMURRAY A","3062697","2019-01-04 19:00","2019","01","04","19:00","-10.9","","-14.3","","76","","0.0","","34","","8","","16.1","","96.67","","","","-16","","Snow"
"-111.22","56.65","FORT MCMURRAY A","3062697","2019-01-04 20:00","2019","01","04","20:00","-11.5","","-14.9","","76","","0.0","","1","","5","","16.1","","96.74","","","","-15","","Snow"
"-111.22","56.65","FORT MCMURRAY A","3062697","2019-01-04 21:00","2019","01","04","21:00","-12.0","","-15.5","","76","","0.0","","2","","11","","16.1","","96.82","","","","-18","","NA"
"-111.22","56.65","FORT MCMURRAY A","3062697","2019-01-04 22:00","2019","01","04","22:00","-12.3","","-15.9","","75","","0.0","","35","","8","","16.1","","96.88","","","","-17","","Snow"
"-111.22","56.65","FORT MCMURRAY A","3062697","2019-01-04 23:00","2019","01","04","23:00","-12.5","","-15.9","","76","","0.0","","35","","9","","16.1","","96.93","","","","-18","","Snow"
"-111.22","56.65","FORT MCMURRAY A","3062697","2019-01-05 00:00","2019","01","05","00:00","-12.9","","-16.1","","77","","0.0","","1","","9","","16.1","","97.01","","","","-18","","Snow"
"-111.22","56.65","FORT MCMURRAY A","3062697","2019-01-05 01:00","2019","01","05","01:00","-13.2","","-16.0","","80","","0.0","","34","","5","","16.1","","97.09","","","","-17","","Snow"
"-111.22","56.65","FORT MCMURRAY A","3062697","2019-01-05 02:00","2019","01","05","02:00","-13.5","","-16.0","","82","","0.0","","36","","4","","16.1","","97.12","","","","-16","","Snow"
"-111.22","56.65","FORT MCMURRAY A","3062697","2019-01-05 03:00","2019","01","05","03:00","-13.5","","-16.7","","77","","0.0","","","","0","","16.1","","97.19","","","","","","NA"
"-111.22","56.65","FORT MCMURRAY A","3062697","2019-01-05 04:00","2019","01","05","04:00","-13.8","","-16.9","","78","","0.0","","13","","5","","16.1","","97.21","","","","-17","","Snow"
"-111.22","56.65","FORT MCMURRAY A","3062697","2019-01-05 05:00","2019","01","05","05:00","-14.1","","-17.0","","79","","0.0","","9","","5","","16.1","","97.20","","","","-18","","Snow"
"-111.22","56.65","FORT MCMURRAY A","3062697","2019-01-05 06:00","2019","01","05","06:00","-14.2","","-17.2","","78","","0.0","","15","","8","","11.3","","97.23","","","","-19","","Snow"
"-111.22","56.65","FORT MCMURRAY A","3062697","2019-01-05 07:00","2019","01","05","07:00","-14.5","","-17.3","","80","","0.0","","13","","8","","8.1","","97.23","","","","-20","","Snow"
"-111.22","56.65","FORT MCMURRAY A","3062697","2019-01-05 08:00","2019","01","05","08:00","-14.8","","-17.5","","80","","0.0","","12","","11","","11.3","","97.26","","","","-21","","Snow"
"-111.22","56.65","FORT MCMURRAY A","3062697","2019-01-05 09:00","2019","01","05","09:00","-15.0","","-17.6","","81","","0.0","","11","","15","","16.1","","97.28","","","","-23","","NA"
"-111.22","56.65","FORT MCMURRAY A","3062697","2019-01-05 10:00","2019","01","05","10:00","-14.9","","-17.5","","81","","0.0","","12","","13","","16.1","","97.31","","","","-22","","NA"
"-111.22","56.65","FORT MCMURRAY A","3062697","2019-01-05 11:00","2019","01","05","11:00","-15.6","","-18.2","","81","","0.0","","12","","17","","16.1","","97.25","","","","-24","","Snow"
"-111.22","56.65","FORT MCMURRAY A","3062697","2019-01-05 12:00","2019","01","05","12:00","-15.4","","-18.0","","81","","0.0","","11","","17","","16.1","","97.22","","","","-24","","NA"
"-111.22","56.65","FORT MCMURRAY A","3062697","2019-01-05 13:00","2019","01","05","13:00","-14.9","","-17.9","","78","","0.0","","12","","18","","16.1","","97.13","","","","-24","","NA"
"-111.22","56.65","FORT MCMURRAY A","3062697","2019-01-05 14:00","2019","01","05","14:00","-14.0","","-17.4","","76","","0.0","","13","","18","","16.1","","97.09","","","","-22","","NA"
"-111.22","56.65","FORT MCMURRAY A","3062697","2019-01-05 15:00","2019","01","05","15:00","-13.5","","-17.2","","74","","0.0","","11","","22","","16.1","","96.97","","","","-23","","NA"
"-111.22","56.65","FORT MCMURRAY A","3062697","2019-01-05 16:00","2019","01","05","16:00","-13.8","","-17.3","","75","","0.0","","11","","18","","16.1","","96.94","","","","-22","","NA"
"-111.22","56.65","FORT MCMURRAY A","3062697","2019-01-05 17:00","2019","01","05","17:00","-14.0","","-17.4","","76","","0.0","","11","","26","","16.1","","96.82","","","","-24","","NA"
"-111.22","56.65","FORT MCMURRAY A","3062697","2019-01-05 18:00","2019","01","05","18:00","-14.6","","-17.8","","77","","0.0","","12","","24","","16.1","","96.78","","","","-24","","NA"
"-111.22","56.65","FORT MCMURRAY A","3062697","2019-01-05 19:00","2019","01","05","19:00","-14.2","","-17.2","","78","","0.0","","12","","28","","16.1","","96.72","","","","-25","","NA"
"-111.22","56.65","FORT MCMURRAY A","3062697","2019-01-05 20:00","2019","01","05","20:00","-14.2","","-17.2","","78","","0.0","","10","","18","","16.1","","96.60","","","","-23","","NA"
"-111.22","56.65","FORT MCMURRAY A","3062697","2019-01-05 21:00","2019","01","05","21:00","-13.6","","-16.6","","78","","0.0","","11","","26","","16.1","","96.48","","","","-24","","NA"
"-111.22","56.65","FORT MCMURRAY A","3062697","2019-01-05 22:00","2019","01","05","22:00","-13.0","","-15.8","","80","","0.0","","11","","22","","16.1","","96.37","","","","-22","","NA"
"-111.22","56.65","FORT MCMURRAY A","3062697","2019-01-05 23:00","2019","01","05","23:00","-12.6","","-15.1","","82","","0.0","","9","","15","","16.1","","96.25","","","","-20","","NA"
"-111.22","56.65","FORT MCMURRAY A","3062697","2019-01-06 00:00","2019","01","06","00:00","-11.7","","-13.9","","84","","0.0","","10","","18","","16.1","","96.12","","","","-20","","NA"
"-111.22","56.65","FORT MCMURRAY A","3062697","2019-01-06 01:00","2019","01","06","01:00","-12.2","","-14.2","","85","","0.0","","8","","17","","16.1","","96.00","","","","-20","","NA"
"-111.22","56.65","FORT MCMURRAY A","3062697","2019-01-06 02:00","2019","01","06","02:00","-11.7","","-13.6","","86","","0.0","","8","","15","","16.1","","95.90","","","","-19","","NA"
"-111.22","56.65","FORT MCMURRAY A","3062697","2019-01-06 03:00","2019","01","06","03:00","-11.8","","-13.7","","86","","0.0","","9","","17","","16.1","","95.80","","","","-19","","NA"
"-111.22","56.65","FORT MCMURRAY A","3062697","2019-01-06 04:00","2019","01","06","04:00","-11.3","","-13.2","","86","","0.0","","9","","13","","16.1","","95.66","","","","-18","","NA"
"-111.22","56.65","FORT MCMURRAY A","3062697","2019-01-06 05:00","2019","01","06","05:00","-11.4","","-13.2","","87","","0.0","","9","","11","","16.1","","95.51","","","","-17","","NA"
"-111.22","56.65","FORT MCMURRAY A","3062697","2019-01-06 06:00","2019","01","06","06:00","-11.7","","-13.7","","85","","0.0","","10","","18","","16.1","","95.45","","","","-20","","Snow"
"-111.22","56.65","FORT MCMURRAY A","3062697","2019-01-06 07:00","2019","01","06","07:00","-12.0","","-14.2","","84","","0.0","","10","","15","","16.1","","95.38","","","","-19","","Snow"
"-111.22","56.65","FORT MCMURRAY A","3062697","2019-01-06 08:00","2019","01","06","08:00","-12.1","","-14.4","","83","","0.0","","9","","15","","16.1","","95.36","","","","-19","","Snow"
"-111.22","56.65","FORT MCMURRAY A","3062697","2019-01-06 09:00","2019","01","06","09:00","-12.1","","-14.4","","83","","0.0","","10","","22","","16.1","","95.32","","","","-21","","Snow"
"-111.22","56.65","FORT MCMURRAY A","3062697","2019-01-06 10:00","2019","01","06","10:00","-12.1","","-14.6","","82","","0.0","","11","","18","","16.1","","95.28","","","","-20","","Snow"
"-111.22","56.65","FORT MCMURRAY A","3062697","2019-01-06 11:00","2019","01","06","11:00","-12.2","","-14.7","","82","","0.0","","11","","17","","12.9","","95.21","","","","-20","","Snow"
"-111.22","56.65","FORT MCMURRAY A","3062697","2019-01-06 12:00","2019","01","06","12:00","-11.9","","-14.4","","82","","0.0","","11","","15","","8.1","","95.14","","","","-19","","Snow"
"-111.22","56.65","FORT MCMURRAY A","3062697","2019-01-06 13:00","2019","01","06","13:00","-11.3","","-13.6","","83","","0.0","","11","","9","","16.1","","95.10","","","","-16","","Snow"
"-111.22","56.65","FORT MCMURRAY A","3062697","2019-01-06 14:00","2019","01","06","14:00","-10.9","","-13.1","","84","","0.0","","13","","9","","16.1","","95.09","","","","-16","","Snow"
"-111.22","56.65","FORT MCMURRAY A","3062697","2019-01-06 15:00","2019","01","06","15:00","-11.4","","-13.2","","87","","0.0","","2","","9","","8.1","","95.11","","","","-17","","Snow"
"-111.22","56.65","FORT MCMURRAY A","3062697","2019-01-06 16:00","2019","01","06","16:00","-11.3","","-12.8","","89","","0.0","","35","","8","","9.7","","95.16","","","","-16","","Snow"
"-111.22","56.65","FORT MCMURRAY A","3062697","2019-01-06 17:00","2019","01","06","17:00","-11.3","","-12.5","","91","","0.0","","1","","8","","3.2","","95.19","","","","-16","","Snow"
"-111.22","56.65","FORT MCMURRAY A","3062697","2019-01-06 18:00","2019","01","06","18:00","-11.5","","-12.8","","90","","0.0","","33","","9","","3.6","","95.20","","","","-17","","Snow"
"-111.22","56.65","FORT MCMURRAY A","3062697","2019-01-06 19:00","2019","01","06","19:00","-11.5","","-13.1","","88","","0.0","","31","","9","","11.3","","95.23","","","","-17","","Snow"
"-111.22","56.65","FORT MCMURRAY A","3062697","2019-01-06 20:00","2019","01","06","20:00","-12.9","","-14.9","","85","","0.0","","31","","17","","6.4","","95.26","","","","-21","","Snow"
"-111.22","56.65","FORT MCMURRAY A","3062697","2019-01-06 21:00","2019","01","06","21:00","-14.8","","-17.2","","83","","0.0","","32","","22","","8.1","","95.32","","","","-24","","Snow"
"-111.22","56.65","FORT MCMURRAY A","3062697","2019-01-06 22:00","2019","01","06","22:00","-15.7","","-18.6","","79","","0.0","","32","","22","","16.1","","95.38","","","","-25","","Snow"
"-111.22","56.65","FORT MCMURRAY A","3062697","2019-01-06 23:00","2019","01","06","23:00","-16.0","","-19.2","","77","","0.0","","33","","17","","16.1","","95.43","","","","-25","","Snow"
"-111.22","56.65","FORT MCMURRAY A","3062697","2019-01-07 00:00","2019","01","07","00:00","-16.1","","-19.3","","77","","0.0","","33","","15","","16.1","","95.49","","","","-24","","Snow"
"-111.22","56.65","FORT MCMURRAY A","3062697","2019-01-07 01:00","2019","01","07","01:00","-15.8","","-19.3","","75","","0.0","","32","","15","","16.1","","95.53","","","","-24","","Snow"
"-111.22","56.65","FORT MCMURRAY A","3062697","2019-01-07 02:00","2019","01","07","02:00","-15.6","","-18.8","","77","","0.0","","32","","11","","16.1","","95.57","","","","-22","","Snow"
"-111.22","56.65","FORT MCMURRAY A","3062697","2019-01-07 03:00","2019","01","07","03:00","-15.4","","-18.7","","76","","0.0","","31","","13","","16.1","","95.64","","","","-23","","Snow"
"-111.22","56.65","FORT MCMURRAY A","3062697","2019-01-07 04:00","2019","01","07","04:00","-15.5","","-19.4","","72","","0.0","","31","","17","","16.1","","95.68","","","","-24","","Snow"
"-111.22","56.65","FORT MCMURRAY A","3062697","2019-01-07 05:00","2019","01","07","05:00","-15.7","","-19.7","","72","","0.0","","31","","18","","16.1","","95.72","","","","-25","","Snow"
"-111.22","56.65","FORT MCMURRAY A","3062697","2019-01-07 06:00","2019","01","07","06:00","-15.8","","-19.6","","73","","0.0","","31","","21","","16.1","","95.77","","","","-25","","Snow"
"-111.22","56.65","FORT MCMURRAY A","3062697","2019-01-07 07:00","2019","01","07","07:00","-15.6","","-19.1","","75","","0.0","","30","","15","","11.3","","95.81","","","","-24","","Snow"
"-111.22","56.65","FORT MCMURRAY A","3062697","2019-01-07 08:00","2019","01","07","08:00","-15.6","","-18.8","","77","","0.0","","31","","18","","9.7","","95.87","","","","-24","","Snow"
"-111.22","56.65","FORT MCMURRAY A","3062697","2019-01-07 09:00","2019","01","07","09:00","-15.7","","-18.9","","77","","0.0","","31","","18","","9.7","","95.97","","","","-25","","Snow"
"-111.22","56.65","FORT MCMURRAY A","3062697","2019-01-07 10:00","2019","01","07","10:00","-16.0","","-19.2","","77","","0.0","","31","","18","","4.0","","96.06","","","","-25","","Snow"
"-111.22","56.65","FORT MCMURRAY A","3062697","2019-01-07 11:00","2019","01","07","11:00","-16.0","","-19.5","","75","","0.0","","32","","17","","6.4","","96.14","","","","-25","","Snow"
"-111.22","56.65","FORT MCMURRAY A","3062697","2019-01-07 12:00","2019","01","07","12:00","-16.2","","-20.0","","73","","0.0","","30","","21","","9.7","","96.19","","","","-26","","Snow"
"-111.22","56.65","FORT MCMURRAY A","3062697","2019-01-07 13:00","2019","01","07","13:00","-16.2","","-20.1","","72","","0.0","","31","","21","","11.3","","96.26","","","","-26","","Snow"
"-111.22","56.65","FORT MCMURRAY A","3062697","2019-01-07 14:00","2019","01","07","14:00","-16.5","","-20.0","","75","","0.0","","32","","26","","6.4","","96.37","","","","-27","","Snow"
"-111.22","56.65","FORT MCMURRAY A","3062697","2019-01-07 15:00","2019","01","07","15:00","-17.1","","-20.5","","75","","0.0","","31","","26","","6.4","","96.50","","","","-28","","Snow"
"-111.22","56.65","FORT MCMURRAY A","3062697","2019-01-07 16:00","2019","01","07","16:00","-17.7","","-20.5","","79","","0.0","","32","","18","","2.8","","96.66","","","","-27","","Snow"
"-111.22","56.65","FORT MCMURRAY A","3062697","2019-01-07 17:00","2019","01","07","17:00","-18.9","","-22.3","","75","","0.0","","32","","17","","8.1","","96.82","","","","-28","","Snow"
"-111.22","56.65","FORT MCMURRAY A","3062697","2019-01-07 18:00","2019","01","07","18:00","-20.5","","-24.2","","73","","0.0","","33","","18","","16.1","","96.97","","","","-31","","Snow"
"-111.22","56.65","FORT MCMURRAY A","3062697","2019-01-07 19:00","2019","01","07","19:00","-21.1","","-24.6","","74","","0.1","","34","","13","","12.9","","97.11","","","","-30","","Snow"
"-111.22","56.65","FORT MCMURRAY A","3062697","2019-01-07 20:00","2019","01","07","20:00","-21.1","","-24.3","","76","","0.1","","30","","11","","6.4","","97.22","","","","-29","","Snow"
"-111.22","56.65","FORT MCMURRAY A","3062697","2019-01-07 21:00","2019","01","07","21:00","-20.7","","-23.7","","77","","0.1","","32","","13","","4.8","","97.33","","","","-29","","Snow"
"-111.22","56.65","FORT MCMURRAY A","3062697","2019-01-07 22:00","2019","01","07","22:00","-20.5","","-23.6","","77","","0.1","","30","","13","","4.8","","97.45","","","","-29","","Snow"
"-111.22","56.65","FORT MCMURRAY A","3062697","2019-01-07 23:00","2019","01","07","23:00","-20.2","","-23.2","","78","","0.3","","29","","15","","2.4","","97.56","","","","-29","","Snow"
"-111.22","56.65","FORT MCMURRAY A","3062697","2019-01-08 00:00","2019","01","08","00:00","-20.2","","-23.3","","77","","0.2","","31","","15","","6.4","","97.67","","","","-29","","Snow"
"-111.22","56.65","FORT MCMURRAY A","3062697","2019-01-08 01:00","2019","01","08","01:00","-20.3","","-23.2","","78","","0.1","","32","","11","","2.4","","97.79","","","","-28","","Snow"
"-111.22","56.65","FORT MCMURRAY A","3062697","2019-01-08 02:00","2019","01","08","02:00","-20.6","","-23.8","","76","","0.0","","33","","13","","9.7","","97.92","","","","-29","","Snow"
"-111.22","56.65","FORT MCMURRAY A","3062697","2019-01-08 03:00","2019","01","08","03:00","-21.4","","-24.4","","77","","0.0","","32","","11","","16.1","","98.02","","","","-29","","Snow"
"-111.22","56.65","FORT MCMURRAY A","3062697","2019-01-08 04:00","2019","01","08","04:00","-21.5","","-24.7","","76","","0.0","","32","","13","","16.1","","98.10","","","","-30","","NA"
"-111.22","56.65","FORT MCMURRAY A","3062697","2019-01-08 05:00","2019","01","08","05:00","-22.7","","-25.8","","76","","0.0","","29","","11","","16.1","","98.22","","","","-31","","NA"
"-111.22","56.65","FORT MCMURRAY A","3062697","2019-01-08 06:00","2019","01","08","06:00","-22.2","","-24.9","","79","","0.0","","28","","8","","9.7","","98.37","","","","-29","","Haze"
"-111.22","56.65","FORT MCMURRAY A","3062697","2019-01-08 07:00","2019","01","08","07:00","-22.5","","-25.2","","79","","0.0","","29","","8","","12.9","","98.42","","","","-29","","NA"
"-111.22","56.65","FORT MCMURRAY A","3062697","2019-01-08 08:00","2019","01","08","08:00","-24.0","","-26.5","","80","","0.0","","29","","5","","2.8","","98.46","","","","-29","","Snow"
"-111.22","56.65","FORT MCMURRAY A","3062697","2019-01-08 09:00","2019","01","08","09:00","-27.0","","-29.9","","77","","0.0","","","","0","","16.1","","98.52","","","","","","NA"
"-111.22","56.65","FORT MCMURRAY A","3062697","2019-01-08 10:00","2019","01","08","10:00","-24.6","","-27.6","","77","","0.0","","24","","8","","16.1","","98.58","","","","-32","","NA"
"-111.22","56.65","FORT MCMURRAY A","3062697","2019-01-08 11:00","2019","01","08","11:00","-22.6","","-25.6","","77","","0.0","","23","","8","","16.1","","98.62","","","","-29","","NA"
"-111.22","56.65","FORT MCMURRAY A","3062697","2019-01-08 12:00","2019","01","08","12:00","-20.5","","-25.0","","68","","0.0","","22","","8","","16.1","","98.64","","","","-27","","NA"
"-111.22","56.65","FORT MCMURRAY A","3062697","2019-01-08 13:00","2019","01","08","13:00","-19.4","","-25.2","","61","","0.0","","22","","4","","16.1","","98.62","","","","-23","","NA"
"-111.22","56.65","FORT MCMURRAY A","3062697","2019-01-08 14:00","2019","01","08","14:00","-19.3","","-25.4","","59","","0.0","","","","0","","16.1","","98.59","","","","","","NA"
"-111.22","56.65","FORT MCMURRAY A","3062697","2019-01-08 15:00","2019","01","08","15:00","-19.0","","-25.0","","60","","0.0","","13","","4","","16.1","","98.58","","","","-22","","NA"
"-111.22","56.65","FORT MCMURRAY A","3062697","2019-01-08 16:00","2019","01","08","16:00","-19.8","","-24.1","","69","","0.0","","17","","8","","16.1","","98.52","","","","-26","","NA"
"-111.22","56.65","FORT MCMURRAY A","3062697","2019-01-08 17:00","2019","01","08","17:00","-23.6","","-26.3","","79","","0.0","","14","","11","","16.1","","98.49","","","","-32","","NA"
"-111.22","56.65","FORT MCMURRAY A","3062697","2019-01-08 18:00","2019","01","08","18:00","-22.7","","-25.3","","80","","0.0","","12","","11","","16.1","","98.43","","","","-31","","NA"
"-111.22","56.65","FORT MCMURRAY A","3062697","2019-01-08 19:00","2019","01","08","19:00","-24.3","","-27.1","","78","","0.0","","13","","8","","16.1","","98.41","","","","-31","","NA"
"-111.22","56.65","FORT MCMURRAY A","3062697","2019-01-08 20:00","2019","01","08","20:00","-25.2","","-28.1","","77","","0.0","","10","","11","","16.1","","98.35","","","","-34","","NA"
"-111.22","56.65","FORT MCMURRAY A","3062697","2019-01-08 21:00","2019","01","08","21:00","-23.9","","-26.9","","77","","0.0","","10","","13","","16.1","","98.33","","","","-33","","NA"
"-111.22","56.65","FORT MCMURRAY A","3062697","2019-01-08 22:00","2019","01","08","22:00","-23.8","","-27.1","","75","","0.0","","9","","13","","16.1","","98.31","","","","-33","","NA"
"-111.22","56.65","FORT MCMURRAY A","3062697","2019-01-08 23:00","2019","01","08","23:00","-23.5","","-26.8","","75","","0.0","","9","","9","","16.1","","98.30","","","","-31","","NA"
"-111.22","56.65","FORT MCMURRAY A","3062697","2019-01-09 00:00","2019","01","09","00:00","-24.3","","-27.6","","75","","0.0","","9","","9","","16.1","","98.27","","","","-32","","NA"
"-111.22","56.65","FORT MCMURRAY A","3062697","2019-01-09 01:00","2019","01","09","01:00","-24.3","","-27.6","","75","","0.0","","10","","13","","16.1","","98.25","","","","-34","","NA"
"-111.22","56.65","FORT MCMURRAY A","3062697","2019-01-09 02:00","2019","01","09","02:00","-24.4","","-27.7","","75","","0.0","","8","","9","","16.1","","98.24","","","","-32","","NA"
"-111.22","56.65","FORT MCMURRAY A","3062697","2019-01-09 03:00","2019","01","09","03:00","-24.5","","-27.6","","76","","0.0","","10","","13","","16.1","","98.23","","","","-34","","NA"
"-111.22","56.65","FORT MCMURRAY A","3062697","2019-01-09 04:00","2019","01","09","04:00","-25.0","","-28.1","","76","","0.0","","9","","11","","16.1","","98.20","","","","-34","","NA"
"-111.22","56.65","FORT MCMURRAY A","3062697","2019-01-09 05:00","2019","01","09","05:00","-25.2","","-28.4","","75","","0.0","","9","","9","","16.1","","98.18","","","","-33","","NA"
"-111.22","56.65","FORT MCMURRAY A","3062697","2019-01-09 06:00","2019","01","09","06:00","-25.4","","-28.6","","75","","0.0","","8","","5","","16.1","","98.15","","","","-30","","NA"
"-111.22","56.65","FORT MCMURRAY A","3062697","2019-01-09 07:00","2019","01","09","07:00","-27.8","","-30.7","","77","","0.0","","","M","4","","16.1","","98.17","","","","-32","","NA"
"-111.22","56.65","FORT MCMURRAY A","3062697","2019-01-09 08:00","2019","01","09","08:00","-28.9","","-31.9","","76","","0.0","","","","0","","16.1","","98.13","","","","","","NA"
"-111.22","56.65","FORT MCMURRAY A","3062697","2019-01-09 09:00","2019","01","09","09:00","-29.0","","-32.1","","75","","0.0","","35","","4","","16.1","","98.18","","","","-33","","NA"
"-111.22","56.65","FORT MCMURRAY A","3062697","2019-01-09 10:00","2019","01","09","10:00","-28.4","","-31.6","","75","","0.0","","36","","8","","16.1","","98.18","","","","-36","","NA"
"-111.22","56.65","FORT MCMURRAY A","3062697","2019-01-09 11:00","2019","01","09","11:00","-26.3","","-29.4","","76","","0.0","","36","","8","","16.1","","98.19","","","","-34","","NA"
"-111.22","56.65","FORT MCMURRAY A","3062697","2019-01-09 12:00","2019","01","09","12:00","-25.0","","-28.1","","76","","0.0","","","","0","","16.1","","98.13","","","","","","NA"
"-111.22","56.65","FORT MCMURRAY A","3062697","2019-01-09 13:00","2019","01","09","13:00","-24.0","","-27.1","","76","","0.0","","33","","5","","16.1","","98.10","","","","-29","","NA"
"-111.22","56.65","FORT MCMURRAY A","3062697","2019-01-09 14:00","2019","01","09","14:00","-22.9","","-26.0","","76","","0.0","","","M","4","","16.1","","98.04","","","","-27","","NA"
"-111.22","56.65","FORT MCMURRAY A","3062697","2019-01-09 15:00","2019","01","09","15:00","-21.4","","-24.9","","74","","0.0","","36","","5","","16.1","","98.00","","","","-26","","NA"
"-111.22","56.65","FORT MCMURRAY A","3062697","2019-01-09 16:00","2019","01","09","16:00","-21.3","","-24.5","","76","","0.0","","","M","4","","16.1","","97.94","","","","-25","","NA"
"-111.22","56.65","FORT MCMURRAY A","3062697","2019-01-09 17:00","2019","01","09","17:00","-21.0","","-24.2","","76","","0.0","","","M","4","","16.1","","97.87","","","","-25","","NA"
"-111.22","56.65","FORT MCMURRAY A","3062697","2019-01-09 18:00","2019","01","09","18:00","-20.7","","-24.1","","75","","0.0","","36","","5","","16.1","","97.80","","","","-25","","NA"
"-111.22","56.65","FORT MCMURRAY A","3062697","2019-01-09 19:00","2019","01","09","19:00","-20.4","","-23.5","","77","","0.0","","36","","5","","16.1","","97.80","","","","-25","","NA"
"-111.22","56.65","FORT MCMURRAY A","3062697","2019-01-09 20:00","2019","01","09","20:00","-19.3","","-22.7","","75","","0.0","","4","","5","","16.1","","97.78","","","","-23","","NA"
"-111.22","56.65","FORT MCMURRAY A","3062697","2019-01-09 21:00","2019","01","09","21:00","-20.1","","-23.3","","76","","0.0","","36","","8","","16.1","","97.74","","","","-26","","NA"
"-111.22","56.65","FORT MCMURRAY A","3062697","2019-01-09 22:00","2019","01","09","22:00","-20.2","","-22.8","","80","","0.0","","33","","8","","16.1","","97.69","","","","-26","","NA"
"-111.22","56.65","FORT MCMURRAY A","3062697","2019-01-09 23:00","2019","01","09","23:00","-20.2","","-23.0","","79","","0.0","","32","","13","","16.1","","97.67","","","","-29","","NA"
"-111.22","56.65","FORT MCMURRAY A","3062697","2019-01-10 00:00","2019","01","10","00:00","-20.2","","-23.0","","79","","0.0","","33","","11","","16.1","","97.64","","","","-28","","NA"
"-111.22","56.65","FORT MCMURRAY A","3062697","2019-01-10 01:00","2019","01","10","01:00","-20.0","","-22.8","","79","","0.0","","33","","8","","16.1","","97.62","","","","-26","","NA"
"-111.22","56.65","FORT MCMURRAY A","3062697","2019-01-10 02:00","2019","01","10","02:00","-19.7","","-22.5","","79","","0.0","","34","","8","","16.1","","97.60","","","","-26","","Snow"
"-111.22","56.65","FORT MCMURRAY A","3062697","2019-01-10 03:00","2019","01","10","03:00","-20.2","","-22.8","","80","","0.0","","33","","9","","16.1","","97.62","","","","-27","","NA"
"-111.22","56.65","FORT MCMURRAY A","3062697","2019-01-10 04:00","2019","01","10","04:00","-20.0","","-22.6","","80","","0.0","","32","","11","","16.1","","97.62","","","","-28","","NA"
"-111.22","56.65","FORT MCMURRAY A","3062697","2019-01-10 05:00","2019","01","10","05:00","-20.2","","-22.8","","80","","0.0","","33","","9","","16.1","","97.61","","","","-27","","NA"
"-111.22","56.65","FORT MCMURRAY A","3062697","2019-01-10 06:00","2019","01","10","06:00","-19.7","","-22.5","","79","","0.0","","31","","5","","16.1","","97.57","","","","-24","","NA"
"-111.22","56.65","FORT MCMURRAY A","3062697","2019-01-10 07:00","2019","01","10","07:00","-19.6","","-22.4","","79","","0.0","","34","","8","","16.1","","97.55","","","","-26","","Snow"
"-111.22","56.65","FORT MCMURRAY A","3062697","2019-01-10 08:00","2019","01","10","08:00","-19.4","","-22.1","","80","","0.0","","31","","8","","16.1","","97.56","","","","-26","","Snow"
"-111.22","56.65","FORT MCMURRAY A","3062697","2019-01-10 09:00","2019","01","10","09:00","-19.4","","-22.0","","80","","0.0","","32","","8","","4.0","","97.61","","","","-26","","Snow"
"-111.22","56.65","FORT MCMURRAY A","3062697","2019-01-10 10:00","2019","01","10","10:00","-18.7","","-21.3","","80","","0.0","","2","","4","","4.8","","97.62","","","","-22","","Snow"
"-111.22","56.65","FORT MCMURRAY A","3062697","2019-01-10 11:00","2019","01","10","11:00","-19.2","","-21.8","","80","","0.0","","32","","5","","4.0","","97.65","","","","-23","","Snow"
"-111.22","56.65","FORT MCMURRAY A","3062697","2019-01-10 12:00","2019","01","10","12:00","-18.7","","-21.6","","78","","0.0","","1","","4","","16.1","","97.59","","","","-22","","Snow"
"-111.22","56.65","FORT MCMURRAY A","3062697","2019-01-10 13:00","2019","01","10","13:00","-16.5","","-21.2","","68","","0.0","","","M","4","","16.1","","97.59","","","","-20","","NA"
"-111.22","56.65","FORT MCMURRAY A","3062697","2019-01-10 14:00","2019","01","10","14:00","-16.0","","-19.3","","76","","0.0","","","","0","","16.1","","97.61","","","","","","NA"
"-111.22","56.65","FORT MCMURRAY A","3062697","2019-01-10 15:00","2019","01","10","15:00","-13.7","","-18.1","","70","","0.0","","13","","9","","16.1","","97.65","","","","-19","","NA"
"-111.22","56.65","FORT MCMURRAY A","3062697","2019-01-10 16:00","2019","01","10","16:00","-13.5","","-17.9","","70","","0.0","","12","","17","","16.1","","97.63","","","","-22","","NA"
"-111.22","56.65","FORT MCMURRAY A","3062697","2019-01-10 17:00","2019","01","10","17:00","-13.9","","-17.9","","72","","0.0","","11","","15","","16.1","","97.65","","","","-22","","NA"
"-111.22","56.65","FORT MCMURRAY A","3062697","2019-01-10 18:00","2019","01","10","18:00","-14.0","","-17.7","","74","","0.0","","12","","15","","16.1","","97.62","","","","-22","","NA"
"-111.22","56.65","FORT MCMURRAY A","3062697","2019-01-10 19:00","2019","01","10","19:00","-14.3","","-18.0","","74","","0.0","","13","","18","","16.1","","97.64","","","","-23","","NA"
"-111.22","56.65","FORT MCMURRAY A","3062697","2019-01-10 20:00","2019","01","10","20:00","-14.7","","-18.4","","74","","0.0","","13","","13","","16.1","","97.66","","","","-22","","NA"
"-111.22","56.65","FORT MCMURRAY A","3062697","2019-01-10 21:00","2019","01","10","21:00","-15.2","","-18.5","","76","","0.0","","11","","18","","16.1","","97.61","","","","-24","","NA"
"-111.22","56.65","FORT MCMURRAY A","3062697","2019-01-10 22:00","2019","01","10","22:00","-15.1","","-18.4","","76","","0.0","","12","","15","","16.1","","97.66","","","","-23","","NA"
"-111.22","56.65","FORT MCMURRAY A","3062697","2019-01-10 23:00","2019","01","10","23:00","-14.6","","-18.0","","76","","0.0","","11","","18","","16.1","","97.65","","","","-23","","NA"
"-111.22","56.65","FORT MCMURRAY A","3062697","2019-01-11 00:00","2019","01","11","00:00","-14.9","","-18.1","","77","","0.0","","11","","17","","16.1","","97.61","","","","-23","","NA"
"-111.22","56.65","FORT MCMURRAY A","3062697","2019-01-11 01:00","2019","01","11","01:00","-14.8","","-18.1","","76","","0.0","","12","","15","","16.1","","97.59","","","","-23","","NA"
"-111.22","56.65","FORT MCMURRAY A","3062697","2019-01-11 02:00","2019","01","11","02:00","-15.8","","-18.7","","79","","0.0","","11","","17","","16.1","","97.58","","","","-24","","NA"
"-111.22","56.65","FORT MCMURRAY A","3062697","2019-01-11 03:00","2019","01","11","03:00","-15.6","","-18.6","","78","","0.0","","12","","17","","16.1","","97.58","","","","-24","","NA"
"-111.22","56.65","FORT MCMURRAY A","3062697","2019-01-11 04:00","2019","01","11","04:00","-16.0","","-18.9","","79","","0.0","","12","","17","","16.1","","97.56","","","","-25","","NA"
"-111.22","56.65","FORT MCMURRAY A","3062697","2019-01-11 05:00","2019","01","11","05:00","-15.4","","-18.3","","79","","0.0","","12","","15","","16.1","","97.48","","","","-23","","NA"
"-111.22","56.65","FORT MCMURRAY A","3062697","2019-01-11 06:00","2019","01","11","06:00","-15.5","","-18.4","","79","","0.0","","11","","13","","16.1","","97.48","","","","-23","","NA"
"-111.22","56.65","FORT MCMURRAY A","3062697","2019-01-11 07:00","2019","01","11","07:00","-15.3","","-18.2","","79","","0.0","","11","","15","","16.1","","97.43","","","","-23","","NA"
"-111.22","56.65","FORT MCMURRAY A","3062697","2019-01-11 08:00","2019","01","11","08:00","-15.1","","-18.0","","79","","0.0","","10","","13","","16.1","","97.41","","","","-22","","NA"
"-111.22","56.65","FORT MCMURRAY A","3062697","2019-01-11 09:00","2019","01","11","09:00","-14.4","","-17.4","","78","","0.0","","11","","11","","16.1","","97.44","","","","-21","","NA"
"-111.22","56.65","FORT MCMURRAY A","3062697","2019-01-11 10:00","2019","01","11","10:00","-13.2","","-16.6","","76","","0.0","","11","","15","","16.1","","97.36","","","","-21","","NA"
"-111.22","56.65","FORT MCMURRAY A","3062697","2019-01-11 11:00","2019","01","11","11:00","-12.0","","-15.9","","73","","0.0","","11","","17","","16.1","","97.27","","","","-20","","NA"
"-111.22","56.65","FORT MCMURRAY A","3062697","2019-01-11 12:00","2019","01","11","12:00","-10.7","","-15.3","","69","","0.0","","11","","18","","16.1","","97.23","","","","-18","","NA"
"-111.22","56.65","FORT MCMURRAY A","3062697","2019-01-11 13:00","2019","01","11","13:00","-9.3","","-13.9","","70","","0.0","","11","","18","","16.1","","97.19","","","","-17","","NA"
"-111.22","56.65","FORT MCMURRAY A","3062697","2019-01-11 14:00","2019","01","11","14:00","-8.1","","-12.7","","70","","0.0","","11","","21","","16.1","","97.11","","","","-16","","NA"
"-111.22","56.65","FORT MCMURRAY A","3062697","2019-01-11 15:00","2019","01","11","15:00","-7.2","","-11.8","","70","","0.0","","11","","18","","16.1","","97.06","","","","-14","","NA"
"-111.22","56.65","FORT MCMURRAY A","3062697","2019-01-11 16:00","2019","01","11","16:00","-7.4","","-11.5","","73","","0.0","","12","","24","","16.1","","96.99","","","","-15","","NA"
"-111.22","56.65","FORT MCMURRAY A","3062697","2019-01-11 17:00","2019","01","11","17:00","-7.5","","-11.2","","75","","0.0","","11","","17","","16.1","","96.96","","","","-14","","NA"
"-111.22","56.65","FORT MCMURRAY A","3062697","2019-01-11 18:00","2019","01","11","18:00","-7.6","","-11.0","","77","","0.0","","11","","17","","16.1","","96.89","","","","-14","","NA"
"-111.22","56.65","FORT MCMURRAY A","3062697","2019-01-11 19:00","2019","01","11","19:00","-8.1","","-11.0","","80","","0.0","","11","","13","","16.1","","96.88","","","","-14","","NA"
"-111.22","56.65","FORT MCMURRAY A","3062697","2019-01-11 20:00","2019","01","11","20:00","-8.3","","-10.9","","82","","0.0","","11","","11","","16.1","","96.83","","","","-14","","NA"
"-111.22","56.65","FORT MCMURRAY A","3062697","2019-01-11 21:00","2019","01","11","21:00","-9.1","","-11.2","","85","","0.0","","9","","5","","16.1","","96.82","","","","-12","","NA"
"-111.22","56.65","FORT MCMURRAY A","3062697","2019-01-11 22:00","2019","01","11","22:00","-9.1","","-11.2","","85","","0.0","","11","","11","","16.1","","96.77","","","","-15","","NA"
"-111.22","56.65","FORT MCMURRAY A","3062697","2019-01-11 23:00","2019","01","11","23:00","-9.7","","-11.6","","86","","0.0","","8","","9","","16.1","","96.77","","","","-15","","NA"
"-111.22","56.65","FORT MCMURRAY A","3062697","2019-01-12 00:00","2019","01","12","00:00","-9.0","","-11.2","","84","","0.0","","10","","9","","16.1","","96.72","","","","-14","","NA"
"-111.22","56.65","FORT MCMURRAY A","3062697","2019-01-12 01:00","2019","01","12","01:00","-8.6","","-11.0","","83","","0.0","","11","","11","","16.1","","96.74","","","","-14","","NA"
"-111.22","56.65","FORT MCMURRAY A","3062697","2019-01-12 02:00","2019","01","12","02:00","-8.7","","-11.1","","83","","0.0","","10","","8","","16.1","","96.71","","","","-13","","NA"
"-111.22","56.65","FORT MCMURRAY A","3062697","2019-01-12 03:00","2019","01","12","03:00","-9.3","","-11.5","","84","","0.0","","11","","9","","16.1","","96.69","","","","-14","","NA"
"-111.22","56.65","FORT MCMURRAY A","3062697","2019-01-12 04:00","2019","01","12","04:00","-9.4","","-11.6","","84","","0.0","","11","","11","","16.1","","96.70","","","","-15","","NA"
"-111.22","56.65","FORT MCMURRAY A","3062697","2019-01-12 05:00","2019","01","12","05:00","-9.7","","-11.8","","85","","0.0","","12","","11","","16.1","","96.70","","","","-15","","NA"
"-111.22","56.65","FORT MCMURRAY A","3062697","2019-01-12 06:00","2019","01","12","06:00","-10.5","","-12.6","","85","","0.0","","15","","11","","16.1","","96.69","","","","-16","","NA"
"-111.22","56.65","FORT MCMURRAY A","3062697","2019-01-12 07:00","2019","01","12","07:00","-10.8","","-12.5","","88","","0.0","","7","","8","","16.1","","96.68","","","","-15","","NA"
"-111.22","56.65","FORT MCMURRAY A","3062697","2019-01-12 08:00","2019","01","12","08:00","-10.9","","-13.0","","85","","0.0","","9","","9","","16.1","","96.75","","","","-16","","NA"
"-111.22","56.65","FORT MCMURRAY A","3062697","2019-01-12 09:00","2019","01","12","09:00","-12.5","","-14.1","","88","","0.0","","16","","4","","16.1","","96.84","","","","-15","","NA"
"-111.22","56.65","FORT MCMURRAY A","3062697","2019-01-12 10:00","2019","01","12","10:00","-11.8","","-13.7","","86","","0.0","","13","","5","","16.1","","96.88","","","","-15","","NA"
"-111.22","56.65","FORT MCMURRAY A","3062697","2019-01-12 11:00","2019","01","12","11:00","-10.6","","-12.7","","85","","0.0","","7","","5","","16.1","","96.90","","","","-14","","NA"
"-111.22","56.65","FORT MCMURRAY A","3062697","2019-01-12 12:00","2019","01","12","12:00","-6.0","","-9.8","","75","","0.0","","8","","4","","16.1","","96.91","","","","-8","","NA"
"-111.22","56.65","FORT MCMURRAY A","3062697","2019-01-12 13:00","2019","01","12","13:00","-6.8","","-10.0","","78","","0.0","","","","0","","16.1","","96.98","","","","","","NA"
"-111.22","56.65","FORT MCMURRAY A","3062697","2019-01-12 14:00","2019","01","12","14:00","-4.3","","-8.8","","71","","0.0","","36","","5","","16.1","","97.01","","","","-6","","NA"
"-111.22","56.65","FORT MCMURRAY A","3062697","2019-01-12 15:00","2019","01","12","15:00","-3.3","","-8.0","","70","","0.0","","","","0","","16.1","","97.09","","","","","","NA"
"-111.22","56.65","FORT MCMURRAY A","3062697","2019-01-12 16:00","2019","01","12","16:00","-4.1","","-8.1","","74","","0.0","","1","","8","","16.1","","97.17","","","","-8","","NA"
"-111.22","56.65","FORT MCMURRAY A","3062697","2019-01-12 17:00","2019","01","12","17:00","-4.9","","-8.4","","76","","0.0","","","","0","","16.1","","97.25","","","","","","NA"
"-111.22","56.65","FORT MCMURRAY A","3062697","2019-01-12 18:00","2019","01","12","18:00","-7.7","","-11.1","","77","","0.0","","32","","4","","16.1","","97.31","","","","-10","","NA"
"-111.22","56.65","FORT MCMURRAY A","3062697","2019-01-12 19:00","2019","01","12","19:00","-7.7","","-10.8","","79","","0.0","","","M","4","","16.1","","97.40","","","","-10","","NA"
"-111.22","56.65","FORT MCMURRAY A","3062697","2019-01-12 20:00","2019","01","12","20:00","-8.1","","-10.3","","85","","0.0","","32","","9","","16.1","","97.46","","","","-13","","NA"
"-111.22","56.65","FORT MCMURRAY A","3062697","2019-01-12 21:00","2019","01","12","21:00","-9.6","","-11.0","","90","","0.0","","","","0","","16.1","","97.49","","","","","","NA"
"-111.22","56.65","FORT MCMURRAY A","3062697","2019-01-12 22:00","2019","01","12","22:00","-9.1","","-10.6","","89","","0.0","","31","","13","","12.9","","97.56","","","","-15","","NA"
"-111.22","56.65","FORT MCMURRAY A","3062697","2019-01-12 23:00","2019","01","12","23:00","-9.3","","-10.4","","92","","0.0","","26","","8","","6.4","","97.65","","","","-14","","Fog"
"-111.22","56.65","FORT MCMURRAY A","3062697","2019-01-13 00:00","2019","01","13","00:00","-9.1","","-10.2","","92","","0.0","","32","","11","","6.4","","97.72","","","","-15","","Fog"
"-111.22","56.65","FORT MCMURRAY A","3062697","2019-01-13 01:00","2019","01","13","01:00","-8.9","","-9.7","","94","","0.0","","","","0","","2.8","","97.73","","","","","","Fog"
"-111.22","56.65","FORT MCMURRAY A","3062697","2019-01-13 02:00","2019","01","13","02:00","-8.2","","-9.1","","93","","0.0","","","","0","","0.4","","97.82","","","","","","Freezing Fog"
"-111.22","56.65","FORT MCMURRAY A","3062697","2019-01-13 03:00","2019","01","13","03:00","-7.8","","-8.9","","92","","0.0","","30","","5","","0.4","","97.88","","","","-10","","Freezing Fog"
"-111.22","56.65","FORT MCMURRAY A","3062697","2019-01-13 04:00","2019","01","13","04:00","-8.2","","-9.4","","91","","0.0","","33","","17","","9.7","","97.93","","","","-15","","Fog"
"-111.22","56.65","FORT MCMURRAY A","3062697","2019-01-13 05:00","2019","01","13","05:00","-9.3","","-10.7","","90","","0.0","","32","","15","","16.1","","97.97","","","","-16","","NA"
"-111.22","56.65","FORT MCMURRAY A","3062697","2019-01-13 06:00","2019","01","13","06:00","-10.6","","-12.1","","89","","0.0","","32","","15","","16.1","","98.00","","","","-17","","NA"
"-111.22","56.65","FORT MCMURRAY A","3062697","2019-01-13 07:00","2019","01","13","07:00","-11.5","","-13.1","","88","","0.0","","31","","15","","16.1","","98.05","","","","-19","","NA"
"-111.22","56.65","FORT MCMURRAY A","3062697","2019-01-13 08:00","2019","01","13","08:00","-12.3","","-14.0","","87","","0.0","","31","","15","","16.1","","98.12","","","","-20","","NA"
"-111.22","56.65","FORT MCMURRAY A","3062697","2019-01-13 09:00","2019","01","13","09:00","-12.9","","-14.6","","87","","0.0","","32","","17","","16.1","","98.21","","","","-21","","NA"
"-111.22","56.65","FORT MCMURRAY A","3062697","2019-01-13 10:00","2019","01","13","10:00","-13.8","","-15.7","","86","","0.0","","31","","17","","16.1","","98.28","","","","-22","","Snow"
"-111.22","56.65","FORT MCMURRAY A","3062697","2019-01-13 11:00","2019","01","13","11:00","-14.5","","-16.5","","85","","0.0","","32","","17","","16.1","","98.33","","","","-23","","Snow"
"-111.22","56.65","FORT MCMURRAY A","3062697","2019-01-13 12:00","2019","01","13","12:00","-15.2","","-17.2","","85","","0.0","","32","","13","","16.1","","98.33","","","","-23","","Snow"
"-111.22","56.65","FORT MCMURRAY A","3062697","2019-01-13 13:00","2019","01","13","13:00","-15.3","","-17.4","","84","","0.0","","31","","13","","16.1","","98.31","","","","-23","","Snow"
"-111.22","56.65","FORT MCMURRAY A","3062697","2019-01-13 14:00","2019","01","13","14:00","-14.5","","-16.5","","85","","0.0","","30","","9","","16.1","","98.29","","","","-20","","NA"
"-111.22","56.65","FORT MCMURRAY A","3062697","2019-01-13 15:00","2019","01","13","15:00","-15.0","","-17.3","","83","","0.0","","31","","13","","16.1","","98.32","","","","-22","","NA"
"-111.22","56.65","FORT MCMURRAY A","3062697","2019-01-13 16:00","2019","01","13","16:00","-15.3","","-17.7","","82","","0.0","","31","","11","","16.1","","98.34","","","","-22","","NA"
"-111.22","56.65","FORT MCMURRAY A","3062697","2019-01-13 17:00","2019","01","13","17:00","-15.0","","-17.6","","81","","0.0","","28","","5","","16.1","","98.31","","","","-19","","NA"
"-111.22","56.65","FORT MCMURRAY A","3062697","2019-01-13 18:00","2019","01","13","18:00","-15.3","","-17.9","","81","","0.0","","30","","9","","16.1","","98.30","","","","-21","","NA"
"-111.22","56.65","FORT MCMURRAY A","3062697","2019-01-13 19:00","2019","01","13","19:00","-15.6","","-18.2","","81","","0.0","","31","","8","","16.1","","98.32","","","","-21","","NA"
"-111.22","56.65","FORT MCMURRAY A","3062697","2019-01-13 20:00","2019","01","13","20:00","-15.5","","-18.1","","81","","0.0","","33","","5","","16.1","","98.29","","","","-19","","NA"
"-111.22","56.65","FORT MCMURRAY A","3062697","2019-01-13 21:00","2019","01","13","21:00","-15.3","","-17.9","","81","","0.0","","","","0","","16.1","","98.24","","","","","","NA"
"-111.22","56.65","FORT MCMURRAY A","3062697","2019-01-13 22:00","2019","01","13","22:00","-15.2","","-17.5","","83","","0.0","","","M","4","","6.4","","98.20","","","","-18","","Snow"
"-111.22","56.65","FORT MCMURRAY A","3062697","2019-01-13 23:00","2019","01","13","23:00","-15.1","","-17.1","","85","","0.0","","33","","8","","6.4","","98.14","","","","-20","","Snow"
"-111.22","56.65","FORT MCMURRAY A","3062697","2019-01-14 00:00","2019","01","14","00:00","-14.1","","-16.3","","84","","0.0","","","M","4","","8.1","","98.06","","","","-17","","Snow"
"-111.22","56.65","FORT MCMURRAY A","3062697","2019-01-14 01:00","2019","01","14","01:00","-12.2","","-14.2","","85","","0.0","","8","","9","","9.7","","97.93","","","","-17","","Snow"
"-111.22","56.65","FORT MCMURRAY A","3062697","2019-01-14 02:00","2019","01","14","02:00","-11.6","","-13.6","","85","","0.0","","8","","11","","14.5","","97.82","","","","-18","","Snow"
"-111.22","56.65","FORT MCMURRAY A","3062697","2019-01-14 03:00","2019","01","14","03:00","-11.3","","-13.2","","86","","0.0","","8","","8","","8.1","","97.74","","","","-16","","Snow"
"-111.22","56.65","FORT MCMURRAY A","3062697","2019-01-14 04:00","2019","01","14","04:00","-11.3","","-12.9","","88","","0.0","","7","","11","","3.2","","97.62","","","","-17","","Snow"
"-111.22","56.65","FORT MCMURRAY A","3062697","2019-01-14 05:00","2019","01","14","05:00","-10.7","","-12.3","","88","","0.0","","8","","8","","16.1","","97.44","","","","-15","","Snow"
"-111.22","56.65","FORT MCMURRAY A","3062697","2019-01-14 06:00","2019","01","14","06:00","-10.8","","-12.4","","88","","0.0","","6","","11","","16.1","","97.31","","","","-17","","Snow"
"-111.22","56.65","FORT MCMURRAY A","3062697","2019-01-14 07:00","2019","01","14","07:00","-10.8","","-12.4","","88","","0.0","","7","","9","","16.1","","97.17","","","","-16","","NA"
"-111.22","56.65","FORT MCMURRAY A","3062697","2019-01-14 08:00","2019","01","14","08:00","-10.2","","-11.8","","88","","0.0","","9","","9","","16.1","","97.06","","","","-15","","NA"
"-111.22","56.65","FORT MCMURRAY A","3062697","2019-01-14 09:00","2019","01","14","09:00","-11.8","","-13.3","","89","","0.0","","33","","8","","16.1","","97.04","","","","-17","","NA"
"-111.22","56.65","FORT MCMURRAY A","3062697","2019-01-14 10:00","2019","01","14","10:00","-10.4","","-12.2","","87","","0.0","","25","","4","","16.1","","96.95","","","","-13","","NA"
"-111.22","56.65","FORT MCMURRAY A","3062697","2019-01-14 11:00","2019","01","14","11:00","-10.6","","-12.4","","87","","0.0","","30","","4","","4.8","","96.94","","","","-13","","Snow"
"-111.22","56.65","FORT MCMURRAY A","3062697","2019-01-14 12:00","2019","01","14","12:00","-8.6","","-10.2","","88","","0.0","","25","","11","","0.8","","96.87","","","","-14","","Moderate Snow"
"-111.22","56.65","FORT MCMURRAY A","3062697","2019-01-14 13:00","2019","01","14","13:00","-8.6","","-10.1","","89","","0.0","","33","","11","","4.8","","96.91","","","","-14","","Snow"
"-111.22","56.65","FORT MCMURRAY A","3062697","2019-01-14 14:00","2019","01","14","14:00","-9.1","","-10.7","","88","","0.0","","32","","17","","11.3","","96.99","","","","-16","","Snow"
"-111.22","56.65","FORT MCMURRAY A","3062697","2019-01-14 15:00","2019","01","14","15:00","-10.7","","-13.2","","82","","0.0","","32","","32","","14.5","","97.15","","","","-21","","Snow"
"-111.22","56.65","FORT MCMURRAY A","3062697","2019-01-14 16:00","2019","01","14","16:00","-14.0","","-17.0","","78","","0.0","","32","","22","","16.1","","97.36","","","","-23","","NA"
"-111.22","56.65","FORT MCMURRAY A","3062697","2019-01-14 17:00","2019","01","14","17:00","-15.2","","-18.2","","78","","0.0","","33","","22","","14.5","","97.52","","","","-25","","Snow"
"-111.22","56.65","FORT MCMURRAY A","3062697","2019-01-14 18:00","2019","01","14","18:00","-16.0","","-19.0","","78","","0.0","","35","","22","","11.3","","97.69","","","","-26","","Snow"
"-111.22","56.65","FORT MCMURRAY A","3062697","2019-01-14 19:00","2019","01","14","19:00","-17.0","","-20.1","","77","","0.0","","34","","24","","6.4","","97.83","","","","-28","","Snow"
"-111.22","56.65","FORT MCMURRAY A","3062697","2019-01-14 20:00","2019","01","14","20:00","-18.2","","-22.1","","72","","0.0","","35","","26","","16.1","","97.97","","","","-29","","NA"
"-111.22","56.65","FORT MCMURRAY A","3062697","2019-01-14 21:00","2019","01","14","21:00","-19.8","","-24.0","","70","","0.0","","36","","13","","16.1","","98.10","","","","-28","","NA"
"-111.22","56.65","FORT MCMURRAY A","3062697","2019-01-14 22:00","2019","01","14","22:00","-20.8","","-24.3","","74","","0.0","","34","","17","","16.1","","98.18","","","","-31","","NA"
"-111.22","56.65","FORT MCMURRAY A","3062697","2019-01-14 23:00","2019","01","14","23:00","-21.5","","-24.8","","75","","0.0","","34","","17","","16.1","","98.30","","","","-32","","NA"
"-111.22","56.65","FORT MCMURRAY A","3062697","2019-01-15 00:00","2019","01","15","00:00","-22.4","","-25.6","","76","","0.0","","30","","9","","16.1","","98.40","","","","-30","","NA"
"-111.22","56.65","FORT MCMURRAY A","3062697","2019-01-15 01:00","2019","01","15","01:00","-22.6","","-25.5","","78","","0.0","","30","","9","","16.1","","98.47","","","","-30","","Snow"
"-111.22","56.65","FORT MCMURRAY A","3062697","2019-01-15 02:00","2019","01","15","02:00","-23.5","","-26.3","","78","","0.0","","34","","13","","16.1","","98.44","","","","-33","","NA"
"-111.22","56.65","FORT MCMURRAY A","3062697","2019-01-15 03:00","2019","01","15","03:00","-23.9","","-26.6","","79","","0.0","","33","","8","","16.1","","98.50","","","","-31","","NA"
"-111.22","56.65","FORT MCMURRAY A","3062697","2019-01-15 04:00","2019","01","15","04:00","-24.6","","-27.4","","78","","0.0","","32","","9","","16.1","","98.54","","","","-32","","NA"
"-111.22","56.65","FORT MCMURRAY A","3062697","2019-01-15 05:00","2019","01","15","05:00","-24.8","","-27.6","","78","","0.0","","29","","8","","16.1","","98.50","","","","-32","","NA"
"-111.22","56.65","FORT MCMURRAY A","3062697","2019-01-15 06:00","2019","01","15","06:00","-25.9","","-28.7","","78","","0.0","","32","","9","","16.1","","98.53","","","","-34","","NA"
"-111.22","56.65","FORT MCMURRAY A","3062697","2019-01-15 07:00","2019","01","15","07:00","-26.9","","-29.7","","78","","0.0","","31","","8","","16.1","","98.56","","","","-34","","NA"
"-111.22","56.65","FORT MCMURRAY A","3062697","2019-01-15 08:00","2019","01","15","08:00","-29.1","","-32.2","","75","","0.0","","25","","8","","16.1","","98.55","","","","-37","","NA"
"-111.22","56.65","FORT MCMURRAY A","3062697","2019-01-15 09:00","2019","01","15","09:00","-29.0","","-32.2","","75","","0.0","","15","","4","","16.1","","98.60","","","","-33","","NA"
"-111.22","56.65","FORT MCMURRAY A","3062697","2019-01-15 10:00","2019","01","15","10:00","-27.7","","-30.7","","76","","0.0","","17","","8","","8.1","","98.60","","","","-35","","Haze"
"-111.22","56.65","FORT MCMURRAY A","3062697","2019-01-15 11:00","2019","01","15","11:00","-25.8","","-28.7","","77","","0.0","","21","","4","","16.1","","98.60","","","","-30","","NA"
"-111.22","56.65","FORT MCMURRAY A","3062697","2019-01-15 12:00","2019","01","15","12:00","-24.5","","-27.5","","77","","0.0","","6","","8","","16.1","","98.51","","","","-32","","NA"
"-111.22","56.65","FORT MCMURRAY A","3062697","2019-01-15 13:00","2019","01","15","13:00","-23.0","","-25.7","","79","","0.0","","7","","9","","16.1","","98.44","","","","-30","","NA"
"-111.22","56.65","FORT MCMURRAY A","3062697","2019-01-15 14:00","2019","01","15","14:00","-22.3","","-25.0","","79","","0.0","","7","","9","","16.1","","98.37","","","","-29","","NA"
"-111.22","56.65","FORT MCMURRAY A","3062697","2019-01-15 15:00","2019","01","15","15:00","-21.4","","-24.4","","77","","0.0","","7","","9","","16.1","","98.32","","","","-28","","NA"
"-111.22","56.65","FORT MCMURRAY A","3062697","2019-01-15 16:00","2019","01","15","16:00","-21.9","","-24.9","","77","","0.0","","9","","9","","16.1","","98.32","","","","-29","","NA"
"-111.22","56.65","FORT MCMURRAY A","3062697","2019-01-15 17:00","2019","01","15","17:00","-22.7","","-25.5","","79","","0.0","","8","","11","","16.1","","98.32","","","","-31","","NA"
"-111.22","56.65","FORT MCMURRAY A","3062697","2019-01-15 18:00","2019","01","15","18:00","-23.0","","-25.8","","78","","0.0","","9","","9","","16.1","","98.28","","","","-30","","NA"
"-111.22","56.65","FORT MCMURRAY A","3062697","2019-01-15 19:00","2019","01","15","19:00","-23.3","","-26.1","","78","","0.0","","9","","11","","16.1","","98.28","","","","-32","","NA"
"-111.22","56.65","FORT MCMURRAY A","3062697","2019-01-15 20:00","2019","01","15","20:00","-23.3","","-26.4","","76","","0.0","","11","","11","","16.1","","98.25","","","","-32","","NA"
"-111.22","56.65","FORT MCMURRAY A","3062697","2019-01-15 21:00","2019","01","15","21:00","-24.2","","-27.3","","76","","0.0","","10","","13","","16.1","","98.20","","","","-34","","NA"
"-111.22","56.65","FORT MCMURRAY A","3062697","2019-01-15 22:00","2019","01","15","22:00","-24.5","","-27.8","","75","","0.0","","11","","15","","16.1","","98.19","","","","-35","","NA"
"-111.22","56.65","FORT MCMURRAY A","3062697","2019-01-15 23:00","2019","01","15","23:00","-24.3","","-27.6","","75","","0.0","","11","","9","","16.1","","98.20","","","","-32","","NA"
"-111.22","56.65","FORT MCMURRAY A","3062697","2019-01-16 00:00","2019","01","16","00:00","-25.2","","-28.4","","75","","0.0","","9","","5","","16.1","","98.22","","","","-30","","NA"
"-111.22","56.65","FORT MCMURRAY A","3062697","2019-01-16 01:00","2019","01","16","01:00","-26.5","","-29.3","","78","","0.0","","2","","8","","16.1","","98.27","","","","-34","","NA"
"-111.22","56.65","FORT MCMURRAY A","3062697","2019-01-16 02:00","2019","01","16","02:00","-26.5","","-29.7","","75","","0.0","","12","","8","","16.1","","98.14","","","","-34","","NA"
"-111.22","56.65","FORT MCMURRAY A","3062697","2019-01-16 03:00","2019","01","16","03:00","-26.4","","-29.6","","75","","0.0","","3","","4","","16.1","","98.23","","","","-31","","NA"
"-111.22","56.65","FORT MCMURRAY A","3062697","2019-01-16 04:00","2019","01","16","04:00","-26.5","","-29.7","","75","","0.0","","8","","5","","16.1","","98.22","","","","-32","","NA"
"-111.22","56.65","FORT MCMURRAY A","3062697","2019-01-16 05:00","2019","01","16","05:00","-26.1","","-29.3","","75","","0.0","","","","0","","16.1","","98.22","","","","","","NA"
"-111.22","56.65","FORT MCMURRAY A","3062697","2019-01-16 06:00","2019","01","16","06:00","-26.4","","-29.6","","75","","0.0","","35","","4","","16.1","","98.22","","","","-31","","NA"
"-111.22","56.65","FORT MCMURRAY A","3062697","2019-01-16 07:00","2019","01","16","07:00","-26.2","","-29.3","","76","","0.0","","17","","4","","16.1","","98.24","","","","-30","","NA"
"-111.22","56.65","FORT MCMURRAY A","3062697","2019-01-16 08:00","2019","01","16","08:00","-26.7","","-29.7","","76","","0.0","","","","0","","16.1","","98.28","","","","","","NA"
"-111.22","56.65","FORT MCMURRAY A","3062697","2019-01-16 09:00","2019","01","16","09:00","-26.2","","-29.3","","76","","0.0","","21","","5","","16.1","","98.33","","","","-31","","NA"
"-111.22","56.65","FORT MCMURRAY A","3062697","2019-01-16 10:00","2019","01","16","10:00","-25.1","","-28.2","","76","","0.0","","","M","4","","16.1","","98.34","","","","-29","","NA"
"-111.22","56.65","FORT MCMURRAY A","3062697","2019-01-16 11:00","2019","01","16","11:00","-24.1","","-27.2","","76","","0.0","","33","","8","","9.7","","98.36","","","","-31","","Snow"
"-111.22","56.65","FORT MCMURRAY A","3062697","2019-01-16 12:00","2019","01","16","12:00","-23.4","","-26.4","","77","","0.0","","31","","4","","8.1","","98.37","","","","-27","","Snow"
"-111.22","56.65","FORT MCMURRAY A","3062697","2019-01-16 13:00","2019","01","16","13:00","-22.3","","-25.5","","76","","0.0","","28","","5","","8.1","","98.38","","","","-27","","Snow"
"-111.22","56.65","FORT MCMURRAY A","3062697","2019-01-16 14:00","2019","01","16","14:00","-21.1","","-24.1","","77","","0.1","","32","","13","","3.6","","98.38","","","","-30","","Snow"
"-111.22","56.65","FORT MCMURRAY A","3062697","2019-01-16 15:00","2019","01","16","15:00","-21.3","","-24.5","","76","","0.2","","31","","17","","3.6","","98.45","","","","-31","","Snow"
"-111.22","56.65","FORT MCMURRAY A","3062697","2019-01-16 16:00","2019","01","16","16:00","-21.6","","-24.6","","77","","0.1","","32","","17","","4.0","","98.50","","","","-32","","Snow"
"-111.22","56.65","FORT MCMURRAY A","3062697","2019-01-16 17:00","2019","01","16","17:00","-22.4","","-25.6","","76","","0.0","","33","","18","","16.1","","98.55","","","","-33","","NA"
"-111.22","56.65","FORT MCMURRAY A","3062697","2019-01-16 18:00","2019","01","16","18:00","-24.3","","-27.3","","77","","0.0","","32","","21","","16.1","","98.64","","","","-36","","NA"
"-111.22","56.65","FORT MCMURRAY A","3062697","2019-01-16 19:00","2019","01","16","19:00","-25.6","","-28.5","","77","","0.0","","32","","15","","16.1","","98.68","","","","-36","","NA"
"-111.22","56.65","FORT MCMURRAY A","3062697","2019-01-16 20:00","2019","01","16","20:00","-26.6","","-29.4","","78","","0.0","","32","","11","","16.1","","98.70","","","","-36","","NA"
"-111.22","56.65","FORT MCMURRAY A","3062697","2019-01-16 21:00","2019","01","16","21:00","-29.5","","-32.6","","75","","0.0","","25","","9","","14.5","","98.70","","","","-38","","NA"
"-111.22","56.65","FORT MCMURRAY A","3062697","2019-01-16 22:00","2019","01","16","22:00","-26.9","","-29.7","","78","","0.0","","27","","9","","6.4","","98.74","","","","-35","","Snow"
"-111.22","56.65","FORT MCMURRAY A","3062697","2019-01-16 23:00","2019","01","16","23:00","-29.8","","-32.8","","76","","0.0","","25","","11","","16.1","","98.79","","","","-39","","Snow"
"-111.22","56.65","FORT MCMURRAY A","3062697","2019-01-17 00:00","2019","01","17","00:00","-29.9","","-33.0","","75","","0.0","","24","","11","","16.1","","98.82","","","","-40","","NA"
"-111.22","56.65","FORT MCMURRAY A","3062697","2019-01-17 01:00","2019","01","17","01:00","-30.4","","-33.6","","74","","0.0","","24","","11","","16.1","","98.82","","","","-40","","NA"
"-111.22","56.65","FORT MCMURRAY A","3062697","2019-01-17 02:00","2019","01","17","02:00","-30.1","","-33.3","","74","","0.0","","27","","8","","16.1","","98.83","","","","-38","","NA"
"-111.22","56.65","FORT MCMURRAY A","3062697","2019-01-17 03:00","2019","01","17","03:00","-31.7","","-35.1","","73","","0.0","","26","","8","","16.1","","98.81","","","","-40","","NA"
"-111.22","56.65","FORT MCMURRAY A","3062697","2019-01-17 04:00","2019","01","17","04:00","-34.2","","-37.8","","71","","0.0","","23","","8","","16.1","","98.75","","","","-43","","NA"
"-111.22","56.65","FORT MCMURRAY A","3062697","2019-01-17 05:00","2019","01","17","05:00","-35.9","","-39.6","","70","","0.0","","24","","8","","16.1","","98.74","","","","-45","","NA"
"-111.22","56.65","FORT MCMURRAY A","3062697","2019-01-17 06:00","2019","01","17","06:00","-36.1","","-39.8","","70","","0.0","","23","","5","","16.1","","98.73","","","","-43","","NA"
"-111.22","56.65","FORT MCMURRAY A","3062697","2019-01-17 07:00","2019","01","17","07:00","-34.2","","-37.8","","71","","0.0","","21","","8","","16.1","","98.70","","","","-43","","NA"
"-111.22","56.65","FORT MCMURRAY A","3062697","2019-01-17 08:00","2019","01","17","08:00","-34.7","","-38.3","","71","","0.0","","17","","8","","16.1","","98.71","","","","-43","","NA"
"-111.22","56.65","FORT MCMURRAY A","3062697","2019-01-17 09:00","2019","01","17","09:00","-35.3","","-39.0","","70","","0.0","","17","","8","","16.1","","98.69","","","","-44","","Snow"
"-111.22","56.65","FORT MCMURRAY A","3062697","2019-01-17 10:00","2019","01","17","10:00","-32.6","","-36.1","","72","","0.0","","","","0","","16.1","","98.69","","","","","","NA"
"-111.22","56.65","FORT MCMURRAY A","3062697","2019-01-17 11:00","2019","01","17","11:00","-29.1","","-32.4","","74","","0.0","","25","","8","","16.1","","98.66","","","","-37","","NA"
"-111.22","56.65","FORT MCMURRAY A","3062697","2019-01-17 12:00","2019","01","17","12:00","-28.8","","-32.2","","73","","0.0","","","","0","","11.3","","98.59","","","","","","Snow"
"-111.22","56.65","FORT MCMURRAY A","3062697","2019-01-17 13:00","2019","01","17","13:00","-26.7","","-29.9","","75","","0.0","","","","0","","16.1","","98.55","","","","","","NA"
"-111.22","56.65","FORT MCMURRAY A","3062697","2019-01-17 14:00","2019","01","17","14:00","-23.9","","-27.0","","76","","0.0","","20","","4","","16.1","","98.51","","","","-28","","NA"
"-111.22","56.65","FORT MCMURRAY A","3062697","2019-01-17 15:00","2019","01","17","15:00","-23.4","","-26.5","","76","","0.0","","","","0","","16.1","","98.48","","","","","","NA"
"-111.22","56.65","FORT MCMURRAY A","3062697","2019-01-17 16:00","2019","01","17","16:00","-23.8","","-26.8","","77","","0.0","","9","","4","","16.1","","98.47","","","","-28","","NA"
"-111.22","56.65","FORT MCMURRAY A","3062697","2019-01-17 17:00","2019","01","17","17:00","-25.5","","-28.5","","77","","0.0","","35","","4","","16.1","","98.45","","","","-30","","NA"
"-111.22","56.65","FORT MCMURRAY A","3062697","2019-01-17 18:00","2019","01","17","18:00","-27.1","","-30.0","","77","","0.0","","","","0","","16.1","","98.44","","","","","","NA"
"-111.22","56.65","FORT MCMURRAY A","3062697","2019-01-17 19:00","2019","01","17","19:00","-30.7","","-34.1","","73","","0.0","","10","","4","","16.1","","98.42","","","","-35","","NA"
"-111.22","56.65","FORT MCMURRAY A","3062697","2019-01-17 20:00","2019","01","17","20:00","-32.8","","-36.4","","71","","0.0","","15","","5","","16.1","","98.39","","","","-39","","NA"
"-111.22","56.65","FORT MCMURRAY A","3062697","2019-01-17 21:00","2019","01","17","21:00","-30.2","","-33.6","","73","","0.0","","11","","5","","16.1","","98.40","","","","-36","","NA"
"-111.22","56.65","FORT MCMURRAY A","3062697","2019-01-17 22:00","2019","01","17","22:00","-32.7","","-36.3","","71","","0.0","","","","0","","16.1","","98.41","","","","","","NA"
"-111.22","56.65","FORT MCMURRAY A","3062697","2019-01-17 23:00","2019","01","17","23:00","-32.0","","-35.5","","72","","0.0","","8","","9","","16.1","","98.39","","","","-41","","NA"
"-111.22","56.65","FORT MCMURRAY A","3062697","2019-01-18 00:00","2019","01","18","00:00","-32.7","","-36.3","","71","","0.0","","20","","4","","16.1","","98.43","","","","-37","","NA"
"-111.22","56.65","FORT MCMURRAY A","3062697","2019-01-18 01:00","2019","01","18","01:00","-32.8","","-36.3","","72","","0.0","","15","","4","","16.1","","98.44","","","","-38","","NA"
"-111.22","56.65","FORT MCMURRAY A","3062697","2019-01-18 02:00","2019","01","18","02:00","-30.8","","-34.2","","73","","0.0","","","M","4","","16.1","","98.45","","","","-35","","NA"
"-111.22","56.65","FORT MCMURRAY A","3062697","2019-01-18 03:00","2019","01","18","03:00","-31.0","","-34.5","","72","","0.0","","18","","4","","16.1","","98.49","","","","-36","","NA"
"-111.22","56.65","FORT MCMURRAY A","3062697","2019-01-18 04:00","2019","01","18","04:00","-31.4","","-34.9","","72","","0.0","","","","0","","16.1","","98.47","","","","","","NA"
"-111.22","56.65","FORT MCMURRAY A","3062697","2019-01-18 05:00","2019","01","18","05:00","-33.2","","-36.8","","71","","0.0","","","M","4","","16.1","","98.47","","","","-38","","NA"
"-111.22","56.65","FORT MCMURRAY A","3062697","2019-01-18 06:00","2019","01","18","06:00","-32.8","","-36.4","","71","","0.0","","9","","5","","16.1","","98.46","","","","-39","","NA"
"-111.22","56.65","FORT MCMURRAY A","3062697","2019-01-18 07:00","2019","01","18","07:00","-32.6","","-36.1","","72","","0.0","","","","0","","16.1","","98.47","","","","","","NA"
"-111.22","56.65","FORT MCMURRAY A","3062697","2019-01-18 08:00","2019","01","18","08:00","-32.2","","-35.7","","72","","0.0","","","","0","","16.1","","98.49","","","","","","NA"
"-111.22","56.65","FORT MCMURRAY A","3062697","2019-01-18 09:00","2019","01","18","09:00","-32.0","","-35.5","","72","","0.0","","9","","5","","16.1","","98.54","","","","-38","","NA"
"-111.22","56.65","FORT MCMURRAY A","3062697","2019-01-18 10:00","2019","01","18","10:00","-30.5","","-34.0","","72","","0.0","","8","","9","","16.1","","98.55","","","","-39","","NA"
"-111.22","56.65","FORT MCMURRAY A","3062697","2019-01-18 11:00","2019","01","18","11:00","-29.1","","-32.5","","73","","0.0","","9","","8","","16.1","","98.58","","","","-37","","NA"
"-111.22","56.65","FORT MCMURRAY A","3062697","2019-01-18 12:00","2019","01","18","12:00","-28.3","","-31.6","","74","","0.0","","2","","4","","16.1","","98.59","","","","-33","","NA"
"-111.22","56.65","FORT MCMURRAY A","3062697","2019-01-18 13:00","2019","01","18","13:00","-26.2","","-29.6","","74","","0.0","","6","","5","","16.1","","98.56","","","","-31","","NA"
"-111.22","56.65","FORT MCMURRAY A","3062697","2019-01-18 14:00","2019","01","18","14:00","-24.8","","-28.0","","75","","0.0","","8","","4","","16.1","","98.53","","","","-29","","NA"
"-111.22","56.65","FORT MCMURRAY A","3062697","2019-01-18 15:00","2019","01","18","15:00","-23.8","","-27.1","","75","","0.0","","8","","5","","16.1","","98.54","","","","-29","","NA"
"-111.22","56.65","FORT MCMURRAY A","3062697","2019-01-18 16:00","2019","01","18","16:00","-25.3","","-28.7","","74","","0.0","","5","","8","","16.1","","98.55","","","","-32","","NA"
"-111.22","56.65","FORT MCMURRAY A","3062697","2019-01-18 17:00","2019","01","18","17:00","-25.7","","-28.9","","75","","0.0","","7","","8","","16.1","","98.55","","","","-33","","NA"
"-111.22","56.65","FORT MCMURRAY A","3062697","2019-01-18 18:00","2019","01","18","18:00","-25.8","","-28.9","","76","","0.0","","8","","11","","16.1","","98.53","","","","-35","","NA"
"-111.22","56.65","FORT MCMURRAY A","3062697","2019-01-18 19:00","2019","01","18","19:00","-25.3","","-28.4","","76","","0.0","","8","","11","","16.1","","98.53","","","","-34","","NA"
"-111.22","56.65","FORT MCMURRAY A","3062697","2019-01-18 20:00","2019","01","18","20:00","-25.0","","-28.1","","76","","0.0","","7","","11","","16.1","","98.51","","","","-34","","NA"
"-111.22","56.65","FORT MCMURRAY A","3062697","2019-01-18 21:00","2019","01","18","21:00","-26.3","","-29.4","","76","","0.0","","8","","5","","16.1","","98.49","","","","-31","","NA"
"-111.22","56.65","FORT MCMURRAY A","3062697","2019-01-18 22:00","2019","01","18","22:00","-27.8","","-31.0","","75","","0.0","","","","0","","16.1","","98.51","","","","","","NA"
"-111.22","56.65","FORT MCMURRAY A","3062697","2019-01-18 23:00","2019","01","18","23:00","-25.8","","-29.0","","75","","0.0","","8","","8","","16.1","","98.49","","","","-33","","NA"
"-111.22","56.65","FORT MCMURRAY A","3062697","2019-01-19 00:00","2019","01","19","00:00","-26.0","","-29.1","","76","","0.0","","9","","9","","16.1","","98.45","","","","-34","","NA"
"-111.22","56.65","FORT MCMURRAY A","3062697","2019-01-19 01:00","2019","01","19","01:00","-24.9","","-28.0","","76","","0.0","","9","","13","","16.1","","98.41","","","","-34","","NA"
"-111.22","56.65","FORT MCMURRAY A","3062697","2019-01-19 02:00","2019","01","19","02:00","-24.5","","-27.6","","76","","0.0","","9","","13","","16.1","","98.37","","","","-34","","NA"
"-111.22","56.65","FORT MCMURRAY A","3062697","2019-01-19 03:00","2019","01","19","03:00","-25.1","","-28.2","","76","","0.0","","9","","13","","16.1","","98.36","","","","-35","","NA"
"-111.22","56.65","FORT MCMURRAY A","3062697","2019-01-19 04:00","2019","01","19","04:00","-25.4","","-28.5","","76","","0.0","","9","","17","","16.1","","98.25","","","","-36","","NA"
"-111.22","56.65","FORT MCMURRAY A","3062697","2019-01-19 05:00","2019","01","19","05:00","-25.8","","-29.0","","75","","0.0","","10","","17","","16.1","","98.19","","","","-37","","NA"
"-111.22","56.65","FORT MCMURRAY A","3062697","2019-01-19 06:00","2019","01","19","06:00","-25.8","","-29.0","","75","","0.0","","9","","17","","16.1","","98.14","","","","-37","","NA"
"-111.22","56.65","FORT MCMURRAY A","3062697","2019-01-19 07:00","2019","01","19","07:00","-25.8","","-29.0","","75","","0.0","","11","","15","","16.1","","98.12","","","","-36","","NA"
"-111.22","56.65","FORT MCMURRAY A","3062697","2019-01-19 08:00","2019","01","19","08:00","-26.3","","-29.7","","74","","0.0","","10","","13","","16.1","","98.07","","","","-36","","NA"
"-111.22","56.65","FORT MCMURRAY A","3062697","2019-01-19 09:00","2019","01","19","09:00","-26.1","","-29.5","","74","","0.0","","11","","18","","16.1","","98.05","","","","-38","","NA"
"-111.22","56.65","FORT MCMURRAY A","3062697","2019-01-19 10:00","2019","01","19","10:00","-25.0","","-28.2","","75","","0.0","","10","","18","","16.1","","98.04","","","","-36","","NA"
"-111.22","56.65","FORT MCMURRAY A","3062697","2019-01-19 11:00","2019","01","19","11:00","-23.6","","-26.9","","75","","0.0","","10","","17","","16.1","","97.96","","","","-34","","NA"
"-111.22","56.65","FORT MCMURRAY A","3062697","2019-01-19 12:00","2019","01","19","12:00","-21.7","","-25.5","","72","","0.0","","11","","22","","16.1","","97.85","","","","-33","","NA"
"-111.22","56.65","FORT MCMURRAY A","3062697","2019-01-19 13:00","2019","01","19","13:00","-20.4","","-25.2","","66","","0.0","","12","","22","","16.1","","97.75","","","","-31","","NA"
"-111.22","56.65","FORT MCMURRAY A","3062697","2019-01-19 14:00","2019","01","19","14:00","-20.4","","-25.4","","65","","0.0","","9","","15","","16.1","","97.64","","","","-30","","NA"
"-111.22","56.65","FORT MCMURRAY A","3062697","2019-01-19 15:00","2019","01","19","15:00","-20.6","","-24.9","","69","","0.0","","8","","13","","16.1","","97.57","","","","-29","","NA"
"-111.22","56.65","FORT MCMURRAY A","3062697","2019-01-19 16:00","2019","01","19","16:00","-19.2","","-24.2","","65","","0.0","","11","","24","","16.1","","97.54","","","","-30","","NA"
"-111.22","56.65","FORT MCMURRAY A","3062697","2019-01-19 17:00","2019","01","19","17:00","-19.4","","-24.3","","66","","0.0","","11","","21","","16.1","","97.53","","","","-30","","NA"
"-111.22","56.65","FORT MCMURRAY A","3062697","2019-01-19 18:00","2019","01","19","18:00","-19.5","","-24.9","","63","","0.0","","12","","32","","16.1","","97.49","","","","-32","","NA"
"-111.22","56.65","FORT MCMURRAY A","3062697","2019-01-19 19:00","2019","01","19","19:00","-19.9","","-24.7","","66","","0.0","","13","","28","","16.1","","97.47","","","","-32","","NA"
"-111.22","56.65","FORT MCMURRAY A","3062697","2019-01-19 20:00","2019","01","19","20:00","-20.1","","-24.9","","66","","0.0","","13","","26","","16.1","","97.43","","","","-32","","NA"
"-111.22","56.65","FORT MCMURRAY A","3062697","2019-01-19 21:00","2019","01","19","21:00","-19.9","","-24.6","","67","","0.0","","12","","26","","16.1","","97.38","","","","-32","","NA"
"-111.22","56.65","FORT MCMURRAY A","3062697","2019-01-19 22:00","2019","01","19","22:00","-20.1","","-24.6","","68","","0.0","","11","","22","","16.1","","97.33","","","","-31","","NA"
"-111.22","56.65","FORT MCMURRAY A","3062697","2019-01-19 23:00","2019","01","19","23:00","-20.3","","-24.4","","70","","0.0","","11","","24","","8.1","","97.27","","","","-32","","Snow"
"-111.22","56.65","FORT MCMURRAY A","3062697","2019-01-20 00:00","2019","01","20","00:00","-20.1","","-23.6","","74","","0.2","","12","","21","","4.8","","97.20","","","","-31","","Snow"
"-111.22","56.65","FORT MCMURRAY A","3062697","2019-01-20 01:00","2019","01","20","01:00","-19.6","","-23.3","","73","","0.1","","12","","22","","16.1","","97.14","","","","-30","","Snow"
"-111.22","56.65","FORT MCMURRAY A","3062697","2019-01-20 02:00","2019","01","20","02:00","-19.4","","-22.9","","74","","0.0","","12","","22","","16.1","","97.08","","","","-30","","Snow"
"-111.22","56.65","FORT MCMURRAY A","3062697","2019-01-20 03:00","2019","01","20","03:00","-18.9","","-22.5","","74","","0.0","","12","","21","","16.1","","96.98","","","","-29","","Snow"
"-111.22","56.65","FORT MCMURRAY A","3062697","2019-01-20 04:00","2019","01","20","04:00","-18.0","","-21.6","","74","","0.0","","12","","18","","16.1","","96.88","","","","-27","","NA"
"-111.22","56.65","FORT MCMURRAY A","3062697","2019-01-20 05:00","2019","01","20","05:00","-17.5","","-21.0","","75","","0.0","","12","","21","","16.1","","96.79","","","","-28","","NA"
"-111.22","56.65","FORT MCMURRAY A","3062697","2019-01-20 06:00","2019","01","20","06:00","-16.7","","-20.2","","75","","0.0","","12","","18","","16.1","","96.70","","","","-26","","NA"
"-111.22","56.65","FORT MCMURRAY A","3062697","2019-01-20 07:00","2019","01","20","07:00","-16.2","","-19.7","","75","","0.0","","12","","24","","16.1","","96.56","","","","-27","","NA"
"-111.22","56.65","FORT MCMURRAY A","3062697","2019-01-20 08:00","2019","01","20","08:00","-15.9","","-18.9","","78","","0.0","","11","","17","","3.6","","96.47","","","","-25","","Snow"
"-111.22","56.65","FORT MCMURRAY A","3062697","2019-01-20 09:00","2019","01","20","09:00","-14.9","","-18.0","","78","","0.0","","11","","17","","16.1","","96.41","","","","-23","","Snow"
"-111.22","56.65","FORT MCMURRAY A","3062697","2019-01-20 10:00","2019","01","20","10:00","-14.0","","-17.4","","76","","0.0","","12","","15","","16.1","","96.34","","","","-22","","NA"
"-111.22","56.65","FORT MCMURRAY A","3062697","2019-01-20 11:00","2019","01","20","11:00","-14.4","","-17.8","","76","","0.0","","7","","11","","16.1","","96.29","","","","-21","","NA"
"-111.22","56.65","FORT MCMURRAY A","3062697","2019-01-20 12:00","2019","01","20","12:00","-14.3","","-17.7","","76","","0.0","","36","","5","","6.4","","96.25","","","","-18","","Snow"
"-111.22","56.65","FORT MCMURRAY A","3062697","2019-01-20 13:00","2019","01","20","13:00","-13.3","","-16.7","","76","","0.0","","7","","4","","16.1","","96.22","","","","-16","","Snow"
"-111.22","56.65","FORT MCMURRAY A","3062697","2019-01-20 14:00","2019","01","20","14:00","-13.4","","-16.9","","75","","0.0","","32","","4","","16.1","","96.22","","","","-16","","NA"
"-111.22","56.65","FORT MCMURRAY A","3062697","2019-01-20 15:00","2019","01","20","15:00","-13.0","","-16.2","","77","","0.0","","34","","4","","16.1","","96.22","","","","-16","","Snow"
"-111.22","56.65","FORT MCMURRAY A","3062697","2019-01-20 16:00","2019","01","20","16:00","-13.2","","-16.0","","80","","0.0","","32","","8","","16.1","","96.26","","","","-18","","Snow"
"-111.22","56.65","FORT MCMURRAY A","3062697","2019-01-20 17:00","2019","01","20","17:00","-13.1","","-15.4","","83","","0.0","","29","","8","","1.6","","96.28","","","","-18","","Snow"
"-111.22","56.65","FORT MCMURRAY A","3062697","2019-01-20 18:00","2019","01","20","18:00","-13.0","","-15.2","","84","","0.0","","33","","5","","16.1","","96.30","","","","-16","","NA"
"-111.22","56.65","FORT MCMURRAY A","3062697","2019-01-20 19:00","2019","01","20","19:00","-12.5","","-14.7","","84","","0.0","","29","","5","","16.1","","96.31","","","","-16","","Snow"
"-111.22","56.65","FORT MCMURRAY A","3062697","2019-01-20 20:00","2019","01","20","20:00","-12.6","","-14.8","","84","","0.0","","31","","4","","16.1","","96.34","","","","-15","","Snow"
"-111.22","56.65","FORT MCMURRAY A","3062697","2019-01-20 21:00","2019","01","20","21:00","-12.6","","-14.8","","84","","0.0","","34","","5","","16.1","","96.38","","","","-16","","Snow"
"-111.22","56.65","FORT MCMURRAY A","3062697","2019-01-20 22:00","2019","01","20","22:00","-12.9","","-15.1","","84","","0.0","","30","","5","","12.9","","96.47","","","","-16","","Snow"
"-111.22","56.65","FORT MCMURRAY A","3062697","2019-01-20 23:00","2019","01","20","23:00","-12.9","","-15.3","","83","","0.0","","28","","5","","16.1","","96.53","","","","-16","","Snow"
"-111.22","56.65","FORT MCMURRAY A","3062697","2019-01-21 00:00","2019","01","21","00:00","-13.4","","-15.4","","85","","0.0","","32","","8","","9.7","","96.55","","","","-18","","Snow"
"-111.22","56.65","FORT MCMURRAY A","3062697","2019-01-21 01:00","2019","01","21","01:00","-13.6","","-15.6","","85","","0.0","","32","","8","","9.7","","96.57","","","","-19","","Snow"
"-111.22","56.65","FORT MCMURRAY A","3062697","2019-01-21 02:00","2019","01","21","02:00","-13.8","","-16.1","","83","","0.0","","31","","8","","16.1","","96.60","","","","-19","","Snow"
"-111.22","56.65","FORT MCMURRAY A","3062697","2019-01-21 03:00","2019","01","21","03:00","-13.8","","-16.4","","81","","0.0","","32","","9","","16.1","","96.68","","","","-19","","Snow"
"-111.22","56.65","FORT MCMURRAY A","3062697","2019-01-21 04:00","2019","01","21","04:00","-14.2","","-16.6","","82","","0.0","","31","","8","","16.1","","96.72","","","","-19","","Snow"
"-111.22","56.65","FORT MCMURRAY A","3062697","2019-01-21 05:00","2019","01","21","05:00","-14.4","","-16.8","","82","","0.0","","32","","8","","16.1","","96.78","","","","-20","","Snow"
"-111.22","56.65","FORT MCMURRAY A","3062697","2019-01-21 06:00","2019","01","21","06:00","-14.3","","-16.6","","83","","0.0","","29","","8","","16.1","","96.84","","","","-20","","Snow"
"-111.22","56.65","FORT MCMURRAY A","3062697","2019-01-21 07:00","2019","01","21","07:00","-14.4","","-16.8","","82","","0.0","","32","","5","","16.1","","96.85","","","","-18","","Snow"
"-111.22","56.65","FORT MCMURRAY A","3062697","2019-01-21 08:00","2019","01","21","08:00","-14.2","","-16.7","","82","","0.0","","26","","4","","16.1","","96.93","","","","-17","","Snow"
"-111.22","56.65","FORT MCMURRAY A","3062697","2019-01-21 09:00","2019","01","21","09:00","-14.1","","-16.5","","82","","0.0","","25","","4","","16.1","","96.99","","","","-17","","NA"
"-111.22","56.65","FORT MCMURRAY A","3062697","2019-01-21 10:00","2019","01","21","10:00","-13.9","","-16.6","","80","","0.0","","25","","5","","16.1","","97.05","","","","-17","","NA"
"-111.22","56.65","FORT MCMURRAY A","3062697","2019-01-21 11:00","2019","01","21","11:00","-12.6","","-16.8","","71","","0.0","","29","","22","","16.1","","97.11","","","","-22","","Snow"
"-111.22","56.65","FORT MCMURRAY A","3062697","2019-01-21 12:00","2019","01","21","12:00","-12.9","","-17.3","","70","","0.0","","29","","21","","16.1","","97.17","","","","-22","","NA"
"-111.22","56.65","FORT MCMURRAY A","3062697","2019-01-21 13:00","2019","01","21","13:00","-13.7","","-18.2","","69","","0.0","","29","","13","","16.1","","97.20","","","","-21","","NA"
"-111.22","56.65","FORT MCMURRAY A","3062697","2019-01-21 14:00","2019","01","21","14:00","-13.2","","-18.1","","67","","0.0","","31","","11","","16.1","","97.25","","","","-19","","NA"
"-111.22","56.65","FORT MCMURRAY A","3062697","2019-01-21 15:00","2019","01","21","15:00","-13.6","","-18.4","","67","","0.0","","31","","9","","16.1","","97.29","","","","-19","","NA"
"-111.22","56.65","FORT MCMURRAY A","3062697","2019-01-21 16:00","2019","01","21","16:00","-13.1","","-17.8","","68","","0.0","","29","","5","","16.1","","97.30","","","","-16","","NA"
"-111.22","56.65","FORT MCMURRAY A","3062697","2019-01-21 17:00","2019","01","21","17:00","-12.7","","-17.5","","68","","0.0","","27","","11","","16.1","","97.37","","","","-19","","NA"
"-111.22","56.65","FORT MCMURRAY A","3062697","2019-01-21 18:00","2019","01","21","18:00","-13.8","","-17.8","","72","","0.0","","30","","5","","16.1","","97.38","","","","-17","","NA"
"-111.22","56.65","FORT MCMURRAY A","3062697","2019-01-21 19:00","2019","01","21","19:00","-16.5","","-19.4","","79","","0.0","","24","","5","","16.1","","97.42","","","","-20","","NA"
"-111.22","56.65","FORT MCMURRAY A","3062697","2019-01-21 20:00","2019","01","21","20:00","-16.6","","-19.3","","80","","0.0","","19","","5","","16.1","","97.40","","","","-20","","NA"
"-111.22","56.65","FORT MCMURRAY A","3062697","2019-01-21 21:00","2019","01","21","21:00","-16.5","","-19.0","","81","","0.0","","20","","8","","16.1","","97.38","","","","-22","","NA"
"-111.22","56.65","FORT MCMURRAY A","3062697","2019-01-21 22:00","2019","01","21","22:00","-16.8","","-19.2","","82","","0.0","","13","","4","","16.1","","97.35","","","","-20","","NA"
"-111.22","56.65","FORT MCMURRAY A","3062697","2019-01-21 23:00","2019","01","21","23:00","-17.1","","-19.5","","82","","0.0","","10","","8","","16.1","","97.33","","","","-23","","NA"
"-111.22","56.65","FORT MCMURRAY A","3062697","2019-01-22 00:00","2019","01","22","00:00","-17.0","","-19.2","","83","","0.0","","8","","5","","16.1","","97.35","","","","-21","","NA"
"-111.22","56.65","FORT MCMURRAY A","3062697","2019-01-22 01:00","2019","01","22","01:00","-16.4","","-18.8","","82","","0.0","","10","","8","","16.1","","97.30","","","","-22","","Snow"
"-111.22","56.65","FORT MCMURRAY A","3062697","2019-01-22 02:00","2019","01","22","02:00","-16.0","","-18.5","","81","","0.0","","9","","5","","16.1","","97.26","","","","-20","","Snow"
"-111.22","56.65","FORT MCMURRAY A","3062697","2019-01-22 03:00","2019","01","22","03:00","-16.2","","-18.8","","81","","0.0","","8","","8","","16.1","","97.19","","","","-22","","Snow"
"-111.22","56.65","FORT MCMURRAY A","3062697","2019-01-22 04:00","2019","01","22","04:00","-16.8","","-19.5","","80","","0.0","","5","","8","","16.1","","97.10","","","","-22","","NA"
"-111.22","56.65","FORT MCMURRAY A","3062697","2019-01-22 05:00","2019","01","22","05:00","-16.2","","-18.8","","81","","0.0","","8","","11","","16.1","","97.03","","","","-23","","NA"
"-111.22","56.65","FORT MCMURRAY A","3062697","2019-01-22 06:00","2019","01","22","06:00","-16.5","","-19.2","","80","","0.0","","6","","5","","16.1","","96.97","","","","-20","","NA"
"-111.22","56.65","FORT MCMURRAY A","3062697","2019-01-22 07:00","2019","01","22","07:00","-16.0","","-18.7","","80","","0.0","","8","","4","","16.1","","96.89","","","","-19","","NA"
"-111.22","56.65","FORT MCMURRAY A","3062697","2019-01-22 08:00","2019","01","22","08:00","-15.9","","-18.6","","80","","0.0","","8","","11","","16.1","","96.79","","","","-23","","NA"
"-111.22","56.65","FORT MCMURRAY A","3062697","2019-01-22 09:00","2019","01","22","09:00","-15.6","","-18.3","","80","","0.0","","7","","13","","16.1","","96.75","","","","-23","","Snow"
"-111.22","56.65","FORT MCMURRAY A","3062697","2019-01-22 10:00","2019","01","22","10:00","-14.5","","-17.4","","79","","0.0","","8","","13","","16.1","","96.73","","","","-22","","Snow"
"-111.22","56.65","FORT MCMURRAY A","3062697","2019-01-22 11:00","2019","01","22","11:00","-14.1","","-17.0","","79","","0.0","","6","","13","","16.1","","96.71","","","","-21","","NA"
"-111.22","56.65","FORT MCMURRAY A","3062697","2019-01-22 12:00","2019","01","22","12:00","-16.2","","-19.1","","79","","0.0","","33","","8","","16.1","","96.70","","","","-22","","Snow"
"-111.22","56.65","FORT MCMURRAY A","3062697","2019-01-22 13:00","2019","01","22","13:00","-15.0","","-17.7","","80","","0.0","","2","","4","","4.8","","96.64","","","","-18","","Snow"
"-111.22","56.65","FORT MCMURRAY A","3062697","2019-01-22 14:00","2019","01","22","14:00","-14.4","","-17.0","","81","","0.0","","4","","4","","3.2","","96.62","","","","-17","","Snow"
"-111.22","56.65","FORT MCMURRAY A","3062697","2019-01-22 15:00","2019","01","22","15:00","-14.0","","-16.2","","84","","0.0","","33","","8","","3.6","","96.67","","","","-19","","Snow"
"-111.22","56.65","FORT MCMURRAY A","3062697","2019-01-22 16:00","2019","01","22","16:00","-13.8","","-15.8","","85","","0.0","","34","","9","","1.6","","96.68","","","","-19","","Snow"
"-111.22","56.65","FORT MCMURRAY A","3062697","2019-01-22 17:00","2019","01","22","17:00","-13.6","","-15.3","","87","","0.0","","32","","13","","4.8","","96.77","","","","-21","","Snow"
"-111.22","56.65","FORT MCMURRAY A","3062697","2019-01-22 18:00","2019","01","22","18:00","-13.4","","-15.3","","86","","0.0","","32","","15","","2.4","","96.83","","","","-21","","Snow"
"-111.22","56.65","FORT MCMURRAY A","3062697","2019-01-22 19:00","2019","01","22","19:00","-13.7","","-15.7","","85","","0.0","","32","","13","","2.0","","96.91","","","","-21","","Snow"
"-111.22","56.65","FORT MCMURRAY A","3062697","2019-01-22 20:00","2019","01","22","20:00","-14.9","","-17.2","","83","","0.0","","32","","21","","4.8","","97.01","","","","-24","","Snow"
"-111.22","56.65","FORT MCMURRAY A","3062697","2019-01-22 21:00","2019","01","22","21:00","-16.1","","-18.7","","81","","0.0","","32","","22","","4.8","","97.12","","","","-26","","Snow"
"-111.22","56.65","FORT MCMURRAY A","3062697","2019-01-22 22:00","2019","01","22","22:00","-16.9","","-19.5","","81","","0.0","","32","","17","","3.6","","97.25","","","","-26","","Snow"
"-111.22","56.65","FORT MCMURRAY A","3062697","2019-01-22 23:00","2019","01","22","23:00","-17.3","","-20.2","","78","","0.0","","33","","18","","4.8","","97.38","","","","-27","","Snow"
"-111.22","56.65","FORT MCMURRAY A","3062697","2019-01-23 00:00","2019","01","23","00:00","-17.9","","-22.0","","71","","0.0","","35","","18","","9.7","","97.57","","","","-27","","Snow"
"-111.22","56.65","FORT MCMURRAY A","3062697","2019-01-23 01:00","2019","01","23","01:00","-18.9","","-22.7","","73","","0.0","","33","","24","","12.9","","97.70","","","","-30","","Snow"
"-111.22","56.65","FORT MCMURRAY A","3062697","2019-01-23 02:00","2019","01","23","02:00","-20.4","","-24.5","","70","","0.0","","35","","26","","16.1","","97.78","","","","-32","","Snow"
"-111.22","56.65","FORT MCMURRAY A","3062697","2019-01-23 03:00","2019","01","23","03:00","-21.7","","-25.5","","72","","0.0","","35","","18","","16.1","","97.91","","","","-32","","NA"
"-111.22","56.65","FORT MCMURRAY A","3062697","2019-01-23 04:00","2019","01","23","04:00","-22.7","","-26.1","","74","","0.0","","36","","11","","16.1","","97.98","","","","-31","","NA"
"-111.22","56.65","FORT MCMURRAY A","3062697","2019-01-23 05:00","2019","01","23","05:00","-23.0","","-26.4","","74","","0.0","","35","","17","","16.1","","98.07","","","","-33","","NA"
"-111.22","56.65","FORT MCMURRAY A","3062697","2019-01-23 06:00","2019","01","23","06:00","-24.4","","-27.3","","78","","0.0","","31","","9","","16.1","","98.15","","","","-32","","NA"
"-111.22","56.65","FORT MCMURRAY A","3062697","2019-01-23 07:00","2019","01","23","07:00","-24.6","","-27.6","","77","","0.0","","33","","11","","9.7","","98.24","","","","-33","","Fog"
"-111.22","56.65","FORT MCMURRAY A","3062697","2019-01-23 08:00","2019","01","23","08:00","-25.4","","-28.6","","75","","0.0","","34","","15","","16.1","","98.32","","","","-36","","NA"
"-111.22","56.65","FORT MCMURRAY A","3062697","2019-01-23 09:00","2019","01","23","09:00","-26.1","","-29.2","","76","","0.0","","31","","8","","16.1","","98.42","","","","-33","","NA"
"-111.22","56.65","FORT MCMURRAY A","3062697","2019-01-23 10:00","2019","01","23","10:00","-25.9","","-28.8","","77","","0.0","","23","","5","","16.1","","98.49","","","","-31","","Snow"
"-111.22","56.65","FORT MCMURRAY A","3062697","2019-01-23 11:00","2019","01","23","11:00","-24.3","","-27.7","","74","","0.0","","20","","4","","16.1","","98.56","","","","-28","","NA"
"-111.22","56.65","FORT MCMURRAY A","3062697","2019-01-23 12:00","2019","01","23","12:00","-23.2","","-27.9","","66","","0.0","","28","","8","","16.1","","98.59","","","","-30","","NA"
"-111.22","56.65","FORT MCMURRAY A","3062697","2019-01-23 13:00","2019","01","23","13:00","-22.6","","-27.5","","65","","0.0","","28","","8","","16.1","","98.57","","","","-29","","NA"
"-111.22","56.65","FORT MCMURRAY A","3062697","2019-01-23 14:00","2019","01","23","14:00","-21.5","","-27.2","","61","","0.0","","27","","8","","16.1","","98.57","","","","-28","","NA"
"-111.22","56.65","FORT MCMURRAY A","3062697","2019-01-23 15:00","2019","01","23","15:00","-21.0","","-26.7","","61","","0.0","","","M","4","","16.1","","98.59","","","","-25","","NA"
"-111.22","56.65","FORT MCMURRAY A","3062697","2019-01-23 16:00","2019","01","23","16:00","-22.4","","-26.6","","69","","0.0","","21","","5","","16.1","","98.59","","","","-27","","NA"
"-111.22","56.65","FORT MCMURRAY A","3062697","2019-01-23 17:00","2019","01","23","17:00","-23.9","","-27.7","","71","","0.0","","21","","8","","16.1","","98.59","","","","-31","","NA"
"-111.22","56.65","FORT MCMURRAY A","3062697","2019-01-23 18:00","2019","01","23","18:00","-24.5","","-28.1","","73","","0.0","","26","","9","","16.1","","98.58","","","","-32","","NA"
"-111.22","56.65","FORT MCMURRAY A","3062697","2019-01-23 19:00","2019","01","23","19:00","-25.0","","-28.1","","76","","0.0","","22","","13","","16.1","","98.53","","","","-34","","NA"
"-111.22","56.65","FORT MCMURRAY A","3062697","2019-01-23 20:00","2019","01","23","20:00","-25.7","","-28.5","","78","","0.0","","22","","13","","16.1","","98.47","","","","-35","","NA"
"-111.22","56.65","FORT MCMURRAY A","3062697","2019-01-23 21:00","2019","01","23","21:00","-25.2","","-28.2","","77","","0.0","","23","","15","","16.1","","98.38","","","","-35","","NA"
"-111.22","56.65","FORT MCMURRAY A","3062697","2019-01-23 22:00","2019","01","23","22:00","-25.7","","-28.8","","76","","0.0","","21","","9","","16.1","","98.33","","","","-33","","NA"
"-111.22","56.65","FORT MCMURRAY A","3062697","2019-01-23 23:00","2019","01","23","23:00","-26.0","","-29.1","","76","","0.0","","19","","9","","16.1","","98.22","","","","-34","","NA"
"-111.22","56.65","FORT MCMURRAY A","3062697","2019-01-24 00:00","2019","01","24","00:00","-25.4","","-28.3","","77","","0.0","","18","","5","","16.1","","98.10","","","","-30","","NA"
"-111.22","56.65","FORT MCMURRAY A","3062697","2019-01-24 01:00","2019","01","24","01:00","-25.5","","-28.3","","78","","0.0","","","","0","","16.1","","98.00","","","","","","NA"
"-111.22","56.65","FORT MCMURRAY A","3062697","2019-01-24 02:00","2019","01","24","02:00","-27.6","","-30.3","","78","","0.0","","8","","8","","16.1","","97.90","","","","-35","","NA"
"-111.22","56.65","FORT MCMURRAY A","3062697","2019-01-24 03:00","2019","01","24","03:00","-29.9","","-32.9","","76","","0.0","","10","","11","","16.1","","97.75","","","","-40","","NA"
"-111.22","56.65","FORT MCMURRAY A","3062697","2019-01-24 04:00","2019","01","24","04:00","-29.6","","-32.6","","76","","0.0","","10","","8","","16.1","","97.55","","","","-38","","NA"
"-111.22","56.65","FORT MCMURRAY A","3062697","2019-01-24 05:00","2019","01","24","05:00","-29.9","","-33.0","","75","","0.0","","9","","11","","16.1","","97.45","","","","-40","","NA"
"-111.22","56.65","FORT MCMURRAY A","3062697","2019-01-24 06:00","2019","01","24","06:00","-28.0","","-31.0","","76","","0.0","","9","","13","","16.1","","97.25","","","","-38","","NA"
"-111.22","56.65","FORT MCMURRAY A","3062697","2019-01-24 07:00","2019","01","24","07:00","-27.6","","-30.8","","75","","0.0","","10","","13","","16.1","","97.17","","","","-38","","NA"
"-111.22","56.65","FORT MCMURRAY A","3062697","2019-01-24 08:00","2019","01","24","08:00","-26.8","","-30.0","","75","","0.0","","9","","11","","16.1","","97.09","","","","-36","","NA"
"-111.22","56.65","FORT MCMURRAY A","3062697","2019-01-24 09:00","2019","01","24","09:00","-25.9","","-29.1","","75","","0.0","","10","","8","","16.1","","97.07","","","","-33","","NA"
"-111.22","56.65","FORT MCMURRAY A","3062697","2019-01-24 10:00","2019","01","24","10:00","-25.7","","-28.7","","76","","0.0","","6","","5","","16.1","","97.09","","","","-31","","NA"
"-111.22","56.65","FORT MCMURRAY A","3062697","2019-01-24 11:00","2019","01","24","11:00","-23.2","","-26.3","","76","","0.0","","18","","8","","16.1","","97.14","","","","-30","","NA"
"-111.22","56.65","FORT MCMURRAY A","3062697","2019-01-24 12:00","2019","01","24","12:00","-24.3","","-27.6","","75","","0.0","","35","","4","","16.1","","97.16","","","","-28","","NA"
"-111.22","56.65","FORT MCMURRAY A","3062697","2019-01-24 13:00","2019","01","24","13:00","-22.3","","-25.8","","74","","0.0","","1","","4","","16.1","","97.20","","","","-26","","NA"
"-111.22","56.65","FORT MCMURRAY A","3062697","2019-01-24 14:00","2019","01","24","14:00","-21.5","","-25.6","","70","","0.0","","31","","5","","16.1","","97.28","","","","-26","","NA"
"-111.22","56.65","FORT MCMURRAY A","3062697","2019-01-24 15:00","2019","01","24","15:00","-21.0","","-25.0","","71","","0.0","","29","","5","","16.1","","97.37","","","","-25","","NA"
"-111.22","56.65","FORT MCMURRAY A","3062697","2019-01-24 16:00","2019","01","24","16:00","-20.8","","-24.8","","71","","0.0","","","","0","","16.1","","97.39","","","","","","NA"
"-111.22","56.65","FORT MCMURRAY A","3062697","2019-01-24 17:00","2019","01","24","17:00","-20.6","","-24.1","","74","","0.0","","","","0","","16.1","","97.42","","","","","","NA"
"-111.22","56.65","FORT MCMURRAY A","3062697","2019-01-24 18:00","2019","01","24","18:00","-20.4","","-23.9","","74","","0.0","","30","","4","","16.1","","97.51","","","","-24","","NA"
"-111.22","56.65","FORT MCMURRAY A","3062697","2019-01-24 19:00","2019","01","24","19:00","-21.4","","-24.4","","77","","0.0","","8","","5","","16.1","","97.48","","","","-26","","NA"
"-111.22","56.65","FORT MCMURRAY A","3062697","2019-01-24 20:00","2019","01","24","20:00","-21.1","","-24.7","","73","","0.0","","12","","4","","16.1","","97.45","","","","-25","","NA"
"-111.22","56.65","FORT MCMURRAY A","3062697","2019-01-24 21:00","2019","01","24","21:00","-21.0","","-24.7","","73","","0.0","","11","","9","","16.1","","97.40","","","","-28","","NA"
"-111.22","56.65","FORT MCMURRAY A","3062697","2019-01-24 22:00","2019","01","24","22:00","-20.8","","-24.3","","74","","0.0","","10","","11","","16.1","","97.29","","","","-29","","NA"
"-111.22","56.65","FORT MCMURRAY A","3062697","2019-01-24 23:00","2019","01","24","23:00","-20.3","","-23.8","","74","","0.0","","9","","9","","16.1","","97.25","","","","-27","","NA"
"-111.22","56.65","FORT MCMURRAY A","3062697","2019-01-25 00:00","2019","01","25","00:00","-21.2","","-24.7","","74","","0.0","","8","","11","","16.1","","97.30","","","","-29","","NA"
"-111.22","56.65","FORT MCMURRAY A","3062697","2019-01-25 01:00","2019","01","25","01:00","-22.7","","-26.1","","74","","0.0","","9","","11","","16.1","","97.31","","","","-31","","NA"
"-111.22","56.65","FORT MCMURRAY A","3062697","2019-01-25 02:00","2019","01","25","02:00","-24.3","","-27.6","","75","","0.0","","9","","11","","16.1","","97.26","","","","-33","","NA"
"-111.22","56.65","FORT MCMURRAY A","3062697","2019-01-25 03:00","2019","01","25","03:00","-24.0","","-27.1","","76","","0.0","","8","","11","","16.1","","97.18","","","","-32","","NA"
"-111.22","56.65","FORT MCMURRAY A","3062697","2019-01-25 04:00","2019","01","25","04:00","-23.3","","-26.6","","75","","0.0","","9","","11","","16.1","","97.12","","","","-32","","Snow"
"-111.22","56.65","FORT MCMURRAY A","3062697","2019-01-25 05:00","2019","01","25","05:00","-23.6","","-26.9","","75","","0.0","","8","","9","","16.1","","97.14","","","","-31","","Snow"
"-111.22","56.65","FORT MCMURRAY A","3062697","2019-01-25 06:00","2019","01","25","06:00","-23.5","","-26.8","","75","","0.0","","8","","9","","16.1","","97.08","","","","-31","","Snow"
"-111.22","56.65","FORT MCMURRAY A","3062697","2019-01-25 07:00","2019","01","25","07:00","-23.5","","-25.9","","81","","0.0","","9","","8","","11.3","","97.07","","","","-30","","Snow"
"-111.22","56.65","FORT MCMURRAY A","3062697","2019-01-25 08:00","2019","01","25","08:00","-23.2","","-25.2","","84","","0.0","","8","","5","","4.0","","97.07","","","","-28","","Snow"
"-111.22","56.65","FORT MCMURRAY A","3062697","2019-01-25 09:00","2019","01","25","09:00","-22.9","","-25.0","","83","","0.0","","7","","5","","1.2","","97.06","","","","-28","","Fog"
"-111.22","56.65","FORT MCMURRAY A","3062697","2019-01-25 10:00","2019","01","25","10:00","-22.4","","-24.8","","81","","0.0","","9","","5","","6.4","","97.08","","","","-27","","Snow"
"-111.22","56.65","FORT MCMURRAY A","3062697","2019-01-25 11:00","2019","01","25","11:00","-21.5","","-24.1","","80","","0.0","","8","","5","","16.1","","97.12","","","","-26","","Snow"
"-111.22","56.65","FORT MCMURRAY A","3062697","2019-01-25 12:00","2019","01","25","12:00","-19.6","","-22.1","","81","","0.0","","7","","4","","4.8","","97.17","","","","-23","","Fog"
"-111.22","56.65","FORT MCMURRAY A","3062697","2019-01-25 13:00","2019","01","25","13:00","-18.9","","-21.3","","82","","0.0","","2","","4","","0.4","","97.16","","","","-22","","Freezing Fog"
"-111.22","56.65","FORT MCMURRAY A","3062697","2019-01-25 14:00","2019","01","25","14:00","-17.9","","-20.4","","81","","0.0","","35","","5","","8.1","","97.13","","","","-22","","Fog"
"-111.22","56.65","FORT MCMURRAY A","3062697","2019-01-25 15:00","2019","01","25","15:00","-15.4","","-17.4","","85","","0.0","","","M","4","","16.1","","97.08","","","","-18","","NA"
"-111.22","56.65","FORT MCMURRAY A","3062697","2019-01-25 16:00","2019","01","25","16:00","-15.4","","-17.5","","84","","0.0","","","M","4","","16.1","","97.08","","","","-18","","NA"
"-111.22","56.65","FORT MCMURRAY A","3062697","2019-01-25 17:00","2019","01","25","17:00","-14.2","","-16.1","","85","","0.0","","9","","5","","16.1","","97.00","","","","-18","","NA"
"-111.22","56.65","FORT MCMURRAY A","3062697","2019-01-25 18:00","2019","01","25","18:00","-13.4","","-15.3","","86","","0.0","","10","","8","","14.5","","96.94","","","","-18","","NA"
"-111.22","56.65","FORT MCMURRAY A","3062697","2019-01-25 19:00","2019","01","25","19:00","-13.4","","-15.3","","86","","0.0","","8","","9","","16.1","","96.98","","","","-19","","NA"
"-111.22","56.65","FORT MCMURRAY A","3062697","2019-01-25 20:00","2019","01","25","20:00","-13.6","","-15.5","","86","","0.0","","7","","9","","16.1","","96.87","","","","-19","","NA"
"-111.22","56.65","FORT MCMURRAY A","3062697","2019-01-25 21:00","2019","01","25","21:00","-13.3","","-15.2","","86","","0.0","","9","","9","","16.1","","96.82","","","","-19","","NA"
"-111.22","56.65","FORT MCMURRAY A","3062697","2019-01-25 22:00","2019","01","25","22:00","-12.7","","-14.4","","87","","0.0","","10","","5","","16.1","","96.79","","","","-16","","NA"
"-111.22","56.65","FORT MCMURRAY A","3062697","2019-01-25 23:00","2019","01","25","23:00","-12.0","","-13.7","","88","","0.0","","9","","11","","16.1","","96.79","","","","-18","","Snow"
"-111.22","56.65","FORT MCMURRAY A","3062697","2019-01-26 00:00","2019","01","26","00:00","-11.6","","-13.2","","88","","0.0","","11","","17","","2.4","","96.75","","","","-19","","Snow"
"-111.22","56.65","FORT MCMURRAY A","3062697","2019-01-26 01:00","2019","01","26","01:00","-11.3","","-12.9","","88","","0.0","","11","","11","","4.8","","96.74","","","","-17","","Snow"
"-111.22","56.65","FORT MCMURRAY A","3062697","2019-01-26 02:00","2019","01","26","02:00","-12.5","","-14.4","","86","","0.0","","8","","17","","4.8","","96.72","","","","-20","","Snow"
"-111.22","56.65","FORT MCMURRAY A","3062697","2019-01-26 03:00","2019","01","26","03:00","-12.3","","-14.2","","86","","0.0","","8","","13","","14.5","","96.72","","","","-19","","Snow"
"-111.22","56.65","FORT MCMURRAY A","3062697","2019-01-26 04:00","2019","01","26","04:00","-10.6","","-12.4","","87","","0.0","","11","","15","","4.8","","96.70","","","","-17","","Snow"
"-111.22","56.65","FORT MCMURRAY A","3062697","2019-01-26 05:00","2019","01","26","05:00","-10.2","","-12.1","","86","","0.0","","11","","17","","4.8","","96.71","","","","-17","","Snow"
"-111.22","56.65","FORT MCMURRAY A","3062697","2019-01-26 06:00","2019","01","26","06:00","-11.9","","-13.7","","87","","0.0","","8","","11","","2.0","","96.72","","","","-18","","Snow"
"-111.22","56.65","FORT MCMURRAY A","3062697","2019-01-26 07:00","2019","01","26","07:00","-12.1","","-13.8","","87","","0.0","","7","","11","","16.1","","96.71","","","","-18","","Snow"
"-111.22","56.65","FORT MCMURRAY A","3062697","2019-01-26 08:00","2019","01","26","08:00","-12.1","","-13.9","","86","","0.0","","7","","11","","16.1","","96.68","","","","-18","","NA"
"-111.22","56.65","FORT MCMURRAY A","3062697","2019-01-26 09:00","2019","01","26","09:00","-12.3","","-14.2","","86","","0.0","","8","","13","","16.1","","96.67","","","","-19","","NA"
"-111.22","56.65","FORT MCMURRAY A","3062697","2019-01-26 10:00","2019","01","26","10:00","-11.3","","-13.3","","85","","0.0","","10","","11","","16.1","","96.67","","","","-17","","NA"
"-111.22","56.65","FORT MCMURRAY A","3062697","2019-01-26 11:00","2019","01","26","11:00","-10.3","","-12.5","","84","","0.0","","8","","9","","16.1","","96.64","","","","-15","","NA"
"-111.22","56.65","FORT MCMURRAY A","3062697","2019-01-26 12:00","2019","01","26","12:00","-9.5","","-12.0","","82","","0.0","","7","","11","","16.1","","96.60","","","","-15","","NA"
"-111.22","56.65","FORT MCMURRAY A","3062697","2019-01-26 13:00","2019","01","26","13:00","-9.3","","-12.8","","76","","0.0","","7","","13","","16.1","","96.51","","","","-15","","NA"
"-111.22","56.65","FORT MCMURRAY A","3062697","2019-01-26 14:00","2019","01","26","14:00","-7.8","","-12.0","","72","","0.0","","7","","13","","16.1","","96.46","","","","-14","","NA"
"-111.22","56.65","FORT MCMURRAY A","3062697","2019-01-26 15:00","2019","01","26","15:00","-7.3","","-11.0","","75","","0.0","","8","","13","","16.1","","96.42","","","","-13","","NA"
"-111.22","56.65","FORT MCMURRAY A","3062697","2019-01-26 16:00","2019","01","26","16:00","-7.4","","-10.6","","78","","0.0","","8","","8","","16.1","","96.37","","","","-11","","NA"
"-111.22","56.65","FORT MCMURRAY A","3062697","2019-01-26 17:00","2019","01","26","17:00","-7.8","","-11.0","","78","","0.0","","7","","8","","16.1","","96.25","","","","-12","","NA"
"-111.22","56.65","FORT MCMURRAY A","3062697","2019-01-26 18:00","2019","01","26","18:00","-7.6","","-10.5","","80","","0.0","","9","","9","","16.1","","96.14","","","","-12","","NA"
"-111.22","56.65","FORT MCMURRAY A","3062697","2019-01-26 19:00","2019","01","26","19:00","-7.3","","-9.7","","83","","0.0","","7","","8","","16.1","","96.02","","","","-11","","NA"
"-111.22","56.65","FORT MCMURRAY A","3062697","2019-01-26 20:00","2019","01","26","20:00","-6.5","","-8.3","","87","","0.0","","10","","8","","16.1","","95.89","","","","-10","","Snow"
"-111.22","56.65","FORT MCMURRAY A","3062697","2019-01-26 21:00","2019","01","26","21:00","-5.5","","-6.8","","91","","0.0","","8","","11","","8.1","","95.79","","","","-10","","Snow"
"-111.22","56.65","FORT MCMURRAY A","3062697","2019-01-26 22:00","2019","01","26","22:00","-4.7","","-5.7","","93","","0.0","","8","","9","","11.3","","95.64","","","","-9","","Snow"
"-111.22","56.65","FORT MCMURRAY A","3062697","2019-01-26 23:00","2019","01","26","23:00","-3.8","","-4.5","","95","","0.0","","8","","8","","3.2","","95.55","","","","-7","","Snow"
"-111.22","56.65","FORT MCMURRAY A","3062697","2019-01-27 00:00","2019","01","27","00:00","-5.5","","-6.6","","92","","0.0","","7","","13","","1.2","","95.54","","","","-11","","Snow"
"-111.22","56.65","FORT MCMURRAY A","3062697","2019-01-27 01:00","2019","01","27","01:00","-6.8","","-8.2","","90","","0.0","","6","","5","","0.8","","95.56","","","","-9","","Moderate Snow"
"-111.22","56.65","FORT MCMURRAY A","3062697","2019-01-27 02:00","2019","01","27","02:00","-8.0","","-9.3","","90","","2.0","","32","","5","","1.6","","95.66","","","","-11","","Snow"
"-111.22","56.65","FORT MCMURRAY A","3062697","2019-01-27 03:00","2019","01","27","03:00","-7.1","","-8.3","","91","","1.0","","30","","4","","3.2","","95.79","","","","-9","","Snow"
"-111.22","56.65","FORT MCMURRAY A","3062697","2019-01-27 04:00","2019","01","27","04:00","-4.6","","-5.6","","93","","0.0","","32","","18","","16.1","","95.94","","","","-11","","NA"
"-111.22","56.65","FORT MCMURRAY A","3062697","2019-01-27 05:00","2019","01","27","05:00","-6.0","","-7.8","","87","","0.0","","32","","24","","16.1","","96.22","","","","-13","","NA"
"-111.22","56.65","FORT MCMURRAY A","3062697","2019-01-27 06:00","2019","01","27","06:00","-9.0","","-11.2","","84","","0.0","","34","","24","","16.1","","96.50","","","","-17","","NA"
"-111.22","56.65","FORT MCMURRAY A","3062697","2019-01-27 07:00","2019","01","27","07:00","-9.0","","-11.1","","85","","0.0","","35","","21","","8.1","","96.71","","","","-17","","Snow"
"-111.22","56.65","FORT MCMURRAY A","3062697","2019-01-27 08:00","2019","01","27","08:00","-9.0","","-10.8","","87","","0.0","","30","","17","","16.1","","96.85","","","","-16","","NA"
"-111.22","56.65","FORT MCMURRAY A","3062697","2019-01-27 09:00","2019","01","27","09:00","-8.8","","-10.3","","89","","0.0","","25","","9","","6.4","","96.96","","","","-13","","Snow"
"-111.22","56.65","FORT MCMURRAY A","3062697","2019-01-27 10:00","2019","01","27","10:00","-7.8","","-9.0","","91","","0.0","","25","","13","","2.8","","97.01","","","","-14","","Snow"
"-111.22","56.65","FORT MCMURRAY A","3062697","2019-01-27 11:00","2019","01","27","11:00","-7.1","","-8.6","","89","","0.0","","28","","11","","16.1","","97.06","","","","-12","","Snow"
"-111.22","56.65","FORT MCMURRAY A","3062697","2019-01-27 12:00","2019","01","27","12:00","-6.8","","-8.2","","90","","0.0","","31","","15","","16.1","","97.20","","","","-13","","Snow"
"-111.22","56.65","FORT MCMURRAY A","3062697","2019-01-27 13:00","2019","01","27","13:00","-5.6","","-8.5","","80","","0.0","","32","","24","","16.1","","97.31","","","","-13","","Snow"
"-111.22","56.65","FORT MCMURRAY A","3062697","2019-01-27 14:00","2019","01","27","14:00","-6.7","","-9.7","","79","","0.0","","36","","22","","16.1","","97.52","","","","-14","","Snow"
"-111.22","56.65","FORT MCMURRAY A","3062697","2019-01-27 15:00","2019","01","27","15:00","-9.8","","-13.1","","77","","0.0","","34","","18","","12.9","","97.74","","","","-17","","Snow"
"-111.22","56.65","FORT MCMURRAY A","3062697","2019-01-27 16:00","2019","01","27","16:00","-11.9","","-15.4","","76","","0.0","","35","","21","","16.1","","97.96","","","","-20","","Snow"
"-111.22","56.65","FORT MCMURRAY A","3062697","2019-01-27 17:00","2019","01","27","17:00","-14.0","","-17.7","","74","","0.0","","32","","17","","16.1","","98.17","","","","-22","","NA"
"-111.22","56.65","FORT MCMURRAY A","3062697","2019-01-27 18:00","2019","01","27","18:00","-14.9","","-18.5","","75","","0.0","","33","","18","","16.1","","98.34","","","","-24","","NA"
"-111.22","56.65","FORT MCMURRAY A","3062697","2019-01-27 19:00","2019","01","27","19:00","-16.4","","-20.0","","74","","0.0","","34","","15","","16.1","","98.50","","","","-25","","NA"
"-111.22","56.65","FORT MCMURRAY A","3062697","2019-01-27 20:00","2019","01","27","20:00","-17.7","","-20.8","","77","","0.0","","30","","13","","16.1","","98.59","","","","-26","","NA"
"-111.22","56.65","FORT MCMURRAY A","3062697","2019-01-27 21:00","2019","01","27","21:00","-17.9","","-20.9","","78","","0.0","","32","","8","","16.1","","98.60","","","","-24","","NA"
"-111.22","56.65","FORT MCMURRAY A","3062697","2019-01-27 22:00","2019","01","27","22:00","-18.5","","-21.2","","80","","0.0","","31","","8","","16.1","","98.61","","","","-24","","NA"
"-111.22","56.65","FORT MCMURRAY A","3062697","2019-01-27 23:00","2019","01","27","23:00","-20.6","","-22.4","","86","","0.0","","29","","9","","16.1","","98.64","","","","-27","","NA"
"-111.22","56.65","FORT MCMURRAY A","3062697","2019-01-28 00:00","2019","01","28","00:00","-21.6","","-23.5","","85","","0.0","","32","","8","","16.1","","98.65","","","","-28","","NA"
"-111.22","56.65","FORT MCMURRAY A","3062697","2019-01-28 01:00","2019","01","28","01:00","-22.0","","-24.2","","83","","0.0","","36","","5","","16.1","","98.72","","","","-27","","NA"
"-111.22","56.65","FORT MCMURRAY A","3062697","2019-01-28 02:00","2019","01","28","02:00","-24.5","","-27.3","","78","","0.0","","29","","8","","16.1","","98.76","","","","-32","","NA"
"-111.22","56.65","FORT MCMURRAY A","3062697","2019-01-28 03:00","2019","01","28","03:00","-23.8","","-26.5","","79","","0.0","","31","","8","","16.1","","98.77","","","","-31","","NA"
"-111.22","56.65","FORT MCMURRAY A","3062697","2019-01-28 04:00","2019","01","28","04:00","-26.8","","-29.7","","77","","0.0","","26","","9","","16.1","","98.79","","","","-35","","NA"
"-111.22","56.65","FORT MCMURRAY A","3062697","2019-01-28 05:00","2019","01","28","05:00","-25.8","","-28.5","","79","","0.0","","36","","5","","16.1","","98.80","","","","-31","","NA"
"-111.22","56.65","FORT MCMURRAY A","3062697","2019-01-28 06:00","2019","01","28","06:00","-26.7","","-29.7","","76","","0.0","","32","","8","","16.1","","98.83","","","","-34","","NA"
"-111.22","56.65","FORT MCMURRAY A","3062697","2019-01-28 07:00","2019","01","28","07:00","-27.6","","-30.6","","76","","0.0","","32","","9","","6.4","","98.85","","","","-36","","Fog"
"-111.22","56.65","FORT MCMURRAY A","3062697","2019-01-28 08:00","2019","01","28","08:00","-28.7","","-32.0","","74","","0.0","","29","","8","","4.0","","98.90","","","","-36","","Haze"
"-111.22","56.65","FORT MCMURRAY A","3062697","2019-01-28 09:00","2019","01","28","09:00","-25.3","","-28.2","","77","","0.0","","32","","11","","16.1","","98.94","","","","-34","","NA"
"-111.22","56.65","FORT MCMURRAY A","3062697","2019-01-28 10:00","2019","01","28","10:00","-26.0","","-29.1","","76","","0.0","","32","","13","","16.1","","99.03","","","","-36","","NA"
"-111.22","56.65","FORT MCMURRAY A","3062697","2019-01-28 11:00","2019","01","28","11:00","-25.3","","-28.4","","76","","0.0","","28","","9","","16.1","","99.09","","","","-33","","NA"
"-111.22","56.65","FORT MCMURRAY A","3062697","2019-01-28 12:00","2019","01","28","12:00","-24.9","","-28.0","","76","","0.0","","29","","17","","16.1","","99.11","","","","-36","","NA"
"-111.22","56.65","FORT MCMURRAY A","3062697","2019-01-28 13:00","2019","01","28","13:00","-24.4","","-27.7","","75","","0.0","","31","","13","","16.1","","99.12","","","","-34","","NA"
"-111.22","56.65","FORT MCMURRAY A","3062697","2019-01-28 14:00","2019","01","28","14:00","-24.0","","-27.4","","74","","0.0","","31","","11","","16.1","","99.11","","","","-32","","NA"
"-111.22","56.65","FORT MCMURRAY A","3062697","2019-01-28 15:00","2019","01","28","15:00","-23.4","","-27.3","","71","","0.0","","30","","5","","16.1","","99.11","","","","-28","","NA"
"-111.22","56.65","FORT MCMURRAY A","3062697","2019-01-28 16:00","2019","01","28","16:00","-23.6","","-28.3","","66","","0.0","","28","","9","","16.1","","99.11","","","","-31","","NA"
"-111.22","56.65","FORT MCMURRAY A","3062697","2019-01-28 17:00","2019","01","28","17:00","-25.0","","-29.0","","70","","0.0","","35","","5","","16.1","","99.13","","","","-30","","NA"
"-111.22","56.65","FORT MCMURRAY A","3062697","2019-01-28 18:00","2019","01","28","18:00","-26.2","","-30.0","","71","","0.0","","35","","5","","16.1","","99.13","","","","-31","","NA"
"-111.22","56.65","FORT MCMURRAY A","3062697","2019-01-28 19:00","2019","01","28","19:00","-26.2","","-30.1","","70","","0.0","","","","0","","16.1","","99.15","","","","","","NA"
"-111.22","56.65","FORT MCMURRAY A","3062697","2019-01-28 20:00","2019","01","28","20:00","-25.7","","-30.7","","64","","0.0","","","","0","","16.1","","99.13","","","","","","NA"
"-111.22","56.65","FORT MCMURRAY A","3062697","2019-01-28 21:00","2019","01","28","21:00","-30.3","","-34.1","","70","","0.0","","","M","4","","16.1","","99.12","","","","-35","","NA"
"-111.22","56.65","FORT MCMURRAY A","3062697","2019-01-28 22:00","2019","01","28","22:00","-33.3","","-36.3","","75","","0.0","","21","","4","","16.1","","99.11","","","","-38","","NA"
"-111.22","56.65","FORT MCMURRAY A","3062697","2019-01-28 23:00","2019","01","28","23:00","-36.3","","-39.8","","71","","0.0","","24","","8","","16.1","","99.10","","","","-45","","NA"
"-111.22","56.65","FORT MCMURRAY A","3062697","2019-01-29 00:00","2019","01","29","00:00","-36.7","","-40.2","","71","","0.0","","19","","4","","16.1","","99.07","","","","-42","","NA"
"-111.22","56.65","FORT MCMURRAY A","3062697","2019-01-29 01:00","2019","01","29","01:00","-37.8","","-41.5","","69","","0.0","","17","","5","","16.1","","99.03","","","","-44","","NA"
"-111.22","56.65","FORT MCMURRAY A","3062697","2019-01-29 02:00","2019","01","29","02:00","-39.3","","-43.3","","67","","0.0","","19","","8","","11.3","","99.03","","","","-49","","NA"
"-111.22","56.65","FORT MCMURRAY A","3062697","2019-01-29 03:00","2019","01","29","03:00","-37.1","","-40.9","","69","","0.0","","11","","8","","16.1","","98.96","","","","-46","","NA"
"-111.22","56.65","FORT MCMURRAY A","3062697","2019-01-29 04:00","2019","01","29","04:00","-36.8","","-40.6","","69","","0.0","","12","","5","","16.1","","98.88","","","","-43","","NA"
"-111.22","56.65","FORT MCMURRAY A","3062697","2019-01-29 05:00","2019","01","29","05:00","-35.9","","-39.6","","70","","0.0","","10","","8","","16.1","","98.79","","","","-45","","NA"
"-111.22","56.65","FORT MCMURRAY A","3062697","2019-01-29 06:00","2019","01","29","06:00","-33.5","","-37.1","","71","","0.0","","10","","11","","16.1","","98.68","","","","-44","","NA"
"-111.22","56.65","FORT MCMURRAY A","3062697","2019-01-29 07:00","2019","01","29","07:00","-32.0","","-35.6","","71","","0.0","","9","","11","","16.1","","98.58","","","","-42","","NA"
"-111.22","56.65","FORT MCMURRAY A","3062697","2019-01-29 08:00","2019","01","29","08:00","-31.0","","-34.7","","71","","0.0","","12","","9","","16.1","","98.55","","","","-40","","NA"
"-111.22","56.65","FORT MCMURRAY A","3062697","2019-01-29 09:00","2019","01","29","09:00","-30.4","","-33.9","","72","","0.0","","9","","13","","16.1","","98.45","","","","-41","","NA"
"-111.22","56.65","FORT MCMURRAY A","3062697","2019-01-29 10:00","2019","01","29","10:00","-29.2","","-32.8","","72","","0.0","","8","","9","","16.1","","98.39","","","","-38","","NA"
"-111.22","56.65","FORT MCMURRAY A","3062697","2019-01-29 11:00","2019","01","29","11:00","-27.2","","-30.9","","72","","0.0","","8","","11","","16.1","","98.26","","","","-36","","NA"
"-111.22","56.65","FORT MCMURRAY A","3062697","2019-01-29 12:00","2019","01","29","12:00","-24.7","","-28.9","","69","","0.0","","8","","13","","16.1","","98.14","","","","-34","","NA"
"-111.22","56.65","FORT MCMURRAY A","3062697","2019-01-29 13:00","2019","01","29","13:00","-22.8","","-27.2","","68","","0.0","","10","","15","","16.1","","98.04","","","","-33","","NA"
"-111.22","56.65","FORT MCMURRAY A","3062697","2019-01-29 14:00","2019","01","29","14:00","-21.4","","-25.7","","69","","0.0","","11","","17","","4.8","","97.93","","","","-31","","Snow"
"-111.22","56.65","FORT MCMURRAY A","3062697","2019-01-29 15:00","2019","01","29","15:00","-20.6","","-24.9","","69","","0.0","","11","","18","","16.1","","97.81","","","","-31","","Snow"
"-111.22","56.65","FORT MCMURRAY A","3062697","2019-01-29 16:00","2019","01","29","16:00","-19.5","","-23.5","","71","","0.0","","11","","22","","12.9","","97.74","","","","-30","","Snow"
"-111.22","56.65","FORT MCMURRAY A","3062697","2019-01-29 17:00","2019","01","29","17:00","-19.0","","-22.9","","72","","0.0","","11","","22","","16.1","","97.68","","","","-30","","Snow"
"-111.22","56.65","FORT MCMURRAY A","3062697","2019-01-29 18:00","2019","01","29","18:00","-18.6","","-22.3","","73","","0.0","","11","","24","","16.1","","97.61","","","","-30","","NA"
"-111.22","56.65","FORT MCMURRAY A","3062697","2019-01-29 19:00","2019","01","29","19:00","-18.5","","-22.2","","73","","0.0","","11","","21","","16.1","","97.57","","","","-29","","NA"
"-111.22","56.65","FORT MCMURRAY A","3062697","2019-01-29 20:00","2019","01","29","20:00","-18.6","","-22.2","","74","","0.0","","11","","22","","16.1","","97.49","","","","-29","","Snow"
"-111.22","56.65","FORT MCMURRAY A","3062697","2019-01-29 21:00","2019","01","29","21:00","-19.9","","-23.4","","74","","0.0","","10","","17","","16.1","","97.46","","","","-30","","Snow"
"-111.22","56.65","FORT MCMURRAY A","3062697","2019-01-29 22:00","2019","01","29","22:00","-20.1","","-23.5","","75","","0.0","","10","","18","","16.1","","97.37","","","","-30","","Snow"
"-111.22","56.65","FORT MCMURRAY A","3062697","2019-01-29 23:00","2019","01","29","23:00","-20.3","","-23.7","","75","","0.1","","10","","17","","16.1","","97.31","","","","-30","","Snow"
"-111.22","56.65","FORT MCMURRAY A","3062697","2019-01-30 00:00","2019","01","30","00:00","-20.2","","-23.7","","74","","0.0","","11","","17","","16.1","","97.23","","","","-30","","Snow"
"-111.22","56.65","FORT MCMURRAY A","3062697","2019-01-30 01:00","2019","01","30","01:00","-20.0","","-23.5","","74","","0.0","","10","","18","","16.1","","97.17","","","","-30","","Snow"
"-111.22","56.65","FORT MCMURRAY A","3062697","2019-01-30 02:00","2019","01","30","02:00","-20.4","","-23.9","","74","","0.0","","11","","21","","16.1","","97.07","","","","-31","","Snow"
"-111.22","56.65","FORT MCMURRAY A","3062697","2019-01-30 03:00","2019","01","30","03:00","-20.9","","-24.4","","74","","0.0","","12","","22","","16.1","","96.97","","","","-32","","NA"
"-111.22","56.65","FORT MCMURRAY A","3062697","2019-01-30 04:00","2019","01","30","04:00","-20.9","","-24.4","","74","","0.0","","11","","24","","16.1","","96.88","","","","-33","","NA"
"-111.22","56.65","FORT MCMURRAY A","3062697","2019-01-30 05:00","2019","01","30","05:00","-20.3","","-23.7","","75","","0.0","","11","","26","","16.1","","96.79","","","","-32","","NA"
"-111.22","56.65","FORT MCMURRAY A","3062697","2019-01-30 06:00","2019","01","30","06:00","-20.2","","-23.4","","76","","0.0","","11","","24","","16.1","","96.74","","","","-32","","NA"
"-111.22","56.65","FORT MCMURRAY A","3062697","2019-01-30 07:00","2019","01","30","07:00","-20.3","","-23.7","","75","","0.0","","11","","26","","16.1","","96.65","","","","-32","","NA"
"-111.22","56.65","FORT MCMURRAY A","3062697","2019-01-30 08:00","2019","01","30","08:00","-20.1","","-23.3","","76","","0.0","","11","","24","","16.1","","96.55","","","","-32","","NA"
"-111.22","56.65","FORT MCMURRAY A","3062697","2019-01-30 09:00","2019","01","30","09:00","-19.8","","-23.0","","76","","0.0","","11","","22","","16.1","","96.43","","","","-31","","NA"
"-111.22","56.65","FORT MCMURRAY A","3062697","2019-01-30 10:00","2019","01","30","10:00","-18.8","","-22.1","","75","","0.0","","11","","22","","16.1","","96.41","","","","-29","","NA"
"-111.22","56.65","FORT MCMURRAY A","3062697","2019-01-30 11:00","2019","01","30","11:00","-17.3","","-20.7","","75","","0.0","","11","","24","","16.1","","96.35","","","","-28","","Snow"
"-111.22","56.65","FORT MCMURRAY A","3062697","2019-01-30 12:00","2019","01","30","12:00","-17.2","","-20.3","","77","","0.0","","12","","21","","1.6","","96.26","","","","-27","","Snow"
"-111.22","56.65","FORT MCMURRAY A","3062697","2019-01-30 13:00","2019","01","30","13:00","-17.0","","-20.4","","75","","0.0","","12","","24","","2.8","","96.17","","","","-28","","Snow"
"-111.22","56.65","FORT MCMURRAY A","3062697","2019-01-30 14:00","2019","01","30","14:00","-16.7","","-20.0","","76","","0.0","","12","","22","","2.8","","96.16","","","","-27","","Snow"
"-111.22","56.65","FORT MCMURRAY A","3062697","2019-01-30 15:00","2019","01","30","15:00","-16.2","","-19.5","","76","","0.0","","12","","26","","4.8","","96.07","","","","-27","","Snow"
"-111.22","56.65","FORT MCMURRAY A","3062697","2019-01-30 16:00","2019","01","30","16:00","-15.9","","-19.2","","76","","0.0","","12","","21","","16.1","","96.02","","","","-26","","Snow"
"-111.22","56.65","FORT MCMURRAY A","3062697","2019-01-30 17:00","2019","01","30","17:00","-15.5","","-18.7","","77","","0.0","","11","","18","","16.1","","96.07","","","","-24","","Snow"
"-111.22","56.65","FORT MCMURRAY A","3062697","2019-01-30 18:00","2019","01","30","18:00","-15.3","","-18.1","","80","","0.0","","12","","21","","4.0","","95.99","","","","-25","","Snow"
"-111.22","56.65","FORT MCMURRAY A","3062697","2019-01-30 19:00","2019","01","30","19:00","-16.6","","-19.1","","81","","0.0","","8","","17","","1.2","","96.00","","","","-25","","Snow"
"-111.22","56.65","FORT MCMURRAY A","3062697","2019-01-30 20:00","2019","01","30","20:00","-16.2","","-18.8","","81","","0.0","","9","","9","","9.7","","96.00","","","","-22","","Snow"
"-111.22","56.65","FORT MCMURRAY A","3062697","2019-01-30 21:00","2019","01","30","21:00","-16.8","","-19.5","","80","","0.0","","7","","9","","16.1","","96.00","","","","-23","","Snow"
"-111.22","56.65","FORT MCMURRAY A","3062697","2019-01-30 22:00","2019","01","30","22:00","-16.8","","-19.5","","80","","0.0","","8","","9","","14.5","","96.00","","","","-23","","Snow"
"-111.22","56.65","FORT MCMURRAY A","3062697","2019-01-30 23:00","2019","01","30","23:00","-16.8","","-19.6","","79","","0.0","","8","","8","","16.1","","96.02","","","","-22","","Snow"
"-111.22","56.65","FORT MCMURRAY A","3062697","2019-01-31 00:00","2019","01","31","00:00","-16.6","","-19.4","","79","","0.0","","9","","8","","2.4","","96.06","","","","-22","","Snow"
"-111.22","56.65","FORT MCMURRAY A","3062697","2019-01-31 01:00","2019","01","31","01:00","-16.7","","-19.2","","81","","0.0","","7","","4","","2.8","","96.06","","","","-20","","Snow"
"-111.22","56.65","FORT MCMURRAY A","3062697","2019-01-31 02:00","2019","01","31","02:00","-17.1","","-19.5","","82","","0.0","","","","0","","4.8","","96.09","","","","","","Snow"
"-111.22","56.65","FORT MCMURRAY A","3062697","2019-01-31 03:00","2019","01","31","03:00","-16.6","","-19.0","","82","","0.0","","","M","4","","6.4","","96.12","","","","-20","","Snow"
"-111.22","56.65","FORT MCMURRAY A","3062697","2019-01-31 04:00","2019","01","31","04:00","-16.9","","-19.1","","83","","0.0","","","","0","","2.0","","96.12","","","","","","Snow"
"-111.22","56.65","FORT MCMURRAY A","3062697","2019-01-31 05:00","2019","01","31","05:00","-16.8","","-19.0","","83","","0.0","","2","","4","","16.1","","96.10","","","","-20","","Snow"
"-111.22","56.65","FORT MCMURRAY A","3062697","2019-01-31 06:00","2019","01","31","06:00","-17.1","","-19.3","","83","","0.0","","29","","5","","2.8","","96.15","","","","-21","","Snow"
"-111.22","56.65","FORT MCMURRAY A","3062697","2019-01-31 07:00","2019","01","31","07:00","-16.6","","-18.9","","83","","0.0","","32","","15","","8.1","","96.18","","","","-25","","Snow"
"-111.22","56.65","FORT MCMURRAY A","3062697","2019-01-31 08:00","2019","01","31","08:00","-17.0","","-19.8","","79","","0.0","","31","","13","","11.3","","96.26","","","","-25","","Snow"
"-111.22","56.65","FORT MCMURRAY A","3062697","2019-01-31 09:00","2019","01","31","09:00","-17.4","","-20.5","","77","","0.0","","33","","13","","12.9","","96.28","","","","-25","","Snow"
"-111.22","56.65","FORT MCMURRAY A","3062697","2019-01-31 10:00","2019","01","31","10:00","-17.8","","-21.1","","76","","0.0","","31","","15","","16.1","","96.37","","","","-26","","NA"
"-111.22","56.65","FORT MCMURRAY A","3062697","2019-01-31 11:00","2019","01","31","11:00","-18.5","","-21.8","","76","","0.0","","31","","15","","16.1","","96.48","","","","-27","","Snow"
"-111.22","56.65","FORT MCMURRAY A","3062697","2019-01-31 12:00","2019","01","31","12:00","-18.3","","-22.4","","71","","0.0","","36","","15","","9.7","","96.56","","","","-27","","Snow"
"-111.22","56.65","FORT MCMURRAY A","3062697","2019-01-31 13:00","2019","01","31","13:00","-19.0","","-23.7","","67","","0.0","","33","","15","","16.1","","96.62","","","","-28","","NA"
"-111.22","56.65","FORT MCMURRAY A","3062697","2019-01-31 14:00","2019","01","31","14:00","-19.3","","-24.2","","66","","0.0","","35","","4","","16.1","","96.63","","","","-23","","NA"
"-111.22","56.65","FORT MCMURRAY A","3062697","2019-01-31 15:00","2019","01","31","15:00","-18.8","","-23.4","","68","","0.0","","29","","11","","16.1","","96.70","","","","-26","","NA"
"-111.22","56.65","FORT MCMURRAY A","3062697","2019-01-31 16:00","2019","01","31","16:00","-18.9","","-23.3","","69","","0.0","","31","","11","","16.1","","96.77","","","","-26","","NA"
"-111.22","56.65","FORT MCMURRAY A","3062697","2019-01-31 17:00","2019","01","31","17:00","-19.0","","-23.1","","71","","0.0","","29","","9","","16.1","","96.82","","","","-26","","NA"
"-111.22","56.65","FORT MCMURRAY A","3062697","2019-01-31 18:00","2019","01","31","18:00","-19.0","","-22.6","","74","","0.0","","31","","8","","14.5","","96.84","","","","-25","","Snow"
"-111.22","56.65","FORT MCMURRAY A","3062697","2019-01-31 19:00","2019","01","31","19:00","-18.9","","-22.5","","74","","0.0","","32","","9","","16.1","","96.89","","","","-25","","Snow"
"-111.22","56.65","FORT MCMURRAY A","3062697","2019-01-31 20:00","2019","01","31","20:00","-19.0","","-22.2","","76","","0.0","","31","","9","","16.1","","96.94","","","","-26","","Snow"
"-111.22","56.65","FORT MCMURRAY A","3062697","2019-01-31 21:00","2019","01","31","21:00","-19.1","","-22.3","","76","","0.0","","31","","9","","12.9","","97.05","","","","-26","","Snow"
"-111.22","56.65","FORT MCMURRAY A","3062697","2019-01-31 22:00","2019","01","31","22:00","-19.8","","-22.6","","79","","0.0","","32","","9","","8.1","","97.09","","","","-27","","Snow"
"-111.22","56.65","FORT MCMURRAY A","3062697","2019-01-31 23:00","2019","01","31","23:00","-20.2","","-23.1","","78","","0.0","","31","","13","","16.1","","97.19","","","","-29","","NA"
