"Longitude (x)","Latitude (y)","Station Name","Climate ID","Date/Time (LST)","Year","Month","Day","Time (LST)","Temp (°C)","Temp Flag","Dew Point Temp (°C)","Dew Point Temp Flag","Rel Hum (%)","Rel Hum Flag","Precip. Amount (mm)","Precip. Amount Flag","Wind Dir (10s deg)","Wind Dir Flag","Wind Spd (km/h)","Wind Spd Flag","Visibility (km)","Visibility Flag","Stn Press (kPa)","Stn Press Flag","Hmdx","Hmdx Flag","Wind Chill","Wind Chill Flag","Weather"
"-80.05","42.53","LONG POINT (AUT)","6134F10","2018-04-01 00:00","2018","04","01","00:00","2.6","","-0.7","","79","","","M","27","","55","","","","99.06","","","","","","NA"
"-80.05","42.53","LONG POINT (AUT)","6134F10","2018-04-01 01:00","2018","04","01","01:00","2.0","","-1.9","","76","","","M","26","","47","","","","99.22","","","","","","NA"
"-80.05","42.53","LONG POINT (AUT)","6134F10","2018-04-01 02:00","2018","04","01","02:00","0.1","","-5.4","","67","","","M","28","","53","","","","99.38","","","","","","NA"
"-80.05","42.53","LONG POINT (AUT)","6134F10","2018-04-01 03:00","2018","04","01","03:00","-0.3","","-5.8","","66","","","M","27","","35","","","","99.56","","","","-7","","NA"
"-80.05","42.53","LONG POINT (AUT)","6134F10","2018-04-01 04:00","2018","04","01","04:00","-0.5","","-6.4","","64","","","M","27","","30","","","","99.63","","","","-7","","NA"
"-80.05","42.53","LONG POINT (AUT)","6134F10","2018-04-01 05:00","2018","04","01","05:00","-0.5","","-8.1","","57","","","M","26","","28","","","","99.70","","","","-7","","NA"
"-80.05","42.53","LONG POINT (AUT)","6134F10","2018-04-01 06:00","2018","04","01","06:00","-0.6","","-7.3","","60","","","M","25","","31","","","","99.77","","","","-7","","NA"
"-80.05","42.53","LONG POINT (AUT)","6134F10","2018-04-01 07:00","2018","04","01","07:00","-1.0","","-7.6","","61","","","M","28","","29","","","","99.84","","","","-8","","NA"
"-80.05","42.53","LONG POINT (AUT)","6134F10","2018-04-01 08:00","2018","04","01","08:00","-1.9","","-8.7","","60","","","M","27","","28","","","","99.93","","","","-9","","NA"
"-80.05","42.53","LONG POINT (AUT)","6134F10","2018-04-01 09:00","2018","04","01","09:00","-1.9","","-8.7","","60","","","M","27","","17","","","","99.98","","","","-7","","NA"
"-80.05","42.53","LONG POINT (AUT)","6134F10","2018-04-01 10:00","2018","04","01","10:00","-1.5","","-9.5","","54","","","M","26","","19","","","","100.03","","","","-7","","NA"
"-80.05","42.53","LONG POINT (AUT)","6134F10","2018-04-01 11:00","2018","04","01","11:00","-0.7","","-8.4","","56","","","M","24","","16","","","","100.05","","","","-5","","NA"
"-80.05","42.53","LONG POINT (AUT)","6134F10","2018-04-01 12:00","2018","04","01","12:00","-1.2","","-7.7","","61","","","M","19","","28","","","","100.03","","","","-8","","NA"
"-80.05","42.53","LONG POINT (AUT)","6134F10","2018-04-01 13:00","2018","04","01","13:00","-1.1","","-7.0","","64","","","M","20","","31","","","","99.99","","","","-8","","NA"
"-80.05","42.53","LONG POINT (AUT)","6134F10","2018-04-01 14:00","2018","04","01","14:00","-0.7","","-6.2","","66","","","M","20","","31","","","","99.96","","","","-7","","NA"
"-80.05","42.53","LONG POINT (AUT)","6134F10","2018-04-01 15:00","2018","04","01","15:00","-0.3","","-6.3","","64","","","M","20","","30","","","","99.96","","","","-7","","NA"
"-80.05","42.53","LONG POINT (AUT)","6134F10","2018-04-01 16:00","2018","04","01","16:00","-0.5","","-5.4","","69","","","M","19","","31","","","","99.95","","","","-7","","NA"
"-80.05","42.53","LONG POINT (AUT)","6134F10","2018-04-01 17:00","2018","04","01","17:00","-0.7","","-5.7","","69","","","M","18","","33","","","","99.91","","","","-8","","NA"
"-80.05","42.53","LONG POINT (AUT)","6134F10","2018-04-01 18:00","2018","04","01","18:00","-0.5","","-5.4","","70","","","M","18","","25","","","","99.89","","","","-7","","NA"
"-80.05","42.53","LONG POINT (AUT)","6134F10","2018-04-01 19:00","2018","04","01","19:00","-0.5","","-5.3","","70","","","M","19","","19","","","","99.82","","","","-6","","NA"
"-80.05","42.53","LONG POINT (AUT)","6134F10","2018-04-01 20:00","2018","04","01","20:00","-0.5","","-4.9","","72","","","M","16","","16","","","","99.79","","","","-5","","NA"
"-80.05","42.53","LONG POINT (AUT)","6134F10","2018-04-01 21:00","2018","04","01","21:00","-0.4","","-5.2","","70","","","M","17","","12","","","","99.80","","","","-4","","NA"
"-80.05","42.53","LONG POINT (AUT)","6134F10","2018-04-01 22:00","2018","04","01","22:00","-0.5","","-4.5","","74","","","M","14","","8","","","","99.76","","","","-3","","NA"
"-80.05","42.53","LONG POINT (AUT)","6134F10","2018-04-01 23:00","2018","04","01","23:00","-0.4","","-5.9","","66","","","M","12","","2","","","","99.71","","","","-1","","NA"
"-80.05","42.53","LONG POINT (AUT)","6134F10","2018-04-02 00:00","2018","04","02","00:00","-0.3","","-4.3","","75","","","M","11","","13","","","","99.67","","","","-4","","NA"
"-80.05","42.53","LONG POINT (AUT)","6134F10","2018-04-02 01:00","2018","04","02","01:00","-0.1","","-5.1","","69","","","M","12","","16","","","","99.64","","","","-5","","NA"
"-80.05","42.53","LONG POINT (AUT)","6134F10","2018-04-02 02:00","2018","04","02","02:00","-0.2","","-4.2","","74","","","M","11","","9","","","","99.61","","","","-3","","NA"
"-80.05","42.53","LONG POINT (AUT)","6134F10","2018-04-02 03:00","2018","04","02","03:00","-0.1","","-3.6","","77","","","M","12","","6","","","","99.61","","","","-2","","NA"
"-80.05","42.53","LONG POINT (AUT)","6134F10","2018-04-02 04:00","2018","04","02","04:00","-0.1","","-3.8","","76","","","M","14","","7","","","","99.62","","","","-3","","NA"
"-80.05","42.53","LONG POINT (AUT)","6134F10","2018-04-02 05:00","2018","04","02","05:00","-0.2","","-4.1","","75","","","M","18","","7","","","","99.69","","","","-3","","NA"
"-80.05","42.53","LONG POINT (AUT)","6134F10","2018-04-02 06:00","2018","04","02","06:00","-0.4","","-3.6","","79","","","M","23","","4","","","","99.71","","","","-2","","NA"
"-80.05","42.53","LONG POINT (AUT)","6134F10","2018-04-02 07:00","2018","04","02","07:00","-0.3","","-4.2","","75","","","M","29","","18","","","","99.76","","","","-5","","NA"
"-80.05","42.53","LONG POINT (AUT)","6134F10","2018-04-02 08:00","2018","04","02","08:00","-0.4","","-5.0","","71","","","M","28","","15","","","","99.82","","","","-5","","NA"
"-80.05","42.53","LONG POINT (AUT)","6134F10","2018-04-02 09:00","2018","04","02","09:00","-0.6","","-5.1","","72","","","M","29","","14","","","","99.86","","","","-5","","NA"
"-80.05","42.53","LONG POINT (AUT)","6134F10","2018-04-02 10:00","2018","04","02","10:00","-0.3","","-5.3","","69","","","M","28","","9","","","","99.89","","","","-3","","NA"
"-80.05","42.53","LONG POINT (AUT)","6134F10","2018-04-02 11:00","2018","04","02","11:00","0.5","","-4.7","","68","","","M","19","","9","","","","99.91","","","","","","NA"
"-80.05","42.53","LONG POINT (AUT)","6134F10","2018-04-02 12:00","2018","04","02","12:00","0.0","","-5.7","","66","","","M","18","","20","","","","99.86","","","","-5","","NA"
"-80.05","42.53","LONG POINT (AUT)","6134F10","2018-04-02 13:00","2018","04","02","13:00","0.1","","-6.3","","62","","","M","19","","23","","","","99.89","","","","","","NA"
"-80.05","42.53","LONG POINT (AUT)","6134F10","2018-04-02 14:00","2018","04","02","14:00","-0.2","","-5.9","","65","","","M","19","","29","","","","99.85","","","","-7","","NA"
"-80.05","42.53","LONG POINT (AUT)","6134F10","2018-04-02 15:00","2018","04","02","15:00","0.4","","-5.7","","64","","","M","20","","23","","","","99.77","","","","","","NA"
"-80.05","42.53","LONG POINT (AUT)","6134F10","2018-04-02 16:00","2018","04","02","16:00","1.9","","-8.4","","46","","","M","21","","18","","","","99.74","","","","","","NA"
"-80.05","42.53","LONG POINT (AUT)","6134F10","2018-04-02 17:00","2018","04","02","17:00","2.3","","-11.5","","35","","","M","25","","19","","","","99.73","","","","","","NA"
"-80.05","42.53","LONG POINT (AUT)","6134F10","2018-04-02 18:00","2018","04","02","18:00","2.3","","-12.4","","33","","","M","27","","14","","","","99.70","","","","","","NA"
"-80.05","42.53","LONG POINT (AUT)","6134F10","2018-04-02 19:00","2018","04","02","19:00","0.5","","-4.7","","68","","","M","15","","19","","","","99.73","","","","","","NA"
"-80.05","42.53","LONG POINT (AUT)","6134F10","2018-04-02 20:00","2018","04","02","20:00","-0.2","","-3.7","","77","","","M","13","","14","","","","99.68","","","","-4","","NA"
"-80.05","42.53","LONG POINT (AUT)","6134F10","2018-04-02 21:00","2018","04","02","21:00","-0.2","","-4.1","","75","","","M","13","","17","","","","99.69","","","","-5","","NA"
"-80.05","42.53","LONG POINT (AUT)","6134F10","2018-04-02 22:00","2018","04","02","22:00","0.4","","-6.8","","58","","","M","11","","22","","","","99.56","","","","","","NA"
"-80.05","42.53","LONG POINT (AUT)","6134F10","2018-04-02 23:00","2018","04","02","23:00","0.9","","-6.0","","60","","","M","11","","11","","","","99.62","","","","","","NA"
"-80.05","42.53","LONG POINT (AUT)","6134F10","2018-04-03 00:00","2018","04","03","00:00","1.9","","-7.5","","50","","","M","5","","5","","","","99.60","","","","","","NA"
"-80.05","42.53","LONG POINT (AUT)","6134F10","2018-04-03 01:00","2018","04","03","01:00","1.7","","-6.1","","56","","","M","4","","12","","","","99.53","","","","","","NA"
"-80.05","42.53","LONG POINT (AUT)","6134F10","2018-04-03 02:00","2018","04","03","02:00","0.8","","-2.8","","77","","","M","1","","16","","","","99.53","","","","","","NA"
"-80.05","42.53","LONG POINT (AUT)","6134F10","2018-04-03 03:00","2018","04","03","03:00","0.9","","-3.2","","74","","","M","2","","27","","","","99.36","","","","","","NA"
"-80.05","42.53","LONG POINT (AUT)","6134F10","2018-04-03 04:00","2018","04","03","04:00","0.9","","-2.6","","77","","","M","4","","26","","","","99.29","","","","","","NA"
"-80.05","42.53","LONG POINT (AUT)","6134F10","2018-04-03 05:00","2018","04","03","05:00","1.1","","-3.2","","73","","","M","4","","27","","","","99.20","","","","","","NA"
"-80.05","42.53","LONG POINT (AUT)","6134F10","2018-04-03 06:00","2018","04","03","06:00","1.1","","-3.2","","73","","","M","2","","29","","","","99.13","","","","","","NA"
"-80.05","42.53","LONG POINT (AUT)","6134F10","2018-04-03 07:00","2018","04","03","07:00","1.0","","-2.7","","76","","","M","3","","28","","","","99.15","","","","","","NA"
"-80.05","42.53","LONG POINT (AUT)","6134F10","2018-04-03 08:00","2018","04","03","08:00","1.3","","-3.1","","72","","","M","3","","29","","","","99.12","","","","","","NA"
"-80.05","42.53","LONG POINT (AUT)","6134F10","2018-04-03 09:00","2018","04","03","09:00","1.3","","-2.8","","74","","","M","1","","32","","","","99.05","","","","","","NA"
"-80.05","42.53","LONG POINT (AUT)","6134F10","2018-04-03 10:00","2018","04","03","10:00","1.4","","-2.0","","78","","","M","2","","34","","","","99.01","","","","","","NA"
"-80.05","42.53","LONG POINT (AUT)","6134F10","2018-04-03 11:00","2018","04","03","11:00","1.1","","-1.3","","85","","","M","3","","33","","","","98.92","","","","","","NA"
"-80.05","42.53","LONG POINT (AUT)","6134F10","2018-04-03 12:00","2018","04","03","12:00","1.0","","0.1","","94","","","M","3","","31","","","","98.87","","","","","","NA"
"-80.05","42.53","LONG POINT (AUT)","6134F10","2018-04-03 13:00","2018","04","03","13:00","1.1","","0.4","","96","","","M","2","","34","","","","98.75","","","","","","NA"
"-80.05","42.53","LONG POINT (AUT)","6134F10","2018-04-03 14:00","2018","04","03","14:00","1.5","","1.0","","96","","","M","2","","34","","","","98.63","","","","","","NA"
"-80.05","42.53","LONG POINT (AUT)","6134F10","2018-04-03 15:00","2018","04","03","15:00","1.9","","1.4","","97","","","M","1","","32","","","","98.55","","","","","","NA"
"-80.05","42.53","LONG POINT (AUT)","6134F10","2018-04-03 16:00","2018","04","03","16:00","2.4","","1.9","","97","","","M","2","","36","","","","98.40","","","","","","NA"
"-80.05","42.53","LONG POINT (AUT)","6134F10","2018-04-03 17:00","2018","04","03","17:00","2.7","","2.3","","97","","","M","1","","40","","","","98.19","","","","","","NA"
"-80.05","42.53","LONG POINT (AUT)","6134F10","2018-04-03 18:00","2018","04","03","18:00","3.0","","2.5","","97","","","M","1","","35","","","","98.10","","","","","","NA"
"-80.05","42.53","LONG POINT (AUT)","6134F10","2018-04-03 19:00","2018","04","03","19:00","3.0","","2.6","","97","","","M","1","","35","","","","97.95","","","","","","NA"
"-80.05","42.53","LONG POINT (AUT)","6134F10","2018-04-03 20:00","2018","04","03","20:00","5.7","","5.2","","97","","","M","6","","38","","","","97.76","","","","","","NA"
"-80.05","42.53","LONG POINT (AUT)","6134F10","2018-04-03 21:00","2018","04","03","21:00","3.6","","3.2","","97","","","M","2","","41","","","","97.60","","","","","","NA"
"-80.05","42.53","LONG POINT (AUT)","6134F10","2018-04-03 22:00","2018","04","03","22:00","3.5","","3.1","","97","","","M","35","","32","","","","97.59","","","","","","NA"
"-80.05","42.53","LONG POINT (AUT)","6134F10","2018-04-03 23:00","2018","04","03","23:00","3.7","","3.3","","97","","","M","5","","14","","","","97.55","","","","","","NA"
"-80.05","42.53","LONG POINT (AUT)","6134F10","2018-04-04 00:00","2018","04","04","00:00","4.7","","4.3","","97","","","M","36","","24","","","","97.51","","","","","","NA"
"-80.05","42.53","LONG POINT (AUT)","6134F10","2018-04-04 01:00","2018","04","04","01:00","8.0","","7.4","","96","","","M","10","","23","","","","97.28","","","","","","NA"
"-80.05","42.53","LONG POINT (AUT)","6134F10","2018-04-04 02:00","2018","04","04","02:00","9.5","","8.9","","96","","","M","15","","56","","","","97.00","","","","","","NA"
"-80.05","42.53","LONG POINT (AUT)","6134F10","2018-04-04 03:00","2018","04","04","03:00","6.1","","5.4","","95","","","M","20","","51","","","","97.18","","","","","","NA"
"-80.05","42.53","LONG POINT (AUT)","6134F10","2018-04-04 04:00","2018","04","04","04:00","3.7","","3.0","","95","","","M","21","","58","","","","97.27","","","","","","NA"
"-80.05","42.53","LONG POINT (AUT)","6134F10","2018-04-04 05:00","2018","04","04","05:00","3.2","","2.6","","96","","","M","21","","52","","","","97.38","","","","","","NA"
"-80.05","42.53","LONG POINT (AUT)","6134F10","2018-04-04 06:00","2018","04","04","06:00","2.8","","1.9","","94","","","M","20","","67","","","","97.52","","","","","","NA"
"-80.05","42.53","LONG POINT (AUT)","6134F10","2018-04-04 07:00","2018","04","04","07:00","3.2","","0.2","","81","","","M","20","","71","","","","97.57","","","","","","NA"
"-80.05","42.53","LONG POINT (AUT)","6134F10","2018-04-04 08:00","2018","04","04","08:00","2.9","","0.3","","83","","","M","19","","70","","","","97.63","","","","","","NA"
"-80.05","42.53","LONG POINT (AUT)","6134F10","2018-04-04 09:00","2018","04","04","09:00","2.8","","-0.4","","80","","","M","19","","75","","","","97.69","","","","","","NA"
"-80.05","42.53","LONG POINT (AUT)","6134F10","2018-04-04 10:00","2018","04","04","10:00","2.8","","-1.4","","74","","","M","20","","75","","","","97.84","","","","","","NA"
"-80.05","42.53","LONG POINT (AUT)","6134F10","2018-04-04 11:00","2018","04","04","11:00","0.9","","-1.9","","81","","","M","21","","70","","","","98.05","","","","","","NA"
"-80.05","42.53","LONG POINT (AUT)","6134F10","2018-04-04 12:00","2018","04","04","12:00","1.6","","-2.5","","74","","","M","21","","67","","","","98.16","","","","","","NA"
"-80.05","42.53","LONG POINT (AUT)","6134F10","2018-04-04 13:00","2018","04","04","13:00","1.2","","-3.7","","70","","","M","22","","68","","","","98.33","","","","","","NA"
"-80.05","42.53","LONG POINT (AUT)","6134F10","2018-04-04 14:00","2018","04","04","14:00","0.5","","-2.7","","79","","","M","22","","66","","","","98.52","","","","","","NA"
"-80.05","42.53","LONG POINT (AUT)","6134F10","2018-04-04 15:00","2018","04","04","15:00","0.3","","-2.6","","81","","","M","22","","55","","","","98.67","","","","","","NA"
"-80.05","42.53","LONG POINT (AUT)","6134F10","2018-04-04 16:00","2018","04","04","16:00","0.6","","-3.7","","73","","","M","23","","56","","","","98.81","","","","","","NA"
"-80.05","42.53","LONG POINT (AUT)","6134F10","2018-04-04 17:00","2018","04","04","17:00","0.5","","-3.7","","73","","","M","22","","41","","","","98.94","","","","","","NA"
"-80.05","42.53","LONG POINT (AUT)","6134F10","2018-04-04 18:00","2018","04","04","18:00","-1.6","","-3.9","","84","","","M","25","","67","","","","99.18","","","","-11","","NA"
"-80.05","42.53","LONG POINT (AUT)","6134F10","2018-04-04 19:00","2018","04","04","19:00","-0.1","","-6.3","","63","","","M","24","","59","","","","99.32","","","","-9","","NA"
"-80.05","42.53","LONG POINT (AUT)","6134F10","2018-04-04 20:00","2018","04","04","20:00","-0.8","","-7.7","","60","","","M","25","","48","","","","99.48","","","","-9","","NA"
"-80.05","42.53","LONG POINT (AUT)","6134F10","2018-04-04 21:00","2018","04","04","21:00","-1.2","","-7.1","","64","","","M","25","","53","","","","99.64","","","","-10","","NA"
"-80.05","42.53","LONG POINT (AUT)","6134F10","2018-04-04 22:00","2018","04","04","22:00","-0.9","","-7.6","","60","","","M","24","","45","","","","99.70","","","","-9","","NA"
"-80.05","42.53","LONG POINT (AUT)","6134F10","2018-04-04 23:00","2018","04","04","23:00","-1.1","","-6.4","","67","","","M","24","","38","","","","99.71","","","","-9","","NA"
"-80.05","42.53","LONG POINT (AUT)","6134F10","2018-04-05 00:00","2018","04","05","00:00","-1.5","","-6.8","","67","","","M","25","","47","","","","99.78","","","","-10","","NA"
"-80.05","42.53","LONG POINT (AUT)","6134F10","2018-04-05 01:00","2018","04","05","01:00","-1.6","","-8.2","","61","","","M","27","","44","","","","99.77","","","","-10","","NA"
"-80.05","42.53","LONG POINT (AUT)","6134F10","2018-04-05 02:00","2018","04","05","02:00","-1.9","","-11.2","","49","","","M","25","","49","","","","99.84","","","","-11","","NA"
"-80.05","42.53","LONG POINT (AUT)","6134F10","2018-04-05 03:00","2018","04","05","03:00","-2.1","","-10.2","","54","","","M","24","","35","","","","99.85","","","","-10","","NA"
"-80.05","42.53","LONG POINT (AUT)","6134F10","2018-04-05 04:00","2018","04","05","04:00","-2.3","","-10.2","","55","","","M","23","","26","","","","99.85","","","","-9","","NA"
"-80.05","42.53","LONG POINT (AUT)","6134F10","2018-04-05 05:00","2018","04","05","05:00","-2.3","","-10.3","","54","","","M","22","","24","","","","99.86","","","","-9","","NA"
"-80.05","42.53","LONG POINT (AUT)","6134F10","2018-04-05 06:00","2018","04","05","06:00","-2.1","","-10.5","","53","","","M","23","","28","","","","99.87","","","","-9","","NA"
"-80.05","42.53","LONG POINT (AUT)","6134F10","2018-04-05 07:00","2018","04","05","07:00","-2.0","","-11.0","","50","","","M","23","","26","","","","99.90","","","","-9","","NA"
"-80.05","42.53","LONG POINT (AUT)","6134F10","2018-04-05 08:00","2018","04","05","08:00","-1.7","","-9.0","","57","","","M","24","","32","","","","99.93","","","","-9","","NA"
"-80.05","42.53","LONG POINT (AUT)","6134F10","2018-04-05 09:00","2018","04","05","09:00","-1.3","","-10.0","","52","","","M","25","","32","","","","99.93","","","","-8","","NA"
"-80.05","42.53","LONG POINT (AUT)","6134F10","2018-04-05 10:00","2018","04","05","10:00","-1.2","","-10.3","","50","","","M","21","","30","","","","99.96","","","","-8","","NA"
"-80.05","42.53","LONG POINT (AUT)","6134F10","2018-04-05 11:00","2018","04","05","11:00","-0.5","","-10.3","","48","","","M","21","","33","","","","99.95","","","","-7","","NA"
"-80.05","42.53","LONG POINT (AUT)","6134F10","2018-04-05 12:00","2018","04","05","12:00","-0.6","","-8.4","","56","","","M","21","","34","","","","99.94","","","","-8","","NA"
"-80.05","42.53","LONG POINT (AUT)","6134F10","2018-04-05 13:00","2018","04","05","13:00","-0.6","","-6.1","","67","","","M","20","","32","","","","99.92","","","","-7","","NA"
"-80.05","42.53","LONG POINT (AUT)","6134F10","2018-04-05 14:00","2018","04","05","14:00","-0.1","","-8.4","","54","","","M","21","","39","","","","99.91","","","","-7","","NA"
"-80.05","42.53","LONG POINT (AUT)","6134F10","2018-04-05 15:00","2018","04","05","15:00","0.5","","-8.3","","52","","","M","21","","36","","","","99.87","","","","","","NA"
"-80.05","42.53","LONG POINT (AUT)","6134F10","2018-04-05 16:00","2018","04","05","16:00","0.4","","-6.5","","60","","","M","20","","34","","","","99.80","","","","","","NA"
"-80.05","42.53","LONG POINT (AUT)","6134F10","2018-04-05 17:00","2018","04","05","17:00","0.3","","-6.5","","61","","","M","20","","38","","","","99.79","","","","","","NA"
"-80.05","42.53","LONG POINT (AUT)","6134F10","2018-04-05 18:00","2018","04","05","18:00","0.5","","-7.3","","56","","","M","20","","34","","","","99.77","","","","","","NA"
"-80.05","42.53","LONG POINT (AUT)","6134F10","2018-04-05 19:00","2018","04","05","19:00","0.6","","-5.8","","62","","","M","20","","21","","","","99.70","","","","","","NA"
"-80.05","42.53","LONG POINT (AUT)","6134F10","2018-04-05 20:00","2018","04","05","20:00","0.6","","-6.9","","57","","","M","23","","9","","","","99.62","","","","","","NA"
"-80.05","42.53","LONG POINT (AUT)","6134F10","2018-04-05 21:00","2018","04","05","21:00","0.3","","-4.3","","71","","","M","13","","18","","","","99.59","","","","","","NA"
"-80.05","42.53","LONG POINT (AUT)","6134F10","2018-04-05 22:00","2018","04","05","22:00","0.4","","-3.1","","77","","","M","13","","19","","","","99.56","","","","","","NA"
"-80.05","42.53","LONG POINT (AUT)","6134F10","2018-04-05 23:00","2018","04","05","23:00","0.3","","-3.5","","76","","","M","12","","17","","","","99.51","","","","","","NA"
"-80.05","42.53","LONG POINT (AUT)","6134F10","2018-04-06 00:00","2018","04","06","00:00","0.5","","-3.6","","74","","","M","13","","24","","","","99.43","","","","","","NA"
"-80.05","42.53","LONG POINT (AUT)","6134F10","2018-04-06 01:00","2018","04","06","01:00","0.7","","-3.1","","76","","","M","14","","32","","","","99.35","","","","","","NA"
"-80.05","42.53","LONG POINT (AUT)","6134F10","2018-04-06 02:00","2018","04","06","02:00","1.1","","-2.0","","79","","","M","16","","25","","","","99.29","","","","","","NA"
"-80.05","42.53","LONG POINT (AUT)","6134F10","2018-04-06 03:00","2018","04","06","03:00","1.6","","-3.0","","72","","","M","15","","35","","","","99.17","","","","","","NA"
"-80.05","42.53","LONG POINT (AUT)","6134F10","2018-04-06 04:00","2018","04","06","04:00","1.5","","-2.6","","74","","","M","14","","30","","","","99.03","","","","","","NA"
"-80.05","42.53","LONG POINT (AUT)","6134F10","2018-04-06 05:00","2018","04","06","05:00","0.6","","-1.1","","88","","","M","15","","32","","","","98.95","","","","","","NA"
"-80.05","42.53","LONG POINT (AUT)","6134F10","2018-04-06 06:00","2018","04","06","06:00","-0.3","","-0.9","","96","","","M","13","","29","","","","98.85","","","","-7","","NA"
"-80.05","42.53","LONG POINT (AUT)","6134F10","2018-04-06 07:00","2018","04","06","07:00","-0.1","","-0.6","","97","","","M","11","","21","","","","98.73","","","","-6","","NA"
"-80.05","42.53","LONG POINT (AUT)","6134F10","2018-04-06 08:00","2018","04","06","08:00","0.0","","-0.4","","97","","","M","11","","20","","","","98.56","","","","-5","","NA"
"-80.05","42.53","LONG POINT (AUT)","6134F10","2018-04-06 09:00","2018","04","06","09:00","0.4","","0.0","","97","","","M","16","","24","","","","98.47","","","","","","NA"
"-80.05","42.53","LONG POINT (AUT)","6134F10","2018-04-06 10:00","2018","04","06","10:00","2.2","","1.8","","97","","","M","18","","41","","","","98.38","","","","","","NA"
"-80.05","42.53","LONG POINT (AUT)","6134F10","2018-04-06 11:00","2018","04","06","11:00","3.0","","1.6","","91","","","M","21","","39","","","","98.41","","","","","","NA"
"-80.05","42.53","LONG POINT (AUT)","6134F10","2018-04-06 12:00","2018","04","06","12:00","2.9","","1.1","","88","","","M","21","","40","","","","98.41","","","","","","NA"
"-80.05","42.53","LONG POINT (AUT)","6134F10","2018-04-06 13:00","2018","04","06","13:00","2.7","","1.2","","90","","","M","20","","41","","","","98.41","","","","","","NA"
"-80.05","42.53","LONG POINT (AUT)","6134F10","2018-04-06 14:00","2018","04","06","14:00","2.3","","0.8","","90","","","M","19","","47","","","","98.41","","","","","","NA"
"-80.05","42.53","LONG POINT (AUT)","6134F10","2018-04-06 15:00","2018","04","06","15:00","2.8","","0.0","","82","","","M","20","","50","","","","98.37","","","","","","NA"
"-80.05","42.53","LONG POINT (AUT)","6134F10","2018-04-06 16:00","2018","04","06","16:00","3.3","","-0.3","","77","","","M","20","","51","","","","98.41","","","","","","NA"
"-80.05","42.53","LONG POINT (AUT)","6134F10","2018-04-06 17:00","2018","04","06","17:00","3.4","","-1.2","","72","","","M","21","","50","","","","98.47","","","","","","NA"
"-80.05","42.53","LONG POINT (AUT)","6134F10","2018-04-06 18:00","2018","04","06","18:00","2.3","","-0.8","","80","","","M","20","","55","","","","98.53","","","","","","NA"
"-80.05","42.53","LONG POINT (AUT)","6134F10","2018-04-06 19:00","2018","04","06","19:00","2.3","","-3.6","","65","","","M","23","","39","","","","98.64","","","","","","NA"
"-80.05","42.53","LONG POINT (AUT)","6134F10","2018-04-06 20:00","2018","04","06","20:00","1.3","","-5.1","","62","","","M","26","","49","","","","98.76","","","","","","NA"
"-80.05","42.53","LONG POINT (AUT)","6134F10","2018-04-06 21:00","2018","04","06","21:00","0.1","","-3.7","","76","","","M","26","","36","","","","98.89","","","","","","NA"
"-80.05","42.53","LONG POINT (AUT)","6134F10","2018-04-06 22:00","2018","04","06","22:00","-1.2","","-4.4","","79","","","M","29","","36","","","","98.98","","","","-9","","NA"
"-80.05","42.53","LONG POINT (AUT)","6134F10","2018-04-06 23:00","2018","04","06","23:00","-1.3","","-6.2","","69","","","M","27","","33","","","","99.07","","","","-8","","NA"
"-80.05","42.53","LONG POINT (AUT)","6134F10","2018-04-07 00:00","2018","04","07","00:00","-1.7","","-5.8","","74","","","M","26","","29","","","","99.15","","","","-9","","NA"
"-80.05","42.53","LONG POINT (AUT)","6134F10","2018-04-07 01:00","2018","04","07","01:00","-1.6","","-7.7","","63","","","M","26","","39","","","","99.24","","","","-9","","NA"
"-80.05","42.53","LONG POINT (AUT)","6134F10","2018-04-07 02:00","2018","04","07","02:00","-2.5","","-11.2","","51","","","M","27","","42","","","","99.30","","","","-11","","NA"
"-80.05","42.53","LONG POINT (AUT)","6134F10","2018-04-07 03:00","2018","04","07","03:00","-2.8","","-11.6","","51","","","M","27","","35","","","","99.33","","","","-11","","NA"
"-80.05","42.53","LONG POINT (AUT)","6134F10","2018-04-07 04:00","2018","04","07","04:00","-3.1","","-11.3","","53","","","M","27","","32","","","","99.36","","","","-11","","NA"
"-80.05","42.53","LONG POINT (AUT)","6134F10","2018-04-07 05:00","2018","04","07","05:00","-3.2","","-9.9","","60","","","M","26","","28","","","","99.42","","","","-10","","NA"
"-80.05","42.53","LONG POINT (AUT)","6134F10","2018-04-07 06:00","2018","04","07","06:00","-3.6","","-11.7","","54","","","M","27","","25","","","","99.49","","","","-11","","NA"
"-80.05","42.53","LONG POINT (AUT)","6134F10","2018-04-07 07:00","2018","04","07","07:00","-3.7","","-11.9","","53","","","M","26","","28","","","","99.53","","","","-11","","NA"
"-80.05","42.53","LONG POINT (AUT)","6134F10","2018-04-07 08:00","2018","04","07","08:00","-3.6","","-11.0","","56","","","M","26","","29","","","","99.57","","","","-11","","NA"
"-80.05","42.53","LONG POINT (AUT)","6134F10","2018-04-07 09:00","2018","04","07","09:00","-3.5","","-11.6","","53","","","M","26","","23","","","","99.56","","","","-10","","NA"
"-80.05","42.53","LONG POINT (AUT)","6134F10","2018-04-07 10:00","2018","04","07","10:00","-3.2","","-11.3","","53","","","M","25","","20","","","","99.55","","","","-9","","NA"
"-80.05","42.53","LONG POINT (AUT)","6134F10","2018-04-07 11:00","2018","04","07","11:00","-2.8","","-10.9","","54","","","M","25","","19","","","","99.56","","","","-9","","NA"
"-80.05","42.53","LONG POINT (AUT)","6134F10","2018-04-07 12:00","2018","04","07","12:00","-2.7","","-10.3","","56","","","M","20","","23","","","","99.50","","","","-9","","NA"
"-80.05","42.53","LONG POINT (AUT)","6134F10","2018-04-07 13:00","2018","04","07","13:00","-2.6","","-10.1","","56","","","M","20","","29","","","","99.47","","","","-10","","NA"
"-80.05","42.53","LONG POINT (AUT)","6134F10","2018-04-07 14:00","2018","04","07","14:00","-1.8","","-9.5","","56","","","M","20","","28","","","","99.43","","","","-9","","NA"
"-80.05","42.53","LONG POINT (AUT)","6134F10","2018-04-07 15:00","2018","04","07","15:00","-1.8","","-8.7","","60","","","M","20","","28","","","","99.43","","","","-9","","NA"
"-80.05","42.53","LONG POINT (AUT)","6134F10","2018-04-07 16:00","2018","04","07","16:00","-1.9","","-8.7","","59","","","M","19","","35","","","","99.42","","","","-9","","NA"
"-80.05","42.53","LONG POINT (AUT)","6134F10","2018-04-07 17:00","2018","04","07","17:00","-1.5","","-8.4","","60","","","M","20","","30","","","","99.45","","","","-8","","NA"
"-80.05","42.53","LONG POINT (AUT)","6134F10","2018-04-07 18:00","2018","04","07","18:00","-1.2","","-7.9","","61","","","M","20","","30","","","","99.43","","","","-8","","NA"
"-80.05","42.53","LONG POINT (AUT)","6134F10","2018-04-07 19:00","2018","04","07","19:00","-1.3","","-7.9","","61","","","M","20","","24","","","","99.42","","","","-7","","NA"
"-80.05","42.53","LONG POINT (AUT)","6134F10","2018-04-07 20:00","2018","04","07","20:00","-1.2","","-8.3","","58","","","M","21","","20","","","","99.44","","","","-7","","NA"
"-80.05","42.53","LONG POINT (AUT)","6134F10","2018-04-07 21:00","2018","04","07","21:00","-0.9","","-7.7","","60","","","M","21","","15","","","","99.44","","","","-6","","NA"
"-80.05","42.53","LONG POINT (AUT)","6134F10","2018-04-07 22:00","2018","04","07","22:00","-1.4","","-5.1","","76","","","M","28","","22","","","","99.38","","","","-7","","NA"
"-80.05","42.53","LONG POINT (AUT)","6134F10","2018-04-07 23:00","2018","04","07","23:00","-2.2","","-4.1","","87","","","M","30","","21","","","","99.38","","","","-8","","NA"
"-80.05","42.53","LONG POINT (AUT)","6134F10","2018-04-08 00:00","2018","04","08","00:00","-1.9","","-4.9","","80","","","M","31","","16","","","","99.35","","","","-7","","NA"
"-80.05","42.53","LONG POINT (AUT)","6134F10","2018-04-08 01:00","2018","04","08","01:00","-2.0","","-6.7","","70","","","M","30","","15","","","","99.34","","","","-7","","NA"
"-80.05","42.53","LONG POINT (AUT)","6134F10","2018-04-08 02:00","2018","04","08","02:00","-1.9","","-6.9","","69","","","M","28","","12","","","","99.33","","","","-6","","NA"
"-80.05","42.53","LONG POINT (AUT)","6134F10","2018-04-08 03:00","2018","04","08","03:00","-2.1","","-7.9","","64","","","M","28","","14","","","","99.33","","","","-7","","NA"
"-80.05","42.53","LONG POINT (AUT)","6134F10","2018-04-08 04:00","2018","04","08","04:00","-1.9","","-8.4","","61","","","M","26","","21","","","","99.34","","","","-8","","NA"
"-80.05","42.53","LONG POINT (AUT)","6134F10","2018-04-08 05:00","2018","04","08","05:00","-2.4","","-6.6","","73","","","M","27","","28","","","","99.37","","","","-9","","NA"
"-80.05","42.53","LONG POINT (AUT)","6134F10","2018-04-08 06:00","2018","04","08","06:00","-2.7","","-7.3","","70","","","M","29","","23","","","","99.40","","","","-9","","NA"
"-80.05","42.53","LONG POINT (AUT)","6134F10","2018-04-08 07:00","2018","04","08","07:00","-2.6","","-8.0","","67","","","M","27","","23","","","","99.47","","","","-9","","NA"
"-80.05","42.53","LONG POINT (AUT)","6134F10","2018-04-08 08:00","2018","04","08","08:00","-3.0","","-8.1","","67","","","M","28","","26","","","","99.50","","","","-10","","NA"
"-80.05","42.53","LONG POINT (AUT)","6134F10","2018-04-08 09:00","2018","04","08","09:00","-2.7","","-7.5","","69","","","M","28","","22","","","","99.54","","","","-9","","NA"
"-80.05","42.53","LONG POINT (AUT)","6134F10","2018-04-08 10:00","2018","04","08","10:00","-2.4","","-8.1","","65","","","M","28","","22","","","","99.57","","","","-9","","NA"
"-80.05","42.53","LONG POINT (AUT)","6134F10","2018-04-08 11:00","2018","04","08","11:00","-2.0","","-9.4","","57","","","M","27","","18","","","","99.59","","","","-7","","NA"
"-80.05","42.53","LONG POINT (AUT)","6134F10","2018-04-08 12:00","2018","04","08","12:00","-1.5","","-8.9","","57","","","M","25","","22","","","","99.60","","","","-7","","NA"
"-80.05","42.53","LONG POINT (AUT)","6134F10","2018-04-08 13:00","2018","04","08","13:00","-1.3","","-7.7","","62","","","M","22","","21","","","","99.56","","","","-7","","NA"
"-80.05","42.53","LONG POINT (AUT)","6134F10","2018-04-08 14:00","2018","04","08","14:00","-1.5","","-8.8","","57","","","M","27","","25","","","","99.60","","","","-8","","NA"
"-80.05","42.53","LONG POINT (AUT)","6134F10","2018-04-08 15:00","2018","04","08","15:00","-0.5","","-9.3","","51","","","M","24","","24","","","","99.61","","","","-6","","NA"
"-80.05","42.53","LONG POINT (AUT)","6134F10","2018-04-08 16:00","2018","04","08","16:00","-0.5","","-9.4","","51","","","M","25","","23","","","","99.66","","","","-6","","NA"
"-80.05","42.53","LONG POINT (AUT)","6134F10","2018-04-08 17:00","2018","04","08","17:00","-0.4","","-8.5","","54","","","M","24","","24","","","","99.70","","","","-6","","NA"
"-80.05","42.53","LONG POINT (AUT)","6134F10","2018-04-08 18:00","2018","04","08","18:00","-0.6","","-6.8","","63","","","M","26","","28","","","","99.74","","","","-7","","NA"
"-80.05","42.53","LONG POINT (AUT)","6134F10","2018-04-08 19:00","2018","04","08","19:00","-0.6","","-9.1","","53","","","M","24","","20","","","","99.77","","","","-6","","NA"
"-80.05","42.53","LONG POINT (AUT)","6134F10","2018-04-08 20:00","2018","04","08","20:00","-0.6","","-7.7","","59","","","M","26","","20","","","","99.79","","","","-6","","NA"
"-80.05","42.53","LONG POINT (AUT)","6134F10","2018-04-08 21:00","2018","04","08","21:00","-0.7","","-8.2","","57","","","M","26","","21","","","","99.83","","","","-6","","NA"
"-80.05","42.53","LONG POINT (AUT)","6134F10","2018-04-08 22:00","2018","04","08","22:00","-1.1","","-9.4","","53","","","M","29","","20","","","","99.82","","","","-7","","NA"
"-80.05","42.53","LONG POINT (AUT)","6134F10","2018-04-08 23:00","2018","04","08","23:00","-1.2","","-8.3","","58","","","M","29","","16","","","","99.90","","","","-6","","NA"
"-80.05","42.53","LONG POINT (AUT)","6134F10","2018-04-09 00:00","2018","04","09","00:00","-1.6","","-8.7","","59","","","M","31","","19","","","","99.86","","","","-7","","NA"
"-80.05","42.53","LONG POINT (AUT)","6134F10","2018-04-09 01:00","2018","04","09","01:00","-1.6","","-8.1","","61","","","M","32","","11","","","","99.85","","","","-5","","NA"
"-80.05","42.53","LONG POINT (AUT)","6134F10","2018-04-09 02:00","2018","04","09","02:00","-1.6","","-9.5","","55","","","M","29","","7","","","","99.90","","","","-4","","NA"
"-80.05","42.53","LONG POINT (AUT)","6134F10","2018-04-09 03:00","2018","04","09","03:00","-1.6","","-8.9","","58","","","M","33","","8","","","","99.92","","","","-5","","NA"
"-80.05","42.53","LONG POINT (AUT)","6134F10","2018-04-09 04:00","2018","04","09","04:00","-1.8","","-9.0","","58","","","M","35","","15","","","","99.92","","","","-7","","NA"
"-80.05","42.53","LONG POINT (AUT)","6134F10","2018-04-09 05:00","2018","04","09","05:00","-2.0","","-9.4","","57","","","M","36","","14","","","","99.97","","","","-7","","NA"
"-80.05","42.53","LONG POINT (AUT)","6134F10","2018-04-09 06:00","2018","04","09","06:00","-2.0","","-9.0","","59","","","M","3","","13","","","","99.99","","","","-6","","NA"
"-80.05","42.53","LONG POINT (AUT)","6134F10","2018-04-09 07:00","2018","04","09","07:00","-1.8","","-8.4","","61","","","M","5","","13","","","","100.00","","","","-6","","NA"
"-80.05","42.53","LONG POINT (AUT)","6134F10","2018-04-09 08:00","2018","04","09","08:00","-1.5","","-7.8","","62","","","M","5","","12","","","","100.04","","","","-6","","NA"
"-80.05","42.53","LONG POINT (AUT)","6134F10","2018-04-09 09:00","2018","04","09","09:00","-1.5","","-7.0","","66","","","M","6","","16","","","","100.03","","","","-6","","NA"
"-80.05","42.53","LONG POINT (AUT)","6134F10","2018-04-09 10:00","2018","04","09","10:00","-1.4","","-7.4","","64","","","M","6","","13","","","","100.05","","","","-6","","NA"
"-80.05","42.53","LONG POINT (AUT)","6134F10","2018-04-09 11:00","2018","04","09","11:00","-1.3","","-7.0","","65","","","M","3","","11","","","","100.00","","","","-5","","NA"
"-80.05","42.53","LONG POINT (AUT)","6134F10","2018-04-09 12:00","2018","04","09","12:00","-1.3","","-6.8","","66","","","M","1","","10","","","","100.02","","","","-5","","NA"
"-80.05","42.53","LONG POINT (AUT)","6134F10","2018-04-09 13:00","2018","04","09","13:00","-1.3","","-6.7","","66","","","M","34","","14","","","","99.98","","","","-6","","NA"
"-80.05","42.53","LONG POINT (AUT)","6134F10","2018-04-09 14:00","2018","04","09","14:00","-1.0","","-7.1","","63","","","M","32","","20","","","","99.93","","","","-7","","NA"
"-80.05","42.53","LONG POINT (AUT)","6134F10","2018-04-09 15:00","2018","04","09","15:00","-0.6","","-6.0","","67","","","M","33","","16","","","","99.92","","","","-5","","NA"
"-80.05","42.53","LONG POINT (AUT)","6134F10","2018-04-09 16:00","2018","04","09","16:00","-0.2","","-6.5","","63","","","M","2","","12","","","","99.92","","","","-4","","NA"
"-80.05","42.53","LONG POINT (AUT)","6134F10","2018-04-09 17:00","2018","04","09","17:00","0.5","","-5.9","","62","","","M","8","","14","","","","99.95","","","","","","NA"
"-80.05","42.53","LONG POINT (AUT)","6134F10","2018-04-09 18:00","2018","04","09","18:00","0.1","","-5.5","","66","","","M","10","","8","","","","99.97","","","","","","NA"
"-80.05","42.53","LONG POINT (AUT)","6134F10","2018-04-09 19:00","2018","04","09","19:00","-0.5","","-5.2","","70","","","M","14","","17","","","","99.99","","","","-5","","NA"
"-80.05","42.53","LONG POINT (AUT)","6134F10","2018-04-09 20:00","2018","04","09","20:00","-0.9","","-4.4","","77","","","M","15","","17","","","","100.03","","","","-6","","NA"
"-80.05","42.53","LONG POINT (AUT)","6134F10","2018-04-09 21:00","2018","04","09","21:00","-0.8","","-3.9","","80","","","M","16","","15","","","","100.07","","","","-5","","NA"
"-80.05","42.53","LONG POINT (AUT)","6134F10","2018-04-09 22:00","2018","04","09","22:00","-0.6","","-4.0","","78","","","M","18","","16","","","","100.07","","","","-5","","NA"
"-80.05","42.53","LONG POINT (AUT)","6134F10","2018-04-09 23:00","2018","04","09","23:00","-0.3","","-4.4","","73","","","M","19","","13","","","","100.07","","","","-4","","NA"
"-80.05","42.53","LONG POINT (AUT)","6134F10","2018-04-10 00:00","2018","04","10","00:00","0.0","","-3.3","","78","","","M","21","","13","","","","100.09","","","","-4","","NA"
"-80.05","42.53","LONG POINT (AUT)","6134F10","2018-04-10 01:00","2018","04","10","01:00","0.0","","-3.9","","75","","","M","23","","12","","","","100.10","","","","-4","","NA"
"-80.05","42.53","LONG POINT (AUT)","6134F10","2018-04-10 02:00","2018","04","10","02:00","0.1","","-3.5","","77","","","M","23","","17","","","","100.07","","","","","","NA"
"-80.05","42.53","LONG POINT (AUT)","6134F10","2018-04-10 03:00","2018","04","10","03:00","-0.4","","-3.3","","81","","","M","23","","15","","","","100.08","","","","-5","","NA"
"-80.05","42.53","LONG POINT (AUT)","6134F10","2018-04-10 04:00","2018","04","10","04:00","-0.6","","-3.4","","82","","","M","24","","16","","","","100.09","","","","-5","","NA"
"-80.05","42.53","LONG POINT (AUT)","6134F10","2018-04-10 05:00","2018","04","10","05:00","-1.1","","-3.5","","84","","","M","23","","12","","","","100.11","","","","-5","","NA"
"-80.05","42.53","LONG POINT (AUT)","6134F10","2018-04-10 06:00","2018","04","10","06:00","-0.7","","-3.0","","84","","","M","23","","11","","","","100.15","","","","-4","","NA"
"-80.05","42.53","LONG POINT (AUT)","6134F10","2018-04-10 07:00","2018","04","10","07:00","0.0","","-2.5","","83","","","M","21","","11","","","","100.20","","","","-4","","NA"
"-80.05","42.53","LONG POINT (AUT)","6134F10","2018-04-10 08:00","2018","04","10","08:00","0.7","","-3.2","","75","","","M","23","","10","","","","100.24","","","","","","NA"
"-80.05","42.53","LONG POINT (AUT)","6134F10","2018-04-10 09:00","2018","04","10","09:00","0.4","","-1.9","","85","","","M","21","","11","","","","100.27","","","","","","NA"
"-80.05","42.53","LONG POINT (AUT)","6134F10","2018-04-10 10:00","2018","04","10","10:00","0.4","","-2.3","","82","","","M","19","","12","","","","100.28","","","","","","NA"
"-80.05","42.53","LONG POINT (AUT)","6134F10","2018-04-10 11:00","2018","04","10","11:00","0.1","","-1.2","","91","","","M","18","","24","","","","100.26","","","","","","NA"
"-80.05","42.53","LONG POINT (AUT)","6134F10","2018-04-10 12:00","2018","04","10","12:00","0.7","","-2.0","","82","","","M","17","","22","","","","100.22","","","","","","NA"
"-80.05","42.53","LONG POINT (AUT)","6134F10","2018-04-10 13:00","2018","04","10","13:00","0.9","","-2.5","","78","","","M","17","","23","","","","100.17","","","","","","NA"
"-80.05","42.53","LONG POINT (AUT)","6134F10","2018-04-10 14:00","2018","04","10","14:00","1.0","","-2.3","","79","","","M","18","","25","","","","100.13","","","","","","NA"
"-80.05","42.53","LONG POINT (AUT)","6134F10","2018-04-10 15:00","2018","04","10","15:00","1.3","","-1.0","","85","","","M","18","","23","","","","100.08","","","","","","NA"
"-80.05","42.53","LONG POINT (AUT)","6134F10","2018-04-10 16:00","2018","04","10","16:00","1.9","","-1.3","","79","","","M","20","","26","","","","100.07","","","","","","NA"
"-80.05","42.53","LONG POINT (AUT)","6134F10","2018-04-10 17:00","2018","04","10","17:00","1.7","","-0.9","","82","","","M","20","","22","","","","100.03","","","","","","NA"
"-80.05","42.53","LONG POINT (AUT)","6134F10","2018-04-10 18:00","2018","04","10","18:00","1.7","","-1.0","","83","","","M","20","","21","","","","100.03","","","","","","NA"
"-80.05","42.53","LONG POINT (AUT)","6134F10","2018-04-10 19:00","2018","04","10","19:00","1.1","","-0.7","","88","","","M","19","","17","","","","100.02","","","","","","NA"
"-80.05","42.53","LONG POINT (AUT)","6134F10","2018-04-10 20:00","2018","04","10","20:00","0.9","","-0.7","","89","","","M","17","","15","","","","100.01","","","","","","NA"
"-80.05","42.53","LONG POINT (AUT)","6134F10","2018-04-10 21:00","2018","04","10","21:00","0.7","","-0.6","","91","","","M","17","","23","","","","100.02","","","","","","NA"
"-80.05","42.53","LONG POINT (AUT)","6134F10","2018-04-10 22:00","2018","04","10","22:00","0.9","","-1.3","","85","","","M","17","","22","","","","99.99","","","","","","NA"
"-80.05","42.53","LONG POINT (AUT)","6134F10","2018-04-10 23:00","2018","04","10","23:00","0.9","","-1.2","","86","","","M","16","","21","","","","99.94","","","","","","NA"
"-80.05","42.53","LONG POINT (AUT)","6134F10","2018-04-11 00:00","2018","04","11","00:00","1.1","","-1.2","","85","","","M","15","","23","","","","99.92","","","","","","NA"
"-80.05","42.53","LONG POINT (AUT)","6134F10","2018-04-11 01:00","2018","04","11","01:00","1.1","","-1.1","","85","","","M","15","","22","","","","99.90","","","","","","NA"
"-80.05","42.53","LONG POINT (AUT)","6134F10","2018-04-11 02:00","2018","04","11","02:00","1.2","","-1.1","","85","","","M","15","","27","","","","99.84","","","","","","NA"
"-80.05","42.53","LONG POINT (AUT)","6134F10","2018-04-11 03:00","2018","04","11","03:00","1.4","","-1.2","","83","","","M","16","","25","","","","99.80","","","","","","NA"
"-80.05","42.53","LONG POINT (AUT)","6134F10","2018-04-11 04:00","2018","04","11","04:00","1.7","","-1.8","","78","","","M","16","","32","","","","99.75","","","","","","NA"
"-80.05","42.53","LONG POINT (AUT)","6134F10","2018-04-11 05:00","2018","04","11","05:00","1.8","","-1.9","","77","","","M","17","","28","","","","99.73","","","","","","NA"
"-80.05","42.53","LONG POINT (AUT)","6134F10","2018-04-11 06:00","2018","04","11","06:00","1.6","","-1.8","","78","","","M","16","","32","","","","99.71","","","","","","NA"
"-80.05","42.53","LONG POINT (AUT)","6134F10","2018-04-11 07:00","2018","04","11","07:00","1.7","","-1.5","","79","","","M","16","","35","","","","99.70","","","","","","NA"
"-80.05","42.53","LONG POINT (AUT)","6134F10","2018-04-11 08:00","2018","04","11","08:00","1.9","","-2.1","","75","","","M","16","","36","","","","99.68","","","","","","NA"
"-80.05","42.53","LONG POINT (AUT)","6134F10","2018-04-11 09:00","2018","04","11","09:00","2.0","","-2.4","","72","","","M","16","","38","","","","99.60","","","","","","NA"
"-80.05","42.53","LONG POINT (AUT)","6134F10","2018-04-11 10:00","2018","04","11","10:00","2.4","","-2.4","","71","","","M","16","","38","","","","99.63","","","","","","NA"
"-80.05","42.53","LONG POINT (AUT)","6134F10","2018-04-11 11:00","2018","04","11","11:00","2.7","","-2.5","","68","","","M","17","","38","","","","99.62","","","","","","NA"
"-80.05","42.53","LONG POINT (AUT)","6134F10","2018-04-11 12:00","2018","04","11","12:00","3.5","","-2.9","","63","","","M","18","","44","","","","99.56","","","","","","NA"
"-80.05","42.53","LONG POINT (AUT)","6134F10","2018-04-11 13:00","2018","04","11","13:00","3.3","","-2.0","","68","","","M","20","","33","","","","99.52","","","","","","NA"
"-80.05","42.53","LONG POINT (AUT)","6134F10","2018-04-11 14:00","2018","04","11","14:00","2.7","","-1.7","","73","","","M","16","","29","","","","99.37","","","","","","NA"
"-80.05","42.53","LONG POINT (AUT)","6134F10","2018-04-11 15:00","2018","04","11","15:00","4.1","","-1.4","","67","","","M","16","","32","","","","99.33","","","","","","NA"
"-80.05","42.53","LONG POINT (AUT)","6134F10","2018-04-11 16:00","2018","04","11","16:00","3.9","","-1.0","","71","","","M","18","","33","","","","99.35","","","","","","NA"
"-80.05","42.53","LONG POINT (AUT)","6134F10","2018-04-11 17:00","2018","04","11","17:00","3.8","","0.8","","81","","","M","18","","37","","","","99.35","","","","","","NA"
"-80.05","42.53","LONG POINT (AUT)","6134F10","2018-04-11 18:00","2018","04","11","18:00","3.7","","0.7","","81","","","M","16","","36","","","","99.33","","","","","","NA"
"-80.05","42.53","LONG POINT (AUT)","6134F10","2018-04-11 19:00","2018","04","11","19:00","4.7","","1.1","","77","","","M","15","","33","","","","99.33","","","","","","NA"
"-80.05","42.53","LONG POINT (AUT)","6134F10","2018-04-11 20:00","2018","04","11","20:00","4.8","","1.0","","76","","","M","14","","28","","","","99.37","","","","","","NA"
"-80.05","42.53","LONG POINT (AUT)","6134F10","2018-04-11 21:00","2018","04","11","21:00","4.6","","1.1","","78","","","M","13","","19","","","","99.42","","","","","","NA"
"-80.05","42.53","LONG POINT (AUT)","6134F10","2018-04-11 22:00","2018","04","11","22:00","4.0","","1.4","","83","","","M","30","","4","","","","99.45","","","","","","NA"
"-80.05","42.53","LONG POINT (AUT)","6134F10","2018-04-11 23:00","2018","04","11","23:00","3.9","","1.1","","82","","","M","36","","13","","","","99.42","","","","","","NA"
"-80.05","42.53","LONG POINT (AUT)","6134F10","2018-04-12 00:00","2018","04","12","00:00","3.6","","1.0","","83","","","M","2","","18","","","","99.42","","","","","","NA"
"-80.05","42.53","LONG POINT (AUT)","6134F10","2018-04-12 01:00","2018","04","12","01:00","2.9","","0.7","","85","","","M","3","","24","","","","99.37","","","","","","NA"
"-80.05","42.53","LONG POINT (AUT)","6134F10","2018-04-12 02:00","2018","04","12","02:00","2.5","","0.9","","89","","","M","4","","25","","","","99.31","","","","","","NA"
"-80.05","42.53","LONG POINT (AUT)","6134F10","2018-04-12 03:00","2018","04","12","03:00","2.3","","0.7","","89","","","M","4","","25","","","","99.24","","","","","","NA"
"-80.05","42.53","LONG POINT (AUT)","6134F10","2018-04-12 04:00","2018","04","12","04:00","2.4","","0.6","","88","","","M","3","","24","","","","99.21","","","","","","NA"
"-80.05","42.53","LONG POINT (AUT)","6134F10","2018-04-12 05:00","2018","04","12","05:00","1.7","","0.4","","91","","","M","5","","21","","","","99.13","","","","","","NA"
"-80.05","42.53","LONG POINT (AUT)","6134F10","2018-04-12 06:00","2018","04","12","06:00","1.7","","0.6","","92","","","M","5","","19","","","","99.12","","","","","","NA"
"-80.05","42.53","LONG POINT (AUT)","6134F10","2018-04-12 07:00","2018","04","12","07:00","3.2","","1.7","","90","","","M","9","","19","","","","99.07","","","","","","NA"
"-80.05","42.53","LONG POINT (AUT)","6134F10","2018-04-12 08:00","2018","04","12","08:00","5.2","","3.1","","86","","","M","15","","34","","","","98.95","","","","","","NA"
"-80.05","42.53","LONG POINT (AUT)","6134F10","2018-04-12 09:00","2018","04","12","09:00","7.7","","6.6","","93","","","M","13","","40","","","","98.78","","","","","","NA"
"-80.05","42.53","LONG POINT (AUT)","6134F10","2018-04-12 10:00","2018","04","12","10:00","7.1","","5.3","","89","","","M","13","","34","","","","98.70","","","","","","NA"
"-80.05","42.53","LONG POINT (AUT)","6134F10","2018-04-12 11:00","2018","04","12","11:00","7.8","","4.3","","78","","","M","14","","42","","","","98.48","","","","","","NA"
"-80.05","42.53","LONG POINT (AUT)","6134F10","2018-04-12 12:00","2018","04","12","12:00","8.2","","3.6","","73","","","M","15","","47","","","","98.28","","","","","","NA"
"-80.05","42.53","LONG POINT (AUT)","6134F10","2018-04-12 13:00","2018","04","12","13:00","10.4","","5.3","","71","","","M","15","","41","","","","98.21","","","","","","NA"
"-80.05","42.53","LONG POINT (AUT)","6134F10","2018-04-12 14:00","2018","04","12","14:00","10.1","","3.7","","65","","","M","15","","25","","","","98.17","","","","","","NA"
"-80.05","42.53","LONG POINT (AUT)","6134F10","2018-04-12 15:00","2018","04","12","15:00","8.9","","3.0","","67","","","M","18","","26","","","","98.13","","","","","","NA"
"-80.05","42.53","LONG POINT (AUT)","6134F10","2018-04-12 16:00","2018","04","12","16:00","8.9","","3.3","","68","","","M","20","","41","","","","98.10","","","","","","NA"
"-80.05","42.53","LONG POINT (AUT)","6134F10","2018-04-12 17:00","2018","04","12","17:00","8.0","","3.4","","73","","","M","20","","38","","","","98.15","","","","","","NA"
"-80.05","42.53","LONG POINT (AUT)","6134F10","2018-04-12 18:00","2018","04","12","18:00","10.5","","4.3","","66","","","M","21","","47","","","","98.22","","","","","","NA"
"-80.05","42.53","LONG POINT (AUT)","6134F10","2018-04-12 19:00","2018","04","12","19:00","10.8","","4.6","","66","","","M","21","","50","","","","98.26","","","","","","NA"
"-80.05","42.53","LONG POINT (AUT)","6134F10","2018-04-12 20:00","2018","04","12","20:00","12.9","","5.9","","62","","","M","23","","36","","","","98.43","","","","","","NA"
"-80.05","42.53","LONG POINT (AUT)","6134F10","2018-04-12 21:00","2018","04","12","21:00","11.7","","6.1","","68","","","M","26","","42","","","","98.55","","","","","","NA"
"-80.05","42.53","LONG POINT (AUT)","6134F10","2018-04-12 22:00","2018","04","12","22:00","8.2","","5.2","","82","","","M","29","","38","","","","98.58","","","","","","NA"
"-80.05","42.53","LONG POINT (AUT)","6134F10","2018-04-12 23:00","2018","04","12","23:00","7.1","","3.3","","77","","","M","30","","27","","","","98.68","","","","","","NA"
"-80.05","42.53","LONG POINT (AUT)","6134F10","2018-04-13 00:00","2018","04","13","00:00","7.5","","3.8","","77","","","M","10","","4","","","","98.82","","","","","","NA"
"-80.05","42.53","LONG POINT (AUT)","6134F10","2018-04-13 01:00","2018","04","13","01:00","7.9","","3.8","","75","","","M","14","","4","","","","98.89","","","","","","NA"
"-80.05","42.53","LONG POINT (AUT)","6134F10","2018-04-13 02:00","2018","04","13","02:00","7.6","","4.2","","79","","","M","16","","6","","","","98.93","","","","","","NA"
"-80.05","42.53","LONG POINT (AUT)","6134F10","2018-04-13 03:00","2018","04","13","03:00","6.0","","2.2","","77","","","M","33","","24","","","","98.79","","","","","","NA"
"-80.05","42.53","LONG POINT (AUT)","6134F10","2018-04-13 04:00","2018","04","13","04:00","4.2","","2.1","","86","","","M","34","","26","","","","98.93","","","","","","NA"
"-80.05","42.53","LONG POINT (AUT)","6134F10","2018-04-13 05:00","2018","04","13","05:00","3.8","","1.8","","87","","","M","1","","29","","","","98.98","","","","","","NA"
"-80.05","42.53","LONG POINT (AUT)","6134F10","2018-04-13 06:00","2018","04","13","06:00","3.1","","1.6","","90","","","M","2","","32","","","","99.03","","","","","","NA"
"-80.05","42.53","LONG POINT (AUT)","6134F10","2018-04-13 07:00","2018","04","13","07:00","2.9","","1.4","","90","","","M","2","","33","","","","99.06","","","","","","NA"
"-80.05","42.53","LONG POINT (AUT)","6134F10","2018-04-13 08:00","2018","04","13","08:00","2.8","","0.9","","87","","","M","1","","30","","","","99.09","","","","","","NA"
"-80.05","42.53","LONG POINT (AUT)","6134F10","2018-04-13 09:00","2018","04","13","09:00","2.5","","0.7","","88","","","M","36","","29","","","","99.06","","","","","","NA"
"-80.05","42.53","LONG POINT (AUT)","6134F10","2018-04-13 10:00","2018","04","13","10:00","2.4","","0.9","","90","","","M","36","","32","","","","99.02","","","","","","NA"
"-80.05","42.53","LONG POINT (AUT)","6134F10","2018-04-13 11:00","2018","04","13","11:00","2.8","","1.2","","89","","","M","36","","26","","","","99.03","","","","","","NA"
"-80.05","42.53","LONG POINT (AUT)","6134F10","2018-04-13 12:00","2018","04","13","12:00","3.5","","1.9","","89","","","M","35","","25","","","","98.99","","","","","","NA"
"-80.05","42.53","LONG POINT (AUT)","6134F10","2018-04-13 13:00","2018","04","13","13:00","4.0","","2.0","","87","","","M","36","","27","","","","98.95","","","","","","NA"
"-80.05","42.53","LONG POINT (AUT)","6134F10","2018-04-13 14:00","2018","04","13","14:00","3.7","","1.8","","87","","","M","36","","30","","","","98.88","","","","","","NA"
"-80.05","42.53","LONG POINT (AUT)","6134F10","2018-04-13 15:00","2018","04","13","15:00","4.4","","2.3","","87","","","M","35","","30","","","","98.87","","","","","","NA"
"-80.05","42.53","LONG POINT (AUT)","6134F10","2018-04-13 16:00","2018","04","13","16:00","4.3","","2.1","","85","","","M","34","","32","","","","98.91","","","","","","NA"
"-80.05","42.53","LONG POINT (AUT)","6134F10","2018-04-13 17:00","2018","04","13","17:00","3.6","","1.6","","87","","","M","35","","28","","","","99.04","","","","","","NA"
"-80.05","42.53","LONG POINT (AUT)","6134F10","2018-04-13 18:00","2018","04","13","18:00","2.9","","1.3","","89","","","M","36","","38","","","","99.01","","","","","","NA"
"-80.05","42.53","LONG POINT (AUT)","6134F10","2018-04-13 19:00","2018","04","13","19:00","2.6","","1.3","","91","","","M","2","","32","","","","98.97","","","","","","NA"
"-80.05","42.53","LONG POINT (AUT)","6134F10","2018-04-13 20:00","2018","04","13","20:00","3.0","","1.5","","90","","","M","34","","32","","","","99.11","","","","","","NA"
"-80.05","42.53","LONG POINT (AUT)","6134F10","2018-04-13 21:00","2018","04","13","21:00","3.6","","1.7","","87","","","M","34","","35","","","","99.17","","","","","","NA"
"-80.05","42.53","LONG POINT (AUT)","6134F10","2018-04-13 22:00","2018","04","13","22:00","3.0","","1.5","","90","","","M","35","","38","","","","99.09","","","","","","NA"
"-80.05","42.53","LONG POINT (AUT)","6134F10","2018-04-13 23:00","2018","04","13","23:00","2.8","","1.8","","93","","","M","36","","31","","","","99.17","","","","","","NA"
"-80.05","42.53","LONG POINT (AUT)","6134F10","2018-04-14 00:00","2018","04","14","00:00","2.8","","1.9","","94","","","M","35","","33","","","","99.12","","","","","","NA"
"-80.05","42.53","LONG POINT (AUT)","6134F10","2018-04-14 01:00","2018","04","14","01:00","2.7","","1.8","","94","","","M","35","","32","","","","99.21","","","","","","NA"
"-80.05","42.53","LONG POINT (AUT)","6134F10","2018-04-14 02:00","2018","04","14","02:00","3.0","","2.2","","94","","","M","35","","34","","","","99.26","","","","","","NA"
"-80.05","42.53","LONG POINT (AUT)","6134F10","2018-04-14 03:00","2018","04","14","03:00","2.6","","1.9","","95","","","M","36","","45","","","","99.17","","","","","","NA"
"-80.05","42.53","LONG POINT (AUT)","6134F10","2018-04-14 04:00","2018","04","14","04:00","2.6","","1.9","","96","","","M","1","","41","","","","99.27","","","","","","NA"
"-80.05","42.53","LONG POINT (AUT)","6134F10","2018-04-14 05:00","2018","04","14","05:00","2.6","","1.9","","96","","","M","36","","50","","","","99.29","","","","","","NA"
"-80.05","42.53","LONG POINT (AUT)","6134F10","2018-04-14 06:00","2018","04","14","06:00","2.6","","1.9","","95","","","M","2","","53","","","","99.28","","","","","","NA"
"-80.05","42.53","LONG POINT (AUT)","6134F10","2018-04-14 07:00","2018","04","14","07:00","2.6","","1.7","","94","","","M","1","","57","","","","99.30","","","","","","NA"
"-80.05","42.53","LONG POINT (AUT)","6134F10","2018-04-14 08:00","2018","04","14","08:00","2.3","","1.2","","92","","","M","1","","59","","","","99.37","","","","","","NA"
"-80.05","42.53","LONG POINT (AUT)","6134F10","2018-04-14 09:00","2018","04","14","09:00","2.1","","0.9","","92","","","M","36","","63","","","","99.41","","","","","","NA"
"-80.05","42.53","LONG POINT (AUT)","6134F10","2018-04-14 10:00","2018","04","14","10:00","1.3","","-0.2","","90","","","M","1","","71","","","","99.42","","","","","","NA"
"-80.05","42.53","LONG POINT (AUT)","6134F10","2018-04-14 11:00","2018","04","14","11:00","1.5","","-1.2","","82","","","M","2","","71","","","","99.40","","","","","","NA"
"-80.05","42.53","LONG POINT (AUT)","6134F10","2018-04-14 12:00","2018","04","14","12:00","1.4","","-1.6","","81","","","M","1","","63","","","","99.46","","","","","","NA"
"-80.05","42.53","LONG POINT (AUT)","6134F10","2018-04-14 13:00","2018","04","14","13:00","1.3","","-2.3","","77","","","M","1","","71","","","","99.35","","","","","","NA"
"-80.05","42.53","LONG POINT (AUT)","6134F10","2018-04-14 14:00","2018","04","14","14:00","1.1","","-2.7","","76","","","M","1","","74","","","","99.33","","","","","","NA"
"-80.05","42.53","LONG POINT (AUT)","6134F10","2018-04-14 15:00","2018","04","14","15:00","0.4","","-2.7","","80","","","M","36","","69","","","","99.37","","","","","","NA"
"-80.05","42.53","LONG POINT (AUT)","6134F10","2018-04-14 16:00","2018","04","14","16:00","-0.5","","-2.7","","85","","","M","1","","73","","","","99.39","","","","-10","","NA"
"-80.05","42.53","LONG POINT (AUT)","6134F10","2018-04-14 17:00","2018","04","14","17:00","-0.8","","-2.2","","90","","","M","1","","59","","","","99.43","","","","-10","","NA"
"-80.05","42.53","LONG POINT (AUT)","6134F10","2018-04-14 18:00","2018","04","14","18:00","-1.0","","-2.0","","93","","","M","36","","51","","","","99.62","","","","-10","","NA"
"-80.05","42.53","LONG POINT (AUT)","6134F10","2018-04-14 19:00","2018","04","14","19:00","-0.9","","-1.8","","94","","","M","1","","15","","","","99.59","","","","-6","","NA"
"-80.05","42.53","LONG POINT (AUT)","6134F10","2018-04-14 20:00","2018","04","14","20:00","-1.5","","-2.4","","93","","","M","1","","8","","","","99.62","","","","-5","","NA"
"-80.05","42.53","LONG POINT (AUT)","6134F10","2018-04-14 21:00","2018","04","14","21:00","-1.2","","-2.2","","93","","","M","1","","8","","","","99.68","","","","-4","","NA"
"-80.05","42.53","LONG POINT (AUT)","6134F10","2018-04-14 22:00","2018","04","14","22:00","-1.2","","-2.2","","93","","","M","1","","7","","","","99.75","","","","-4","","NA"
"-80.05","42.53","LONG POINT (AUT)","6134F10","2018-04-14 23:00","2018","04","14","23:00","-1.2","","-2.4","","92","","","M","1","","6","","","","99.76","","","","-3","","NA"
"-80.05","42.53","LONG POINT (AUT)","6134F10","2018-04-15 00:00","2018","04","15","00:00","-1.9","","-3.4","","89","","","M","1","","8","","","","99.63","","","","-5","","NA"
"-80.05","42.53","LONG POINT (AUT)","6134F10","2018-04-15 01:00","2018","04","15","01:00","-1.6","","-3.4","","88","","","M","1","","8","","","","99.65","","","","-5","","NA"
"-80.05","42.53","LONG POINT (AUT)","6134F10","2018-04-15 02:00","2018","04","15","02:00","-1.4","","-3.1","","88","","","M","1","","7","","","","99.64","","","","-4","","NA"
"-80.05","42.53","LONG POINT (AUT)","6134F10","2018-04-15 03:00","2018","04","15","03:00","-1.3","","-2.9","","89","","","M","1","","7","","","","99.57","","","","-4","","NA"
"-80.05","42.53","LONG POINT (AUT)","6134F10","2018-04-15 04:00","2018","04","15","04:00","-1.3","","-2.7","","90","","","M","1","","5","","","","99.51","","","","-3","","NA"
"-80.05","42.53","LONG POINT (AUT)","6134F10","2018-04-15 05:00","2018","04","15","05:00","-1.0","","-2.3","","90","","","M","1","","4","","","","99.50","","","","-2","","NA"
"-80.05","42.53","LONG POINT (AUT)","6134F10","2018-04-15 06:00","2018","04","15","06:00","-0.7","","-1.9","","91","","","M","1","","2","","","","99.47","","","","-1","","NA"
"-80.05","42.53","LONG POINT (AUT)","6134F10","2018-04-15 07:00","2018","04","15","07:00","-0.3","","-1.6","","91","","","M","1","","2","","","","99.42","","","","-1","","NA"
"-80.05","42.53","LONG POINT (AUT)","6134F10","2018-04-15 08:00","2018","04","15","08:00","-0.1","","-1.2","","92","","","M","1","","1","","","","99.38","","","","0","","NA"
"-80.05","42.53","LONG POINT (AUT)","6134F10","2018-04-15 09:00","2018","04","15","09:00","0.0","","-1.1","","93","","","M","1","","1","","","","99.31","","","","0","","NA"
"-80.05","42.53","LONG POINT (AUT)","6134F10","2018-04-15 10:00","2018","04","15","10:00","0.2","","-0.9","","93","","","M","1","","1","","","","99.18","","","","","","NA"
"-80.05","42.53","LONG POINT (AUT)","6134F10","2018-04-15 11:00","2018","04","15","11:00","0.4","","-0.7","","92","","","M","2","","74","","","","98.96","","","","","","NA"
"-80.05","42.53","LONG POINT (AUT)","6134F10","2018-04-15 12:00","2018","04","15","12:00","0.5","","-0.6","","92","","","M","2","","67","","","","98.94","","","","","","NA"
"-80.05","42.53","LONG POINT (AUT)","6134F10","2018-04-15 13:00","2018","04","15","13:00","0.7","","-0.4","","92","","","M","1","","69","","","","98.77","","","","","","NA"
"-80.05","42.53","LONG POINT (AUT)","6134F10","2018-04-15 14:00","2018","04","15","14:00","0.9","","-0.2","","93","","","M","1","","64","","","","98.73","","","","","","NA"
"-80.05","42.53","LONG POINT (AUT)","6134F10","2018-04-15 15:00","2018","04","15","15:00","1.2","","0.3","","94","","","M","1","","66","","","","98.64","","","","","","NA"
"-80.05","42.53","LONG POINT (AUT)","6134F10","2018-04-15 16:00","2018","04","15","16:00","1.3","","0.5","","94","","","M","1","","63","","","","98.65","","","","","","NA"
"-80.05","42.53","LONG POINT (AUT)","6134F10","2018-04-15 17:00","2018","04","15","17:00","1.3","","0.5","","95","","","M","1","","64","","","","98.53","","","","","","NA"
"-80.05","42.53","LONG POINT (AUT)","6134F10","2018-04-15 18:00","2018","04","15","18:00","1.4","","0.7","","95","","","M","1","","68","","","","98.42","","","","","","NA"
"-80.05","42.53","LONG POINT (AUT)","6134F10","2018-04-15 19:00","2018","04","15","19:00","1.8","","1.2","","96","","","M","1","","58","","","","98.43","","","","","","NA"
"-80.05","42.53","LONG POINT (AUT)","6134F10","2018-04-15 20:00","2018","04","15","20:00","2.1","","1.5","","96","","","M","1","","53","","","","98.45","","","","","","NA"
"-80.05","42.53","LONG POINT (AUT)","6134F10","2018-04-15 21:00","2018","04","15","21:00","2.4","","1.8","","96","","","M","1","","53","","","","98.37","","","","","","NA"
"-80.05","42.53","LONG POINT (AUT)","6134F10","2018-04-15 22:00","2018","04","15","22:00","2.6","","2.1","","96","","","M","36","","41","","","","98.41","","","","","","NA"
"-80.05","42.53","LONG POINT (AUT)","6134F10","2018-04-15 23:00","2018","04","15","23:00","2.7","","2.2","","97","","","M","1","","40","","","","98.32","","","","","","NA"
"-80.05","42.53","LONG POINT (AUT)","6134F10","2018-04-16 00:00","2018","04","16","00:00","2.9","","2.4","","97","","","M","2","","38","","","","98.27","","","","","","NA"
"-80.05","42.53","LONG POINT (AUT)","6134F10","2018-04-16 01:00","2018","04","16","01:00","2.5","","2.1","","97","","","M","1","","36","","","","98.16","","","","","","NA"
"-80.05","42.53","LONG POINT (AUT)","6134F10","2018-04-16 02:00","2018","04","16","02:00","2.8","","2.4","","97","","","M","2","","43","","","","97.98","","","","","","NA"
"-80.05","42.53","LONG POINT (AUT)","6134F10","2018-04-16 03:00","2018","04","16","03:00","2.4","","2.0","","97","","","M","2","","23","","","","98.02","","","","","","NA"
"-80.05","42.53","LONG POINT (AUT)","6134F10","2018-04-16 04:00","2018","04","16","04:00","2.6","","2.2","","97","","","M","36","","21","","","","97.86","","","","","","NA"
"-80.05","42.53","LONG POINT (AUT)","6134F10","2018-04-16 05:00","2018","04","16","05:00","3.4","","2.9","","97","","","M","17","","24","","","","97.92","","","","","","NA"
"-80.05","42.53","LONG POINT (AUT)","6134F10","2018-04-16 06:00","2018","04","16","06:00","2.4","","2.0","","97","","","M","17","","34","","","","97.84","","","","","","NA"
"-80.05","42.53","LONG POINT (AUT)","6134F10","2018-04-16 07:00","2018","04","16","07:00","2.5","","2.1","","97","","","M","18","","41","","","","97.87","","","","","","NA"
"-80.05","42.53","LONG POINT (AUT)","6134F10","2018-04-16 08:00","2018","04","16","08:00","2.3","","1.9","","97","","","M","20","","35","","","","97.95","","","","","","NA"
"-80.05","42.53","LONG POINT (AUT)","6134F10","2018-04-16 09:00","2018","04","16","09:00","2.4","","2.0","","97","","","M","20","","32","","","","98.00","","","","","","NA"
"-80.05","42.53","LONG POINT (AUT)","6134F10","2018-04-16 10:00","2018","04","16","10:00","2.4","","2.0","","97","","","M","20","","38","","","","98.03","","","","","","NA"
"-80.05","42.53","LONG POINT (AUT)","6134F10","2018-04-16 11:00","2018","04","16","11:00","2.2","","1.9","","97","","","M","20","","41","","","","97.96","","","","","","NA"
"-80.05","42.53","LONG POINT (AUT)","6134F10","2018-04-16 12:00","2018","04","16","12:00","2.4","","2.0","","97","","","M","20","","40","","","","98.03","","","","","","NA"
"-80.05","42.53","LONG POINT (AUT)","6134F10","2018-04-16 13:00","2018","04","16","13:00","2.1","","1.7","","97","","","M","20","","39","","","","97.99","","","","","","NA"
"-80.05","42.53","LONG POINT (AUT)","6134F10","2018-04-16 14:00","2018","04","16","14:00","2.1","","1.6","","97","","","M","20","","45","","","","98.05","","","","","","NA"
"-80.05","42.53","LONG POINT (AUT)","6134F10","2018-04-16 15:00","2018","04","16","15:00","1.8","","0.8","","93","","","M","20","","50","","","","98.07","","","","","","NA"
"-80.05","42.53","LONG POINT (AUT)","6134F10","2018-04-16 16:00","2018","04","16","16:00","1.9","","0.1","","88","","","M","20","","46","","","","98.14","","","","","","NA"
"-80.05","42.53","LONG POINT (AUT)","6134F10","2018-04-16 17:00","2018","04","16","17:00","1.8","","-0.3","","86","","","M","20","","50","","","","98.20","","","","","","NA"
"-80.05","42.53","LONG POINT (AUT)","6134F10","2018-04-16 18:00","2018","04","16","18:00","1.7","","-0.6","","85","","","M","20","","53","","","","98.25","","","","","","NA"
"-80.05","42.53","LONG POINT (AUT)","6134F10","2018-04-16 19:00","2018","04","16","19:00","1.3","","-0.3","","89","","","M","20","","49","","","","98.26","","","","","","NA"
"-80.05","42.53","LONG POINT (AUT)","6134F10","2018-04-16 20:00","2018","04","16","20:00","1.3","","-0.2","","90","","","M","20","","54","","","","98.26","","","","","","NA"
"-80.05","42.53","LONG POINT (AUT)","6134F10","2018-04-16 21:00","2018","04","16","21:00","1.6","","0.0","","89","","","M","20","","49","","","","98.27","","","","","","NA"
"-80.05","42.53","LONG POINT (AUT)","6134F10","2018-04-16 22:00","2018","04","16","22:00","1.9","","0.5","","91","","","M","21","","45","","","","98.26","","","","","","NA"
"-80.05","42.53","LONG POINT (AUT)","6134F10","2018-04-16 23:00","2018","04","16","23:00","1.9","","-0.4","","85","","","M","22","","36","","","","98.28","","","","","","NA"
"-80.05","42.53","LONG POINT (AUT)","6134F10","2018-04-17 00:00","2018","04","17","00:00","0.9","","-0.6","","90","","","M","23","","34","","","","98.32","","","","","","NA"
"-80.05","42.53","LONG POINT (AUT)","6134F10","2018-04-17 01:00","2018","04","17","01:00","1.2","","-2.2","","78","","","M","23","","28","","","","98.32","","","","","","NA"
"-80.05","42.53","LONG POINT (AUT)","6134F10","2018-04-17 02:00","2018","04","17","02:00","0.3","","-1.6","","87","","","M","22","","27","","","","98.34","","","","","","NA"
"-80.05","42.53","LONG POINT (AUT)","6134F10","2018-04-17 03:00","2018","04","17","03:00","0.1","","-2.4","","84","","","M","23","","26","","","","98.36","","","","","","NA"
"-80.05","42.53","LONG POINT (AUT)","6134F10","2018-04-17 04:00","2018","04","17","04:00","0.3","","-5.3","","66","","","M","23","","37","","","","98.38","","","","","","NA"
"-80.05","42.53","LONG POINT (AUT)","6134F10","2018-04-17 05:00","2018","04","17","05:00","0.3","","-5.2","","67","","","M","23","","29","","","","98.40","","","","","","NA"
"-80.05","42.53","LONG POINT (AUT)","6134F10","2018-04-17 06:00","2018","04","17","06:00","0.1","","-3.7","","76","","","M","23","","21","","","","98.39","","","","","","NA"
"-80.05","42.53","LONG POINT (AUT)","6134F10","2018-04-17 07:00","2018","04","17","07:00","0.3","","-3.0","","78","","","M","23","","16","","","","98.36","","","","","","NA"
"-80.05","42.53","LONG POINT (AUT)","6134F10","2018-04-17 08:00","2018","04","17","08:00","-0.2","","-2.3","","86","","","M","24","","28","","","","98.35","","","","-7","","NA"
"-80.05","42.53","LONG POINT (AUT)","6134F10","2018-04-17 09:00","2018","04","17","09:00","-0.2","","-2.8","","82","","","M","23","","29","","","","98.32","","","","-7","","NA"
"-80.05","42.53","LONG POINT (AUT)","6134F10","2018-04-17 10:00","2018","04","17","10:00","-0.3","","-2.9","","83","","","M","23","","27","","","","98.33","","","","-7","","NA"
"-80.05","42.53","LONG POINT (AUT)","6134F10","2018-04-17 11:00","2018","04","17","11:00","-1.2","","-3.6","","84","","","M","23","","29","","","","98.33","","","","-8","","NA"
"-80.05","42.53","LONG POINT (AUT)","6134F10","2018-04-17 12:00","2018","04","17","12:00","-1.2","","-2.6","","91","","","M","24","","30","","","","98.34","","","","-8","","NA"
"-80.05","42.53","LONG POINT (AUT)","6134F10","2018-04-17 13:00","2018","04","17","13:00","-0.7","","-4.2","","77","","","M","21","","39","","","","98.37","","","","-8","","NA"
"-80.05","42.53","LONG POINT (AUT)","6134F10","2018-04-17 14:00","2018","04","17","14:00","-0.5","","-5.8","","67","","","M","21","","38","","","","98.43","","","","-8","","NA"
"-80.05","42.53","LONG POINT (AUT)","6134F10","2018-04-17 15:00","2018","04","17","15:00","-0.2","","-5.0","","70","","","M","22","","32","","","","98.47","","","","-7","","NA"
"-80.05","42.53","LONG POINT (AUT)","6134F10","2018-04-17 16:00","2018","04","17","16:00","0.2","","-4.1","","73","","","M","22","","34","","","","98.50","","","","","","NA"
"-80.05","42.53","LONG POINT (AUT)","6134F10","2018-04-17 17:00","2018","04","17","17:00","0.4","","-4.0","","72","","","M","22","","36","","","","98.57","","","","","","NA"
"-80.05","42.53","LONG POINT (AUT)","6134F10","2018-04-17 18:00","2018","04","17","18:00","0.7","","-3.4","","74","","","M","22","","32","","","","98.61","","","","","","NA"
"-80.05","42.53","LONG POINT (AUT)","6134F10","2018-04-17 19:00","2018","04","17","19:00","1.0","","-3.5","","72","","","M","22","","34","","","","98.66","","","","","","NA"
"-80.05","42.53","LONG POINT (AUT)","6134F10","2018-04-17 20:00","2018","04","17","20:00","1.0","","-2.8","","76","","","M","22","","31","","","","98.73","","","","","","NA"
"-80.05","42.53","LONG POINT (AUT)","6134F10","2018-04-17 21:00","2018","04","17","21:00","1.2","","-2.3","","77","","","M","22","","34","","","","98.79","","","","","","NA"
"-80.05","42.53","LONG POINT (AUT)","6134F10","2018-04-17 22:00","2018","04","17","22:00","1.4","","-2.0","","78","","","M","23","","31","","","","98.81","","","","","","NA"
"-80.05","42.53","LONG POINT (AUT)","6134F10","2018-04-17 23:00","2018","04","17","23:00","1.3","","-2.0","","79","","","M","22","","26","","","","98.82","","","","","","NA"
"-80.05","42.53","LONG POINT (AUT)","6134F10","2018-04-18 00:00","2018","04","18","00:00","1.5","","-2.4","","75","","","M","23","","24","","","","98.86","","","","","","NA"
"-80.05","42.53","LONG POINT (AUT)","6134F10","2018-04-18 01:00","2018","04","18","01:00","1.6","","-3.0","","71","","","M","23","","23","","","","98.87","","","","","","NA"
"-80.05","42.53","LONG POINT (AUT)","6134F10","2018-04-18 02:00","2018","04","18","02:00","1.6","","-4.0","","66","","","M","23","","24","","","","98.88","","","","","","NA"
"-80.05","42.53","LONG POINT (AUT)","6134F10","2018-04-18 03:00","2018","04","18","03:00","1.5","","-4.0","","67","","","M","23","","23","","","","98.87","","","","","","NA"
"-80.05","42.53","LONG POINT (AUT)","6134F10","2018-04-18 04:00","2018","04","18","04:00","1.4","","-3.7","","69","","","M","24","","32","","","","98.90","","","","","","NA"
"-80.05","42.53","LONG POINT (AUT)","6134F10","2018-04-18 05:00","2018","04","18","05:00","1.1","","-4.0","","68","","","M","23","","23","","","","98.94","","","","","","NA"
"-80.05","42.53","LONG POINT (AUT)","6134F10","2018-04-18 06:00","2018","04","18","06:00","1.0","","-4.4","","67","","","M","24","","20","","","","98.99","","","","","","NA"
"-80.05","42.53","LONG POINT (AUT)","6134F10","2018-04-18 07:00","2018","04","18","07:00","1.0","","-4.6","","66","","","M","22","","17","","","","98.97","","","","","","NA"
"-80.05","42.53","LONG POINT (AUT)","6134F10","2018-04-18 08:00","2018","04","18","08:00","1.1","","-3.4","","72","","","M","21","","23","","","","98.98","","","","","","NA"
"-80.05","42.53","LONG POINT (AUT)","6134F10","2018-04-18 09:00","2018","04","18","09:00","1.1","","-3.0","","74","","","M","21","","23","","","","98.98","","","","","","NA"
"-80.05","42.53","LONG POINT (AUT)","6134F10","2018-04-18 10:00","2018","04","18","10:00","1.2","","-2.8","","75","","","M","21","","23","","","","98.98","","","","","","NA"
"-80.05","42.53","LONG POINT (AUT)","6134F10","2018-04-18 11:00","2018","04","18","11:00","1.2","","-3.1","","73","","","M","21","","30","","","","99.01","","","","","","NA"
"-80.05","42.53","LONG POINT (AUT)","6134F10","2018-04-18 12:00","2018","04","18","12:00","1.1","","-3.0","","74","","","M","20","","25","","","","98.98","","","","","","NA"
"-80.05","42.53","LONG POINT (AUT)","6134F10","2018-04-18 13:00","2018","04","18","13:00","1.3","","-2.4","","76","","","M","20","","25","","","","98.96","","","","","","NA"
"-80.05","42.53","LONG POINT (AUT)","6134F10","2018-04-18 14:00","2018","04","18","14:00","1.3","","-3.1","","73","","","M","21","","24","","","","98.99","","","","","","NA"
"-80.05","42.53","LONG POINT (AUT)","6134F10","2018-04-18 15:00","2018","04","18","15:00","1.2","","-2.8","","74","","","M","20","","23","","","","98.99","","","","","","NA"
"-80.05","42.53","LONG POINT (AUT)","6134F10","2018-04-18 16:00","2018","04","18","16:00","1.3","","-2.9","","74","","","M","20","","17","","","","98.93","","","","","","NA"
"-80.05","42.53","LONG POINT (AUT)","6134F10","2018-04-18 17:00","2018","04","18","17:00","1.4","","-3.0","","72","","","M","21","","14","","","","98.91","","","","","","NA"
"-80.05","42.53","LONG POINT (AUT)","6134F10","2018-04-18 18:00","2018","04","18","18:00","1.4","","-2.8","","74","","","M","26","","12","","","","98.84","","","","","","NA"
"-80.05","42.53","LONG POINT (AUT)","6134F10","2018-04-18 19:00","2018","04","18","19:00","1.9","","-2.7","","72","","","M","16","","5","","","","98.84","","","","","","NA"
"-80.05","42.53","LONG POINT (AUT)","6134F10","2018-04-18 20:00","2018","04","18","20:00","1.9","","-1.8","","77","","","M","20","","15","","","","99.01","","","","","","NA"
"-80.05","42.53","LONG POINT (AUT)","6134F10","2018-04-18 21:00","2018","04","18","21:00","1.8","","-1.6","","78","","","M","25","","7","","","","98.92","","","","","","NA"
"-80.05","42.53","LONG POINT (AUT)","6134F10","2018-04-18 22:00","2018","04","18","22:00","0.1","","-1.1","","92","","","M","31","","25","","","","98.79","","","","","","NA"
"-80.05","42.53","LONG POINT (AUT)","6134F10","2018-04-18 23:00","2018","04","18","23:00","0.1","","-1.1","","92","","","M","33","","22","","","","98.72","","","","","","NA"
"-80.05","42.53","LONG POINT (AUT)","6134F10","2018-04-19 00:00","2018","04","19","00:00","0.3","","-1.2","","90","","","M","32","","9","","","","98.74","","","","","","NA"
"-80.05","42.53","LONG POINT (AUT)","6134F10","2018-04-19 01:00","2018","04","19","01:00","0.6","","-1.1","","88","","","M","29","","6","","","","98.75","","","","","","NA"
"-80.05","42.53","LONG POINT (AUT)","6134F10","2018-04-19 02:00","2018","04","19","02:00","1.0","","-1.8","","81","","","M","28","","22","","","","98.76","","","","","","NA"
"-80.05","42.53","LONG POINT (AUT)","6134F10","2018-04-19 03:00","2018","04","19","03:00","1.1","","-1.9","","80","","","M","29","","22","","","","98.74","","","","","","NA"
"-80.05","42.53","LONG POINT (AUT)","6134F10","2018-04-19 04:00","2018","04","19","04:00","1.0","","-2.4","","78","","","M","30","","23","","","","98.73","","","","","","NA"
"-80.05","42.53","LONG POINT (AUT)","6134F10","2018-04-19 05:00","2018","04","19","05:00","1.0","","-2.8","","76","","","M","31","","31","","","","98.76","","","","","","NA"
"-80.05","42.53","LONG POINT (AUT)","6134F10","2018-04-19 06:00","2018","04","19","06:00","0.9","","-4.7","","66","","","M","31","","34","","","","98.86","","","","","","NA"
"-80.05","42.53","LONG POINT (AUT)","6134F10","2018-04-19 07:00","2018","04","19","07:00","0.9","","-5.1","","64","","","M","31","","30","","","","98.97","","","","","","NA"
"-80.05","42.53","LONG POINT (AUT)","6134F10","2018-04-19 08:00","2018","04","19","08:00","0.9","","-3.9","","70","","","M","28","","30","","","","99.10","","","","","","NA"
"-80.05","42.53","LONG POINT (AUT)","6134F10","2018-04-19 09:00","2018","04","19","09:00","0.2","","-4.9","","68","","","M","29","","41","","","","99.15","","","","","","NA"
"-80.05","42.53","LONG POINT (AUT)","6134F10","2018-04-19 10:00","2018","04","19","10:00","0.8","","-6.0","","60","","","M","30","","38","","","","99.29","","","","","","NA"
"-80.05","42.53","LONG POINT (AUT)","6134F10","2018-04-19 11:00","2018","04","19","11:00","1.3","","-4.0","","68","","","M","29","","29","","","","99.40","","","","","","NA"
"-80.05","42.53","LONG POINT (AUT)","6134F10","2018-04-19 12:00","2018","04","19","12:00","1.8","","-4.1","","65","","","M","27","","17","","","","99.50","","","","","","NA"
"-80.05","42.53","LONG POINT (AUT)","6134F10","2018-04-19 13:00","2018","04","19","13:00","2.2","","-3.5","","66","","","M","27","","30","","","","99.60","","","","","","NA"
"-80.05","42.53","LONG POINT (AUT)","6134F10","2018-04-19 14:00","2018","04","19","14:00","2.6","","-3.0","","66","","","M","27","","30","","","","99.62","","","","","","NA"
"-80.05","42.53","LONG POINT (AUT)","6134F10","2018-04-19 15:00","2018","04","19","15:00","2.7","","-3.1","","65","","","M","26","","33","","","","99.68","","","","","","NA"
"-80.05","42.53","LONG POINT (AUT)","6134F10","2018-04-19 16:00","2018","04","19","16:00","2.5","","-3.5","","64","","","M","27","","40","","","","99.77","","","","","","NA"
"-80.05","42.53","LONG POINT (AUT)","6134F10","2018-04-19 17:00","2018","04","19","17:00","2.2","","-3.5","","66","","","M","27","","36","","","","99.86","","","","","","NA"
"-80.05","42.53","LONG POINT (AUT)","6134F10","2018-04-19 18:00","2018","04","19","18:00","1.7","","-4.0","","66","","","M","28","","42","","","","99.96","","","","","","NA"
"-80.05","42.53","LONG POINT (AUT)","6134F10","2018-04-19 19:00","2018","04","19","19:00","1.8","","-4.6","","62","","","M","27","","37","","","","100.08","","","","","","NA"
"-80.05","42.53","LONG POINT (AUT)","6134F10","2018-04-19 20:00","2018","04","19","20:00","2.0","","-4.2","","63","","","M","26","","32","","","","100.18","","","","","","NA"
"-80.05","42.53","LONG POINT (AUT)","6134F10","2018-04-19 21:00","2018","04","19","21:00","1.9","","-4.1","","64","","","M","25","","31","","","","100.22","","","","","","NA"
"-80.05","42.53","LONG POINT (AUT)","6134F10","2018-04-19 22:00","2018","04","19","22:00","1.8","","-4.0","","65","","","M","25","","30","","","","100.20","","","","","","NA"
"-80.05","42.53","LONG POINT (AUT)","6134F10","2018-04-19 23:00","2018","04","19","23:00","1.9","","-3.6","","67","","","M","25","","30","","","","100.20","","","","","","NA"
"-80.05","42.53","LONG POINT (AUT)","6134F10","2018-04-20 00:00","2018","04","20","00:00","1.7","","-3.7","","68","","","M","26","","29","","","","100.25","","","","","","NA"
"-80.05","42.53","LONG POINT (AUT)","6134F10","2018-04-20 01:00","2018","04","20","01:00","1.6","","-3.7","","68","","","M","26","","27","","","","100.28","","","","","","NA"
"-80.05","42.53","LONG POINT (AUT)","6134F10","2018-04-20 02:00","2018","04","20","02:00","1.3","","-3.1","","73","","","M","27","","25","","","","100.33","","","","","","NA"
"-80.05","42.53","LONG POINT (AUT)","6134F10","2018-04-20 03:00","2018","04","20","03:00","1.1","","-3.1","","74","","","M","27","","22","","","","100.37","","","","","","NA"
"-80.05","42.53","LONG POINT (AUT)","6134F10","2018-04-20 04:00","2018","04","20","04:00","1.0","","-2.9","","75","","","M","27","","24","","","","100.43","","","","","","NA"
"-80.05","42.53","LONG POINT (AUT)","6134F10","2018-04-20 05:00","2018","04","20","05:00","0.7","","-2.8","","77","","","M","27","","23","","","","100.50","","","","","","NA"
"-80.05","42.53","LONG POINT (AUT)","6134F10","2018-04-20 06:00","2018","04","20","06:00","0.9","","-2.5","","78","","","M","28","","19","","","","100.54","","","","","","NA"
"-80.05","42.53","LONG POINT (AUT)","6134F10","2018-04-20 07:00","2018","04","20","07:00","1.0","","-3.2","","74","","","M","28","","22","","","","100.64","","","","","","NA"
"-80.05","42.53","LONG POINT (AUT)","6134F10","2018-04-20 08:00","2018","04","20","08:00","0.9","","-3.3","","74","","","M","27","","21","","","","100.72","","","","","","NA"
"-80.05","42.53","LONG POINT (AUT)","6134F10","2018-04-20 09:00","2018","04","20","09:00","1.4","","-5.3","","61","","","M","28","","20","","","","100.79","","","","","","NA"
"-80.05","42.53","LONG POINT (AUT)","6134F10","2018-04-20 10:00","2018","04","20","10:00","1.9","","-4.2","","64","","","M","27","","12","","","","100.83","","","","","","NA"
"-80.05","42.53","LONG POINT (AUT)","6134F10","2018-04-20 11:00","2018","04","20","11:00","2.7","","-4.5","","59","","","M","26","","4","","","","100.85","","","","","","NA"
"-80.05","42.53","LONG POINT (AUT)","6134F10","2018-04-20 12:00","2018","04","20","12:00","3.2","","-5.7","","52","","","M","26","","6","","","","100.83","","","","","","NA"
"-80.05","42.53","LONG POINT (AUT)","6134F10","2018-04-20 13:00","2018","04","20","13:00","2.5","","-2.0","","72","","","M","17","","18","","","","100.83","","","","","","NA"
"-80.05","42.53","LONG POINT (AUT)","6134F10","2018-04-20 14:00","2018","04","20","14:00","2.3","","-0.4","","83","","","M","19","","25","","","","100.86","","","","","","NA"
"-80.05","42.53","LONG POINT (AUT)","6134F10","2018-04-20 15:00","2018","04","20","15:00","2.3","","0.1","","86","","","M","18","","22","","","","100.84","","","","","","NA"
"-80.05","42.53","LONG POINT (AUT)","6134F10","2018-04-20 16:00","2018","04","20","16:00","2.5","","0.2","","85","","","M","18","","22","","","","100.82","","","","","","NA"
"-80.05","42.53","LONG POINT (AUT)","6134F10","2018-04-20 17:00","2018","04","20","17:00","2.6","","0.2","","84","","","M","18","","21","","","","100.82","","","","","","NA"
"-80.05","42.53","LONG POINT (AUT)","6134F10","2018-04-20 18:00","2018","04","20","18:00","2.8","","0.2","","83","","","M","20","","21","","","","100.84","","","","","","NA"
"-80.05","42.53","LONG POINT (AUT)","6134F10","2018-04-20 19:00","2018","04","20","19:00","3.6","","0.6","","81","","","M","21","","12","","","","100.85","","","","","","NA"
"-80.05","42.53","LONG POINT (AUT)","6134F10","2018-04-20 20:00","2018","04","20","20:00","5.7","","-2.1","","57","","","M","26","","10","","","","100.90","","","","","","NA"
"-80.05","42.53","LONG POINT (AUT)","6134F10","2018-04-20 21:00","2018","04","20","21:00","4.5","","-2.6","","60","","","M","30","","15","","","","100.88","","","","","","NA"
"-80.05","42.53","LONG POINT (AUT)","6134F10","2018-04-20 22:00","2018","04","20","22:00","4.1","","-3.0","","60","","","M","31","","20","","","","100.85","","","","","","NA"
"-80.05","42.53","LONG POINT (AUT)","6134F10","2018-04-20 23:00","2018","04","20","23:00","3.8","","-3.8","","58","","","M","30","","22","","","","100.89","","","","","","NA"
"-80.05","42.53","LONG POINT (AUT)","6134F10","2018-04-21 00:00","2018","04","21","00:00","2.8","","-2.7","","67","","","M","30","","18","","","","100.96","","","","","","NA"
"-80.05","42.53","LONG POINT (AUT)","6134F10","2018-04-21 01:00","2018","04","21","01:00","2.6","","-3.2","","66","","","M","31","","17","","","","100.95","","","","","","NA"
"-80.05","42.53","LONG POINT (AUT)","6134F10","2018-04-21 02:00","2018","04","21","02:00","2.3","","-3.1","","67","","","M","33","","14","","","","100.92","","","","","","NA"
"-80.05","42.53","LONG POINT (AUT)","6134F10","2018-04-21 03:00","2018","04","21","03:00","1.9","","-3.3","","68","","","M","33","","13","","","","100.96","","","","","","NA"
"-80.05","42.53","LONG POINT (AUT)","6134F10","2018-04-21 04:00","2018","04","21","04:00","1.5","","-3.1","","71","","","M","34","","10","","","","100.95","","","","","","NA"
"-80.05","42.53","LONG POINT (AUT)","6134F10","2018-04-21 05:00","2018","04","21","05:00","1.2","","-3.2","","72","","","M","35","","9","","","","100.95","","","","","","NA"
"-80.05","42.53","LONG POINT (AUT)","6134F10","2018-04-21 06:00","2018","04","21","06:00","1.1","","-2.1","","79","","","M","22","","4","","","","101.05","","","","","","NA"
"-80.05","42.53","LONG POINT (AUT)","6134F10","2018-04-21 07:00","2018","04","21","07:00","1.6","","-0.4","","87","","","M","22","","6","","","","101.11","","","","","","NA"
"-80.05","42.53","LONG POINT (AUT)","6134F10","2018-04-21 08:00","2018","04","21","08:00","2.0","","-0.4","","84","","","M","20","","8","","","","101.14","","","","","","NA"
"-80.05","42.53","LONG POINT (AUT)","6134F10","2018-04-21 09:00","2018","04","21","09:00","2.1","","-0.2","","85","","","M","31","","5","","","","101.10","","","","","","NA"
"-80.05","42.53","LONG POINT (AUT)","6134F10","2018-04-21 10:00","2018","04","21","10:00","2.9","","-1.2","","74","","","M","14","","4","","","","101.11","","","","","","NA"
"-80.05","42.53","LONG POINT (AUT)","6134F10","2018-04-21 11:00","2018","04","21","11:00","3.1","","-4.5","","58","","","M","16","","10","","","","101.05","","","","","","NA"
"-80.05","42.53","LONG POINT (AUT)","6134F10","2018-04-21 12:00","2018","04","21","12:00","2.7","","-3.6","","63","","","M","18","","14","","","","101.01","","","","","","NA"
"-80.05","42.53","LONG POINT (AUT)","6134F10","2018-04-21 13:00","2018","04","21","13:00","4.2","","-1.9","","65","","","M","29","","7","","","","101.00","","","","","","NA"
"-80.05","42.53","LONG POINT (AUT)","6134F10","2018-04-21 14:00","2018","04","21","14:00","5.2","","-1.7","","61","","","M","26","","6","","","","100.96","","","","","","NA"
"-80.05","42.53","LONG POINT (AUT)","6134F10","2018-04-21 15:00","2018","04","21","15:00","5.2","","-4.5","","49","","","M","17","","10","","","","100.86","","","","","","NA"
"-80.05","42.53","LONG POINT (AUT)","6134F10","2018-04-21 16:00","2018","04","21","16:00","4.8","","-4.2","","52","","","M","19","","15","","","","100.81","","","","","","NA"
"-80.05","42.53","LONG POINT (AUT)","6134F10","2018-04-21 17:00","2018","04","21","17:00","5.0","","-5.1","","48","","","M","18","","12","","","","100.78","","","","","","NA"
"-80.05","42.53","LONG POINT (AUT)","6134F10","2018-04-21 18:00","2018","04","21","18:00","4.7","","-5.5","","48","","","M","19","","19","","","","100.79","","","","","","NA"
"-80.05","42.53","LONG POINT (AUT)","6134F10","2018-04-21 19:00","2018","04","21","19:00","4.6","","-5.3","","49","","","M","19","","21","","","","100.80","","","","","","NA"
"-80.05","42.53","LONG POINT (AUT)","6134F10","2018-04-21 20:00","2018","04","21","20:00","4.7","","-3.4","","56","","","M","21","","11","","","","100.81","","","","","","NA"
"-80.05","42.53","LONG POINT (AUT)","6134F10","2018-04-21 21:00","2018","04","21","21:00","5.3","","-6.9","","41","","","M","24","","11","","","","100.83","","","","","","NA"
"-80.05","42.53","LONG POINT (AUT)","6134F10","2018-04-21 22:00","2018","04","21","22:00","7.2","","-11.2","","26","","","M","25","","11","","","","100.82","","","","","","NA"
"-80.05","42.53","LONG POINT (AUT)","6134F10","2018-04-21 23:00","2018","04","21","23:00","7.8","","-11.5","","24","","","M","28","","9","","","","100.80","","","","","","NA"
"-80.05","42.53","LONG POINT (AUT)","6134F10","2018-04-22 00:00","2018","04","22","00:00","7.7","","-11.3","","25","","","M","29","","6","","","","100.83","","","","","","NA"
"-80.05","42.53","LONG POINT (AUT)","6134F10","2018-04-22 01:00","2018","04","22","01:00","7.4","","-10.7","","26","","","M","35","","4","","","","100.80","","","","","","NA"
"-80.05","42.53","LONG POINT (AUT)","6134F10","2018-04-22 02:00","2018","04","22","02:00","3.1","","-3.5","","62","","","M","13","","10","","","","100.76","","","","","","NA"
"-80.05","42.53","LONG POINT (AUT)","6134F10","2018-04-22 03:00","2018","04","22","03:00","4.2","","-5.6","","49","","","M","13","","8","","","","100.78","","","","","","NA"
"-80.05","42.53","LONG POINT (AUT)","6134F10","2018-04-22 04:00","2018","04","22","04:00","4.4","","-6.4","","45","","","M","11","","5","","","","100.78","","","","","","NA"
"-80.05","42.53","LONG POINT (AUT)","6134F10","2018-04-22 05:00","2018","04","22","05:00","4.4","","-6.5","","45","","","M","2","","6","","","","100.77","","","","","","NA"
"-80.05","42.53","LONG POINT (AUT)","6134F10","2018-04-22 06:00","2018","04","22","06:00","4.1","","-5.7","","49","","","M","35","","12","","","","100.81","","","","","","NA"
"-80.05","42.53","LONG POINT (AUT)","6134F10","2018-04-22 07:00","2018","04","22","07:00","3.7","","-4.2","","56","","","M","35","","11","","","","100.91","","","","","","NA"
"-80.05","42.53","LONG POINT (AUT)","6134F10","2018-04-22 08:00","2018","04","22","08:00","4.0","","-4.8","","53","","","M","35","","10","","","","100.94","","","","","","NA"
"-80.05","42.53","LONG POINT (AUT)","6134F10","2018-04-22 09:00","2018","04","22","09:00","3.9","","-4.8","","53","","","M","34","","12","","","","100.96","","","","","","NA"
"-80.05","42.53","LONG POINT (AUT)","6134F10","2018-04-22 10:00","2018","04","22","10:00","4.0","","-4.3","","55","","","M","35","","21","","","","100.93","","","","","","NA"
"-80.05","42.53","LONG POINT (AUT)","6134F10","2018-04-22 11:00","2018","04","22","11:00","5.6","","-7.0","","40","","","M","36","","22","","","","100.91","","","","","","NA"
"-80.05","42.53","LONG POINT (AUT)","6134F10","2018-04-22 12:00","2018","04","22","12:00","7.6","","-7.9","","32","","","M","36","","24","","","","100.85","","","","","","NA"
"-80.05","42.53","LONG POINT (AUT)","6134F10","2018-04-22 13:00","2018","04","22","13:00","9.5","","-11.2","","22","","","M","1","","28","","","","100.80","","","","","","NA"
"-80.05","42.53","LONG POINT (AUT)","6134F10","2018-04-22 14:00","2018","04","22","14:00","10.9","","-14.7","","15","","","M","1","","27","","","","100.75","","","","","","NA"
"-80.05","42.53","LONG POINT (AUT)","6134F10","2018-04-22 15:00","2018","04","22","15:00","11.4","","-8.5","","24","","","M","36","","26","","","","100.67","","","","","","NA"
"-80.05","42.53","LONG POINT (AUT)","6134F10","2018-04-22 16:00","2018","04","22","16:00","12.9","","-11.2","","18","","","M","36","","26","","","","100.63","","","","","","NA"
"-80.05","42.53","LONG POINT (AUT)","6134F10","2018-04-22 17:00","2018","04","22","17:00","12.9","","-10.2","","19","","","M","1","","32","","","","100.59","","","","","","NA"
"-80.05","42.53","LONG POINT (AUT)","6134F10","2018-04-22 18:00","2018","04","22","18:00","13.4","","-8.9","","20","","","M","1","","36","","","","100.54","","","","","","NA"
"-80.05","42.53","LONG POINT (AUT)","6134F10","2018-04-22 19:00","2018","04","22","19:00","13.2","","-8.4","","21","","","M","36","","37","","","","100.56","","","","","","NA"
"-80.05","42.53","LONG POINT (AUT)","6134F10","2018-04-22 20:00","2018","04","22","20:00","13.1","","-7.9","","22","","","M","36","","41","","","","100.58","","","","","","NA"
"-80.05","42.53","LONG POINT (AUT)","6134F10","2018-04-22 21:00","2018","04","22","21:00","11.6","","-7.2","","26","","","M","1","","43","","","","100.60","","","","","","NA"
"-80.05","42.53","LONG POINT (AUT)","6134F10","2018-04-22 22:00","2018","04","22","22:00","9.4","","-5.7","","34","","","M","2","","41","","","","100.59","","","","","","NA"
"-80.05","42.53","LONG POINT (AUT)","6134F10","2018-04-22 23:00","2018","04","22","23:00","8.4","","-4.7","","39","","","M","4","","43","","","","100.56","","","","","","NA"
"-80.05","42.53","LONG POINT (AUT)","6134F10","2018-04-23 00:00","2018","04","23","00:00","8.4","","-4.5","","40","","","M","4","","42","","","","100.56","","","","","","NA"
"-80.05","42.53","LONG POINT (AUT)","6134F10","2018-04-23 01:00","2018","04","23","01:00","7.9","","-3.8","","44","","","M","3","","42","","","","100.52","","","","","","NA"
"-80.05","42.53","LONG POINT (AUT)","6134F10","2018-04-23 02:00","2018","04","23","02:00","7.2","","-3.7","","46","","","M","4","","40","","","","100.53","","","","","","NA"
"-80.05","42.53","LONG POINT (AUT)","6134F10","2018-04-23 03:00","2018","04","23","03:00","5.9","","-2.7","","54","","","M","4","","36","","","","100.53","","","","","","NA"
"-80.05","42.53","LONG POINT (AUT)","6134F10","2018-04-23 04:00","2018","04","23","04:00","6.6","","-3.5","","49","","","M","4","","37","","","","100.52","","","","","","NA"
"-80.05","42.53","LONG POINT (AUT)","6134F10","2018-04-23 05:00","2018","04","23","05:00","5.6","","-2.7","","55","","","M","4","","35","","","","100.53","","","","","","NA"
"-80.05","42.53","LONG POINT (AUT)","6134F10","2018-04-23 06:00","2018","04","23","06:00","6.1","","-2.9","","52","","","M","4","","32","","","","100.56","","","","","","NA"
"-80.05","42.53","LONG POINT (AUT)","6134F10","2018-04-23 07:00","2018","04","23","07:00","5.6","","-2.1","","58","","","M","4","","25","","","","100.62","","","","","","NA"
"-80.05","42.53","LONG POINT (AUT)","6134F10","2018-04-23 08:00","2018","04","23","08:00","5.4","","-2.1","","58","","","M","4","","27","","","","100.61","","","","","","NA"
"-80.05","42.53","LONG POINT (AUT)","6134F10","2018-04-23 09:00","2018","04","23","09:00","5.2","","-1.6","","62","","","M","3","","33","","","","100.55","","","","","","NA"
"-80.05","42.53","LONG POINT (AUT)","6134F10","2018-04-23 10:00","2018","04","23","10:00","5.7","","-1.0","","62","","","M","2","","32","","","","100.52","","","","","","NA"
"-80.05","42.53","LONG POINT (AUT)","6134F10","2018-04-23 11:00","2018","04","23","11:00","7.0","","-1.3","","56","","","M","2","","35","","","","100.45","","","","","","NA"
"-80.05","42.53","LONG POINT (AUT)","6134F10","2018-04-23 12:00","2018","04","23","12:00","8.3","","-1.9","","49","","","M","2","","38","","","","100.38","","","","","","NA"
"-80.05","42.53","LONG POINT (AUT)","6134F10","2018-04-23 13:00","2018","04","23","13:00","10.8","","-3.4","","37","","","M","2","","43","","","","100.30","","","","","","NA"
"-80.05","42.53","LONG POINT (AUT)","6134F10","2018-04-23 14:00","2018","04","23","14:00","15.2","","-4.7","","25","","","M","2","","45","","","","100.22","","","","","","NA"
"-80.05","42.53","LONG POINT (AUT)","6134F10","2018-04-23 15:00","2018","04","23","15:00","15.7","","-4.0","","25","","","M","2","","45","","","","100.14","","","","","","NA"
"-80.05","42.53","LONG POINT (AUT)","6134F10","2018-04-23 16:00","2018","04","23","16:00","16.8","","-1.9","","28","","","M","1","","41","","","","100.05","","","","","","NA"
"-80.05","42.53","LONG POINT (AUT)","6134F10","2018-04-23 17:00","2018","04","23","17:00","18.1","","-3.3","","23","","","M","36","","31","","","","100.04","","","","","","NA"
"-80.05","42.53","LONG POINT (AUT)","6134F10","2018-04-23 18:00","2018","04","23","18:00","16.7","","-1.4","","29","","","M","35","","36","","","","100.04","","","","","","NA"
"-80.05","42.53","LONG POINT (AUT)","6134F10","2018-04-23 19:00","2018","04","23","19:00","12.5","","-1.8","","37","","","M","34","","34","","","","100.05","","","","","","NA"
"-80.05","42.53","LONG POINT (AUT)","6134F10","2018-04-23 20:00","2018","04","23","20:00","12.4","","-1.6","","38","","","M","34","","28","","","","100.05","","","","","","NA"
"-80.05","42.53","LONG POINT (AUT)","6134F10","2018-04-23 21:00","2018","04","23","21:00","9.4","","-1.0","","48","","","M","36","","23","","","","100.11","","","","","","NA"
"-80.05","42.53","LONG POINT (AUT)","6134F10","2018-04-23 22:00","2018","04","23","22:00","7.8","","-0.4","","56","","","M","2","","20","","","","100.08","","","","","","NA"
"-80.05","42.53","LONG POINT (AUT)","6134F10","2018-04-23 23:00","2018","04","23","23:00","9.6","","0.9","","55","","","M","6","","16","","","","100.07","","","","","","NA"
"-80.05","42.53","LONG POINT (AUT)","6134F10","2018-04-24 00:00","2018","04","24","00:00","12.6","","2.9","","52","","","M","12","","19","","","","100.05","","","","","","NA"
"-80.05","42.53","LONG POINT (AUT)","6134F10","2018-04-24 01:00","2018","04","24","01:00","15.3","","4.2","","47","","","M","15","","33","","","","100.04","","","","","","NA"
"-80.05","42.53","LONG POINT (AUT)","6134F10","2018-04-24 02:00","2018","04","24","02:00","11.0","","2.5","","56","","","M","16","","20","","","","100.03","","","","","","NA"
"-80.05","42.53","LONG POINT (AUT)","6134F10","2018-04-24 03:00","2018","04","24","03:00","12.6","","3.6","","54","","","M","16","","14","","","","100.05","","","","","","NA"
"-80.05","42.53","LONG POINT (AUT)","6134F10","2018-04-24 04:00","2018","04","24","04:00","11.5","","4.1","","60","","","M","15","","14","","","","100.04","","","","","","NA"
"-80.05","42.53","LONG POINT (AUT)","6134F10","2018-04-24 05:00","2018","04","24","05:00","12.2","","4.8","","61","","","M","12","","24","","","","100.06","","","","","","NA"
"-80.05","42.53","LONG POINT (AUT)","6134F10","2018-04-24 06:00","2018","04","24","06:00","10.6","","4.7","","67","","","M","12","","35","","","","100.11","","","","","","NA"
"-80.05","42.53","LONG POINT (AUT)","6134F10","2018-04-24 07:00","2018","04","24","07:00","10.2","","6.0","","75","","","M","12","","41","","","","100.10","","","","","","NA"
"-80.05","42.53","LONG POINT (AUT)","6134F10","2018-04-24 08:00","2018","04","24","08:00","10.2","","5.1","","70","","","M","11","","37","","","","100.07","","","","","","NA"
"-80.05","42.53","LONG POINT (AUT)","6134F10","2018-04-24 09:00","2018","04","24","09:00","8.3","","3.0","","69","","","M","11","","26","","","","100.07","","","","","","NA"
"-80.05","42.53","LONG POINT (AUT)","6134F10","2018-04-24 10:00","2018","04","24","10:00","10.0","","3.6","","64","","","M","10","","23","","","","99.99","","","","","","NA"
"-80.05","42.53","LONG POINT (AUT)","6134F10","2018-04-24 11:00","2018","04","24","11:00","12.8","","3.5","","53","","","M","11","","22","","","","99.93","","","","","","NA"
"-80.05","42.53","LONG POINT (AUT)","6134F10","2018-04-24 12:00","2018","04","24","12:00","12.6","","3.7","","54","","","M","11","","19","","","","99.89","","","","","","NA"
"-80.05","42.53","LONG POINT (AUT)","6134F10","2018-04-24 13:00","2018","04","24","13:00","12.6","","3.9","","56","","","M","10","","16","","","","99.84","","","","","","NA"
"-80.05","42.53","LONG POINT (AUT)","6134F10","2018-04-24 14:00","2018","04","24","14:00","10.8","","6.4","","74","","","M","11","","36","","","","99.80","","","","","","NA"
"-80.05","42.53","LONG POINT (AUT)","6134F10","2018-04-24 15:00","2018","04","24","15:00","11.0","","7.6","","79","","","M","10","","18","","","","99.76","","","","","","NA"
"-80.05","42.53","LONG POINT (AUT)","6134F10","2018-04-24 16:00","2018","04","24","16:00","10.1","","7.6","","85","","","M","4","","16","","","","99.69","","","","","","NA"
"-80.05","42.53","LONG POINT (AUT)","6134F10","2018-04-24 17:00","2018","04","24","17:00","9.9","","8.3","","90","","","M","3","","26","","","","99.66","","","","","","NA"
"-80.05","42.53","LONG POINT (AUT)","6134F10","2018-04-24 18:00","2018","04","24","18:00","9.5","","8.6","","94","","","M","2","","33","","","","99.60","","","","","","NA"
"-80.05","42.53","LONG POINT (AUT)","6134F10","2018-04-24 19:00","2018","04","24","19:00","8.8","","8.1","","95","","","M","2","","33","","","","99.57","","","","","","NA"
"-80.05","42.53","LONG POINT (AUT)","6134F10","2018-04-24 20:00","2018","04","24","20:00","7.4","","6.8","","96","","","M","2","","38","","","","99.56","","","","","","NA"
"-80.05","42.53","LONG POINT (AUT)","6134F10","2018-04-24 21:00","2018","04","24","21:00","7.4","","6.8","","96","","","M","4","","37","","","","99.57","","","","","","NA"
"-80.05","42.53","LONG POINT (AUT)","6134F10","2018-04-24 22:00","2018","04","24","22:00","7.5","","6.9","","96","","","M","4","","36","","","","99.49","","","","","","NA"
"-80.05","42.53","LONG POINT (AUT)","6134F10","2018-04-24 23:00","2018","04","24","23:00","7.5","","6.9","","96","","","M","4","","36","","","","99.41","","","","","","NA"
"-80.05","42.53","LONG POINT (AUT)","6134F10","2018-04-25 00:00","2018","04","25","00:00","6.5","","6.0","","96","","","M","3","","33","","","","99.35","","","","","","NA"
"-80.05","42.53","LONG POINT (AUT)","6134F10","2018-04-25 01:00","2018","04","25","01:00","6.6","","6.0","","96","","","M","3","","33","","","","99.27","","","","","","NA"
"-80.05","42.53","LONG POINT (AUT)","6134F10","2018-04-25 02:00","2018","04","25","02:00","6.2","","5.7","","97","","","M","3","","33","","","","99.19","","","","","","NA"
"-80.05","42.53","LONG POINT (AUT)","6134F10","2018-04-25 03:00","2018","04","25","03:00","6.0","","5.4","","97","","","M","3","","30","","","","99.15","","","","","","NA"
"-80.05","42.53","LONG POINT (AUT)","6134F10","2018-04-25 04:00","2018","04","25","04:00","6.4","","5.9","","97","","","M","2","","30","","","","99.10","","","","","","NA"
"-80.05","42.53","LONG POINT (AUT)","6134F10","2018-04-25 05:00","2018","04","25","05:00","6.2","","5.7","","97","","","M","3","","34","","","","99.06","","","","","","NA"
"-80.05","42.53","LONG POINT (AUT)","6134F10","2018-04-25 06:00","2018","04","25","06:00","8.1","","7.5","","96","","","M","3","","33","","","","99.04","","","","","","NA"
"-80.05","42.53","LONG POINT (AUT)","6134F10","2018-04-25 07:00","2018","04","25","07:00","8.2","","7.7","","97","","","M","2","","29","","","","99.01","","","","","","NA"
"-80.05","42.53","LONG POINT (AUT)","6134F10","2018-04-25 08:00","2018","04","25","08:00","7.9","","7.4","","97","","","M","2","","26","","","","98.97","","","","","","NA"
"-80.05","42.53","LONG POINT (AUT)","6134F10","2018-04-25 09:00","2018","04","25","09:00","7.8","","7.3","","97","","","M","3","","22","","","","98.93","","","","","","NA"
"-80.05","42.53","LONG POINT (AUT)","6134F10","2018-04-25 10:00","2018","04","25","10:00","8.1","","7.6","","97","","","M","3","","15","","","","98.92","","","","","","NA"
"-80.05","42.53","LONG POINT (AUT)","6134F10","2018-04-25 11:00","2018","04","25","11:00","8.2","","7.6","","97","","","M","7","","13","","","","98.89","","","","","","NA"
"-80.05","42.53","LONG POINT (AUT)","6134F10","2018-04-25 12:00","2018","04","25","12:00","8.1","","7.5","","97","","","M","11","","10","","","","98.85","","","","","","NA"
"-80.05","42.53","LONG POINT (AUT)","6134F10","2018-04-25 13:00","2018","04","25","13:00","6.4","","5.9","","97","","","M","20","","23","","","","98.83","","","","","","NA"
"-80.05","42.53","LONG POINT (AUT)","6134F10","2018-04-25 14:00","2018","04","25","14:00","5.7","","5.2","","97","","","M","20","","28","","","","98.80","","","","","","NA"
"-80.05","42.53","LONG POINT (AUT)","6134F10","2018-04-25 15:00","2018","04","25","15:00","4.9","","4.5","","97","","","M","21","","19","","","","98.75","","","","","","NA"
"-80.05","42.53","LONG POINT (AUT)","6134F10","2018-04-25 16:00","2018","04","25","16:00","8.4","","7.8","","97","","","M","24","","38","","","","98.80","","","","","","NA"
"-80.05","42.53","LONG POINT (AUT)","6134F10","2018-04-25 17:00","2018","04","25","17:00","7.4","","6.8","","96","","","M","26","","38","","","","98.83","","","","","","NA"
"-80.05","42.53","LONG POINT (AUT)","6134F10","2018-04-25 18:00","2018","04","25","18:00","7.1","","4.8","","85","","","M","26","","36","","","","98.87","","","","","","NA"
"-80.05","42.53","LONG POINT (AUT)","6134F10","2018-04-25 19:00","2018","04","25","19:00","6.7","","3.2","","79","","","M","27","","37","","","","98.90","","","","","","NA"
"-80.05","42.53","LONG POINT (AUT)","6134F10","2018-04-25 20:00","2018","04","25","20:00","5.9","","2.6","","80","","","M","26","","39","","","","98.97","","","","","","NA"
"-80.05","42.53","LONG POINT (AUT)","6134F10","2018-04-25 21:00","2018","04","25","21:00","5.0","","2.2","","82","","","M","26","","34","","","","99.04","","","","","","NA"
"-80.05","42.53","LONG POINT (AUT)","6134F10","2018-04-25 22:00","2018","04","25","22:00","4.3","","1.4","","82","","","M","25","","29","","","","99.04","","","","","","NA"
"-80.05","42.53","LONG POINT (AUT)","6134F10","2018-04-25 23:00","2018","04","25","23:00","4.3","","1.2","","80","","","M","25","","34","","","","99.01","","","","","","NA"
"-80.05","42.53","LONG POINT (AUT)","6134F10","2018-04-26 00:00","2018","04","26","00:00","4.4","","1.5","","81","","","M","25","","29","","","","98.98","","","","","","NA"
"-80.05","42.53","LONG POINT (AUT)","6134F10","2018-04-26 01:00","2018","04","26","01:00","4.4","","1.8","","83","","","M","25","","24","","","","98.92","","","","","","NA"
"-80.05","42.53","LONG POINT (AUT)","6134F10","2018-04-26 02:00","2018","04","26","02:00","4.6","","1.9","","83","","","M","24","","22","","","","98.91","","","","","","NA"
"-80.05","42.53","LONG POINT (AUT)","6134F10","2018-04-26 03:00","2018","04","26","03:00","4.5","","1.5","","81","","","M","25","","26","","","","98.93","","","","","","NA"
"-80.05","42.53","LONG POINT (AUT)","6134F10","2018-04-26 04:00","2018","04","26","04:00","4.2","","1.1","","81","","","M","24","","30","","","","98.94","","","","","","NA"
"-80.05","42.53","LONG POINT (AUT)","6134F10","2018-04-26 05:00","2018","04","26","05:00","3.9","","0.8","","80","","","M","25","","28","","","","98.98","","","","","","NA"
"-80.05","42.53","LONG POINT (AUT)","6134F10","2018-04-26 06:00","2018","04","26","06:00","3.6","","0.9","","82","","","M","22","","15","","","","99.06","","","","","","NA"
"-80.05","42.53","LONG POINT (AUT)","6134F10","2018-04-26 07:00","2018","04","26","07:00","3.9","","0.7","","80","","","M","23","","15","","","","99.11","","","","","","NA"
"-80.05","42.53","LONG POINT (AUT)","6134F10","2018-04-26 08:00","2018","04","26","08:00","3.2","","0.6","","83","","","M","21","","25","","","","99.15","","","","","","NA"
"-80.05","42.53","LONG POINT (AUT)","6134F10","2018-04-26 09:00","2018","04","26","09:00","3.2","","1.0","","86","","","M","19","","30","","","","99.16","","","","","","NA"
"-80.05","42.53","LONG POINT (AUT)","6134F10","2018-04-26 10:00","2018","04","26","10:00","3.1","","1.4","","89","","","M","19","","32","","","","99.17","","","","","","NA"
"-80.05","42.53","LONG POINT (AUT)","6134F10","2018-04-26 11:00","2018","04","26","11:00","3.2","","1.6","","90","","","M","19","","31","","","","99.16","","","","","","NA"
"-80.05","42.53","LONG POINT (AUT)","6134F10","2018-04-26 12:00","2018","04","26","12:00","3.3","","1.9","","91","","","M","18","","28","","","","99.17","","","","","","NA"
"-80.05","42.53","LONG POINT (AUT)","6134F10","2018-04-26 13:00","2018","04","26","13:00","3.6","","1.6","","87","","","M","19","","33","","","","99.17","","","","","","NA"
"-80.05","42.53","LONG POINT (AUT)","6134F10","2018-04-26 14:00","2018","04","26","14:00","3.9","","1.2","","83","","","M","19","","34","","","","99.15","","","","","","NA"
"-80.05","42.53","LONG POINT (AUT)","6134F10","2018-04-26 15:00","2018","04","26","15:00","4.3","","2.0","","85","","","M","19","","35","","","","99.13","","","","","","NA"
"-80.05","42.53","LONG POINT (AUT)","6134F10","2018-04-26 16:00","2018","04","26","16:00","5.1","","1.8","","79","","","M","20","","30","","","","99.10","","","","","","NA"
"-80.05","42.53","LONG POINT (AUT)","6134F10","2018-04-26 17:00","2018","04","26","17:00","6.8","","1.8","","70","","","M","21","","25","","","","99.08","","","","","","NA"
"-80.05","42.53","LONG POINT (AUT)","6134F10","2018-04-26 18:00","2018","04","26","18:00","8.3","","2.3","","66","","","M","21","","16","","","","99.02","","","","","","NA"
"-80.05","42.53","LONG POINT (AUT)","6134F10","2018-04-26 19:00","2018","04","26","19:00","4.5","","1.2","","79","","","M","17","","26","","","","99.04","","","","","","NA"
"-80.05","42.53","LONG POINT (AUT)","6134F10","2018-04-26 20:00","2018","04","26","20:00","4.3","","0.9","","79","","","M","17","","30","","","","99.09","","","","","","NA"
"-80.05","42.53","LONG POINT (AUT)","6134F10","2018-04-26 21:00","2018","04","26","21:00","6.1","","-0.4","","63","","","M","17","","21","","","","99.08","","","","","","NA"
"-80.05","42.53","LONG POINT (AUT)","6134F10","2018-04-26 22:00","2018","04","26","22:00","6.7","","0.3","","64","","","M","16","","19","","","","99.01","","","","","","NA"
"-80.05","42.53","LONG POINT (AUT)","6134F10","2018-04-26 23:00","2018","04","26","23:00","5.9","","0.0","","66","","","M","14","","19","","","","98.97","","","","","","NA"
"-80.05","42.53","LONG POINT (AUT)","6134F10","2018-04-27 00:00","2018","04","27","00:00","7.6","","0.8","","62","","","M","14","","20","","","","98.91","","","","","","NA"
"-80.05","42.53","LONG POINT (AUT)","6134F10","2018-04-27 01:00","2018","04","27","01:00","5.1","","1.0","","75","","","M","16","","6","","","","98.85","","","","","","NA"
"-80.05","42.53","LONG POINT (AUT)","6134F10","2018-04-27 02:00","2018","04","27","02:00","4.8","","1.7","","80","","","M","32","","7","","","","98.81","","","","","","NA"
"-80.05","42.53","LONG POINT (AUT)","6134F10","2018-04-27 03:00","2018","04","27","03:00","5.0","","1.6","","79","","","M","35","","6","","","","98.75","","","","","","NA"
"-80.05","42.53","LONG POINT (AUT)","6134F10","2018-04-27 04:00","2018","04","27","04:00","4.7","","1.6","","80","","","M","34","","10","","","","98.74","","","","","","NA"
"-80.05","42.53","LONG POINT (AUT)","6134F10","2018-04-27 05:00","2018","04","27","05:00","4.7","","1.2","","79","","","M","5","","12","","","","98.77","","","","","","NA"
"-80.05","42.53","LONG POINT (AUT)","6134F10","2018-04-27 06:00","2018","04","27","06:00","4.9","","1.5","","79","","","M","6","","16","","","","98.75","","","","","","NA"
"-80.05","42.53","LONG POINT (AUT)","6134F10","2018-04-27 07:00","2018","04","27","07:00","6.1","","1.4","","72","","","M","3","","10","","","","98.72","","","","","","NA"
"-80.05","42.53","LONG POINT (AUT)","6134F10","2018-04-27 08:00","2018","04","27","08:00","3.6","","1.1","","83","","","M","5","","21","","","","98.70","","","","","","NA"
"-80.05","42.53","LONG POINT (AUT)","6134F10","2018-04-27 09:00","2018","04","27","09:00","5.6","","1.2","","73","","","M","4","","9","","","","98.64","","","","","","NA"
"-80.05","42.53","LONG POINT (AUT)","6134F10","2018-04-27 10:00","2018","04","27","10:00","4.9","","1.5","","79","","","M","5","","10","","","","98.64","","","","","","NA"
"-80.05","42.53","LONG POINT (AUT)","6134F10","2018-04-27 11:00","2018","04","27","11:00","6.4","","1.6","","71","","","M","6","","10","","","","98.60","","","","","","NA"
"-80.05","42.53","LONG POINT (AUT)","6134F10","2018-04-27 12:00","2018","04","27","12:00","5.9","","1.1","","71","","","M","3","","10","","","","98.55","","","","","","NA"
"-80.05","42.53","LONG POINT (AUT)","6134F10","2018-04-27 13:00","2018","04","27","13:00","7.0","","0.7","","64","","","M","5","","11","","","","98.48","","","","","","NA"
"-80.05","42.53","LONG POINT (AUT)","6134F10","2018-04-27 14:00","2018","04","27","14:00","7.9","","-0.5","","55","","","M","1","","10","","","","98.42","","","","","","NA"
"-80.05","42.53","LONG POINT (AUT)","6134F10","2018-04-27 15:00","2018","04","27","15:00","8.9","","-0.1","","53","","","M","36","","13","","","","98.36","","","","","","NA"
"-80.05","42.53","LONG POINT (AUT)","6134F10","2018-04-27 16:00","2018","04","27","16:00","7.9","","0.0","","57","","","M","6","","13","","","","98.34","","","","","","NA"
"-80.05","42.53","LONG POINT (AUT)","6134F10","2018-04-27 17:00","2018","04","27","17:00","8.4","","0.2","","56","","","M","9","","15","","","","98.30","","","","","","NA"
"-80.05","42.53","LONG POINT (AUT)","6134F10","2018-04-27 18:00","2018","04","27","18:00","9.0","","-0.8","","50","","","M","10","","23","","","","98.26","","","","","","NA"
"-80.05","42.53","LONG POINT (AUT)","6134F10","2018-04-27 19:00","2018","04","27","19:00","10.4","","-2.6","","40","","","M","12","","26","","","","98.32","","","","","","NA"
"-80.05","42.53","LONG POINT (AUT)","6134F10","2018-04-27 20:00","2018","04","27","20:00","10.3","","-5.8","","32","","","M","16","","32","","","","98.43","","","","","","NA"
"-80.05","42.53","LONG POINT (AUT)","6134F10","2018-04-27 21:00","2018","04","27","21:00","8.8","","1.9","","62","","","M","27","","18","","","","98.52","","","","","","NA"
"-80.05","42.53","LONG POINT (AUT)","6134F10","2018-04-27 22:00","2018","04","27","22:00","7.0","","4.4","","84","","","M","19","","14","","","","98.53","","","","","","NA"
"-80.05","42.53","LONG POINT (AUT)","6134F10","2018-04-27 23:00","2018","04","27","23:00","8.5","","5.1","","79","","","M","26","","2","","","","98.45","","","","","","NA"
"-80.05","42.53","LONG POINT (AUT)","6134F10","2018-04-28 00:00","2018","04","28","00:00","7.7","","5.2","","84","","","M","2","","5","","","","98.44","","","","","","NA"
"-80.05","42.53","LONG POINT (AUT)","6134F10","2018-04-28 01:00","2018","04","28","01:00","7.1","","5.3","","88","","","M","12","","11","","","","98.45","","","","","","NA"
"-80.05","42.53","LONG POINT (AUT)","6134F10","2018-04-28 02:00","2018","04","28","02:00","5.3","","4.4","","94","","","M","17","","11","","","","98.45","","","","","","NA"
"-80.05","42.53","LONG POINT (AUT)","6134F10","2018-04-28 03:00","2018","04","28","03:00","3.8","","2.8","","93","","","M","17","","16","","","","98.44","","","","","","NA"
"-80.05","42.53","LONG POINT (AUT)","6134F10","2018-04-28 04:00","2018","04","28","04:00","2.8","","2.1","","95","","","M","16","","23","","","","98.45","","","","","","NA"
"-80.05","42.53","LONG POINT (AUT)","6134F10","2018-04-28 05:00","2018","04","28","05:00","3.8","","3.2","","96","","","M","19","","27","","","","98.50","","","","","","NA"
"-80.05","42.53","LONG POINT (AUT)","6134F10","2018-04-28 06:00","2018","04","28","06:00","5.4","","4.8","","96","","","M","24","","22","","","","98.55","","","","","","NA"
"-80.05","42.53","LONG POINT (AUT)","6134F10","2018-04-28 07:00","2018","04","28","07:00","5.4","","4.8","","96","","","M","24","","23","","","","98.62","","","","","","NA"
"-80.05","42.53","LONG POINT (AUT)","6134F10","2018-04-28 08:00","2018","04","28","08:00","5.3","","4.0","","91","","","M","24","","23","","","","98.70","","","","","","NA"
"-80.05","42.53","LONG POINT (AUT)","6134F10","2018-04-28 09:00","2018","04","28","09:00","4.0","","3.2","","94","","","M","20","","17","","","","98.75","","","","","","NA"
"-80.05","42.53","LONG POINT (AUT)","6134F10","2018-04-28 10:00","2018","04","28","10:00","5.6","","3.8","","88","","","M","25","","25","","","","98.82","","","","","","NA"
"-80.05","42.53","LONG POINT (AUT)","6134F10","2018-04-28 11:00","2018","04","28","11:00","5.2","","2.9","","85","","","M","26","","31","","","","98.88","","","","","","NA"
"-80.05","42.53","LONG POINT (AUT)","6134F10","2018-04-28 12:00","2018","04","28","12:00","6.0","","2.8","","80","","","M","25","","22","","","","98.94","","","","","","NA"
"-80.05","42.53","LONG POINT (AUT)","6134F10","2018-04-28 13:00","2018","04","28","13:00","5.6","","2.3","","79","","","M","28","","19","","","","99.01","","","","","","NA"
"-80.05","42.53","LONG POINT (AUT)","6134F10","2018-04-28 14:00","2018","04","28","14:00","5.5","","2.1","","78","","","M","27","","26","","","","99.10","","","","","","NA"
"-80.05","42.53","LONG POINT (AUT)","6134F10","2018-04-28 15:00","2018","04","28","15:00","5.3","","1.8","","78","","","M","26","","32","","","","99.19","","","","","","NA"
"-80.05","42.53","LONG POINT (AUT)","6134F10","2018-04-28 16:00","2018","04","28","16:00","4.8","","0.9","","76","","","M","27","","34","","","","99.28","","","","","","NA"
"-80.05","42.53","LONG POINT (AUT)","6134F10","2018-04-28 17:00","2018","04","28","17:00","4.1","","0.2","","76","","","M","27","","34","","","","99.37","","","","","","NA"
"-80.05","42.53","LONG POINT (AUT)","6134F10","2018-04-28 18:00","2018","04","28","18:00","3.6","","-0.1","","77","","","M","27","","34","","","","99.44","","","","","","NA"
"-80.05","42.53","LONG POINT (AUT)","6134F10","2018-04-28 19:00","2018","04","28","19:00","3.3","","-1.2","","72","","","M","27","","31","","","","99.50","","","","","","NA"
"-80.05","42.53","LONG POINT (AUT)","6134F10","2018-04-28 20:00","2018","04","28","20:00","3.0","","-1.2","","74","","","M","27","","33","","","","99.58","","","","","","NA"
"-80.05","42.53","LONG POINT (AUT)","6134F10","2018-04-28 21:00","2018","04","28","21:00","2.5","","-1.9","","73","","","M","28","","33","","","","99.62","","","","","","NA"
"-80.05","42.53","LONG POINT (AUT)","6134F10","2018-04-28 22:00","2018","04","28","22:00","2.2","","-2.1","","74","","","M","29","","30","","","","99.65","","","","","","NA"
"-80.05","42.53","LONG POINT (AUT)","6134F10","2018-04-28 23:00","2018","04","28","23:00","1.8","","-2.0","","76","","","M","29","","29","","","","99.69","","","","","","NA"
"-80.05","42.53","LONG POINT (AUT)","6134F10","2018-04-29 00:00","2018","04","29","00:00","1.7","","-2.2","","75","","","M","29","","25","","","","99.72","","","","","","NA"
"-80.05","42.53","LONG POINT (AUT)","6134F10","2018-04-29 01:00","2018","04","29","01:00","1.4","","-2.9","","73","","","M","30","","26","","","","99.72","","","","","","NA"
"-80.05","42.53","LONG POINT (AUT)","6134F10","2018-04-29 02:00","2018","04","29","02:00","1.5","","-2.5","","75","","","M","29","","23","","","","99.73","","","","","","NA"
"-80.05","42.53","LONG POINT (AUT)","6134F10","2018-04-29 03:00","2018","04","29","03:00","1.5","","-2.4","","75","","","M","29","","22","","","","99.77","","","","","","NA"
"-80.05","42.53","LONG POINT (AUT)","6134F10","2018-04-29 04:00","2018","04","29","04:00","1.5","","-2.1","","77","","","M","29","","26","","","","99.77","","","","","","NA"
"-80.05","42.53","LONG POINT (AUT)","6134F10","2018-04-29 05:00","2018","04","29","05:00","1.4","","-1.8","","79","","","M","29","","25","","","","99.82","","","","","","NA"
"-80.05","42.53","LONG POINT (AUT)","6134F10","2018-04-29 06:00","2018","04","29","06:00","1.6","","-1.8","","78","","","M","29","","23","","","","99.92","","","","","","NA"
"-80.05","42.53","LONG POINT (AUT)","6134F10","2018-04-29 07:00","2018","04","29","07:00","1.8","","-1.9","","76","","","M","29","","26","","","","100.00","","","","","","NA"
"-80.05","42.53","LONG POINT (AUT)","6134F10","2018-04-29 08:00","2018","04","29","08:00","1.4","","-1.7","","80","","","M","28","","23","","","","100.04","","","","","","NA"
"-80.05","42.53","LONG POINT (AUT)","6134F10","2018-04-29 09:00","2018","04","29","09:00","2.0","","-2.0","","75","","","M","27","","24","","","","100.11","","","","","","NA"
"-80.05","42.53","LONG POINT (AUT)","6134F10","2018-04-29 10:00","2018","04","29","10:00","3.6","","-1.7","","68","","","M","25","","20","","","","100.14","","","","","","NA"
"-80.05","42.53","LONG POINT (AUT)","6134F10","2018-04-29 11:00","2018","04","29","11:00","5.3","","-1.8","","60","","","M","24","","16","","","","100.14","","","","","","NA"
"-80.05","42.53","LONG POINT (AUT)","6134F10","2018-04-29 12:00","2018","04","29","12:00","3.7","","-0.5","","74","","","M","19","","24","","","","100.07","","","","","","NA"
"-80.05","42.53","LONG POINT (AUT)","6134F10","2018-04-29 13:00","2018","04","29","13:00","4.7","","-0.5","","69","","","M","19","","26","","","","100.03","","","","","","NA"
"-80.05","42.53","LONG POINT (AUT)","6134F10","2018-04-29 14:00","2018","04","29","14:00","5.3","","0.5","","71","","","M","20","","27","","","","100.01","","","","","","NA"
"-80.05","42.53","LONG POINT (AUT)","6134F10","2018-04-29 15:00","2018","04","29","15:00","5.7","","0.4","","69","","","M","20","","31","","","","99.97","","","","","","NA"
"-80.05","42.53","LONG POINT (AUT)","6134F10","2018-04-29 16:00","2018","04","29","16:00","6.6","","0.2","","64","","","M","20","","35","","","","99.94","","","","","","NA"
"-80.05","42.53","LONG POINT (AUT)","6134F10","2018-04-29 17:00","2018","04","29","17:00","6.4","","0.1","","64","","","M","21","","36","","","","99.94","","","","","","NA"
"-80.05","42.53","LONG POINT (AUT)","6134F10","2018-04-29 18:00","2018","04","29","18:00","8.4","","-0.1","","55","","","M","25","","20","","","","99.94","","","","","","NA"
"-80.05","42.53","LONG POINT (AUT)","6134F10","2018-04-29 19:00","2018","04","29","19:00","7.9","","-1.2","","53","","","M","26","","28","","","","99.98","","","","","","NA"
"-80.05","42.53","LONG POINT (AUT)","6134F10","2018-04-29 20:00","2018","04","29","20:00","7.7","","-5.2","","40","","","M","27","","29","","","","100.04","","","","","","NA"
"-80.05","42.53","LONG POINT (AUT)","6134F10","2018-04-29 21:00","2018","04","29","21:00","7.2","","-4.5","","43","","","M","25","","29","","","","100.10","","","","","","NA"
"-80.05","42.53","LONG POINT (AUT)","6134F10","2018-04-29 22:00","2018","04","29","22:00","6.5","","-8.3","","34","","","M","25","","29","","","","100.13","","","","","","NA"
"-80.05","42.53","LONG POINT (AUT)","6134F10","2018-04-29 23:00","2018","04","29","23:00","5.9","","-8.4","","35","","","M","25","","24","","","","100.12","","","","","","NA"
"-80.05","42.53","LONG POINT (AUT)","6134F10","2018-04-30 00:00","2018","04","30","00:00","5.4","","-10.0","","32","","","M","25","","27","","","","100.12","","","","","","NA"
"-80.05","42.53","LONG POINT (AUT)","6134F10","2018-04-30 01:00","2018","04","30","01:00","5.4","","-9.7","","33","","","M","26","","22","","","","100.10","","","","","","NA"
"-80.05","42.53","LONG POINT (AUT)","6134F10","2018-04-30 02:00","2018","04","30","02:00","5.4","","-8.4","","36","","","M","25","","17","","","","100.09","","","","","","NA"
"-80.05","42.53","LONG POINT (AUT)","6134F10","2018-04-30 03:00","2018","04","30","03:00","4.2","","-6.6","","45","","","M","22","","14","","","","100.09","","","","","","NA"
"-80.05","42.53","LONG POINT (AUT)","6134F10","2018-04-30 04:00","2018","04","30","04:00","6.0","","-7.2","","38","","","M","25","","17","","","","100.11","","","","","","NA"
"-80.05","42.53","LONG POINT (AUT)","6134F10","2018-04-30 05:00","2018","04","30","05:00","6.5","","-7.3","","36","","","M","25","","19","","","","100.11","","","","","","NA"
"-80.05","42.53","LONG POINT (AUT)","6134F10","2018-04-30 06:00","2018","04","30","06:00","5.4","","-7.3","","39","","","M","23","","16","","","","100.15","","","","","","NA"
"-80.05","42.53","LONG POINT (AUT)","6134F10","2018-04-30 07:00","2018","04","30","07:00","4.8","","1.0","","76","","","M","20","","23","","","","100.19","","","","","","NA"
"-80.05","42.53","LONG POINT (AUT)","6134F10","2018-04-30 08:00","2018","04","30","08:00","4.7","","1.4","","79","","","M","20","","22","","","","100.22","","","","","","NA"
"-80.05","42.53","LONG POINT (AUT)","6134F10","2018-04-30 09:00","2018","04","30","09:00","5.0","","1.2","","76","","","M","20","","24","","","","100.22","","","","","","NA"
"-80.05","42.53","LONG POINT (AUT)","6134F10","2018-04-30 10:00","2018","04","30","10:00","4.5","","2.2","","85","","","M","19","","27","","","","100.20","","","","","","NA"
"-80.05","42.53","LONG POINT (AUT)","6134F10","2018-04-30 11:00","2018","04","30","11:00","4.2","","2.0","","86","","","M","19","","29","","","","100.16","","","","","","NA"
"-80.05","42.53","LONG POINT (AUT)","6134F10","2018-04-30 12:00","2018","04","30","12:00","4.7","","2.1","","83","","","M","19","","34","","","","100.10","","","","","","NA"
"-80.05","42.53","LONG POINT (AUT)","6134F10","2018-04-30 13:00","2018","04","30","13:00","5.6","","1.4","","75","","","M","20","","33","","","","100.07","","","","","","NA"
"-80.05","42.53","LONG POINT (AUT)","6134F10","2018-04-30 14:00","2018","04","30","14:00","6.3","","1.6","","72","","","M","20","","37","","","","100.00","","","","","","NA"
"-80.05","42.53","LONG POINT (AUT)","6134F10","2018-04-30 15:00","2018","04","30","15:00","6.0","","2.4","","78","","","M","20","","32","","","","99.95","","","","","","NA"
"-80.05","42.53","LONG POINT (AUT)","6134F10","2018-04-30 16:00","2018","04","30","16:00","7.2","","1.8","","68","","","M","20","","34","","","","99.88","","","","","","NA"
"-80.05","42.53","LONG POINT (AUT)","6134F10","2018-04-30 17:00","2018","04","30","17:00","7.1","","1.1","","65","","","M","20","","29","","","","99.87","","","","","","NA"
"-80.05","42.53","LONG POINT (AUT)","6134F10","2018-04-30 18:00","2018","04","30","18:00","7.2","","1.2","","66","","","M","20","","28","","","","99.86","","","","","","NA"
"-80.05","42.53","LONG POINT (AUT)","6134F10","2018-04-30 19:00","2018","04","30","19:00","7.5","","1.2","","64","","","M","21","","25","","","","99.83","","","","","","NA"
"-80.05","42.53","LONG POINT (AUT)","6134F10","2018-04-30 20:00","2018","04","30","20:00","7.7","","-0.3","","57","","","M","20","","26","","","","99.77","","","","","","NA"
"-80.05","42.53","LONG POINT (AUT)","6134F10","2018-04-30 21:00","2018","04","30","21:00","7.1","","0.1","","61","","","M","18","","25","","","","99.77","","","","","","NA"
"-80.05","42.53","LONG POINT (AUT)","6134F10","2018-04-30 22:00","2018","04","30","22:00","8.1","","-1.6","","50","","","M","18","","26","","","","99.71","","","","","","NA"
"-80.05","42.53","LONG POINT (AUT)","6134F10","2018-04-30 23:00","2018","04","30","23:00","8.6","","-3.9","","41","","","M","17","","25","","","","99.70","","","","","","NA"
