"Longitude (x)","Latitude (y)","Station Name","Climate ID","Date/Time (LST)","Year","Month","Day","Time (LST)","Temp (°C)","Temp Flag","Dew Point Temp (°C)","Dew Point Temp Flag","Rel Hum (%)","Rel Hum Flag","Precip. Amount (mm)","Precip. Amount Flag","Wind Dir (10s deg)","Wind Dir Flag","Wind Spd (km/h)","Wind Spd Flag","Visibility (km)","Visibility Flag","Stn Press (kPa)","Stn Press Flag","Hmdx","Hmdx Flag","Wind Chill","Wind Chill Flag","Weather"
"-140.20","69.61","KOMAKUK BEACH","2100682","2018-01-01 00:00","2018","01","01","00:00","-16.6","","","","","M","","","10","","13","","","","102.13","","","","-24","","NA"
"-140.20","69.61","KOMAKUK BEACH","2100682","2018-01-01 01:00","2018","01","01","01:00","-16.4","","","","","M","","","11","","19","","","","102.10","","","","-26","","NA"
"-140.20","69.61","KOMAKUK BEACH","2100682","2018-01-01 02:00","2018","01","01","02:00","-16.2","","","","","M","","","10","","26","","","","102.05","","","","-27","","NA"
"-140.20","69.61","KOMAKUK BEACH","2100682","2018-01-01 03:00","2018","01","01","03:00","-16.3","","","","","M","","","11","","22","","","","102.03","","","","-26","","NA"
"-140.20","69.61","KOMAKUK BEACH","2100682","2018-01-01 04:00","2018","01","01","04:00","-15.6","","","","","M","","","10","","26","","","","101.96","","","","-26","","NA"
"-140.20","69.61","KOMAKUK BEACH","2100682","2018-01-01 05:00","2018","01","01","05:00","-15.5","","","","","M","","","11","","26","","","","101.92","","","","-26","","NA"
"-140.20","69.61","KOMAKUK BEACH","2100682","2018-01-01 06:00","2018","01","01","06:00","-15.8","","","","","M","","","10","","33","","","","101.85","","","","-28","","NA"
"-140.20","69.61","KOMAKUK BEACH","2100682","2018-01-01 07:00","2018","01","01","07:00","-15.5","","","","","M","","","11","","43","","","","101.79","","","","-28","","NA"
"-140.20","69.61","KOMAKUK BEACH","2100682","2018-01-01 08:00","2018","01","01","08:00","-15.2","","","","","M","","","11","","41","","","","101.73","","","","-28","","NA"
"-140.20","69.61","KOMAKUK BEACH","2100682","2018-01-01 09:00","2018","01","01","09:00","-15.4","","","","","M","","","11","","43","","","","101.68","","","","-28","","NA"
"-140.20","69.61","KOMAKUK BEACH","2100682","2018-01-01 10:00","2018","01","01","10:00","-16.0","","","","","M","","","10","","43","","","","101.66","","","","-29","","NA"
"-140.20","69.61","KOMAKUK BEACH","2100682","2018-01-01 11:00","2018","01","01","11:00","-15.9","","","","","M","","","11","","44","","","","101.66","","","","-29","","NA"
"-140.20","69.61","KOMAKUK BEACH","2100682","2018-01-01 12:00","2018","01","01","12:00","-16.1","","","","","M","","","12","","41","","","","101.69","","","","-29","","NA"
"-140.20","69.61","KOMAKUK BEACH","2100682","2018-01-01 13:00","2018","01","01","13:00","-16.5","","","","","M","","","10","","44","","","","101.68","","","","-30","","NA"
"-140.20","69.61","KOMAKUK BEACH","2100682","2018-01-01 14:00","2018","01","01","14:00","-16.8","","","","","M","","","10","","43","","","","101.71","","","","-30","","NA"
"-140.20","69.61","KOMAKUK BEACH","2100682","2018-01-01 15:00","2018","01","01","15:00","-17.1","","","","","M","","","11","","43","","","","101.69","","","","-31","","NA"
"-140.20","69.61","KOMAKUK BEACH","2100682","2018-01-01 16:00","2018","01","01","16:00","-17.5","","","","","M","","","11","","44","","","","101.69","","","","-31","","NA"
"-140.20","69.61","KOMAKUK BEACH","2100682","2018-01-01 17:00","2018","01","01","17:00","-17.7","","","","","M","","","10","","44","","","","101.69","","","","-32","","NA"
"-140.20","69.61","KOMAKUK BEACH","2100682","2018-01-01 18:00","2018","01","01","18:00","-18.2","","","","","M","","","10","","44","","","","101.69","","","","-32","","NA"
"-140.20","69.61","KOMAKUK BEACH","2100682","2018-01-01 19:00","2018","01","01","19:00","-18.3","","","","","M","","","10","","46","","","","101.64","","","","-33","","NA"
"-140.20","69.61","KOMAKUK BEACH","2100682","2018-01-01 20:00","2018","01","01","20:00","-18.3","","","","","M","","","10","","44","","","","101.61","","","","-32","","NA"
"-140.20","69.61","KOMAKUK BEACH","2100682","2018-01-01 21:00","2018","01","01","21:00","-19.4","","","","","M","","","10","","48","","","","101.54","","","","-34","","NA"
"-140.20","69.61","KOMAKUK BEACH","2100682","2018-01-01 22:00","2018","01","01","22:00","-19.3","","","","","M","","","10","","48","","","","101.51","","","","-34","","NA"
"-140.20","69.61","KOMAKUK BEACH","2100682","2018-01-01 23:00","2018","01","01","23:00","-19.4","","","","","M","","","10","","46","","","","101.47","","","","-34","","NA"
"-140.20","69.61","KOMAKUK BEACH","2100682","2018-01-02 00:00","2018","01","02","00:00","-19.3","","","","","M","","","11","","54","","","","101.40","","","","-35","","NA"
"-140.20","69.61","KOMAKUK BEACH","2100682","2018-01-02 01:00","2018","01","02","01:00","-19.9","","","","","M","","","10","","56","","","","101.29","","","","-36","","NA"
"-140.20","69.61","KOMAKUK BEACH","2100682","2018-01-02 02:00","2018","01","02","02:00","-19.9","","","","","M","","","10","","59","","","","101.17","","","","-36","","NA"
"-140.20","69.61","KOMAKUK BEACH","2100682","2018-01-02 03:00","2018","01","02","03:00","-20.0","","","","","M","","","10","","61","","","","101.07","","","","-37","","NA"
"-140.20","69.61","KOMAKUK BEACH","2100682","2018-01-02 04:00","2018","01","02","04:00","-20.1","","","","","M","","","10","","52","","","","100.98","","","","-36","","NA"
"-140.20","69.61","KOMAKUK BEACH","2100682","2018-01-02 05:00","2018","01","02","05:00","-20.0","","","","","M","","","11","","56","","","","100.86","","","","-36","","NA"
"-140.20","69.61","KOMAKUK BEACH","2100682","2018-01-02 06:00","2018","01","02","06:00","-20.7","","","","","M","","","10","","56","","","","100.75","","","","-37","","NA"
"-140.20","69.61","KOMAKUK BEACH","2100682","2018-01-02 07:00","2018","01","02","07:00","-21.7","","","","","M","","","12","","56","","","","100.66","","","","-38","","NA"
"-140.20","69.61","KOMAKUK BEACH","2100682","2018-01-02 08:00","2018","01","02","08:00","-20.3","","","","","M","","","11","","67","","","","100.48","","","","-38","","NA"
"-140.20","69.61","KOMAKUK BEACH","2100682","2018-01-02 09:00","2018","01","02","09:00","-20.3","","","","","M","","","11","","56","","","","100.48","","","","-36","","NA"
"-140.20","69.61","KOMAKUK BEACH","2100682","2018-01-02 10:00","2018","01","02","10:00","-20.6","","","","","M","","","11","","59","","","","100.40","","","","-37","","NA"
"-140.20","69.61","KOMAKUK BEACH","2100682","2018-01-02 11:00","2018","01","02","11:00","-20.0","","","","","M","","","11","","67","","","","100.24","","","","-37","","NA"
"-140.20","69.61","KOMAKUK BEACH","2100682","2018-01-02 12:00","2018","01","02","12:00","-19.6","","","","","M","","","12","","69","","","","100.16","","","","-37","","NA"
"-140.20","69.61","KOMAKUK BEACH","2100682","2018-01-02 13:00","2018","01","02","13:00","-19.3","","","","","M","","","11","","72","","","","100.06","","","","-37","","NA"
"-140.20","69.61","KOMAKUK BEACH","2100682","2018-01-02 14:00","2018","01","02","14:00","-18.9","","","","","M","","","12","","65","","","","100.02","","","","-35","","NA"
"-140.20","69.61","KOMAKUK BEACH","2100682","2018-01-02 15:00","2018","01","02","15:00","-18.5","","","","","M","","","11","","80","","","","99.86","","","","-36","","NA"
"-140.20","69.61","KOMAKUK BEACH","2100682","2018-01-02 16:00","2018","01","02","16:00","-18.7","","","","","M","","","11","","76","","","","99.75","","","","-36","","NA"
"-140.20","69.61","KOMAKUK BEACH","2100682","2018-01-02 17:00","2018","01","02","17:00","-18.8","","","","","M","","","11","","78","","","","99.66","","","","-36","","NA"
"-140.20","69.61","KOMAKUK BEACH","2100682","2018-01-02 18:00","2018","01","02","18:00","-18.4","","","","","M","","","11","","69","","","","99.58","","","","-35","","NA"
"-140.20","69.61","KOMAKUK BEACH","2100682","2018-01-02 19:00","2018","01","02","19:00","-18.7","","","","","M","","","11","","67","","","","99.48","","","","-35","","NA"
"-140.20","69.61","KOMAKUK BEACH","2100682","2018-01-02 20:00","2018","01","02","20:00","-18.3","","","","","M","","","13","","41","","","","99.70","","","","-32","","NA"
"-140.20","69.61","KOMAKUK BEACH","2100682","2018-01-02 21:00","2018","01","02","21:00","-14.5","","","","","M","","","26","","19","","","","99.77","","","","-23","","NA"
"-140.20","69.61","KOMAKUK BEACH","2100682","2018-01-02 22:00","2018","01","02","22:00","-16.4","","","","","M","","","19","","13","","","","99.84","","","","-24","","NA"
"-140.20","69.61","KOMAKUK BEACH","2100682","2018-01-02 23:00","2018","01","02","23:00","-15.6","","","","","M","","","25","","20","","","","99.87","","","","-25","","NA"
"-140.20","69.61","KOMAKUK BEACH","2100682","2018-01-03 00:00","2018","01","03","00:00","-15.9","","","","","M","","","26","","24","","","","99.89","","","","-26","","NA"
"-140.20","69.61","KOMAKUK BEACH","2100682","2018-01-03 01:00","2018","01","03","01:00","-15.1","","","","","M","","","26","","24","","","","99.90","","","","-25","","NA"
"-140.20","69.61","KOMAKUK BEACH","2100682","2018-01-03 02:00","2018","01","03","02:00","-13.9","","","","","M","","","27","","22","","","","99.95","","","","-23","","NA"
"-140.20","69.61","KOMAKUK BEACH","2100682","2018-01-03 03:00","2018","01","03","03:00","-14.3","","","","","M","","","25","","17","","","","99.98","","","","-23","","NA"
"-140.20","69.61","KOMAKUK BEACH","2100682","2018-01-03 04:00","2018","01","03","04:00","-14.7","","","","","M","","","25","","20","","","","100.03","","","","-24","","NA"
"-140.20","69.61","KOMAKUK BEACH","2100682","2018-01-03 05:00","2018","01","03","05:00","-14.7","","","","","M","","","25","","20","","","","100.05","","","","-24","","NA"
"-140.20","69.61","KOMAKUK BEACH","2100682","2018-01-03 06:00","2018","01","03","06:00","-14.9","","","","","M","","","25","","20","","","","100.08","","","","-24","","NA"
"-140.20","69.61","KOMAKUK BEACH","2100682","2018-01-03 07:00","2018","01","03","07:00","-15.1","","","","","M","","","26","","26","","","","100.08","","","","-25","","NA"
"-140.20","69.61","KOMAKUK BEACH","2100682","2018-01-03 08:00","2018","01","03","08:00","-14.7","","","","","M","","","26","","28","","","","100.09","","","","-25","","NA"
"-140.20","69.61","KOMAKUK BEACH","2100682","2018-01-03 09:00","2018","01","03","09:00","-16.3","","","","","M","","","26","","26","","","","100.16","","","","-27","","NA"
"-140.20","69.61","KOMAKUK BEACH","2100682","2018-01-03 10:00","2018","01","03","10:00","-13.7","","","","","M","","","27","","19","","","","100.16","","","","-22","","NA"
"-140.20","69.61","KOMAKUK BEACH","2100682","2018-01-03 11:00","2018","01","03","11:00","-17.1","","","","","M","","","23","","9","","","","100.18","","","","-23","","NA"
"-140.20","69.61","KOMAKUK BEACH","2100682","2018-01-03 12:00","2018","01","03","12:00","-16.3","","","","","M","","","14","","9","","","","100.17","","","","-22","","NA"
"-140.20","69.61","KOMAKUK BEACH","2100682","2018-01-03 13:00","2018","01","03","13:00","-15.7","","","","","M","","","21","","13","","","","100.23","","","","-23","","NA"
"-140.20","69.61","KOMAKUK BEACH","2100682","2018-01-03 14:00","2018","01","03","14:00","-13.8","","","","","M","","","24","","7","","","","100.29","","","","-18","","NA"
"-140.20","69.61","KOMAKUK BEACH","2100682","2018-01-03 15:00","2018","01","03","15:00","-12.3","","","","","M","","","27","","11","","","","100.35","","","","-18","","NA"
"-140.20","69.61","KOMAKUK BEACH","2100682","2018-01-03 16:00","2018","01","03","16:00","-15.1","","","","","M","","","25","","20","","","","100.39","","","","-24","","NA"
"-140.20","69.61","KOMAKUK BEACH","2100682","2018-01-03 17:00","2018","01","03","17:00","-14.1","","","","","M","","","25","","9","","","","100.38","","","","-20","","NA"
"-140.20","69.61","KOMAKUK BEACH","2100682","2018-01-03 18:00","2018","01","03","18:00","-14.9","","","","","M","","","22","","9","","","","100.43","","","","-21","","NA"
"-140.20","69.61","KOMAKUK BEACH","2100682","2018-01-03 19:00","2018","01","03","19:00","-13.6","","","","","M","","","25","","9","","","","100.49","","","","-19","","NA"
"-140.20","69.61","KOMAKUK BEACH","2100682","2018-01-03 20:00","2018","01","03","20:00","-15.6","","","","","M","","","16","","9","","","","100.47","","","","-22","","NA"
"-140.20","69.61","KOMAKUK BEACH","2100682","2018-01-03 21:00","2018","01","03","21:00","-14.9","","","","","M","","","11","","13","","","","100.47","","","","-22","","NA"
"-140.20","69.61","KOMAKUK BEACH","2100682","2018-01-03 22:00","2018","01","03","22:00","-12.9","","","","","M","","","8","","20","","","","100.48","","","","-22","","NA"
"-140.20","69.61","KOMAKUK BEACH","2100682","2018-01-03 23:00","2018","01","03","23:00","-12.6","","","","","M","","","5","","9","","","","100.50","","","","-18","","NA"
"-140.20","69.61","KOMAKUK BEACH","2100682","2018-01-04 00:00","2018","01","04","00:00","-12.6","","","","","M","","","18","","7","","","","100.54","","","","-17","","NA"
"-140.20","69.61","KOMAKUK BEACH","2100682","2018-01-04 01:00","2018","01","04","01:00","-12.9","","","","","M","","","24","","6","","","","100.57","","","","-17","","NA"
"-140.20","69.61","KOMAKUK BEACH","2100682","2018-01-04 02:00","2018","01","04","02:00","-9.5","","","","","M","","","26","","6","","","","100.63","","","","-13","","NA"
"-140.20","69.61","KOMAKUK BEACH","2100682","2018-01-04 03:00","2018","01","04","03:00","-14.5","","","","","M","","","25","","31","","","","100.77","","","","-26","","NA"
"-140.20","69.61","KOMAKUK BEACH","2100682","2018-01-04 04:00","2018","01","04","04:00","-13.6","","","","","M","","","26","","39","","","","100.82","","","","-25","","NA"
"-140.20","69.61","KOMAKUK BEACH","2100682","2018-01-04 05:00","2018","01","04","05:00","-13.9","","","","","M","","","26","","33","","","","100.91","","","","-25","","NA"
"-140.20","69.61","KOMAKUK BEACH","2100682","2018-01-04 06:00","2018","01","04","06:00","-13.8","","","","","M","","","26","","37","","","","101.01","","","","-25","","NA"
"-140.20","69.61","KOMAKUK BEACH","2100682","2018-01-04 07:00","2018","01","04","07:00","-14.1","","","","","M","","","26","","33","","","","101.04","","","","-25","","NA"
"-140.20","69.61","KOMAKUK BEACH","2100682","2018-01-04 08:00","2018","01","04","08:00","-14.2","","","","","M","","","26","","33","","","","101.11","","","","-25","","NA"
"-140.20","69.61","KOMAKUK BEACH","2100682","2018-01-04 09:00","2018","01","04","09:00","-14.5","","","","","M","","","26","","35","","","","101.15","","","","-26","","NA"
"-140.20","69.61","KOMAKUK BEACH","2100682","2018-01-04 10:00","2018","01","04","10:00","-14.9","","","","","M","","","26","","33","","","","101.21","","","","-26","","NA"
"-140.20","69.61","KOMAKUK BEACH","2100682","2018-01-04 11:00","2018","01","04","11:00","-14.3","","","","","M","","","26","","30","","","","101.26","","","","-25","","NA"
"-140.20","69.61","KOMAKUK BEACH","2100682","2018-01-04 12:00","2018","01","04","12:00","-14.1","","","","","M","","","26","","24","","","","101.30","","","","-24","","NA"
"-140.20","69.61","KOMAKUK BEACH","2100682","2018-01-04 13:00","2018","01","04","13:00","-14.7","","","","","M","","","25","","20","","","","101.35","","","","-24","","NA"
"-140.20","69.61","KOMAKUK BEACH","2100682","2018-01-04 14:00","2018","01","04","14:00","-15.4","","","","","M","","","26","","20","","","","101.35","","","","-25","","NA"
"-140.20","69.61","KOMAKUK BEACH","2100682","2018-01-04 15:00","2018","01","04","15:00","-16.0","","","","","M","","","24","","20","","","","101.40","","","","-25","","NA"
"-140.20","69.61","KOMAKUK BEACH","2100682","2018-01-04 16:00","2018","01","04","16:00","-17.0","","","","","M","","","23","","17","","","","101.41","","","","-26","","NA"
"-140.20","69.61","KOMAKUK BEACH","2100682","2018-01-04 17:00","2018","01","04","17:00","-17.9","","","","","M","","","22","","17","","","","101.45","","","","-27","","NA"
"-140.20","69.61","KOMAKUK BEACH","2100682","2018-01-04 18:00","2018","01","04","18:00","-16.0","","","","","M","","","23","","19","","","","101.47","","","","-25","","NA"
"-140.20","69.61","KOMAKUK BEACH","2100682","2018-01-04 19:00","2018","01","04","19:00","-14.8","","","","","M","","","23","","20","","","","101.48","","","","-24","","NA"
"-140.20","69.61","KOMAKUK BEACH","2100682","2018-01-04 20:00","2018","01","04","20:00","-13.6","","","","","M","","","23","","13","","","","101.43","","","","-21","","NA"
"-140.20","69.61","KOMAKUK BEACH","2100682","2018-01-04 21:00","2018","01","04","21:00","-13.1","","","","","M","","","20","","6","","","","101.38","","","","-17","","NA"
"-140.20","69.61","KOMAKUK BEACH","2100682","2018-01-04 22:00","2018","01","04","22:00","-11.9","","","","","M","","","11","","13","","","","101.33","","","","-19","","NA"
"-140.20","69.61","KOMAKUK BEACH","2100682","2018-01-04 23:00","2018","01","04","23:00","-11.4","","","","","M","","","11","","13","","","","101.38","","","","-18","","NA"
"-140.20","69.61","KOMAKUK BEACH","2100682","2018-01-05 00:00","2018","01","05","00:00","-11.5","","","","","M","","","18","","7","","","","101.40","","","","-16","","NA"
"-140.20","69.61","KOMAKUK BEACH","2100682","2018-01-05 01:00","2018","01","05","01:00","-11.1","","","","","M","","","15","","11","","","","101.42","","","","-17","","NA"
"-140.20","69.61","KOMAKUK BEACH","2100682","2018-01-05 02:00","2018","01","05","02:00","-12.4","","","","","M","","","24","","15","","","","101.44","","","","-20","","NA"
"-140.20","69.61","KOMAKUK BEACH","2100682","2018-01-05 03:00","2018","01","05","03:00","-12.5","","","","","M","","","25","","15","","","","101.50","","","","-20","","NA"
"-140.20","69.61","KOMAKUK BEACH","2100682","2018-01-05 04:00","2018","01","05","04:00","-12.2","","","","","M","","","26","","20","","","","101.51","","","","-21","","NA"
"-140.20","69.61","KOMAKUK BEACH","2100682","2018-01-05 05:00","2018","01","05","05:00","-12.9","","","","","M","","","25","","17","","","","101.56","","","","-21","","NA"
"-140.20","69.61","KOMAKUK BEACH","2100682","2018-01-05 06:00","2018","01","05","06:00","-12.9","","","","","M","","","25","","20","","","","101.61","","","","-22","","NA"
"-140.20","69.61","KOMAKUK BEACH","2100682","2018-01-05 07:00","2018","01","05","07:00","-11.2","","","","","M","","","27","","31","","","","101.64","","","","-21","","NA"
"-140.20","69.61","KOMAKUK BEACH","2100682","2018-01-05 08:00","2018","01","05","08:00","-12.1","","","","","M","","","25","","20","","","","101.67","","","","-21","","NA"
"-140.20","69.61","KOMAKUK BEACH","2100682","2018-01-05 09:00","2018","01","05","09:00","-12.3","","","","","M","","","25","","19","","","","101.67","","","","-21","","NA"
"-140.20","69.61","KOMAKUK BEACH","2100682","2018-01-05 10:00","2018","01","05","10:00","-12.3","","","","","M","","","25","","19","","","","101.68","","","","-21","","NA"
"-140.20","69.61","KOMAKUK BEACH","2100682","2018-01-05 11:00","2018","01","05","11:00","-12.2","","","","","M","","","25","","17","","","","101.66","","","","-20","","NA"
"-140.20","69.61","KOMAKUK BEACH","2100682","2018-01-05 12:00","2018","01","05","12:00","-12.2","","","","","M","","","26","","19","","","","101.70","","","","-20","","NA"
"-140.20","69.61","KOMAKUK BEACH","2100682","2018-01-05 13:00","2018","01","05","13:00","-12.0","","","","","M","","","27","","17","","","","101.72","","","","-20","","NA"
"-140.20","69.61","KOMAKUK BEACH","2100682","2018-01-05 14:00","2018","01","05","14:00","-16.1","","","","","M","","","24","","17","","","","101.71","","","","-25","","NA"
"-140.20","69.61","KOMAKUK BEACH","2100682","2018-01-05 15:00","2018","01","05","15:00","-14.6","","","","","M","","","25","","15","","","","101.71","","","","-22","","NA"
"-140.20","69.61","KOMAKUK BEACH","2100682","2018-01-05 16:00","2018","01","05","16:00","-14.5","","","","","M","","","25","","15","","","","101.73","","","","-22","","NA"
"-140.20","69.61","KOMAKUK BEACH","2100682","2018-01-05 17:00","2018","01","05","17:00","-13.3","","","","","M","","","26","","13","","","","101.70","","","","-20","","NA"
"-140.20","69.61","KOMAKUK BEACH","2100682","2018-01-05 18:00","2018","01","05","18:00","-13.3","","","","","M","","","25","","7","","","","101.65","","","","-18","","NA"
"-140.20","69.61","KOMAKUK BEACH","2100682","2018-01-05 19:00","2018","01","05","19:00","-13.1","","","","","M","","","24","","7","","","","101.63","","","","-18","","NA"
"-140.20","69.61","KOMAKUK BEACH","2100682","2018-01-05 20:00","2018","01","05","20:00","-13.1","","","","","M","","","21","","6","","","","101.61","","","","-17","","NA"
"-140.20","69.61","KOMAKUK BEACH","2100682","2018-01-05 21:00","2018","01","05","21:00","-12.5","","","","","M","","","15","","6","","","","101.58","","","","-16","","NA"
"-140.20","69.61","KOMAKUK BEACH","2100682","2018-01-05 22:00","2018","01","05","22:00","-11.7","","","","","M","","","10","","7","","","","101.58","","","","-16","","NA"
"-140.20","69.61","KOMAKUK BEACH","2100682","2018-01-05 23:00","2018","01","05","23:00","-11.5","","","","","M","","","11","","6","","","","101.53","","","","-15","","NA"
"-140.20","69.61","KOMAKUK BEACH","2100682","2018-01-06 00:00","2018","01","06","00:00","-11.9","","","","","M","","","5","","15","","","","101.50","","","","-19","","NA"
"-140.20","69.61","KOMAKUK BEACH","2100682","2018-01-06 01:00","2018","01","06","01:00","-11.9","","","","","M","","","7","","13","","","","101.47","","","","-19","","NA"
"-140.20","69.61","KOMAKUK BEACH","2100682","2018-01-06 02:00","2018","01","06","02:00","-12.1","","","","","M","","","11","","9","","","","101.47","","","","-17","","NA"
"-140.20","69.61","KOMAKUK BEACH","2100682","2018-01-06 03:00","2018","01","06","03:00","-12.2","","","","","M","","","8","","13","","","","101.45","","","","-19","","NA"
"-140.20","69.61","KOMAKUK BEACH","2100682","2018-01-06 04:00","2018","01","06","04:00","-12.4","","","","","M","","","10","","9","","","","101.46","","","","-18","","NA"
"-140.20","69.61","KOMAKUK BEACH","2100682","2018-01-06 05:00","2018","01","06","05:00","-12.6","","","","","M","","","12","","9","","","","101.47","","","","-18","","NA"
"-140.20","69.61","KOMAKUK BEACH","2100682","2018-01-06 06:00","2018","01","06","06:00","-13.0","","","","","M","","","6","","15","","","","101.48","","","","-20","","NA"
"-140.20","69.61","KOMAKUK BEACH","2100682","2018-01-06 07:00","2018","01","06","07:00","-13.7","","","","","M","","","7","","15","","","","101.48","","","","-21","","NA"
"-140.20","69.61","KOMAKUK BEACH","2100682","2018-01-06 08:00","2018","01","06","08:00","-13.7","","","","","M","","","7","","13","","","","101.48","","","","-21","","NA"
"-140.20","69.61","KOMAKUK BEACH","2100682","2018-01-06 09:00","2018","01","06","09:00","-13.9","","","","","M","","","7","","15","","","","101.50","","","","-22","","NA"
"-140.20","69.61","KOMAKUK BEACH","2100682","2018-01-06 10:00","2018","01","06","10:00","-14.1","","","","","M","","","9","","9","","","","101.52","","","","-20","","NA"
"-140.20","69.61","KOMAKUK BEACH","2100682","2018-01-06 11:00","2018","01","06","11:00","-14.3","","","","","M","","","9","","9","","","","101.54","","","","-20","","NA"
"-140.20","69.61","KOMAKUK BEACH","2100682","2018-01-06 12:00","2018","01","06","12:00","-14.4","","","","","M","","","13","","4","","","","101.56","","","","-17","","NA"
"-140.20","69.61","KOMAKUK BEACH","2100682","2018-01-06 13:00","2018","01","06","13:00","-14.5","","","","","M","","","14","","6","","","","101.58","","","","-19","","NA"
"-140.20","69.61","KOMAKUK BEACH","2100682","2018-01-06 14:00","2018","01","06","14:00","-14.6","","","","","M","","","2","","6","","","","101.60","","","","-19","","NA"
"-140.20","69.61","KOMAKUK BEACH","2100682","2018-01-06 15:00","2018","01","06","15:00","-15.0","","","","","M","","","32","","11","","","","101.62","","","","-22","","NA"
"-140.20","69.61","KOMAKUK BEACH","2100682","2018-01-06 16:00","2018","01","06","16:00","-15.2","","","","","M","","","34","","13","","","","101.63","","","","-23","","NA"
"-140.20","69.61","KOMAKUK BEACH","2100682","2018-01-06 17:00","2018","01","06","17:00","-15.4","","","","","M","","","32","","15","","","","101.67","","","","-23","","NA"
"-140.20","69.61","KOMAKUK BEACH","2100682","2018-01-06 18:00","2018","01","06","18:00","-15.5","","","","","M","","","33","","11","","","","101.68","","","","-22","","NA"
"-140.20","69.61","KOMAKUK BEACH","2100682","2018-01-06 19:00","2018","01","06","19:00","-15.8","","","","","M","","","31","","17","","","","101.69","","","","-24","","NA"
"-140.20","69.61","KOMAKUK BEACH","2100682","2018-01-06 20:00","2018","01","06","20:00","-15.9","","","","","M","","","31","","19","","","","101.72","","","","-25","","NA"
"-140.20","69.61","KOMAKUK BEACH","2100682","2018-01-06 21:00","2018","01","06","21:00","-16.9","","","","","M","","","35","","15","","","","101.73","","","","-25","","NA"
"-140.20","69.61","KOMAKUK BEACH","2100682","2018-01-06 22:00","2018","01","06","22:00","-17.6","","","","","M","","","31","","24","","","","101.75","","","","-28","","NA"
"-140.20","69.61","KOMAKUK BEACH","2100682","2018-01-06 23:00","2018","01","06","23:00","-19.7","","","","","M","","","33","","22","","","","101.79","","","","-31","","NA"
"-140.20","69.61","KOMAKUK BEACH","2100682","2018-01-07 00:00","2018","01","07","00:00","-20.2","","","","","M","","","33","","24","","","","101.86","","","","-32","","NA"
"-140.20","69.61","KOMAKUK BEACH","2100682","2018-01-07 01:00","2018","01","07","01:00","-20.9","","","","","M","","","32","","19","","","","101.91","","","","-31","","NA"
"-140.20","69.61","KOMAKUK BEACH","2100682","2018-01-07 02:00","2018","01","07","02:00","-21.5","","","","","M","","","30","","15","","","","101.98","","","","-31","","NA"
"-140.20","69.61","KOMAKUK BEACH","2100682","2018-01-07 03:00","2018","01","07","03:00","-22.0","","","","","M","","","33","","20","","","","102.06","","","","-33","","NA"
"-140.20","69.61","KOMAKUK BEACH","2100682","2018-01-07 04:00","2018","01","07","04:00","-22.7","","","","","M","","","32","","19","","","","102.13","","","","-34","","NA"
"-140.20","69.61","KOMAKUK BEACH","2100682","2018-01-07 05:00","2018","01","07","05:00","-23.1","","","","","M","","","33","","17","","","","102.17","","","","-34","","NA"
"-140.20","69.61","KOMAKUK BEACH","2100682","2018-01-07 06:00","2018","01","07","06:00","-23.3","","","","","M","","","33","","15","","","","102.22","","","","-33","","NA"
"-140.20","69.61","KOMAKUK BEACH","2100682","2018-01-07 07:00","2018","01","07","07:00","-23.2","","","","","M","","","32","","13","","","","102.28","","","","-32","","NA"
"-140.20","69.61","KOMAKUK BEACH","2100682","2018-01-07 08:00","2018","01","07","08:00","-23.3","","","","","M","","","27","","13","","","","102.34","","","","-32","","NA"
"-140.20","69.61","KOMAKUK BEACH","2100682","2018-01-07 09:00","2018","01","07","09:00","-24.2","","","","","M","","","24","","15","","","","102.40","","","","-34","","NA"
"-140.20","69.61","KOMAKUK BEACH","2100682","2018-01-07 10:00","2018","01","07","10:00","-24.2","","","","","M","","","25","","13","","","","102.43","","","","-34","","NA"
"-140.20","69.61","KOMAKUK BEACH","2100682","2018-01-07 11:00","2018","01","07","11:00","-22.9","","","","","M","","","27","","15","","","","102.47","","","","-33","","NA"
"-140.20","69.61","KOMAKUK BEACH","2100682","2018-01-07 12:00","2018","01","07","12:00","-22.6","","","","","M","","","29","","11","","","","102.54","","","","-31","","NA"
"-140.20","69.61","KOMAKUK BEACH","2100682","2018-01-07 13:00","2018","01","07","13:00","-23.8","","","","","M","","","24","","13","","","","102.61","","","","-33","","NA"
"-140.20","69.61","KOMAKUK BEACH","2100682","2018-01-07 14:00","2018","01","07","14:00","-24.2","","","","","M","","","23","","13","","","","102.66","","","","-34","","NA"
"-140.20","69.61","KOMAKUK BEACH","2100682","2018-01-07 15:00","2018","01","07","15:00","-23.8","","","","","M","","","23","","11","","","","102.71","","","","-32","","NA"
"-140.20","69.61","KOMAKUK BEACH","2100682","2018-01-07 16:00","2018","01","07","16:00","-25.1","","","","","M","","","23","","11","","","","102.76","","","","-34","","NA"
"-140.20","69.61","KOMAKUK BEACH","2100682","2018-01-07 17:00","2018","01","07","17:00","-26.8","","","","","M","","","24","","11","","","","102.81","","","","-36","","NA"
"-140.20","69.61","KOMAKUK BEACH","2100682","2018-01-07 18:00","2018","01","07","18:00","-27.4","","","","","M","","","24","","13","","","","102.89","","","","-37","","NA"
"-140.20","69.61","KOMAKUK BEACH","2100682","2018-01-07 19:00","2018","01","07","19:00","-28.0","","","","","M","","","27","","4","","","","102.95","","","","-32","","NA"
"-140.20","69.61","KOMAKUK BEACH","2100682","2018-01-07 20:00","2018","01","07","20:00","-27.0","","","","","M","","","25","","4","","","","102.99","","","","-31","","NA"
"-140.20","69.61","KOMAKUK BEACH","2100682","2018-01-07 21:00","2018","01","07","21:00","-25.2","","","","","M","","","19","","4","","","","103.03","","","","-29","","NA"
"-140.20","69.61","KOMAKUK BEACH","2100682","2018-01-07 22:00","2018","01","07","22:00","-28.6","","","","","M","","","17","","9","","","","103.07","","","","-37","","NA"
"-140.20","69.61","KOMAKUK BEACH","2100682","2018-01-07 23:00","2018","01","07","23:00","-29.6","","","","","M","","","13","","9","","","","103.11","","","","-38","","NA"
"-140.20","69.61","KOMAKUK BEACH","2100682","2018-01-08 00:00","2018","01","08","00:00","-30.2","","","","","M","","","13","","11","","","","103.17","","","","-40","","NA"
"-140.20","69.61","KOMAKUK BEACH","2100682","2018-01-08 01:00","2018","01","08","01:00","-33.2","","","","","M","","","14","","15","","","","103.20","","","","-45","","NA"
"-140.20","69.61","KOMAKUK BEACH","2100682","2018-01-08 02:00","2018","01","08","02:00","-31.3","","","","","M","","","14","","20","","","","103.24","","","","-45","","NA"
"-140.20","69.61","KOMAKUK BEACH","2100682","2018-01-08 03:00","2018","01","08","03:00","-30.1","","","","","M","","","12","","20","","","","103.26","","","","-43","","NA"
"-140.20","69.61","KOMAKUK BEACH","2100682","2018-01-08 04:00","2018","01","08","04:00","-29.4","","","","","M","","","11","","20","","","","103.29","","","","-42","","NA"
"-140.20","69.61","KOMAKUK BEACH","2100682","2018-01-08 05:00","2018","01","08","05:00","-30.6","","","","","M","","","12","","20","","","","103.32","","","","-44","","NA"
"-140.20","69.61","KOMAKUK BEACH","2100682","2018-01-08 06:00","2018","01","08","06:00","-28.8","","","","","M","","","11","","24","","","","103.33","","","","-43","","NA"
"-140.20","69.61","KOMAKUK BEACH","2100682","2018-01-08 07:00","2018","01","08","07:00","-28.8","","","","","M","","","11","","24","","","","103.33","","","","-43","","NA"
"-140.20","69.61","KOMAKUK BEACH","2100682","2018-01-08 08:00","2018","01","08","08:00","-28.1","","","","","M","","","11","","24","","","","103.33","","","","-42","","NA"
"-140.20","69.61","KOMAKUK BEACH","2100682","2018-01-08 09:00","2018","01","08","09:00","-28.7","","","","","M","","","10","","24","","","","103.36","","","","-43","","NA"
"-140.20","69.61","KOMAKUK BEACH","2100682","2018-01-08 10:00","2018","01","08","10:00","-28.8","","","","","M","","","11","","22","","","","103.40","","","","-42","","NA"
"-140.20","69.61","KOMAKUK BEACH","2100682","2018-01-08 11:00","2018","01","08","11:00","-27.9","","","","","M","","","12","","20","","","","103.41","","","","-40","","NA"
"-140.20","69.61","KOMAKUK BEACH","2100682","2018-01-08 12:00","2018","01","08","12:00","-27.6","","","","","M","","","11","","22","","","","103.42","","","","-41","","NA"
"-140.20","69.61","KOMAKUK BEACH","2100682","2018-01-08 13:00","2018","01","08","13:00","-27.7","","","","","M","","","10","","24","","","","103.43","","","","-41","","NA"
"-140.20","69.61","KOMAKUK BEACH","2100682","2018-01-08 14:00","2018","01","08","14:00","-26.9","","","","","M","","","10","","33","","","","103.42","","","","-42","","NA"
"-140.20","69.61","KOMAKUK BEACH","2100682","2018-01-08 15:00","2018","01","08","15:00","-26.3","","","","","M","","","10","","44","","","","103.38","","","","-43","","NA"
"-140.20","69.61","KOMAKUK BEACH","2100682","2018-01-08 16:00","2018","01","08","16:00","-27.3","","","","","M","","","9","","41","","","","103.34","","","","-44","","NA"
"-140.20","69.61","KOMAKUK BEACH","2100682","2018-01-08 17:00","2018","01","08","17:00","-26.4","","","","","M","","","10","","37","","","","103.36","","","","-42","","NA"
"-140.20","69.61","KOMAKUK BEACH","2100682","2018-01-08 18:00","2018","01","08","18:00","-26.7","","","","","M","","","10","","31","","","","103.37","","","","-42","","NA"
"-140.20","69.61","KOMAKUK BEACH","2100682","2018-01-08 19:00","2018","01","08","19:00","-27.2","","","","","M","","","11","","35","","","","103.36","","","","-43","","NA"
"-140.20","69.61","KOMAKUK BEACH","2100682","2018-01-08 20:00","2018","01","08","20:00","-27.1","","","","","M","","","11","","37","","","","103.37","","","","-43","","NA"
"-140.20","69.61","KOMAKUK BEACH","2100682","2018-01-08 21:00","2018","01","08","21:00","-27.4","","","","","M","","","12","","33","","","","103.33","","","","-43","","NA"
"-140.20","69.61","KOMAKUK BEACH","2100682","2018-01-08 22:00","2018","01","08","22:00","-26.0","","","","","M","","","11","","41","","","","103.28","","","","-42","","NA"
"-140.20","69.61","KOMAKUK BEACH","2100682","2018-01-08 23:00","2018","01","08","23:00","-25.3","","","","","M","","","11","","35","","","","103.25","","","","-40","","NA"
"-140.20","69.61","KOMAKUK BEACH","2100682","2018-01-09 00:00","2018","01","09","00:00","-26.0","","","","","M","","","10","","44","","","","103.20","","","","-43","","NA"
"-140.20","69.61","KOMAKUK BEACH","2100682","2018-01-09 01:00","2018","01","09","01:00","-25.6","","","","","M","","","11","","41","","","","103.15","","","","-42","","NA"
"-140.20","69.61","KOMAKUK BEACH","2100682","2018-01-09 02:00","2018","01","09","02:00","-26.8","","","","","M","","","12","","44","","","","103.07","","","","-44","","NA"
"-140.20","69.61","KOMAKUK BEACH","2100682","2018-01-09 03:00","2018","01","09","03:00","-25.2","","","","","M","","","11","","44","","","","102.99","","","","-42","","NA"
"-140.20","69.61","KOMAKUK BEACH","2100682","2018-01-09 04:00","2018","01","09","04:00","-26.7","","","","","M","","","11","","41","","","","102.95","","","","-43","","NA"
"-140.20","69.61","KOMAKUK BEACH","2100682","2018-01-09 05:00","2018","01","09","05:00","-27.5","","","","","M","","","11","","50","","","","102.81","","","","-46","","NA"
"-140.20","69.61","KOMAKUK BEACH","2100682","2018-01-09 06:00","2018","01","09","06:00","-28.6","","","","","M","","","11","","56","","","","102.70","","","","-48","","NA"
"-140.20","69.61","KOMAKUK BEACH","2100682","2018-01-09 07:00","2018","01","09","07:00","-28.4","","","","","M","","","11","","61","","","","102.62","","","","-48","","NA"
"-140.20","69.61","KOMAKUK BEACH","2100682","2018-01-09 08:00","2018","01","09","08:00","-27.8","","","","","M","","","11","","52","","","","102.67","","","","-46","","NA"
"-140.20","69.61","KOMAKUK BEACH","2100682","2018-01-09 09:00","2018","01","09","09:00","-26.6","","","","","M","","","10","","59","","","","102.55","","","","-45","","NA"
"-140.20","69.61","KOMAKUK BEACH","2100682","2018-01-09 10:00","2018","01","09","10:00","-26.0","","","","","M","","","10","","59","","","","102.43","","","","-45","","NA"
"-140.20","69.61","KOMAKUK BEACH","2100682","2018-01-09 11:00","2018","01","09","11:00","-24.9","","","","","M","","","11","","48","","","","102.40","","","","-42","","NA"
"-140.20","69.61","KOMAKUK BEACH","2100682","2018-01-09 12:00","2018","01","09","12:00","-23.4","","","","","M","","","11","","48","","","","102.33","","","","-40","","NA"
"-140.20","69.61","KOMAKUK BEACH","2100682","2018-01-09 13:00","2018","01","09","13:00","-23.0","","","","","M","","","10","","46","","","","102.25","","","","-39","","NA"
"-140.20","69.61","KOMAKUK BEACH","2100682","2018-01-09 14:00","2018","01","09","14:00","-11.9","","","","","M","","","11","","30","","","","102.15","","","","-22","","NA"
"-140.20","69.61","KOMAKUK BEACH","2100682","2018-01-09 15:00","2018","01","09","15:00","-11.1","","","","","M","","","10","","39","","","","102.09","","","","-22","","NA"
"-140.20","69.61","KOMAKUK BEACH","2100682","2018-01-09 16:00","2018","01","09","16:00","-18.9","","","","","M","","","10","","39","","","","102.11","","","","-33","","NA"
"-140.20","69.61","KOMAKUK BEACH","2100682","2018-01-09 17:00","2018","01","09","17:00","-17.6","","","","","M","","","12","","22","","","","102.16","","","","-28","","NA"
"-140.20","69.61","KOMAKUK BEACH","2100682","2018-01-09 18:00","2018","01","09","18:00","-18.6","","","","","M","","","9","","15","","","","102.07","","","","-27","","NA"
"-140.20","69.61","KOMAKUK BEACH","2100682","2018-01-09 19:00","2018","01","09","19:00","-14.8","","","","","M","","","25","","9","","","","102.02","","","","-21","","NA"
"-140.20","69.61","KOMAKUK BEACH","2100682","2018-01-09 20:00","2018","01","09","20:00","-16.8","","","","","M","","","23","","11","","","","101.98","","","","-24","","NA"
"-140.20","69.61","KOMAKUK BEACH","2100682","2018-01-09 21:00","2018","01","09","21:00","-18.9","","","","","M","","","23","","15","","","","101.98","","","","-28","","NA"
"-140.20","69.61","KOMAKUK BEACH","2100682","2018-01-09 22:00","2018","01","09","22:00","-16.6","","","","","M","","","23","","15","","","","101.94","","","","-25","","NA"
"-140.20","69.61","KOMAKUK BEACH","2100682","2018-01-09 23:00","2018","01","09","23:00","-16.5","","","","","M","","","23","","7","","","","101.89","","","","-22","","NA"
"-140.20","69.61","KOMAKUK BEACH","2100682","2018-01-10 00:00","2018","01","10","00:00","-18.6","","","","","M","","","14","","6","","","","101.84","","","","-23","","NA"
"-140.20","69.61","KOMAKUK BEACH","2100682","2018-01-10 01:00","2018","01","10","01:00","-15.0","","","","","M","","","14","","6","","","","101.78","","","","-19","","NA"
"-140.20","69.61","KOMAKUK BEACH","2100682","2018-01-10 02:00","2018","01","10","02:00","-14.4","","","","","M","","","15","","4","","","","101.77","","","","-17","","NA"
"-140.20","69.61","KOMAKUK BEACH","2100682","2018-01-10 03:00","2018","01","10","03:00","-15.3","","","","","M","","","20","","7","","","","101.75","","","","-20","","NA"
"-140.20","69.61","KOMAKUK BEACH","2100682","2018-01-10 04:00","2018","01","10","04:00","-13.3","","","","","M","","","26","","13","","","","101.73","","","","-20","","NA"
"-140.20","69.61","KOMAKUK BEACH","2100682","2018-01-10 05:00","2018","01","10","05:00","-15.7","","","","","M","","","23","","9","","","","101.70","","","","-22","","NA"
"-140.20","69.61","KOMAKUK BEACH","2100682","2018-01-10 06:00","2018","01","10","06:00","-19.9","","","","","M","","","19","","4","","","","101.69","","","","-23","","NA"
"-140.20","69.61","KOMAKUK BEACH","2100682","2018-01-10 07:00","2018","01","10","07:00","-15.2","","","","","M","","","24","","4","","","","101.70","","","","-18","","NA"
"-140.20","69.61","KOMAKUK BEACH","2100682","2018-01-10 08:00","2018","01","10","08:00","-16.3","","","","","M","","","26","","11","","","","101.70","","","","-23","","NA"
"-140.20","69.61","KOMAKUK BEACH","2100682","2018-01-10 09:00","2018","01","10","09:00","-20.1","","","","","M","","","24","","22","","","","101.72","","","","-31","","NA"
"-140.20","69.61","KOMAKUK BEACH","2100682","2018-01-10 10:00","2018","01","10","10:00","-20.9","","","","","M","","","21","","7","","","","101.74","","","","-27","","NA"
"-140.20","69.61","KOMAKUK BEACH","2100682","2018-01-10 11:00","2018","01","10","11:00","-23.0","","","","","M","","","12","","7","","","","101.72","","","","-29","","NA"
"-140.20","69.61","KOMAKUK BEACH","2100682","2018-01-10 12:00","2018","01","10","12:00","-20.9","","","","","M","","","13","","6","","","","101.71","","","","-26","","NA"
"-140.20","69.61","KOMAKUK BEACH","2100682","2018-01-10 13:00","2018","01","10","13:00","-22.8","","","","","M","","","24","","19","","","","101.72","","","","-34","","NA"
"-140.20","69.61","KOMAKUK BEACH","2100682","2018-01-10 14:00","2018","01","10","14:00","-21.5","","","","","M","","","29","","4","","","","101.75","","","","-25","","NA"
"-140.20","69.61","KOMAKUK BEACH","2100682","2018-01-10 15:00","2018","01","10","15:00","-21.7","","","","","M","","","25","","6","","","","101.71","","","","-27","","NA"
"-140.20","69.61","KOMAKUK BEACH","2100682","2018-01-10 16:00","2018","01","10","16:00","-24.9","","","","","M","","","23","","17","","","","101.72","","","","-36","","NA"
"-140.20","69.61","KOMAKUK BEACH","2100682","2018-01-10 17:00","2018","01","10","17:00","-22.5","","","","","M","","","14","","24","","","","101.75","","","","-35","","NA"
"-140.20","69.61","KOMAKUK BEACH","2100682","2018-01-10 18:00","2018","01","10","18:00","-23.0","","","","","M","","","11","","35","","","","101.71","","","","-37","","NA"
"-140.20","69.61","KOMAKUK BEACH","2100682","2018-01-10 19:00","2018","01","10","19:00","-23.7","","","","","M","","","15","","30","","","","101.78","","","","-37","","NA"
"-140.20","69.61","KOMAKUK BEACH","2100682","2018-01-10 20:00","2018","01","10","20:00","-22.3","","","","","M","","","13","","22","","","","101.73","","","","-34","","NA"
"-140.20","69.61","KOMAKUK BEACH","2100682","2018-01-10 21:00","2018","01","10","21:00","-22.2","","","","","M","","","11","","37","","","","101.71","","","","-37","","NA"
"-140.20","69.61","KOMAKUK BEACH","2100682","2018-01-10 22:00","2018","01","10","22:00","-24.7","","","","","M","","","11","","35","","","","101.71","","","","-40","","NA"
"-140.20","69.61","KOMAKUK BEACH","2100682","2018-01-10 23:00","2018","01","10","23:00","-19.1","","","","","M","","","12","","24","","","","101.70","","","","-30","","NA"
"-140.20","69.61","KOMAKUK BEACH","2100682","2018-01-11 00:00","2018","01","11","00:00","-20.1","","","","","M","","","10","","28","","","","101.68","","","","-32","","NA"
"-140.20","69.61","KOMAKUK BEACH","2100682","2018-01-11 01:00","2018","01","11","01:00","-22.8","","","","","M","","","11","","33","","","","101.69","","","","-37","","NA"
"-140.20","69.61","KOMAKUK BEACH","2100682","2018-01-11 02:00","2018","01","11","02:00","-22.4","","","","","M","","","11","","39","","","","101.73","","","","-37","","NA"
"-140.20","69.61","KOMAKUK BEACH","2100682","2018-01-11 03:00","2018","01","11","03:00","-23.6","","","","","M","","","11","","41","","","","101.78","","","","-39","","NA"
"-140.20","69.61","KOMAKUK BEACH","2100682","2018-01-11 04:00","2018","01","11","04:00","-22.0","","","","","M","","","13","","28","","","","101.74","","","","-35","","NA"
"-140.20","69.61","KOMAKUK BEACH","2100682","2018-01-11 05:00","2018","01","11","05:00","-21.7","","","","","M","","","10","","24","","","","101.75","","","","-34","","NA"
"-140.20","69.61","KOMAKUK BEACH","2100682","2018-01-11 06:00","2018","01","11","06:00","-22.9","","","","","M","","","10","","35","","","","101.72","","","","-37","","NA"
"-140.20","69.61","KOMAKUK BEACH","2100682","2018-01-11 07:00","2018","01","11","07:00","-24.0","","","","","M","","","10","","39","","","","101.70","","","","-39","","NA"
"-140.20","69.61","KOMAKUK BEACH","2100682","2018-01-11 08:00","2018","01","11","08:00","-19.9","","","","","M","","","13","","24","","","","101.68","","","","-31","","NA"
"-140.20","69.61","KOMAKUK BEACH","2100682","2018-01-11 09:00","2018","01","11","09:00","-21.4","","","","","M","","","11","","37","","","","101.64","","","","-36","","NA"
"-140.20","69.61","KOMAKUK BEACH","2100682","2018-01-11 10:00","2018","01","11","10:00","-20.4","","","","","M","","","12","","24","","","","101.61","","","","-32","","NA"
"-140.20","69.61","KOMAKUK BEACH","2100682","2018-01-11 11:00","2018","01","11","11:00","-16.6","","","","","M","","","13","","31","","","","101.57","","","","-28","","NA"
"-140.20","69.61","KOMAKUK BEACH","2100682","2018-01-11 12:00","2018","01","11","12:00","-21.0","","","","","M","","","11","","28","","","","101.55","","","","-34","","NA"
"-140.20","69.61","KOMAKUK BEACH","2100682","2018-01-11 13:00","2018","01","11","13:00","-9.9","","","","","M","","","14","","46","","","","101.53","","","","-21","","NA"
"-140.20","69.61","KOMAKUK BEACH","2100682","2018-01-11 14:00","2018","01","11","14:00","-10.7","","","","","M","","","13","","43","","","","101.52","","","","-22","","NA"
"-140.20","69.61","KOMAKUK BEACH","2100682","2018-01-11 15:00","2018","01","11","15:00","-10.3","","","","","M","","","13","","35","","","","101.49","","","","-21","","NA"
"-140.20","69.61","KOMAKUK BEACH","2100682","2018-01-11 16:00","2018","01","11","16:00","-21.1","","","","","M","","","10","","33","","","","101.45","","","","-35","","NA"
"-140.20","69.61","KOMAKUK BEACH","2100682","2018-01-11 17:00","2018","01","11","17:00","-24.2","","","","","M","","","27","","19","","","","101.47","","","","-36","","NA"
"-140.20","69.61","KOMAKUK BEACH","2100682","2018-01-11 18:00","2018","01","11","18:00","-25.7","","","","","M","","","26","","15","","","","101.45","","","","-36","","NA"
"-140.20","69.61","KOMAKUK BEACH","2100682","2018-01-11 19:00","2018","01","11","19:00","-26.6","","","","","M","","","25","","19","","","","101.47","","","","-39","","NA"
"-140.20","69.61","KOMAKUK BEACH","2100682","2018-01-11 20:00","2018","01","11","20:00","-26.7","","","","","M","","","24","","15","","","","101.45","","","","-37","","NA"
"-140.20","69.61","KOMAKUK BEACH","2100682","2018-01-11 21:00","2018","01","11","21:00","-27.1","","","","","M","","","24","","15","","","","101.43","","","","-38","","NA"
"-140.20","69.61","KOMAKUK BEACH","2100682","2018-01-11 22:00","2018","01","11","22:00","-27.1","","","","","M","","","25","","22","","","","101.43","","","","-40","","NA"
"-140.20","69.61","KOMAKUK BEACH","2100682","2018-01-11 23:00","2018","01","11","23:00","-27.1","","","","","M","","","25","","19","","","","101.47","","","","-39","","NA"
"-140.20","69.61","KOMAKUK BEACH","2100682","2018-01-12 00:00","2018","01","12","00:00","-24.2","","","","","M","","","26","","20","","","","101.48","","","","-36","","NA"
"-140.20","69.61","KOMAKUK BEACH","2100682","2018-01-12 01:00","2018","01","12","01:00","-25.9","","","","","M","","","26","","15","","","","101.47","","","","-36","","NA"
"-140.20","69.61","KOMAKUK BEACH","2100682","2018-01-12 02:00","2018","01","12","02:00","-26.6","","","","","M","","","25","","20","","","","101.49","","","","-39","","NA"
"-140.20","69.61","KOMAKUK BEACH","2100682","2018-01-12 03:00","2018","01","12","03:00","-27.1","","","","","M","","","24","","17","","","","101.50","","","","-39","","NA"
"-140.20","69.61","KOMAKUK BEACH","2100682","2018-01-12 04:00","2018","01","12","04:00","-26.5","","","","","M","","","24","","11","","","","101.49","","","","-35","","NA"
"-140.20","69.61","KOMAKUK BEACH","2100682","2018-01-12 05:00","2018","01","12","05:00","-27.0","","","","","M","","","23","","11","","","","101.51","","","","-36","","NA"
"-140.20","69.61","KOMAKUK BEACH","2100682","2018-01-12 06:00","2018","01","12","06:00","-23.8","","","","","M","","","25","","9","","","","101.49","","","","-31","","NA"
"-140.20","69.61","KOMAKUK BEACH","2100682","2018-01-12 07:00","2018","01","12","07:00","-27.1","","","","","M","","","22","","11","","","","101.51","","","","-36","","NA"
"-140.20","69.61","KOMAKUK BEACH","2100682","2018-01-12 08:00","2018","01","12","08:00","-26.8","","","","","M","","","26","","4","","","","101.45","","","","-31","","NA"
"-140.20","69.61","KOMAKUK BEACH","2100682","2018-01-12 09:00","2018","01","12","09:00","-25.5","","","","","M","","","23","","11","","","","101.46","","","","-34","","NA"
"-140.20","69.61","KOMAKUK BEACH","2100682","2018-01-12 10:00","2018","01","12","10:00","-24.1","","","","","M","","","26","","9","","","","101.45","","","","-32","","NA"
"-140.20","69.61","KOMAKUK BEACH","2100682","2018-01-12 11:00","2018","01","12","11:00","-22.4","","","","","M","","","24","","7","","","","101.43","","","","-28","","NA"
"-140.20","69.61","KOMAKUK BEACH","2100682","2018-01-12 12:00","2018","01","12","12:00","-24.5","","","","","M","","","12","","11","","","","101.45","","","","-33","","NA"
"-140.20","69.61","KOMAKUK BEACH","2100682","2018-01-12 13:00","2018","01","12","13:00","-27.8","","","","","M","","","6","","7","","","","101.44","","","","-35","","NA"
"-140.20","69.61","KOMAKUK BEACH","2100682","2018-01-12 14:00","2018","01","12","14:00","-28.0","","","","","M","","","11","","7","","","","101.42","","","","-35","","NA"
"-140.20","69.61","KOMAKUK BEACH","2100682","2018-01-12 15:00","2018","01","12","15:00","-25.2","","","","","M","","","11","","17","","","","101.43","","","","-36","","NA"
"-140.20","69.61","KOMAKUK BEACH","2100682","2018-01-12 16:00","2018","01","12","16:00","-24.7","","","","","M","","","10","","26","","","","101.44","","","","-38","","NA"
"-140.20","69.61","KOMAKUK BEACH","2100682","2018-01-12 17:00","2018","01","12","17:00","-24.3","","","","","M","","","10","","26","","","","101.42","","","","-37","","NA"
"-140.20","69.61","KOMAKUK BEACH","2100682","2018-01-12 18:00","2018","01","12","18:00","-25.6","","","","","M","","","11","","30","","","","101.45","","","","-40","","NA"
"-140.20","69.61","KOMAKUK BEACH","2100682","2018-01-12 19:00","2018","01","12","19:00","-25.9","","","","","M","","","12","","28","","","","101.45","","","","-40","","NA"
"-140.20","69.61","KOMAKUK BEACH","2100682","2018-01-12 20:00","2018","01","12","20:00","-25.4","","","","","M","","","10","","41","","","","101.46","","","","-42","","NA"
"-140.20","69.61","KOMAKUK BEACH","2100682","2018-01-12 21:00","2018","01","12","21:00","-25.1","","","","","M","","","10","","26","","","","101.49","","","","-38","","NA"
"-140.20","69.61","KOMAKUK BEACH","2100682","2018-01-12 22:00","2018","01","12","22:00","-25.8","","","","","M","","","11","","41","","","","101.49","","","","-42","","NA"
"-140.20","69.61","KOMAKUK BEACH","2100682","2018-01-12 23:00","2018","01","12","23:00","-25.2","","","","","M","","","10","","39","","","","101.52","","","","-41","","NA"
"-140.20","69.61","KOMAKUK BEACH","2100682","2018-01-13 00:00","2018","01","13","00:00","-25.0","","","","","M","","","11","","39","","","","101.56","","","","-41","","NA"
"-140.20","69.61","KOMAKUK BEACH","2100682","2018-01-13 01:00","2018","01","13","01:00","-25.0","","","","","M","","","10","","43","","","","101.56","","","","-41","","NA"
"-140.20","69.61","KOMAKUK BEACH","2100682","2018-01-13 02:00","2018","01","13","02:00","-24.9","","","","","M","","","9","","50","","","","101.53","","","","-42","","NA"
"-140.20","69.61","KOMAKUK BEACH","2100682","2018-01-13 03:00","2018","01","13","03:00","-25.7","","","","","M","","","10","","54","","","","101.57","","","","-44","","NA"
"-140.20","69.61","KOMAKUK BEACH","2100682","2018-01-13 04:00","2018","01","13","04:00","-25.1","","","","","M","","","10","","61","","","","101.54","","","","-44","","NA"
"-140.20","69.61","KOMAKUK BEACH","2100682","2018-01-13 05:00","2018","01","13","05:00","-26.0","","","","","M","","","10","","57","","","","101.61","","","","-44","","NA"
"-140.20","69.61","KOMAKUK BEACH","2100682","2018-01-13 06:00","2018","01","13","06:00","-26.4","","","","","M","","","10","","52","","","","101.66","","","","-44","","NA"
"-140.20","69.61","KOMAKUK BEACH","2100682","2018-01-13 07:00","2018","01","13","07:00","-26.3","","","","","M","","","10","","50","","","","101.66","","","","-44","","NA"
"-140.20","69.61","KOMAKUK BEACH","2100682","2018-01-13 08:00","2018","01","13","08:00","-27.1","","","","","M","","","10","","52","","","","101.63","","","","-45","","NA"
"-140.20","69.61","KOMAKUK BEACH","2100682","2018-01-13 09:00","2018","01","13","09:00","-26.7","","","","","M","","","10","","61","","","","101.67","","","","-46","","NA"
"-140.20","69.61","KOMAKUK BEACH","2100682","2018-01-13 10:00","2018","01","13","10:00","-26.4","","","","","M","","","11","","65","","","","101.65","","","","-46","","NA"
"-140.20","69.61","KOMAKUK BEACH","2100682","2018-01-13 11:00","2018","01","13","11:00","-26.8","","","","","M","","","12","","57","","","","101.75","","","","-46","","NA"
"-140.20","69.61","KOMAKUK BEACH","2100682","2018-01-13 12:00","2018","01","13","12:00","-27.7","","","","","M","","","10","","61","","","","101.68","","","","-47","","NA"
"-140.20","69.61","KOMAKUK BEACH","2100682","2018-01-13 13:00","2018","01","13","13:00","-27.2","","","","","M","","","11","","57","","","","101.72","","","","-46","","NA"
"-140.20","69.61","KOMAKUK BEACH","2100682","2018-01-13 14:00","2018","01","13","14:00","-27.2","","","","","M","","","11","","57","","","","101.70","","","","-46","","NA"
"-140.20","69.61","KOMAKUK BEACH","2100682","2018-01-13 15:00","2018","01","13","15:00","-28.6","","","","","M","","","11","","46","","","","101.71","","","","-47","","NA"
"-140.20","69.61","KOMAKUK BEACH","2100682","2018-01-13 16:00","2018","01","13","16:00","-29.3","","","","","M","","","11","","54","","","","101.67","","","","-49","","NA"
"-140.20","69.61","KOMAKUK BEACH","2100682","2018-01-13 17:00","2018","01","13","17:00","-28.5","","","","","M","","","11","","57","","","","101.61","","","","-48","","NA"
"-140.20","69.61","KOMAKUK BEACH","2100682","2018-01-13 18:00","2018","01","13","18:00","-27.3","","","","","M","","","11","","56","","","","101.57","","","","-46","","NA"
"-140.20","69.61","KOMAKUK BEACH","2100682","2018-01-13 19:00","2018","01","13","19:00","-27.9","","","","","M","","","11","","56","","","","101.47","","","","-47","","NA"
"-140.20","69.61","KOMAKUK BEACH","2100682","2018-01-13 20:00","2018","01","13","20:00","-27.7","","","","","M","","","10","","59","","","","101.34","","","","-47","","NA"
"-140.20","69.61","KOMAKUK BEACH","2100682","2018-01-13 21:00","2018","01","13","21:00","-27.8","","","","","M","","","11","","61","","","","101.19","","","","-47","","NA"
"-140.20","69.61","KOMAKUK BEACH","2100682","2018-01-13 22:00","2018","01","13","22:00","-26.2","","","","","M","","","11","","63","","","","101.09","","","","-45","","NA"
"-140.20","69.61","KOMAKUK BEACH","2100682","2018-01-13 23:00","2018","01","13","23:00","-27.4","","","","","M","","","10","","61","","","","101.02","","","","-47","","NA"
"-140.20","69.61","KOMAKUK BEACH","2100682","2018-01-14 00:00","2018","01","14","00:00","-27.1","","","","","M","","","10","","63","","","","100.92","","","","-47","","NA"
"-140.20","69.61","KOMAKUK BEACH","2100682","2018-01-14 01:00","2018","01","14","01:00","-26.1","","","","","M","","","10","","63","","","","100.84","","","","-45","","NA"
"-140.20","69.61","KOMAKUK BEACH","2100682","2018-01-14 02:00","2018","01","14","02:00","-25.0","","","","","M","","","12","","56","","","","100.72","","","","-43","","NA"
"-140.20","69.61","KOMAKUK BEACH","2100682","2018-01-14 03:00","2018","01","14","03:00","-23.3","","","","","M","","","12","","63","","","","100.52","","","","-41","","NA"
"-140.20","69.61","KOMAKUK BEACH","2100682","2018-01-14 04:00","2018","01","14","04:00","-25.2","","","","","M","","","10","","48","","","","100.49","","","","-42","","NA"
"-140.20","69.61","KOMAKUK BEACH","2100682","2018-01-14 05:00","2018","01","14","05:00","-22.1","","","","","M","","","12","","39","","","","100.29","","","","-37","","NA"
"-140.20","69.61","KOMAKUK BEACH","2100682","2018-01-14 06:00","2018","01","14","06:00","-22.5","","","","","M","","","11","","59","","","","100.06","","","","-40","","NA"
"-140.20","69.61","KOMAKUK BEACH","2100682","2018-01-14 07:00","2018","01","14","07:00","-20.5","","","","","M","","","10","","67","","","","99.70","","","","-38","","NA"
"-140.20","69.61","KOMAKUK BEACH","2100682","2018-01-14 08:00","2018","01","14","08:00","-19.5","","","","","M","","","9","","72","","","","99.46","","","","-37","","NA"
"-140.20","69.61","KOMAKUK BEACH","2100682","2018-01-14 09:00","2018","01","14","09:00","-15.1","","","","","M","","","10","","56","","","","99.29","","","","-29","","NA"
"-140.20","69.61","KOMAKUK BEACH","2100682","2018-01-14 10:00","2018","01","14","10:00","-15.4","","","","","M","","","10","","48","","","","99.20","","","","-29","","NA"
"-140.20","69.61","KOMAKUK BEACH","2100682","2018-01-14 11:00","2018","01","14","11:00","-11.6","","","","","M","","","10","","44","","","","99.00","","","","-23","","NA"
"-140.20","69.61","KOMAKUK BEACH","2100682","2018-01-14 12:00","2018","01","14","12:00","-11.1","","","","","M","","","9","","35","","","","98.98","","","","-22","","NA"
"-140.20","69.61","KOMAKUK BEACH","2100682","2018-01-14 13:00","2018","01","14","13:00","-2.3","","","","","M","","","31","","7","","","","99.05","","","","-5","","NA"
"-140.20","69.61","KOMAKUK BEACH","2100682","2018-01-14 14:00","2018","01","14","14:00","-2.9","","","","","M","","","14","","7","","","","99.07","","","","-6","","NA"
"-140.20","69.61","KOMAKUK BEACH","2100682","2018-01-14 15:00","2018","01","14","15:00","-3.8","","","","","M","","","25","","19","","","","99.24","","","","-10","","NA"
"-140.20","69.61","KOMAKUK BEACH","2100682","2018-01-14 16:00","2018","01","14","16:00","-0.6","","","","","M","","","26","","26","","","","99.34","","","","-7","","NA"
"-140.20","69.61","KOMAKUK BEACH","2100682","2018-01-14 17:00","2018","01","14","17:00","-3.1","","","","","M","","","25","","13","","","","99.43","","","","-8","","NA"
"-140.20","69.61","KOMAKUK BEACH","2100682","2018-01-14 18:00","2018","01","14","18:00","-0.2","","","","","M","","","22","","7","","","","99.47","","","","-3","","NA"
"-140.20","69.61","KOMAKUK BEACH","2100682","2018-01-14 19:00","2018","01","14","19:00","-3.6","","","","","M","","","33","","7","","","","99.48","","","","-7","","NA"
"-140.20","69.61","KOMAKUK BEACH","2100682","2018-01-14 20:00","2018","01","14","20:00","-6.1","","","","","M","","","5","","9","","","","99.46","","","","-10","","NA"
"-140.20","69.61","KOMAKUK BEACH","2100682","2018-01-14 21:00","2018","01","14","21:00","-6.7","","","","","M","","","","","0","","","","99.50","","","","","","NA"
"-140.20","69.61","KOMAKUK BEACH","2100682","2018-01-14 22:00","2018","01","14","22:00","0.1","","","","","M","","","11","","30","","","","99.41","","","","","","NA"
"-140.20","69.61","KOMAKUK BEACH","2100682","2018-01-14 23:00","2018","01","14","23:00","-0.6","","","","","M","","","10","","30","","","","99.37","","","","-7","","NA"
"-140.20","69.61","KOMAKUK BEACH","2100682","2018-01-15 00:00","2018","01","15","00:00","-2.7","","","","","M","","","26","","17","","","","99.39","","","","-8","","NA"
"-140.20","69.61","KOMAKUK BEACH","2100682","2018-01-15 01:00","2018","01","15","01:00","-4.0","","","","","M","","","21","","7","","","","99.41","","","","-7","","NA"
"-140.20","69.61","KOMAKUK BEACH","2100682","2018-01-15 02:00","2018","01","15","02:00","-3.9","","","","","M","","","5","","9","","","","99.38","","","","-8","","NA"
"-140.20","69.61","KOMAKUK BEACH","2100682","2018-01-15 03:00","2018","01","15","03:00","-3.3","","","","","M","","","18","","11","","","","99.37","","","","-8","","NA"
"-140.20","69.61","KOMAKUK BEACH","2100682","2018-01-15 04:00","2018","01","15","04:00","-4.5","","","","","M","","","25","","6","","","","99.42","","","","-7","","NA"
"-140.20","69.61","KOMAKUK BEACH","2100682","2018-01-15 05:00","2018","01","15","05:00","-5.0","","","","","M","","","28","","6","","","","99.39","","","","-8","","NA"
"-140.20","69.61","KOMAKUK BEACH","2100682","2018-01-15 06:00","2018","01","15","06:00","-2.5","","","","","M","","","24","","9","","","","99.40","","","","-6","","NA"
"-140.20","69.61","KOMAKUK BEACH","2100682","2018-01-15 07:00","2018","01","15","07:00","-3.9","","","","","M","","","26","","17","","","","99.43","","","","-10","","NA"
"-140.20","69.61","KOMAKUK BEACH","2100682","2018-01-15 08:00","2018","01","15","08:00","-3.8","","","","","M","","","28","","15","","","","99.44","","","","-9","","NA"
"-140.20","69.61","KOMAKUK BEACH","2100682","2018-01-15 09:00","2018","01","15","09:00","-5.5","","","","","M","","","25","","24","","","","99.45","","","","-13","","NA"
"-140.20","69.61","KOMAKUK BEACH","2100682","2018-01-15 10:00","2018","01","15","10:00","-5.7","","","","","M","","","25","","24","","","","99.45","","","","-13","","NA"
"-140.20","69.61","KOMAKUK BEACH","2100682","2018-01-15 11:00","2018","01","15","11:00","-5.3","","","","","M","","","27","","30","","","","99.48","","","","-13","","NA"
"-140.20","69.61","KOMAKUK BEACH","2100682","2018-01-15 12:00","2018","01","15","12:00","-4.5","","","","","M","","","26","","22","","","","99.49","","","","-11","","NA"
"-140.20","69.61","KOMAKUK BEACH","2100682","2018-01-15 13:00","2018","01","15","13:00","-3.7","","","","","M","","","26","","22","","","","99.53","","","","-10","","NA"
"-140.20","69.61","KOMAKUK BEACH","2100682","2018-01-15 14:00","2018","01","15","14:00","-4.1","","","","","M","","","27","","24","","","","99.55","","","","-11","","NA"
"-140.20","69.61","KOMAKUK BEACH","2100682","2018-01-15 15:00","2018","01","15","15:00","-4.9","","","","","M","","","27","","26","","","","99.62","","","","-12","","NA"
"-140.20","69.61","KOMAKUK BEACH","2100682","2018-01-15 16:00","2018","01","15","16:00","-5.5","","","","","M","","","27","","24","","","","99.66","","","","-13","","NA"
"-140.20","69.61","KOMAKUK BEACH","2100682","2018-01-15 17:00","2018","01","15","17:00","-6.5","","","","","M","","","27","","20","","","","99.72","","","","-13","","NA"
"-140.20","69.61","KOMAKUK BEACH","2100682","2018-01-15 18:00","2018","01","15","18:00","-6.7","","","","","M","","","25","","19","","","","99.79","","","","-14","","NA"
"-140.20","69.61","KOMAKUK BEACH","2100682","2018-01-15 19:00","2018","01","15","19:00","-4.4","","","","","M","","","25","","24","","","","99.79","","","","-11","","NA"
"-140.20","69.61","KOMAKUK BEACH","2100682","2018-01-15 20:00","2018","01","15","20:00","-5.4","","","","","M","","","26","","26","","","","99.88","","","","-13","","NA"
"-140.20","69.61","KOMAKUK BEACH","2100682","2018-01-15 21:00","2018","01","15","21:00","-6.2","","","","","M","","","26","","24","","","","99.92","","","","-14","","NA"
"-140.20","69.61","KOMAKUK BEACH","2100682","2018-01-15 22:00","2018","01","15","22:00","-6.4","","","","","M","","","25","","22","","","","100.04","","","","-14","","NA"
"-140.20","69.61","KOMAKUK BEACH","2100682","2018-01-15 23:00","2018","01","15","23:00","-5.0","","","","","M","","","26","","22","","","","100.03","","","","-12","","NA"
"-140.20","69.61","KOMAKUK BEACH","2100682","2018-01-16 00:00","2018","01","16","00:00","-4.7","","","","","M","","","27","","15","","","","100.11","","","","-10","","NA"
"-140.20","69.61","KOMAKUK BEACH","2100682","2018-01-16 01:00","2018","01","16","01:00","-5.2","","","","","M","","","28","","19","","","","100.17","","","","-12","","NA"
"-140.20","69.61","KOMAKUK BEACH","2100682","2018-01-16 02:00","2018","01","16","02:00","-7.2","","","","","M","","","25","","13","","","","100.18","","","","-13","","NA"
"-140.20","69.61","KOMAKUK BEACH","2100682","2018-01-16 03:00","2018","01","16","03:00","-8.4","","","","","M","","","25","","19","","","","100.25","","","","-16","","NA"
"-140.20","69.61","KOMAKUK BEACH","2100682","2018-01-16 04:00","2018","01","16","04:00","-10.0","","","","","M","","","23","","19","","","","100.27","","","","-18","","NA"
"-140.20","69.61","KOMAKUK BEACH","2100682","2018-01-16 05:00","2018","01","16","05:00","-9.6","","","","","M","","","24","","20","","","","100.35","","","","-17","","NA"
"-140.20","69.61","KOMAKUK BEACH","2100682","2018-01-16 06:00","2018","01","16","06:00","-7.9","","","","","M","","","26","","20","","","","100.37","","","","-15","","NA"
"-140.20","69.61","KOMAKUK BEACH","2100682","2018-01-16 07:00","2018","01","16","07:00","-8.0","","","","","M","","","27","","17","","","","100.34","","","","-15","","NA"
"-140.20","69.61","KOMAKUK BEACH","2100682","2018-01-16 08:00","2018","01","16","08:00","-8.5","","","","","M","","","25","","9","","","","100.34","","","","-13","","NA"
"-140.20","69.61","KOMAKUK BEACH","2100682","2018-01-16 09:00","2018","01","16","09:00","-8.0","","","","","M","","","","","0","","","","100.37","","","","","","NA"
"-140.20","69.61","KOMAKUK BEACH","2100682","2018-01-16 10:00","2018","01","16","10:00","-10.4","","","","","M","","","23","","7","","","","100.39","","","","-14","","NA"
"-140.20","69.61","KOMAKUK BEACH","2100682","2018-01-16 11:00","2018","01","16","11:00","-12.5","","","","","M","","","24","","13","","","","100.42","","","","-19","","NA"
"-140.20","69.61","KOMAKUK BEACH","2100682","2018-01-16 12:00","2018","01","16","12:00","-9.6","","","","","M","","","25","","11","","","","100.50","","","","-15","","NA"
"-140.20","69.61","KOMAKUK BEACH","2100682","2018-01-16 13:00","2018","01","16","13:00","-9.6","","","","","M","","","24","","17","","","","100.53","","","","-17","","NA"
"-140.20","69.61","KOMAKUK BEACH","2100682","2018-01-16 14:00","2018","01","16","14:00","-11.6","","","","","M","","","24","","15","","","","100.55","","","","-19","","NA"
"-140.20","69.61","KOMAKUK BEACH","2100682","2018-01-16 15:00","2018","01","16","15:00","-11.6","","","","","M","","","24","","17","","","","100.56","","","","-19","","NA"
"-140.20","69.61","KOMAKUK BEACH","2100682","2018-01-16 16:00","2018","01","16","16:00","-9.9","","","","","M","","","25","","19","","","","100.60","","","","-18","","NA"
"-140.20","69.61","KOMAKUK BEACH","2100682","2018-01-16 17:00","2018","01","16","17:00","-9.1","","","","","M","","","25","","11","","","","100.59","","","","-15","","NA"
"-140.20","69.61","KOMAKUK BEACH","2100682","2018-01-16 18:00","2018","01","16","18:00","-8.4","","","","","M","","","27","","7","","","","100.57","","","","-12","","NA"
"-140.20","69.61","KOMAKUK BEACH","2100682","2018-01-16 19:00","2018","01","16","19:00","-9.3","","","","","M","","","27","","13","","","","100.57","","","","-15","","NA"
"-140.20","69.61","KOMAKUK BEACH","2100682","2018-01-16 20:00","2018","01","16","20:00","-9.1","","","","","M","","","26","","11","","","","100.58","","","","-15","","NA"
"-140.20","69.61","KOMAKUK BEACH","2100682","2018-01-16 21:00","2018","01","16","21:00","-11.7","","","","","M","","","22","","9","","","","100.59","","","","-17","","NA"
"-140.20","69.61","KOMAKUK BEACH","2100682","2018-01-16 22:00","2018","01","16","22:00","-9.0","","","","","M","","","29","","9","","","","100.51","","","","-14","","NA"
"-140.20","69.61","KOMAKUK BEACH","2100682","2018-01-16 23:00","2018","01","16","23:00","-11.8","","","","","M","","","24","","7","","","","100.48","","","","-16","","NA"
"-140.20","69.61","KOMAKUK BEACH","2100682","2018-01-17 00:00","2018","01","17","00:00","-11.0","","","","","M","","","24","","9","","","","100.44","","","","-16","","NA"
"-140.20","69.61","KOMAKUK BEACH","2100682","2018-01-17 01:00","2018","01","17","01:00","-9.8","","","","","M","","","17","","7","","","","100.45","","","","-14","","NA"
"-140.20","69.61","KOMAKUK BEACH","2100682","2018-01-17 02:00","2018","01","17","02:00","-11.1","","","","","M","","","13","","15","","","","100.42","","","","-18","","NA"
"-140.20","69.61","KOMAKUK BEACH","2100682","2018-01-17 03:00","2018","01","17","03:00","-8.2","","","","","M","","","10","","20","","","","100.37","","","","-16","","NA"
"-140.20","69.61","KOMAKUK BEACH","2100682","2018-01-17 04:00","2018","01","17","04:00","-8.4","","","","","M","","","9","","22","","","","100.26","","","","-16","","NA"
"-140.20","69.61","KOMAKUK BEACH","2100682","2018-01-17 05:00","2018","01","17","05:00","-7.3","","","","","M","","","9","","28","","","","100.17","","","","-16","","NA"
"-140.20","69.61","KOMAKUK BEACH","2100682","2018-01-17 06:00","2018","01","17","06:00","-7.2","","","","","M","","","9","","28","","","","100.14","","","","-16","","NA"
"-140.20","69.61","KOMAKUK BEACH","2100682","2018-01-17 07:00","2018","01","17","07:00","-6.7","","","","","M","","","10","","26","","","","100.08","","","","-15","","NA"
"-140.20","69.61","KOMAKUK BEACH","2100682","2018-01-17 08:00","2018","01","17","08:00","-6.7","","","","","M","","","10","","28","","","","99.95","","","","-15","","NA"
"-140.20","69.61","KOMAKUK BEACH","2100682","2018-01-17 09:00","2018","01","17","09:00","-6.3","","","","","M","","","10","","37","","","","99.88","","","","-16","","NA"
"-140.20","69.61","KOMAKUK BEACH","2100682","2018-01-17 10:00","2018","01","17","10:00","-5.9","","","","","M","","","10","","44","","","","99.81","","","","-16","","NA"
"-140.20","69.61","KOMAKUK BEACH","2100682","2018-01-17 11:00","2018","01","17","11:00","-5.4","","","","","M","","","9","","43","","","","99.77","","","","-15","","NA"
"-140.20","69.61","KOMAKUK BEACH","2100682","2018-01-17 12:00","2018","01","17","12:00","-5.8","","","","","M","","","10","","44","","","","99.76","","","","-16","","NA"
"-140.20","69.61","KOMAKUK BEACH","2100682","2018-01-17 13:00","2018","01","17","13:00","-6.0","","","","","M","","","9","","46","","","","99.76","","","","-16","","NA"
"-140.20","69.61","KOMAKUK BEACH","2100682","2018-01-17 14:00","2018","01","17","14:00","-6.3","","","","","M","","","9","","44","","","","99.77","","","","-16","","NA"
"-140.20","69.61","KOMAKUK BEACH","2100682","2018-01-17 15:00","2018","01","17","15:00","-6.4","","","","","M","","","9","","50","","","","99.67","","","","-17","","NA"
"-140.20","69.61","KOMAKUK BEACH","2100682","2018-01-17 16:00","2018","01","17","16:00","-6.7","","","","","M","","","10","","63","","","","99.54","","","","-18","","NA"
"-140.20","69.61","KOMAKUK BEACH","2100682","2018-01-17 17:00","2018","01","17","17:00","-6.6","","","","","M","","","10","","46","","","","99.65","","","","-17","","NA"
"-140.20","69.61","KOMAKUK BEACH","2100682","2018-01-17 18:00","2018","01","17","18:00","-7.0","","","","","M","","","10","","52","","","","99.57","","","","-18","","NA"
"-140.20","69.61","KOMAKUK BEACH","2100682","2018-01-17 19:00","2018","01","17","19:00","-7.1","","","","","M","","","10","","57","","","","99.51","","","","-18","","NA"
"-140.20","69.61","KOMAKUK BEACH","2100682","2018-01-17 20:00","2018","01","17","20:00","-7.0","","","","","M","","","10","","50","","","","99.54","","","","-18","","NA"
"-140.20","69.61","KOMAKUK BEACH","2100682","2018-01-17 21:00","2018","01","17","21:00","-7.0","","","","","M","","","10","","46","","","","99.46","","","","-17","","NA"
"-140.20","69.61","KOMAKUK BEACH","2100682","2018-01-17 22:00","2018","01","17","22:00","-7.1","","","","","M","","","11","","61","","","","99.40","","","","-19","","NA"
"-140.20","69.61","KOMAKUK BEACH","2100682","2018-01-17 23:00","2018","01","17","23:00","-7.1","","","","","M","","","10","","52","","","","99.39","","","","-18","","NA"
"-140.20","69.61","KOMAKUK BEACH","2100682","2018-01-18 00:00","2018","01","18","00:00","-7.4","","","","","M","","","10","","50","","","","99.40","","","","-18","","NA"
"-140.20","69.61","KOMAKUK BEACH","2100682","2018-01-18 01:00","2018","01","18","01:00","-7.6","","","","","M","","","10","","48","","","","99.42","","","","-18","","NA"
"-140.20","69.61","KOMAKUK BEACH","2100682","2018-01-18 02:00","2018","01","18","02:00","-7.7","","","","","M","","","11","","39","","","","99.43","","","","-18","","NA"
"-140.20","69.61","KOMAKUK BEACH","2100682","2018-01-18 03:00","2018","01","18","03:00","-7.5","","","","","M","","","10","","39","","","","99.42","","","","-17","","NA"
"-140.20","69.61","KOMAKUK BEACH","2100682","2018-01-18 04:00","2018","01","18","04:00","-7.4","","","","","M","","","10","","37","","","","99.42","","","","-17","","NA"
"-140.20","69.61","KOMAKUK BEACH","2100682","2018-01-18 05:00","2018","01","18","05:00","-7.2","","","","","M","","","10","","28","","","","99.38","","","","-16","","NA"
"-140.20","69.61","KOMAKUK BEACH","2100682","2018-01-18 06:00","2018","01","18","06:00","-7.0","","","","","M","","","10","","33","","","","99.37","","","","-16","","NA"
"-140.20","69.61","KOMAKUK BEACH","2100682","2018-01-18 07:00","2018","01","18","07:00","-7.2","","","","","M","","","11","","35","","","","99.37","","","","-16","","NA"
"-140.20","69.61","KOMAKUK BEACH","2100682","2018-01-18 08:00","2018","01","18","08:00","-7.4","","","","","M","","","11","","33","","","","99.35","","","","-17","","NA"
"-140.20","69.61","KOMAKUK BEACH","2100682","2018-01-18 09:00","2018","01","18","09:00","-8.0","","","","","M","","","10","","28","","","","99.39","","","","-17","","NA"
"-140.20","69.61","KOMAKUK BEACH","2100682","2018-01-18 10:00","2018","01","18","10:00","-8.7","","","","","M","","","10","","24","","","","99.43","","","","-17","","NA"
"-140.20","69.61","KOMAKUK BEACH","2100682","2018-01-18 11:00","2018","01","18","11:00","-9.6","","","","","M","","","11","","17","","","","99.47","","","","-17","","NA"
"-140.20","69.61","KOMAKUK BEACH","2100682","2018-01-18 12:00","2018","01","18","12:00","-9.5","","","","","M","","","10","","19","","","","99.50","","","","-17","","NA"
"-140.20","69.61","KOMAKUK BEACH","2100682","2018-01-18 13:00","2018","01","18","13:00","-10.3","","","","","M","","","11","","15","","","","99.54","","","","-17","","NA"
"-140.20","69.61","KOMAKUK BEACH","2100682","2018-01-18 14:00","2018","01","18","14:00","-11.4","","","","","M","","","11","","11","","","","99.62","","","","-17","","NA"
"-140.20","69.61","KOMAKUK BEACH","2100682","2018-01-18 15:00","2018","01","18","15:00","-8.7","","","","","M","","","25","","17","","","","99.73","","","","-16","","NA"
"-140.20","69.61","KOMAKUK BEACH","2100682","2018-01-18 16:00","2018","01","18","16:00","-6.5","","","","","M","","","27","","31","","","","99.78","","","","-15","","NA"
"-140.20","69.61","KOMAKUK BEACH","2100682","2018-01-18 17:00","2018","01","18","17:00","-7.8","","","","","M","","","26","","37","","","","99.91","","","","-18","","NA"
"-140.20","69.61","KOMAKUK BEACH","2100682","2018-01-18 18:00","2018","01","18","18:00","-7.8","","","","","M","","","27","","39","","","","99.97","","","","-18","","NA"
"-140.20","69.61","KOMAKUK BEACH","2100682","2018-01-18 19:00","2018","01","18","19:00","-8.6","","","","","M","","","27","","41","","","","100.04","","","","-19","","NA"
"-140.20","69.61","KOMAKUK BEACH","2100682","2018-01-18 20:00","2018","01","18","20:00","-8.0","","","","","M","","","28","","56","","","","100.11","","","","-20","","NA"
"-140.20","69.61","KOMAKUK BEACH","2100682","2018-01-18 21:00","2018","01","18","21:00","-8.9","","","","","M","","","27","","43","","","","100.20","","","","-20","","NA"
"-140.20","69.61","KOMAKUK BEACH","2100682","2018-01-18 22:00","2018","01","18","22:00","-8.4","","","","","M","","","27","","39","","","","100.25","","","","-19","","NA"
"-140.20","69.61","KOMAKUK BEACH","2100682","2018-01-18 23:00","2018","01","18","23:00","-7.7","","","","","M","","","28","","52","","","","100.31","","","","-19","","NA"
"-140.20","69.61","KOMAKUK BEACH","2100682","2018-01-19 00:00","2018","01","19","00:00","-8.0","","","","","M","","","28","","59","","","","100.35","","","","-20","","NA"
"-140.20","69.61","KOMAKUK BEACH","2100682","2018-01-19 01:00","2018","01","19","01:00","-8.4","","","","","M","","","27","","57","","","","100.43","","","","-20","","NA"
"-140.20","69.61","KOMAKUK BEACH","2100682","2018-01-19 02:00","2018","01","19","02:00","-9.5","","","","","M","","","27","","54","","","","100.49","","","","-21","","NA"
"-140.20","69.61","KOMAKUK BEACH","2100682","2018-01-19 03:00","2018","01","19","03:00","-10.5","","","","","M","","","27","","50","","","","100.56","","","","-22","","NA"
"-140.20","69.61","KOMAKUK BEACH","2100682","2018-01-19 04:00","2018","01","19","04:00","-11.6","","","","","M","","","27","","57","","","","100.62","","","","-25","","NA"
"-140.20","69.61","KOMAKUK BEACH","2100682","2018-01-19 05:00","2018","01","19","05:00","-12.3","","","","","M","","","27","","56","","","","100.72","","","","-25","","NA"
"-140.20","69.61","KOMAKUK BEACH","2100682","2018-01-19 06:00","2018","01","19","06:00","-13.4","","","","","M","","","27","","61","","","","100.79","","","","-27","","NA"
"-140.20","69.61","KOMAKUK BEACH","2100682","2018-01-19 07:00","2018","01","19","07:00","-14.0","","","","","M","","","27","","50","","","","100.90","","","","-27","","NA"
"-140.20","69.61","KOMAKUK BEACH","2100682","2018-01-19 08:00","2018","01","19","08:00","-14.4","","","","","M","","","27","","48","","","","100.94","","","","-28","","NA"
"-140.20","69.61","KOMAKUK BEACH","2100682","2018-01-19 09:00","2018","01","19","09:00","-14.9","","","","","M","","","28","","57","","","","101.04","","","","-29","","NA"
"-140.20","69.61","KOMAKUK BEACH","2100682","2018-01-19 10:00","2018","01","19","10:00","-15.4","","","","","M","","","28","","59","","","","101.09","","","","-30","","NA"
"-140.20","69.61","KOMAKUK BEACH","2100682","2018-01-19 11:00","2018","01","19","11:00","-15.6","","","","","M","","","27","","63","","","","101.14","","","","-31","","NA"
"-140.20","69.61","KOMAKUK BEACH","2100682","2018-01-19 12:00","2018","01","19","12:00","-16.3","","","","","M","","","28","","70","","","","101.21","","","","-32","","NA"
"-140.20","69.61","KOMAKUK BEACH","2100682","2018-01-19 13:00","2018","01","19","13:00","-16.9","","","","","M","","","28","","67","","","","101.28","","","","-33","","NA"
"-140.20","69.61","KOMAKUK BEACH","2100682","2018-01-19 14:00","2018","01","19","14:00","-17.5","","","","","M","","","28","","67","","","","101.37","","","","-34","","NA"
"-140.20","69.61","KOMAKUK BEACH","2100682","2018-01-19 15:00","2018","01","19","15:00","-18.3","","","","","M","","","28","","63","","","","101.48","","","","-34","","NA"
"-140.20","69.61","KOMAKUK BEACH","2100682","2018-01-19 16:00","2018","01","19","16:00","-18.8","","","","","M","","","28","","59","","","","101.54","","","","-35","","NA"
"-140.20","69.61","KOMAKUK BEACH","2100682","2018-01-19 17:00","2018","01","19","17:00","-19.1","","","","","M","","","28","","61","","","","101.58","","","","-35","","NA"
"-140.20","69.61","KOMAKUK BEACH","2100682","2018-01-19 18:00","2018","01","19","18:00","-19.3","","","","","M","","","28","","65","","","","101.58","","","","-36","","NA"
"-140.20","69.61","KOMAKUK BEACH","2100682","2018-01-19 19:00","2018","01","19","19:00","-19.8","","","","","M","","","28","","69","","","","101.66","","","","-37","","NA"
"-140.20","69.61","KOMAKUK BEACH","2100682","2018-01-19 20:00","2018","01","19","20:00","-20.7","","","","","M","","","27","","56","","","","101.71","","","","-37","","NA"
"-140.20","69.61","KOMAKUK BEACH","2100682","2018-01-19 21:00","2018","01","19","21:00","-21.1","","","","","M","","","27","","57","","","","101.77","","","","-38","","NA"
"-140.20","69.61","KOMAKUK BEACH","2100682","2018-01-19 22:00","2018","01","19","22:00","-21.0","","","","","M","","","27","","57","","","","101.84","","","","-38","","NA"
"-140.20","69.61","KOMAKUK BEACH","2100682","2018-01-19 23:00","2018","01","19","23:00","-21.4","","","","","M","","","28","","65","","","","101.91","","","","-39","","NA"
"-140.20","69.61","KOMAKUK BEACH","2100682","2018-01-20 00:00","2018","01","20","00:00","-21.3","","","","","M","","","28","","61","","","","102.00","","","","-38","","NA"
"-140.20","69.61","KOMAKUK BEACH","2100682","2018-01-20 01:00","2018","01","20","01:00","-21.9","","","","","M","","","28","","63","","","","102.04","","","","-39","","NA"
"-140.20","69.61","KOMAKUK BEACH","2100682","2018-01-20 02:00","2018","01","20","02:00","-21.8","","","","","M","","","28","","67","","","","102.10","","","","-40","","NA"
"-140.20","69.61","KOMAKUK BEACH","2100682","2018-01-20 03:00","2018","01","20","03:00","-21.8","","","","","M","","","27","","56","","","","102.18","","","","-39","","NA"
"-140.20","69.61","KOMAKUK BEACH","2100682","2018-01-20 04:00","2018","01","20","04:00","-22.0","","","","","M","","","28","","59","","","","102.20","","","","-39","","NA"
"-140.20","69.61","KOMAKUK BEACH","2100682","2018-01-20 05:00","2018","01","20","05:00","-22.2","","","","","M","","","27","","52","","","","102.22","","","","-39","","NA"
"-140.20","69.61","KOMAKUK BEACH","2100682","2018-01-20 06:00","2018","01","20","06:00","-22.3","","","","","M","","","28","","52","","","","102.25","","","","-39","","NA"
"-140.20","69.61","KOMAKUK BEACH","2100682","2018-01-20 07:00","2018","01","20","07:00","-22.5","","","","","M","","","28","","52","","","","102.29","","","","-39","","NA"
"-140.20","69.61","KOMAKUK BEACH","2100682","2018-01-20 08:00","2018","01","20","08:00","-22.5","","","","","M","","","28","","54","","","","102.29","","","","-39","","NA"
"-140.20","69.61","KOMAKUK BEACH","2100682","2018-01-20 09:00","2018","01","20","09:00","-22.4","","","","","M","","","28","","48","","","","102.32","","","","-38","","NA"
"-140.20","69.61","KOMAKUK BEACH","2100682","2018-01-20 10:00","2018","01","20","10:00","-22.5","","","","","M","","","28","","46","","","","102.32","","","","-38","","NA"
"-140.20","69.61","KOMAKUK BEACH","2100682","2018-01-20 11:00","2018","01","20","11:00","-22.4","","","","","M","","","27","","39","","","","102.37","","","","-37","","NA"
"-140.20","69.61","KOMAKUK BEACH","2100682","2018-01-20 12:00","2018","01","20","12:00","-22.5","","","","","M","","","27","","41","","","","102.40","","","","-38","","NA"
"-140.20","69.61","KOMAKUK BEACH","2100682","2018-01-20 13:00","2018","01","20","13:00","-22.8","","","","","M","","","27","","41","","","","102.43","","","","-38","","NA"
"-140.20","69.61","KOMAKUK BEACH","2100682","2018-01-20 14:00","2018","01","20","14:00","-22.7","","","","","M","","","28","","48","","","","102.45","","","","-39","","NA"
"-140.20","69.61","KOMAKUK BEACH","2100682","2018-01-20 15:00","2018","01","20","15:00","-22.9","","","","","M","","","27","","41","","","","102.47","","","","-38","","NA"
"-140.20","69.61","KOMAKUK BEACH","2100682","2018-01-20 16:00","2018","01","20","16:00","-22.9","","","","","M","","","27","","33","","","","102.52","","","","-37","","NA"
"-140.20","69.61","KOMAKUK BEACH","2100682","2018-01-20 17:00","2018","01","20","17:00","-24.7","","","","","M","","","25","","30","","","","102.54","","","","-39","","NA"
"-140.20","69.61","KOMAKUK BEACH","2100682","2018-01-20 18:00","2018","01","20","18:00","-24.6","","","","","M","","","26","","35","","","","102.54","","","","-39","","NA"
"-140.20","69.61","KOMAKUK BEACH","2100682","2018-01-20 19:00","2018","01","20","19:00","-24.9","","","","","M","","","25","","33","","","","102.55","","","","-40","","NA"
"-140.20","69.61","KOMAKUK BEACH","2100682","2018-01-20 20:00","2018","01","20","20:00","-25.0","","","","","M","","","25","","30","","","","102.54","","","","-39","","NA"
"-140.20","69.61","KOMAKUK BEACH","2100682","2018-01-20 21:00","2018","01","20","21:00","-25.2","","","","","M","","","25","","28","","","","102.55","","","","-39","","NA"
"-140.20","69.61","KOMAKUK BEACH","2100682","2018-01-20 22:00","2018","01","20","22:00","-25.2","","","","","M","","","25","","30","","","","102.56","","","","-39","","NA"
"-140.20","69.61","KOMAKUK BEACH","2100682","2018-01-20 23:00","2018","01","20","23:00","-25.3","","","","","M","","","25","","28","","","","102.58","","","","-39","","NA"
"-140.20","69.61","KOMAKUK BEACH","2100682","2018-01-21 00:00","2018","01","21","00:00","-25.5","","","","","M","","","26","","28","","","","102.61","","","","-39","","NA"
"-140.20","69.61","KOMAKUK BEACH","2100682","2018-01-21 01:00","2018","01","21","01:00","-25.7","","","","","M","","","25","","26","","","","102.63","","","","-39","","NA"
"-140.20","69.61","KOMAKUK BEACH","2100682","2018-01-21 02:00","2018","01","21","02:00","-25.9","","","","","M","","","25","","22","","","","102.64","","","","-38","","NA"
"-140.20","69.61","KOMAKUK BEACH","2100682","2018-01-21 03:00","2018","01","21","03:00","-25.9","","","","","M","","","25","","17","","","","102.61","","","","-37","","NA"
"-140.20","69.61","KOMAKUK BEACH","2100682","2018-01-21 04:00","2018","01","21","04:00","-25.6","","","","","M","","","25","","19","","","","102.62","","","","-37","","NA"
"-140.20","69.61","KOMAKUK BEACH","2100682","2018-01-21 05:00","2018","01","21","05:00","-25.4","","","","","M","","","25","","19","","","","102.61","","","","-37","","NA"
"-140.20","69.61","KOMAKUK BEACH","2100682","2018-01-21 06:00","2018","01","21","06:00","-25.4","","","","","M","","","25","","15","","","","102.60","","","","-36","","NA"
"-140.20","69.61","KOMAKUK BEACH","2100682","2018-01-21 07:00","2018","01","21","07:00","-25.2","","","","","M","","","25","","15","","","","102.60","","","","-35","","NA"
"-140.20","69.61","KOMAKUK BEACH","2100682","2018-01-21 08:00","2018","01","21","08:00","-25.2","","","","","M","","","25","","13","","","","102.56","","","","-35","","NA"
"-140.20","69.61","KOMAKUK BEACH","2100682","2018-01-21 09:00","2018","01","21","09:00","-25.1","","","","","M","","","24","","17","","","","102.55","","","","-36","","NA"
"-140.20","69.61","KOMAKUK BEACH","2100682","2018-01-21 10:00","2018","01","21","10:00","-24.8","","","","","M","","","24","","11","","","","102.54","","","","-33","","NA"
"-140.20","69.61","KOMAKUK BEACH","2100682","2018-01-21 11:00","2018","01","21","11:00","-24.6","","","","","M","","","23","","9","","","","102.55","","","","-32","","NA"
"-140.20","69.61","KOMAKUK BEACH","2100682","2018-01-21 12:00","2018","01","21","12:00","-24.6","","","","","M","","","24","","9","","","","102.53","","","","-32","","NA"
"-140.20","69.61","KOMAKUK BEACH","2100682","2018-01-21 13:00","2018","01","21","13:00","-24.7","","","","","M","","","24","","7","","","","102.53","","","","-31","","NA"
"-140.20","69.61","KOMAKUK BEACH","2100682","2018-01-21 14:00","2018","01","21","14:00","-25.8","","","","","M","","","26","","6","","","","102.54","","","","-32","","NA"
"-140.20","69.61","KOMAKUK BEACH","2100682","2018-01-21 15:00","2018","01","21","15:00","-25.5","","","","","M","","","24","","9","","","","102.50","","","","-33","","NA"
"-140.20","69.61","KOMAKUK BEACH","2100682","2018-01-21 16:00","2018","01","21","16:00","-25.1","","","","","M","","","23","","6","","","","102.48","","","","-31","","NA"
"-140.20","69.61","KOMAKUK BEACH","2100682","2018-01-21 17:00","2018","01","21","17:00","-24.9","","","","","M","","","24","","7","","","","102.45","","","","-31","","NA"
"-140.20","69.61","KOMAKUK BEACH","2100682","2018-01-21 18:00","2018","01","21","18:00","-24.7","","","","","M","","","23","","7","","","","102.43","","","","-31","","NA"
"-140.20","69.61","KOMAKUK BEACH","2100682","2018-01-21 19:00","2018","01","21","19:00","-24.5","","","","","M","","","25","","6","","","","102.39","","","","-30","","NA"
"-140.20","69.61","KOMAKUK BEACH","2100682","2018-01-21 20:00","2018","01","21","20:00","-24.1","","","","","M","","","24","","6","","","","102.36","","","","-30","","NA"
"-140.20","69.61","KOMAKUK BEACH","2100682","2018-01-21 21:00","2018","01","21","21:00","-24.4","","","","","M","","","24","","9","","","","102.33","","","","-32","","NA"
"-140.20","69.61","KOMAKUK BEACH","2100682","2018-01-21 22:00","2018","01","21","22:00","-24.6","","","","","M","","","25","","11","","","","102.30","","","","-33","","NA"
"-140.20","69.61","KOMAKUK BEACH","2100682","2018-01-21 23:00","2018","01","21","23:00","-24.9","","","","","M","","","25","","13","","","","102.28","","","","-34","","NA"
"-140.20","69.61","KOMAKUK BEACH","2100682","2018-01-22 00:00","2018","01","22","00:00","-24.7","","","","","M","","","25","","11","","","","102.25","","","","-33","","NA"
"-140.20","69.61","KOMAKUK BEACH","2100682","2018-01-22 01:00","2018","01","22","01:00","-24.6","","","","","M","","","25","","11","","","","102.22","","","","-33","","NA"
"-140.20","69.61","KOMAKUK BEACH","2100682","2018-01-22 02:00","2018","01","22","02:00","-24.3","","","","","M","","","25","","11","","","","102.24","","","","-33","","NA"
"-140.20","69.61","KOMAKUK BEACH","2100682","2018-01-22 03:00","2018","01","22","03:00","-24.2","","","","","M","","","25","","11","","","","102.23","","","","-33","","NA"
"-140.20","69.61","KOMAKUK BEACH","2100682","2018-01-22 04:00","2018","01","22","04:00","-24.1","","","","","M","","","25","","13","","","","102.21","","","","-33","","NA"
"-140.20","69.61","KOMAKUK BEACH","2100682","2018-01-22 05:00","2018","01","22","05:00","-23.8","","","","","M","","","27","","15","","","","102.23","","","","-34","","NA"
"-140.20","69.61","KOMAKUK BEACH","2100682","2018-01-22 06:00","2018","01","22","06:00","-24.3","","","","","M","","","25","","15","","","","102.21","","","","-34","","NA"
"-140.20","69.61","KOMAKUK BEACH","2100682","2018-01-22 07:00","2018","01","22","07:00","-24.2","","","","","M","","","25","","17","","","","102.17","","","","-35","","NA"
"-140.20","69.61","KOMAKUK BEACH","2100682","2018-01-22 08:00","2018","01","22","08:00","-23.9","","","","","M","","","27","","15","","","","102.18","","","","-34","","NA"
"-140.20","69.61","KOMAKUK BEACH","2100682","2018-01-22 09:00","2018","01","22","09:00","-24.2","","","","","M","","","25","","19","","","","102.17","","","","-36","","NA"
"-140.20","69.61","KOMAKUK BEACH","2100682","2018-01-22 10:00","2018","01","22","10:00","-24.1","","","","","M","","","25","","20","","","","102.16","","","","-36","","NA"
"-140.20","69.61","KOMAKUK BEACH","2100682","2018-01-22 11:00","2018","01","22","11:00","-24.0","","","","","M","","","25","","22","","","","102.18","","","","-36","","NA"
"-140.20","69.61","KOMAKUK BEACH","2100682","2018-01-22 12:00","2018","01","22","12:00","-23.8","","","","","M","","","26","","24","","","","102.19","","","","-36","","NA"
"-140.20","69.61","KOMAKUK BEACH","2100682","2018-01-22 13:00","2018","01","22","13:00","-23.6","","","","","M","","","26","","24","","","","102.21","","","","-36","","NA"
"-140.20","69.61","KOMAKUK BEACH","2100682","2018-01-22 14:00","2018","01","22","14:00","-23.6","","","","","M","","","26","","28","","","","102.22","","","","-37","","NA"
"-140.20","69.61","KOMAKUK BEACH","2100682","2018-01-22 15:00","2018","01","22","15:00","-23.6","","","","","M","","","26","","22","","","","102.24","","","","-36","","NA"
"-140.20","69.61","KOMAKUK BEACH","2100682","2018-01-22 16:00","2018","01","22","16:00","-24.1","","","","","M","","","26","","24","","","","102.24","","","","-37","","NA"
"-140.20","69.61","KOMAKUK BEACH","2100682","2018-01-22 17:00","2018","01","22","17:00","-24.1","","","","","M","","","26","","22","","","","102.25","","","","-36","","NA"
"-140.20","69.61","KOMAKUK BEACH","2100682","2018-01-22 18:00","2018","01","22","18:00","-24.3","","","","","M","","","26","","31","","","","102.28","","","","-38","","NA"
"-140.20","69.61","KOMAKUK BEACH","2100682","2018-01-22 19:00","2018","01","22","19:00","-24.5","","","","","M","","","26","","28","","","","102.29","","","","-38","","NA"
"-140.20","69.61","KOMAKUK BEACH","2100682","2018-01-22 20:00","2018","01","22","20:00","-24.6","","","","","M","","","25","","26","","","","102.27","","","","-38","","NA"
"-140.20","69.61","KOMAKUK BEACH","2100682","2018-01-22 21:00","2018","01","22","21:00","-24.6","","","","","M","","","26","","30","","","","102.30","","","","-39","","NA"
"-140.20","69.61","KOMAKUK BEACH","2100682","2018-01-22 22:00","2018","01","22","22:00","-24.3","","","","","M","","","26","","26","","","","102.28","","","","-37","","NA"
"-140.20","69.61","KOMAKUK BEACH","2100682","2018-01-22 23:00","2018","01","22","23:00","-24.3","","","","","M","","","26","","30","","","","102.25","","","","-38","","NA"
"-140.20","69.61","KOMAKUK BEACH","2100682","2018-01-23 00:00","2018","01","23","00:00","-24.3","","","","","M","","","26","","31","","","","102.25","","","","-38","","NA"
"-140.20","69.61","KOMAKUK BEACH","2100682","2018-01-23 01:00","2018","01","23","01:00","-24.2","","","","","M","","","26","","33","","","","102.27","","","","-39","","NA"
"-140.20","69.61","KOMAKUK BEACH","2100682","2018-01-23 02:00","2018","01","23","02:00","-24.1","","","","","M","","","27","","30","","","","102.32","","","","-38","","NA"
"-140.20","69.61","KOMAKUK BEACH","2100682","2018-01-23 03:00","2018","01","23","03:00","-24.0","","","","","M","","","26","","35","","","","102.32","","","","-39","","NA"
"-140.20","69.61","KOMAKUK BEACH","2100682","2018-01-23 04:00","2018","01","23","04:00","-23.8","","","","","M","","","27","","30","","","","102.33","","","","-38","","NA"
"-140.20","69.61","KOMAKUK BEACH","2100682","2018-01-23 05:00","2018","01","23","05:00","-23.9","","","","","M","","","27","","37","","","","102.35","","","","-39","","NA"
"-140.20","69.61","KOMAKUK BEACH","2100682","2018-01-23 06:00","2018","01","23","06:00","-23.9","","","","","M","","","26","","35","","","","102.34","","","","-39","","NA"
"-140.20","69.61","KOMAKUK BEACH","2100682","2018-01-23 07:00","2018","01","23","07:00","-23.7","","","","","M","","","26","","31","","","","102.32","","","","-38","","NA"
"-140.20","69.61","KOMAKUK BEACH","2100682","2018-01-23 08:00","2018","01","23","08:00","-23.6","","","","","M","","","26","","28","","","","102.29","","","","-37","","NA"
"-140.20","69.61","KOMAKUK BEACH","2100682","2018-01-23 09:00","2018","01","23","09:00","-23.6","","","","","M","","","27","","30","","","","102.31","","","","-37","","NA"
"-140.20","69.61","KOMAKUK BEACH","2100682","2018-01-23 10:00","2018","01","23","10:00","-23.6","","","","","M","","","26","","31","","","","102.33","","","","-37","","NA"
"-140.20","69.61","KOMAKUK BEACH","2100682","2018-01-23 11:00","2018","01","23","11:00","-23.5","","","","","M","","","27","","26","","","","102.32","","","","-36","","NA"
"-140.20","69.61","KOMAKUK BEACH","2100682","2018-01-23 12:00","2018","01","23","12:00","-23.6","","","","","M","","","27","","33","","","","102.34","","","","-38","","NA"
"-140.20","69.61","KOMAKUK BEACH","2100682","2018-01-23 13:00","2018","01","23","13:00","-23.6","","","","","M","","","26","","31","","","","102.36","","","","-37","","NA"
"-140.20","69.61","KOMAKUK BEACH","2100682","2018-01-23 14:00","2018","01","23","14:00","-23.7","","","","","M","","","26","","28","","","","102.38","","","","-37","","NA"
"-140.20","69.61","KOMAKUK BEACH","2100682","2018-01-23 15:00","2018","01","23","15:00","-23.6","","","","","M","","","26","","28","","","","102.39","","","","-37","","NA"
"-140.20","69.61","KOMAKUK BEACH","2100682","2018-01-23 16:00","2018","01","23","16:00","-23.5","","","","","M","","","26","","26","","","","102.41","","","","-36","","NA"
"-140.20","69.61","KOMAKUK BEACH","2100682","2018-01-23 17:00","2018","01","23","17:00","-23.6","","","","","M","","","26","","30","","","","102.41","","","","-37","","NA"
"-140.20","69.61","KOMAKUK BEACH","2100682","2018-01-23 18:00","2018","01","23","18:00","-23.5","","","","","M","","","26","","30","","","","102.38","","","","-37","","NA"
"-140.20","69.61","KOMAKUK BEACH","2100682","2018-01-23 19:00","2018","01","23","19:00","-23.6","","","","","M","","","26","","26","","","","102.40","","","","-36","","NA"
"-140.20","69.61","KOMAKUK BEACH","2100682","2018-01-23 20:00","2018","01","23","20:00","-23.7","","","","","M","","","26","","30","","","","102.41","","","","-37","","NA"
"-140.20","69.61","KOMAKUK BEACH","2100682","2018-01-23 21:00","2018","01","23","21:00","-24.0","","","","","M","","","26","","24","","","","102.44","","","","-37","","NA"
"-140.20","69.61","KOMAKUK BEACH","2100682","2018-01-23 22:00","2018","01","23","22:00","-24.1","","","","","M","","","26","","26","","","","102.45","","","","-37","","NA"
"-140.20","69.61","KOMAKUK BEACH","2100682","2018-01-23 23:00","2018","01","23","23:00","-24.2","","","","","M","","","26","","26","","","","102.48","","","","-37","","NA"
"-140.20","69.61","KOMAKUK BEACH","2100682","2018-01-24 00:00","2018","01","24","00:00","-24.3","","","","","M","","","25","","22","","","","102.49","","","","-36","","NA"
"-140.20","69.61","KOMAKUK BEACH","2100682","2018-01-24 01:00","2018","01","24","01:00","-24.2","","","","","M","","","27","","24","","","","102.52","","","","-37","","NA"
"-140.20","69.61","KOMAKUK BEACH","2100682","2018-01-24 02:00","2018","01","24","02:00","-24.4","","","","","M","","","26","","22","","","","102.52","","","","-37","","NA"
"-140.20","69.61","KOMAKUK BEACH","2100682","2018-01-24 03:00","2018","01","24","03:00","-24.6","","","","","M","","","26","","22","","","","102.54","","","","-37","","NA"
"-140.20","69.61","KOMAKUK BEACH","2100682","2018-01-24 04:00","2018","01","24","04:00","-24.9","","","","","M","","","25","","20","","","","102.55","","","","-37","","NA"
"-140.20","69.61","KOMAKUK BEACH","2100682","2018-01-24 05:00","2018","01","24","05:00","-25.0","","","","","M","","","26","","24","","","","102.58","","","","-38","","NA"
"-140.20","69.61","KOMAKUK BEACH","2100682","2018-01-24 06:00","2018","01","24","06:00","-25.0","","","","","M","","","25","","20","","","","102.57","","","","-37","","NA"
"-140.20","69.61","KOMAKUK BEACH","2100682","2018-01-24 07:00","2018","01","24","07:00","-25.2","","","","","M","","","26","","17","","","","102.60","","","","-36","","NA"
"-140.20","69.61","KOMAKUK BEACH","2100682","2018-01-24 08:00","2018","01","24","08:00","-26.5","","","","","M","","","25","","20","","","","102.60","","","","-39","","NA"
"-140.20","69.61","KOMAKUK BEACH","2100682","2018-01-24 09:00","2018","01","24","09:00","-26.7","","","","","M","","","26","","26","","","","102.60","","","","-40","","NA"
"-140.20","69.61","KOMAKUK BEACH","2100682","2018-01-24 10:00","2018","01","24","10:00","-27.2","","","","","M","","","26","","24","","","","102.64","","","","-41","","NA"
"-140.20","69.61","KOMAKUK BEACH","2100682","2018-01-24 11:00","2018","01","24","11:00","-27.2","","","","","M","","","26","","22","","","","102.64","","","","-40","","NA"
"-140.20","69.61","KOMAKUK BEACH","2100682","2018-01-24 12:00","2018","01","24","12:00","-27.0","","","","","M","","","26","","28","","","","102.63","","","","-41","","NA"
"-140.20","69.61","KOMAKUK BEACH","2100682","2018-01-24 13:00","2018","01","24","13:00","-26.5","","","","","M","","","26","","24","","","","102.66","","","","-40","","NA"
"-140.20","69.61","KOMAKUK BEACH","2100682","2018-01-24 14:00","2018","01","24","14:00","-26.6","","","","","M","","","27","","26","","","","102.69","","","","-40","","NA"
"-140.20","69.61","KOMAKUK BEACH","2100682","2018-01-24 15:00","2018","01","24","15:00","-26.5","","","","","M","","","26","","24","","","","102.74","","","","-40","","NA"
"-140.20","69.61","KOMAKUK BEACH","2100682","2018-01-24 16:00","2018","01","24","16:00","-26.6","","","","","M","","","26","","28","","","","102.70","","","","-41","","NA"
"-140.20","69.61","KOMAKUK BEACH","2100682","2018-01-24 17:00","2018","01","24","17:00","-26.5","","","","","M","","","26","","24","","","","102.70","","","","-40","","NA"
"-140.20","69.61","KOMAKUK BEACH","2100682","2018-01-24 18:00","2018","01","24","18:00","-26.5","","","","","M","","","26","","26","","","","102.71","","","","-40","","NA"
"-140.20","69.61","KOMAKUK BEACH","2100682","2018-01-24 19:00","2018","01","24","19:00","-26.5","","","","","M","","","27","","24","","","","102.72","","","","-40","","NA"
"-140.20","69.61","KOMAKUK BEACH","2100682","2018-01-24 20:00","2018","01","24","20:00","-26.7","","","","","M","","","26","","28","","","","102.71","","","","-41","","NA"
"-140.20","69.61","KOMAKUK BEACH","2100682","2018-01-24 21:00","2018","01","24","21:00","-26.6","","","","","M","","","27","","30","","","","102.72","","","","-41","","NA"
"-140.20","69.61","KOMAKUK BEACH","2100682","2018-01-24 22:00","2018","01","24","22:00","-26.4","","","","","M","","","26","","30","","","","102.74","","","","-41","","NA"
"-140.20","69.61","KOMAKUK BEACH","2100682","2018-01-24 23:00","2018","01","24","23:00","-26.3","","","","","M","","","26","","31","","","","102.74","","","","-41","","NA"
"-140.20","69.61","KOMAKUK BEACH","2100682","2018-01-25 00:00","2018","01","25","00:00","-26.3","","","","","M","","","26","","31","","","","102.73","","","","-41","","NA"
"-140.20","69.61","KOMAKUK BEACH","2100682","2018-01-25 01:00","2018","01","25","01:00","-26.0","","","","","M","","","26","","30","","","","102.76","","","","-40","","NA"
"-140.20","69.61","KOMAKUK BEACH","2100682","2018-01-25 02:00","2018","01","25","02:00","-26.2","","","","","M","","","26","","26","","","","102.80","","","","-40","","NA"
"-140.20","69.61","KOMAKUK BEACH","2100682","2018-01-25 03:00","2018","01","25","03:00","-26.3","","","","","M","","","26","","33","","","","102.81","","","","-41","","NA"
"-140.20","69.61","KOMAKUK BEACH","2100682","2018-01-25 04:00","2018","01","25","04:00","-26.3","","","","","M","","","26","","33","","","","102.84","","","","-41","","NA"
"-140.20","69.61","KOMAKUK BEACH","2100682","2018-01-25 05:00","2018","01","25","05:00","-26.1","","","","","M","","","26","","33","","","","102.84","","","","-41","","NA"
"-140.20","69.61","KOMAKUK BEACH","2100682","2018-01-25 06:00","2018","01","25","06:00","-26.2","","","","","M","","","26","","35","","","","102.83","","","","-42","","NA"
"-140.20","69.61","KOMAKUK BEACH","2100682","2018-01-25 07:00","2018","01","25","07:00","-26.1","","","","","M","","","26","","33","","","","102.83","","","","-41","","NA"
"-140.20","69.61","KOMAKUK BEACH","2100682","2018-01-25 08:00","2018","01","25","08:00","-25.9","","","","","M","","","26","","33","","","","102.86","","","","-41","","NA"
"-140.20","69.61","KOMAKUK BEACH","2100682","2018-01-25 09:00","2018","01","25","09:00","-25.6","","","","","M","","","26","","37","","","","102.88","","","","-41","","NA"
"-140.20","69.61","KOMAKUK BEACH","2100682","2018-01-25 10:00","2018","01","25","10:00","-25.4","","","","","M","","","27","","31","","","","102.89","","","","-40","","NA"
"-140.20","69.61","KOMAKUK BEACH","2100682","2018-01-25 11:00","2018","01","25","11:00","-25.5","","","","","M","","","27","","30","","","","102.91","","","","-40","","NA"
"-140.20","69.61","KOMAKUK BEACH","2100682","2018-01-25 12:00","2018","01","25","12:00","-25.6","","","","","M","","","26","","22","","","","102.96","","","","-38","","NA"
"-140.20","69.61","KOMAKUK BEACH","2100682","2018-01-25 13:00","2018","01","25","13:00","-26.3","","","","","M","","","26","","26","","","","102.97","","","","-40","","NA"
"-140.20","69.61","KOMAKUK BEACH","2100682","2018-01-25 14:00","2018","01","25","14:00","-25.8","","","","","M","","","26","","28","","","","103.04","","","","-40","","NA"
"-140.20","69.61","KOMAKUK BEACH","2100682","2018-01-25 15:00","2018","01","25","15:00","-25.9","","","","","M","","","26","","30","","","","103.09","","","","-40","","NA"
"-140.20","69.61","KOMAKUK BEACH","2100682","2018-01-25 16:00","2018","01","25","16:00","-26.0","","","","","M","","","26","","33","","","","103.13","","","","-41","","NA"
"-140.20","69.61","KOMAKUK BEACH","2100682","2018-01-25 17:00","2018","01","25","17:00","-26.1","","","","","M","","","26","","28","","","","103.20","","","","-40","","NA"
"-140.20","69.61","KOMAKUK BEACH","2100682","2018-01-25 18:00","2018","01","25","18:00","-26.0","","","","","M","","","26","","31","","","","103.28","","","","-41","","NA"
"-140.20","69.61","KOMAKUK BEACH","2100682","2018-01-25 19:00","2018","01","25","19:00","-25.9","","","","","M","","","26","","31","","","","103.28","","","","-40","","NA"
"-140.20","69.61","KOMAKUK BEACH","2100682","2018-01-25 20:00","2018","01","25","20:00","-25.5","","","","","M","","","26","","31","","","","103.30","","","","-40","","NA"
"-140.20","69.61","KOMAKUK BEACH","2100682","2018-01-25 21:00","2018","01","25","21:00","-25.2","","","","","M","","","27","","31","","","","103.35","","","","-40","","NA"
"-140.20","69.61","KOMAKUK BEACH","2100682","2018-01-25 22:00","2018","01","25","22:00","-24.9","","","","","M","","","27","","30","","","","103.42","","","","-39","","NA"
"-140.20","69.61","KOMAKUK BEACH","2100682","2018-01-25 23:00","2018","01","25","23:00","-24.6","","","","","M","","","26","","30","","","","103.47","","","","-39","","NA"
"-140.20","69.61","KOMAKUK BEACH","2100682","2018-01-26 00:00","2018","01","26","00:00","-24.4","","","","","M","","","27","","31","","","","103.53","","","","-38","","NA"
"-140.20","69.61","KOMAKUK BEACH","2100682","2018-01-26 01:00","2018","01","26","01:00","-24.7","","","","","M","","","26","","24","","","","103.58","","","","-37","","NA"
"-140.20","69.61","KOMAKUK BEACH","2100682","2018-01-26 02:00","2018","01","26","02:00","-24.7","","","","","M","","","26","","30","","","","103.62","","","","-39","","NA"
"-140.20","69.61","KOMAKUK BEACH","2100682","2018-01-26 03:00","2018","01","26","03:00","-24.4","","","","","M","","","26","","28","","","","103.66","","","","-38","","NA"
"-140.20","69.61","KOMAKUK BEACH","2100682","2018-01-26 04:00","2018","01","26","04:00","-24.6","","","","","M","","","26","","33","","","","103.71","","","","-39","","NA"
"-140.20","69.61","KOMAKUK BEACH","2100682","2018-01-26 05:00","2018","01","26","05:00","-24.3","","","","","M","","","26","","22","","","","103.74","","","","-36","","NA"
"-140.20","69.61","KOMAKUK BEACH","2100682","2018-01-26 06:00","2018","01","26","06:00","-24.3","","","","","M","","","27","","28","","","","103.75","","","","-38","","NA"
"-140.20","69.61","KOMAKUK BEACH","2100682","2018-01-26 07:00","2018","01","26","07:00","-24.4","","","","","M","","","26","","26","","","","103.78","","","","-37","","NA"
"-140.20","69.61","KOMAKUK BEACH","2100682","2018-01-26 08:00","2018","01","26","08:00","-24.5","","","","","M","","","26","","24","","","","103.81","","","","-37","","NA"
"-140.20","69.61","KOMAKUK BEACH","2100682","2018-01-26 09:00","2018","01","26","09:00","-24.2","","","","","M","","","26","","22","","","","103.88","","","","-36","","NA"
"-140.20","69.61","KOMAKUK BEACH","2100682","2018-01-26 10:00","2018","01","26","10:00","-24.5","","","","","M","","","25","","20","","","","103.90","","","","-36","","NA"
"-140.20","69.61","KOMAKUK BEACH","2100682","2018-01-26 11:00","2018","01","26","11:00","-24.3","","","","","M","","","26","","20","","","","103.89","","","","-36","","NA"
"-140.20","69.61","KOMAKUK BEACH","2100682","2018-01-26 12:00","2018","01","26","12:00","-24.3","","","","","M","","","26","","22","","","","103.92","","","","-36","","NA"
"-140.20","69.61","KOMAKUK BEACH","2100682","2018-01-26 13:00","2018","01","26","13:00","-24.5","","","","","M","","","25","","19","","","","103.92","","","","-36","","NA"
"-140.20","69.61","KOMAKUK BEACH","2100682","2018-01-26 14:00","2018","01","26","14:00","-24.4","","","","","M","","","26","","24","","","","103.94","","","","-37","","NA"
"-140.20","69.61","KOMAKUK BEACH","2100682","2018-01-26 15:00","2018","01","26","15:00","-24.3","","","","","M","","","27","","20","","","","103.96","","","","-36","","NA"
"-140.20","69.61","KOMAKUK BEACH","2100682","2018-01-26 16:00","2018","01","26","16:00","-24.1","","","","","M","","","26","","22","","","","103.98","","","","-36","","NA"
"-140.20","69.61","KOMAKUK BEACH","2100682","2018-01-26 17:00","2018","01","26","17:00","-24.3","","","","","M","","","26","","20","","","","104.03","","","","-36","","NA"
"-140.20","69.61","KOMAKUK BEACH","2100682","2018-01-26 18:00","2018","01","26","18:00","-24.3","","","","","M","","","27","","20","","","","104.04","","","","-36","","NA"
"-140.20","69.61","KOMAKUK BEACH","2100682","2018-01-26 19:00","2018","01","26","19:00","-24.3","","","","","M","","","26","","22","","","","104.06","","","","-36","","NA"
"-140.20","69.61","KOMAKUK BEACH","2100682","2018-01-26 20:00","2018","01","26","20:00","-24.2","","","","","M","","","27","","19","","","","104.08","","","","-36","","NA"
"-140.20","69.61","KOMAKUK BEACH","2100682","2018-01-26 21:00","2018","01","26","21:00","-24.1","","","","","M","","","26","","17","","","","104.11","","","","-35","","NA"
"-140.20","69.61","KOMAKUK BEACH","2100682","2018-01-26 22:00","2018","01","26","22:00","-24.0","","","","","M","","","27","","17","","","","104.14","","","","-35","","NA"
"-140.20","69.61","KOMAKUK BEACH","2100682","2018-01-26 23:00","2018","01","26","23:00","-23.9","","","","","M","","","28","","20","","","","104.19","","","","-35","","NA"
"-140.20","69.61","KOMAKUK BEACH","2100682","2018-01-27 00:00","2018","01","27","00:00","-23.8","","","","","M","","","26","","15","","","","104.20","","","","-34","","NA"
"-140.20","69.61","KOMAKUK BEACH","2100682","2018-01-27 01:00","2018","01","27","01:00","-24.0","","","","","M","","","25","","13","","","","104.17","","","","-33","","NA"
"-140.20","69.61","KOMAKUK BEACH","2100682","2018-01-27 02:00","2018","01","27","02:00","-23.9","","","","","M","","","27","","15","","","","104.19","","","","-34","","NA"
"-140.20","69.61","KOMAKUK BEACH","2100682","2018-01-27 03:00","2018","01","27","03:00","-24.0","","","","","M","","","25","","15","","","","104.22","","","","-34","","NA"
"-140.20","69.61","KOMAKUK BEACH","2100682","2018-01-27 04:00","2018","01","27","04:00","-24.7","","","","","M","","","25","","19","","","","104.27","","","","-36","","NA"
"-140.20","69.61","KOMAKUK BEACH","2100682","2018-01-27 05:00","2018","01","27","05:00","-25.2","","","","","M","","","24","","19","","","","104.27","","","","-37","","NA"
"-140.20","69.61","KOMAKUK BEACH","2100682","2018-01-27 06:00","2018","01","27","06:00","-25.8","","","","","M","","","25","","15","","","","104.30","","","","-36","","NA"
"-140.20","69.61","KOMAKUK BEACH","2100682","2018-01-27 07:00","2018","01","27","07:00","-25.5","","","","","M","","","25","","20","","","","104.30","","","","-37","","NA"
"-140.20","69.61","KOMAKUK BEACH","2100682","2018-01-27 08:00","2018","01","27","08:00","-25.9","","","","","M","","","25","","20","","","","104.27","","","","-38","","NA"
"-140.20","69.61","KOMAKUK BEACH","2100682","2018-01-27 09:00","2018","01","27","09:00","-25.6","","","","","M","","","25","","19","","","","104.31","","","","-37","","NA"
"-140.20","69.61","KOMAKUK BEACH","2100682","2018-01-27 10:00","2018","01","27","10:00","-25.1","","","","","M","","","25","","20","","","","104.33","","","","-37","","NA"
"-140.20","69.61","KOMAKUK BEACH","2100682","2018-01-27 11:00","2018","01","27","11:00","-24.9","","","","","M","","","26","","17","","","","104.29","","","","-36","","NA"
"-140.20","69.61","KOMAKUK BEACH","2100682","2018-01-27 12:00","2018","01","27","12:00","-25.5","","","","","M","","","26","","15","","","","104.29","","","","-36","","NA"
"-140.20","69.61","KOMAKUK BEACH","2100682","2018-01-27 13:00","2018","01","27","13:00","-25.4","","","","","M","","","25","","11","","","","104.26","","","","-34","","NA"
"-140.20","69.61","KOMAKUK BEACH","2100682","2018-01-27 14:00","2018","01","27","14:00","-25.2","","","","","M","","","26","","13","","","","104.26","","","","-35","","NA"
"-140.20","69.61","KOMAKUK BEACH","2100682","2018-01-27 15:00","2018","01","27","15:00","-25.5","","","","","M","","","26","","15","","","","104.28","","","","-36","","NA"
"-140.20","69.61","KOMAKUK BEACH","2100682","2018-01-27 16:00","2018","01","27","16:00","-25.9","","","","","M","","","25","","13","","","","104.28","","","","-36","","NA"
"-140.20","69.61","KOMAKUK BEACH","2100682","2018-01-27 17:00","2018","01","27","17:00","-28.0","","","","","M","","","23","","13","","","","104.26","","","","-38","","NA"
"-140.20","69.61","KOMAKUK BEACH","2100682","2018-01-27 18:00","2018","01","27","18:00","-28.0","","","","","M","","","25","","11","","","","104.26","","","","-37","","NA"
"-140.20","69.61","KOMAKUK BEACH","2100682","2018-01-27 19:00","2018","01","27","19:00","-28.6","","","","","M","","","24","","13","","","","104.21","","","","-39","","NA"
"-140.20","69.61","KOMAKUK BEACH","2100682","2018-01-27 20:00","2018","01","27","20:00","-28.9","","","","","M","","","21","","13","","","","104.20","","","","-39","","NA"
"-140.20","69.61","KOMAKUK BEACH","2100682","2018-01-27 21:00","2018","01","27","21:00","-29.4","","","","","M","","","22","","7","","","","104.20","","","","-37","","NA"
"-140.20","69.61","KOMAKUK BEACH","2100682","2018-01-27 22:00","2018","01","27","22:00","-30.3","","","","","M","","","23","","15","","","","104.26","","","","-42","","NA"
"-140.20","69.61","KOMAKUK BEACH","2100682","2018-01-27 23:00","2018","01","27","23:00","-31.3","","","","","M","","","19","","15","","","","104.15","","","","-43","","NA"
"-140.20","69.61","KOMAKUK BEACH","2100682","2018-01-28 00:00","2018","01","28","00:00","-29.9","","","","","M","","","7","","6","","","","104.07","","","","-36","","NA"
"-140.20","69.61","KOMAKUK BEACH","2100682","2018-01-28 01:00","2018","01","28","01:00","-30.8","","","","","M","","","13","","6","","","","103.97","","","","-37","","NA"
"-140.20","69.61","KOMAKUK BEACH","2100682","2018-01-28 02:00","2018","01","28","02:00","-31.7","","","","","M","","","12","","11","","","","103.88","","","","-42","","NA"
"-140.20","69.61","KOMAKUK BEACH","2100682","2018-01-28 03:00","2018","01","28","03:00","-32.2","","","","","M","","","8","","9","","","","103.85","","","","-41","","NA"
"-140.20","69.61","KOMAKUK BEACH","2100682","2018-01-28 04:00","2018","01","28","04:00","-31.4","","","","","M","","","11","","11","","","","103.79","","","","-41","","NA"
"-140.20","69.61","KOMAKUK BEACH","2100682","2018-01-28 05:00","2018","01","28","05:00","-31.3","","","","","M","","","9","","11","","","","103.71","","","","-41","","NA"
"-140.20","69.61","KOMAKUK BEACH","2100682","2018-01-28 06:00","2018","01","28","06:00","-32.8","","","","","M","","","15","","7","","","","103.65","","","","-41","","NA"
"-140.20","69.61","KOMAKUK BEACH","2100682","2018-01-28 07:00","2018","01","28","07:00","-32.0","","","","","M","","","23","","11","","","","103.57","","","","-42","","NA"
"-140.20","69.61","KOMAKUK BEACH","2100682","2018-01-28 08:00","2018","01","28","08:00","-30.5","","","","","M","","","24","","9","","","","103.48","","","","-39","","NA"
"-140.20","69.61","KOMAKUK BEACH","2100682","2018-01-28 09:00","2018","01","28","09:00","-30.2","","","","","M","","","21","","6","","","","103.39","","","","-37","","NA"
"-140.20","69.61","KOMAKUK BEACH","2100682","2018-01-28 10:00","2018","01","28","10:00","-29.8","","","","","M","","","24","","7","","","","103.35","","","","-37","","NA"
"-140.20","69.61","KOMAKUK BEACH","2100682","2018-01-28 11:00","2018","01","28","11:00","-29.3","","","","","M","","","23","","6","","","","103.24","","","","-36","","NA"
"-140.20","69.61","KOMAKUK BEACH","2100682","2018-01-28 12:00","2018","01","28","12:00","-28.8","","","","","M","","","24","","4","","","","103.22","","","","-33","","NA"
"-140.20","69.61","KOMAKUK BEACH","2100682","2018-01-28 13:00","2018","01","28","13:00","-28.9","","","","","M","","","23","","9","","","","103.24","","","","-37","","NA"
"-140.20","69.61","KOMAKUK BEACH","2100682","2018-01-28 14:00","2018","01","28","14:00","-29.5","","","","","M","","","23","","13","","","","103.20","","","","-40","","NA"
"-140.20","69.61","KOMAKUK BEACH","2100682","2018-01-28 15:00","2018","01","28","15:00","-27.6","","","","","M","","","28","","4","","","","103.14","","","","-32","","NA"
"-140.20","69.61","KOMAKUK BEACH","2100682","2018-01-28 16:00","2018","01","28","16:00","-27.8","","","","","M","","","27","","6","","","","103.16","","","","-34","","NA"
"-140.20","69.61","KOMAKUK BEACH","2100682","2018-01-28 17:00","2018","01","28","17:00","-26.5","","","","","M","","","25","","13","","","","103.15","","","","-36","","NA"
"-140.20","69.61","KOMAKUK BEACH","2100682","2018-01-28 18:00","2018","01","28","18:00","-17.9","","","","","M","","","26","","20","","","","103.11","","","","-28","","NA"
"-140.20","69.61","KOMAKUK BEACH","2100682","2018-01-28 19:00","2018","01","28","19:00","-20.3","","","","","M","","","22","","19","","","","103.03","","","","-31","","NA"
"-140.20","69.61","KOMAKUK BEACH","2100682","2018-01-28 20:00","2018","01","28","20:00","-16.5","","","","","M","","","20","","24","","","","102.92","","","","-27","","NA"
"-140.20","69.61","KOMAKUK BEACH","2100682","2018-01-28 21:00","2018","01","28","21:00","-15.0","","","","","M","","","21","","15","","","","102.85","","","","-23","","NA"
"-140.20","69.61","KOMAKUK BEACH","2100682","2018-01-28 22:00","2018","01","28","22:00","-13.5","","","","","M","","","25","","9","","","","102.76","","","","-19","","NA"
"-140.20","69.61","KOMAKUK BEACH","2100682","2018-01-28 23:00","2018","01","28","23:00","-13.1","","","","","M","","","19","","7","","","","102.69","","","","-18","","NA"
"-140.20","69.61","KOMAKUK BEACH","2100682","2018-01-29 00:00","2018","01","29","00:00","-13.0","","","","","M","","","14","","17","","","","102.58","","","","-21","","NA"
"-140.20","69.61","KOMAKUK BEACH","2100682","2018-01-29 01:00","2018","01","29","01:00","-12.0","","","","","M","","","13","","19","","","","102.50","","","","-20","","NA"
"-140.20","69.61","KOMAKUK BEACH","2100682","2018-01-29 02:00","2018","01","29","02:00","-10.9","","","","","M","","","12","","24","","","","102.41","","","","-20","","NA"
"-140.20","69.61","KOMAKUK BEACH","2100682","2018-01-29 03:00","2018","01","29","03:00","-11.6","","","","","M","","","12","","17","","","","102.32","","","","-19","","NA"
"-140.20","69.61","KOMAKUK BEACH","2100682","2018-01-29 04:00","2018","01","29","04:00","-11.5","","","","","M","","","11","","15","","","","102.23","","","","-19","","NA"
"-140.20","69.61","KOMAKUK BEACH","2100682","2018-01-29 05:00","2018","01","29","05:00","-12.0","","","","","M","","","22","","9","","","","102.18","","","","-17","","NA"
"-140.20","69.61","KOMAKUK BEACH","2100682","2018-01-29 06:00","2018","01","29","06:00","-12.6","","","","","M","","","27","","11","","","","102.17","","","","-19","","NA"
"-140.20","69.61","KOMAKUK BEACH","2100682","2018-01-29 07:00","2018","01","29","07:00","-11.7","","","","","M","","","27","","19","","","","102.18","","","","-20","","NA"
"-140.20","69.61","KOMAKUK BEACH","2100682","2018-01-29 08:00","2018","01","29","08:00","-11.7","","","","","M","","","26","","28","","","","102.18","","","","-21","","NA"
"-140.20","69.61","KOMAKUK BEACH","2100682","2018-01-29 09:00","2018","01","29","09:00","-11.7","","","","","M","","","25","","22","","","","102.16","","","","-20","","NA"
"-140.20","69.61","KOMAKUK BEACH","2100682","2018-01-29 10:00","2018","01","29","10:00","-11.7","","","","","M","","","25","","33","","","","102.12","","","","-22","","NA"
"-140.20","69.61","KOMAKUK BEACH","2100682","2018-01-29 11:00","2018","01","29","11:00","-11.6","","","","","M","","","26","","31","","","","102.09","","","","-22","","NA"
"-140.20","69.61","KOMAKUK BEACH","2100682","2018-01-29 12:00","2018","01","29","12:00","-12.0","","","","","M","","","25","","28","","","","102.05","","","","-22","","NA"
"-140.20","69.61","KOMAKUK BEACH","2100682","2018-01-29 13:00","2018","01","29","13:00","-12.4","","","","","M","","","25","","28","","","","102.04","","","","-22","","NA"
"-140.20","69.61","KOMAKUK BEACH","2100682","2018-01-29 14:00","2018","01","29","14:00","-12.7","","","","","M","","","25","","28","","","","102.04","","","","-23","","NA"
"-140.20","69.61","KOMAKUK BEACH","2100682","2018-01-29 15:00","2018","01","29","15:00","-13.0","","","","","M","","","24","","28","","","","102.03","","","","-23","","NA"
"-140.20","69.61","KOMAKUK BEACH","2100682","2018-01-29 16:00","2018","01","29","16:00","-13.1","","","","","M","","","25","","24","","","","102.03","","","","-23","","NA"
"-140.20","69.61","KOMAKUK BEACH","2100682","2018-01-29 17:00","2018","01","29","17:00","-13.3","","","","","M","","","25","","24","","","","101.99","","","","-23","","NA"
"-140.20","69.61","KOMAKUK BEACH","2100682","2018-01-29 18:00","2018","01","29","18:00","-13.8","","","","","M","","","27","","24","","","","101.99","","","","-23","","NA"
"-140.20","69.61","KOMAKUK BEACH","2100682","2018-01-29 19:00","2018","01","29","19:00","-14.4","","","","","M","","","27","","28","","","","102.02","","","","-25","","NA"
"-140.20","69.61","KOMAKUK BEACH","2100682","2018-01-29 20:00","2018","01","29","20:00","-15.6","","","","","M","","","27","","31","","","","102.07","","","","-27","","NA"
"-140.20","69.61","KOMAKUK BEACH","2100682","2018-01-29 21:00","2018","01","29","21:00","-16.4","","","","","M","","","27","","28","","","","102.12","","","","-28","","NA"
"-140.20","69.61","KOMAKUK BEACH","2100682","2018-01-29 22:00","2018","01","29","22:00","-17.2","","","","","M","","","27","","19","","","","102.18","","","","-27","","NA"
"-140.20","69.61","KOMAKUK BEACH","2100682","2018-01-29 23:00","2018","01","29","23:00","-18.6","","","","","M","","","25","","17","","","","102.20","","","","-28","","NA"
"-140.20","69.61","KOMAKUK BEACH","2100682","2018-01-30 00:00","2018","01","30","00:00","-19.3","","","","","M","","","25","","17","","","","102.25","","","","-29","","NA"
"-140.20","69.61","KOMAKUK BEACH","2100682","2018-01-30 01:00","2018","01","30","01:00","-17.1","","","","","M","","","29","","24","","","","102.30","","","","-28","","NA"
"-140.20","69.61","KOMAKUK BEACH","2100682","2018-01-30 02:00","2018","01","30","02:00","-17.1","","","","","M","","","28","","30","","","","102.35","","","","-29","","NA"
"-140.20","69.61","KOMAKUK BEACH","2100682","2018-01-30 03:00","2018","01","30","03:00","-17.2","","","","","M","","","28","","28","","","","102.43","","","","-29","","NA"
"-140.20","69.61","KOMAKUK BEACH","2100682","2018-01-30 04:00","2018","01","30","04:00","-17.4","","","","","M","","","28","","31","","","","102.50","","","","-29","","NA"
"-140.20","69.61","KOMAKUK BEACH","2100682","2018-01-30 05:00","2018","01","30","05:00","-17.5","","","","","M","","","27","","28","","","","102.60","","","","-29","","NA"
"-140.20","69.61","KOMAKUK BEACH","2100682","2018-01-30 06:00","2018","01","30","06:00","-17.6","","","","","M","","","27","","26","","","","102.69","","","","-29","","NA"
"-140.20","69.61","KOMAKUK BEACH","2100682","2018-01-30 07:00","2018","01","30","07:00","-17.8","","","","","M","","","27","","26","","","","102.75","","","","-29","","NA"
"-140.20","69.61","KOMAKUK BEACH","2100682","2018-01-30 08:00","2018","01","30","08:00","-18.0","","","","","M","","","28","","37","","","","102.79","","","","-31","","NA"
"-140.20","69.61","KOMAKUK BEACH","2100682","2018-01-30 09:00","2018","01","30","09:00","-18.1","","","","","M","","","28","","30","","","","102.88","","","","-30","","NA"
"-140.20","69.61","KOMAKUK BEACH","2100682","2018-01-30 10:00","2018","01","30","10:00","-18.3","","","","","M","","","27","","28","","","","102.98","","","","-30","","NA"
"-140.20","69.61","KOMAKUK BEACH","2100682","2018-01-30 11:00","2018","01","30","11:00","-18.6","","","","","M","","","27","","39","","","","103.06","","","","-32","","NA"
"-140.20","69.61","KOMAKUK BEACH","2100682","2018-01-30 12:00","2018","01","30","12:00","-18.7","","","","","M","","","27","","28","","","","103.15","","","","-31","","NA"
"-140.20","69.61","KOMAKUK BEACH","2100682","2018-01-30 13:00","2018","01","30","13:00","-18.4","","","","","M","","","28","","33","","","","103.18","","","","-31","","NA"
"-140.20","69.61","KOMAKUK BEACH","2100682","2018-01-30 14:00","2018","01","30","14:00","-18.1","","","","","M","","","29","","31","","","","103.26","","","","-30","","NA"
"-140.20","69.61","KOMAKUK BEACH","2100682","2018-01-30 15:00","2018","01","30","15:00","-18.5","","","","","M","","","28","","31","","","","103.34","","","","-31","","NA"
"-140.20","69.61","KOMAKUK BEACH","2100682","2018-01-30 16:00","2018","01","30","16:00","-18.7","","","","","M","","","27","","31","","","","103.41","","","","-31","","NA"
"-140.20","69.61","KOMAKUK BEACH","2100682","2018-01-30 17:00","2018","01","30","17:00","-18.6","","","","","M","","","27","","30","","","","103.50","","","","-31","","NA"
"-140.20","69.61","KOMAKUK BEACH","2100682","2018-01-30 18:00","2018","01","30","18:00","-18.6","","","","","M","","","27","","28","","","","103.57","","","","-30","","NA"
"-140.20","69.61","KOMAKUK BEACH","2100682","2018-01-30 19:00","2018","01","30","19:00","-18.8","","","","","M","","","27","","33","","","","103.65","","","","-32","","NA"
"-140.20","69.61","KOMAKUK BEACH","2100682","2018-01-30 20:00","2018","01","30","20:00","-18.8","","","","","M","","","27","","35","","","","103.72","","","","-32","","NA"
"-140.20","69.61","KOMAKUK BEACH","2100682","2018-01-30 21:00","2018","01","30","21:00","-18.8","","","","","M","","","27","","28","","","","103.80","","","","-31","","NA"
"-140.20","69.61","KOMAKUK BEACH","2100682","2018-01-30 22:00","2018","01","30","22:00","-18.9","","","","","M","","","27","","30","","","","103.85","","","","-31","","NA"
"-140.20","69.61","KOMAKUK BEACH","2100682","2018-01-30 23:00","2018","01","30","23:00","-18.8","","","","","M","","","28","","31","","","","103.91","","","","-31","","NA"
"-140.20","69.61","KOMAKUK BEACH","2100682","2018-01-31 00:00","2018","01","31","00:00","-18.9","","","","","M","","","27","","30","","","","103.97","","","","-31","","NA"
"-140.20","69.61","KOMAKUK BEACH","2100682","2018-01-31 01:00","2018","01","31","01:00","-19.0","","","","","M","","","27","","30","","","","104.06","","","","-31","","NA"
"-140.20","69.61","KOMAKUK BEACH","2100682","2018-01-31 02:00","2018","01","31","02:00","-19.1","","","","","M","","","27","","28","","","","104.11","","","","-31","","NA"
"-140.20","69.61","KOMAKUK BEACH","2100682","2018-01-31 03:00","2018","01","31","03:00","-18.9","","","","","M","","","28","","33","","","","104.20","","","","-32","","NA"
"-140.20","69.61","KOMAKUK BEACH","2100682","2018-01-31 04:00","2018","01","31","04:00","-18.8","","","","","M","","","28","","33","","","","104.28","","","","-32","","NA"
"-140.20","69.61","KOMAKUK BEACH","2100682","2018-01-31 05:00","2018","01","31","05:00","-18.7","","","","","M","","","28","","31","","","","104.33","","","","-31","","NA"
"-140.20","69.61","KOMAKUK BEACH","2100682","2018-01-31 06:00","2018","01","31","06:00","-18.8","","","","","M","","","28","","31","","","","104.37","","","","-31","","NA"
"-140.20","69.61","KOMAKUK BEACH","2100682","2018-01-31 07:00","2018","01","31","07:00","-18.5","","","","","M","","","28","","31","","","","104.42","","","","-31","","NA"
"-140.20","69.61","KOMAKUK BEACH","2100682","2018-01-31 08:00","2018","01","31","08:00","-18.3","","","","","M","","","28","","22","","","","104.43","","","","-29","","NA"
"-140.20","69.61","KOMAKUK BEACH","2100682","2018-01-31 09:00","2018","01","31","09:00","-18.5","","","","","M","","","26","","24","","","","104.46","","","","-29","","NA"
"-140.20","69.61","KOMAKUK BEACH","2100682","2018-01-31 10:00","2018","01","31","10:00","-18.6","","","","","M","","","26","","24","","","","104.50","","","","-30","","NA"
"-140.20","69.61","KOMAKUK BEACH","2100682","2018-01-31 11:00","2018","01","31","11:00","-18.8","","","","","M","","","25","","20","","","","104.50","","","","-29","","NA"
"-140.20","69.61","KOMAKUK BEACH","2100682","2018-01-31 12:00","2018","01","31","12:00","-18.6","","","","","M","","","26","","20","","","","104.52","","","","-29","","NA"
"-140.20","69.61","KOMAKUK BEACH","2100682","2018-01-31 13:00","2018","01","31","13:00","-18.7","","","","","M","","","25","","17","","","","104.53","","","","-28","","NA"
"-140.20","69.61","KOMAKUK BEACH","2100682","2018-01-31 14:00","2018","01","31","14:00","-18.5","","","","","M","","","25","","19","","","","104.52","","","","-28","","NA"
"-140.20","69.61","KOMAKUK BEACH","2100682","2018-01-31 15:00","2018","01","31","15:00","-18.3","","","","","M","","","25","","17","","","","104.51","","","","-28","","NA"
"-140.20","69.61","KOMAKUK BEACH","2100682","2018-01-31 16:00","2018","01","31","16:00","-18.2","","","","","M","","","25","","15","","","","104.49","","","","-27","","NA"
"-140.20","69.61","KOMAKUK BEACH","2100682","2018-01-31 17:00","2018","01","31","17:00","-18.1","","","","","M","","","25","","17","","","","104.43","","","","-27","","NA"
"-140.20","69.61","KOMAKUK BEACH","2100682","2018-01-31 18:00","2018","01","31","18:00","-18.2","","","","","M","","","24","","11","","","","104.37","","","","-25","","NA"
"-140.20","69.61","KOMAKUK BEACH","2100682","2018-01-31 19:00","2018","01","31","19:00","-17.9","","","","","M","","","27","","9","","","","104.35","","","","-24","","NA"
"-140.20","69.61","KOMAKUK BEACH","2100682","2018-01-31 20:00","2018","01","31","20:00","-18.0","","","","","M","","","27","","9","","","","104.32","","","","-24","","NA"
"-140.20","69.61","KOMAKUK BEACH","2100682","2018-01-31 21:00","2018","01","31","21:00","-18.4","","","","","M","","","23","","6","","","","104.22","","","","-23","","NA"
"-140.20","69.61","KOMAKUK BEACH","2100682","2018-01-31 22:00","2018","01","31","22:00","-18.4","","","","","M","","","19","","9","","","","104.12","","","","-25","","NA"
"-140.20","69.61","KOMAKUK BEACH","2100682","2018-01-31 23:00","2018","01","31","23:00","-21.6","","","","","M","","","9","","13","","","","104.00","","","","-30","","NA"
