"Longitude (x)","Latitude (y)","Station Name","Climate ID","Date/Time (LST)","Year","Month","Day","Time (LST)","Temp (°C)","Temp Flag","Dew Point Temp (°C)","Dew Point Temp Flag","Rel Hum (%)","Rel Hum Flag","Precip. Amount (mm)","Precip. Amount Flag","Wind Dir (10s deg)","Wind Dir Flag","Wind Spd (km/h)","Wind Spd Flag","Visibility (km)","Visibility Flag","Stn Press (kPa)","Stn Press Flag","Hmdx","Hmdx Flag","Wind Chill","Wind Chill Flag","Weather"
"-140.20","69.61","KOMAKUK BEACH","2100682","2018-03-01 00:00","2018","03","01","00:00","-24.8","","","","","M","","","26","","15","","","","103.66","","","","-35","","NA"
"-140.20","69.61","KOMAKUK BEACH","2100682","2018-03-01 01:00","2018","03","01","01:00","-24.0","","","","","M","","","26","","15","","","","103.72","","","","-34","","NA"
"-140.20","69.61","KOMAKUK BEACH","2100682","2018-03-01 02:00","2018","03","01","02:00","-23.6","","","","","M","","","26","","22","","","","103.81","","","","-36","","NA"
"-140.20","69.61","KOMAKUK BEACH","2100682","2018-03-01 03:00","2018","03","01","03:00","-23.1","","","","","M","","","27","","24","","","","103.85","","","","-35","","NA"
"-140.20","69.61","KOMAKUK BEACH","2100682","2018-03-01 04:00","2018","03","01","04:00","-22.3","","","","","M","","","27","","17","","","","103.91","","","","-33","","NA"
"-140.20","69.61","KOMAKUK BEACH","2100682","2018-03-01 05:00","2018","03","01","05:00","-22.7","","","","","M","","","25","","20","","","","103.92","","","","-34","","NA"
"-140.20","69.61","KOMAKUK BEACH","2100682","2018-03-01 06:00","2018","03","01","06:00","-22.4","","","","","M","","","27","","22","","","","103.96","","","","-34","","NA"
"-140.20","69.61","KOMAKUK BEACH","2100682","2018-03-01 07:00","2018","03","01","07:00","-21.8","","","","","M","","","28","","19","","","","104.06","","","","-32","","NA"
"-140.20","69.61","KOMAKUK BEACH","2100682","2018-03-01 08:00","2018","03","01","08:00","-21.9","","","","","M","","","28","","19","","","","104.08","","","","-33","","NA"
"-140.20","69.61","KOMAKUK BEACH","2100682","2018-03-01 09:00","2018","03","01","09:00","-22.0","","","","","M","","","29","","19","","","","104.12","","","","-33","","NA"
"-140.20","69.61","KOMAKUK BEACH","2100682","2018-03-01 10:00","2018","03","01","10:00","-22.1","","","","","M","","","29","","13","","","","104.12","","","","-31","","NA"
"-140.20","69.61","KOMAKUK BEACH","2100682","2018-03-01 11:00","2018","03","01","11:00","-22.2","","","","","M","","","28","","7","","","","104.09","","","","-28","","NA"
"-140.20","69.61","KOMAKUK BEACH","2100682","2018-03-01 12:00","2018","03","01","12:00","-22.2","","","","","M","","","24","","6","","","","104.05","","","","-28","","NA"
"-140.20","69.61","KOMAKUK BEACH","2100682","2018-03-01 13:00","2018","03","01","13:00","-21.9","","","","","M","","","","","0","","","","104.02","","","","","","NA"
"-140.20","69.61","KOMAKUK BEACH","2100682","2018-03-01 14:00","2018","03","01","14:00","-21.7","","","","","M","","","6","","7","","","","104.02","","","","-28","","NA"
"-140.20","69.61","KOMAKUK BEACH","2100682","2018-03-01 15:00","2018","03","01","15:00","-22.5","","","","","M","","","10","","15","","","","103.96","","","","-32","","NA"
"-140.20","69.61","KOMAKUK BEACH","2100682","2018-03-01 16:00","2018","03","01","16:00","-22.4","","","","","M","","","8","","17","","","","103.90","","","","-33","","NA"
"-140.20","69.61","KOMAKUK BEACH","2100682","2018-03-01 17:00","2018","03","01","17:00","-22.7","","","","","M","","","9","","20","","","","103.88","","","","-34","","NA"
"-140.20","69.61","KOMAKUK BEACH","2100682","2018-03-01 18:00","2018","03","01","18:00","-22.8","","","","","M","","","8","","24","","","","103.80","","","","-35","","NA"
"-140.20","69.61","KOMAKUK BEACH","2100682","2018-03-01 19:00","2018","03","01","19:00","-22.4","","","","","M","","","10","","28","","","","103.73","","","","-35","","NA"
"-140.20","69.61","KOMAKUK BEACH","2100682","2018-03-01 20:00","2018","03","01","20:00","-23.0","","","","","M","","","8","","31","","","","103.68","","","","-37","","NA"
"-140.20","69.61","KOMAKUK BEACH","2100682","2018-03-01 21:00","2018","03","01","21:00","-23.2","","","","","M","","","11","","24","","","","103.62","","","","-36","","NA"
"-140.20","69.61","KOMAKUK BEACH","2100682","2018-03-01 22:00","2018","03","01","22:00","-24.3","","","","","M","","","10","","30","","","","103.55","","","","-38","","NA"
"-140.20","69.61","KOMAKUK BEACH","2100682","2018-03-01 23:00","2018","03","01","23:00","-25.7","","","","","M","","","10","","31","","","","103.47","","","","-40","","NA"
"-140.20","69.61","KOMAKUK BEACH","2100682","2018-03-02 00:00","2018","03","02","00:00","-26.1","","","","","M","","","10","","26","","","","103.39","","","","-40","","NA"
"-140.20","69.61","KOMAKUK BEACH","2100682","2018-03-02 01:00","2018","03","02","01:00","-26.7","","","","","M","","","10","","31","","","","103.31","","","","-42","","NA"
"-140.20","69.61","KOMAKUK BEACH","2100682","2018-03-02 02:00","2018","03","02","02:00","-27.9","","","","","M","","","9","","31","","","","103.22","","","","-43","","NA"
"-140.20","69.61","KOMAKUK BEACH","2100682","2018-03-02 03:00","2018","03","02","03:00","-28.5","","","","","M","","","9","","37","","","","103.16","","","","-45","","NA"
"-140.20","69.61","KOMAKUK BEACH","2100682","2018-03-02 04:00","2018","03","02","04:00","-27.6","","","","","M","","","10","","31","","","","103.08","","","","-43","","NA"
"-140.20","69.61","KOMAKUK BEACH","2100682","2018-03-02 05:00","2018","03","02","05:00","-27.8","","","","","M","","","9","","50","","","","102.99","","","","-46","","NA"
"-140.20","69.61","KOMAKUK BEACH","2100682","2018-03-02 06:00","2018","03","02","06:00","-28.8","","","","","M","","","9","","44","","","","102.94","","","","-47","","NA"
"-140.20","69.61","KOMAKUK BEACH","2100682","2018-03-02 07:00","2018","03","02","07:00","-29.0","","","","","M","","","9","","46","","","","102.78","","","","-47","","NA"
"-140.20","69.61","KOMAKUK BEACH","2100682","2018-03-02 08:00","2018","03","02","08:00","-28.5","","","","","M","","","9","","48","","","","102.73","","","","-47","","NA"
"-140.20","69.61","KOMAKUK BEACH","2100682","2018-03-02 09:00","2018","03","02","09:00","-28.8","","","","","M","","","9","","52","","","","102.57","","","","-48","","NA"
"-140.20","69.61","KOMAKUK BEACH","2100682","2018-03-02 10:00","2018","03","02","10:00","-29.1","","","","","M","","","9","","52","","","","102.46","","","","-48","","NA"
"-140.20","69.61","KOMAKUK BEACH","2100682","2018-03-02 11:00","2018","03","02","11:00","-28.5","","","","","M","","","9","","57","","","","102.30","","","","-48","","NA"
"-140.20","69.61","KOMAKUK BEACH","2100682","2018-03-02 12:00","2018","03","02","12:00","-27.8","","","","","M","","","10","","50","","","","102.23","","","","-46","","NA"
"-140.20","69.61","KOMAKUK BEACH","2100682","2018-03-02 13:00","2018","03","02","13:00","-27.6","","","","","M","","","9","","52","","","","102.11","","","","-46","","NA"
"-140.20","69.61","KOMAKUK BEACH","2100682","2018-03-02 14:00","2018","03","02","14:00","-26.0","","","","","M","","","9","","50","","","","102.02","","","","-44","","NA"
"-140.20","69.61","KOMAKUK BEACH","2100682","2018-03-02 15:00","2018","03","02","15:00","-25.7","","","","","M","","","9","","59","","","","101.93","","","","-44","","NA"
"-140.20","69.61","KOMAKUK BEACH","2100682","2018-03-02 16:00","2018","03","02","16:00","-24.5","","","","","M","","","9","","46","","","","101.95","","","","-41","","NA"
"-140.20","69.61","KOMAKUK BEACH","2100682","2018-03-02 17:00","2018","03","02","17:00","-23.8","","","","","M","","","10","","44","","","","101.95","","","","-40","","NA"
"-140.20","69.61","KOMAKUK BEACH","2100682","2018-03-02 18:00","2018","03","02","18:00","-23.3","","","","","M","","","10","","37","","","","101.93","","","","-38","","NA"
"-140.20","69.61","KOMAKUK BEACH","2100682","2018-03-02 19:00","2018","03","02","19:00","-22.5","","","","","M","","","10","","28","","","","102.00","","","","-35","","NA"
"-140.20","69.61","KOMAKUK BEACH","2100682","2018-03-02 20:00","2018","03","02","20:00","-22.2","","","","","M","","","10","","26","","","","102.01","","","","-35","","NA"
"-140.20","69.61","KOMAKUK BEACH","2100682","2018-03-02 21:00","2018","03","02","21:00","-23.8","","","","","M","","","17","","4","","","","102.07","","","","-28","","NA"
"-140.20","69.61","KOMAKUK BEACH","2100682","2018-03-02 22:00","2018","03","02","22:00","-25.0","","","","","M","","","27","","6","","","","102.08","","","","-31","","NA"
"-140.20","69.61","KOMAKUK BEACH","2100682","2018-03-02 23:00","2018","03","02","23:00","-23.7","","","","","M","","","25","","11","","","","102.09","","","","-32","","NA"
"-140.20","69.61","KOMAKUK BEACH","2100682","2018-03-03 00:00","2018","03","03","00:00","-22.4","","","","","M","","","25","","11","","","","102.08","","","","-31","","NA"
"-140.20","69.61","KOMAKUK BEACH","2100682","2018-03-03 01:00","2018","03","03","01:00","-21.1","","","","","M","","","24","","6","","","","102.06","","","","-26","","NA"
"-140.20","69.61","KOMAKUK BEACH","2100682","2018-03-03 02:00","2018","03","03","02:00","-20.3","","","","","M","","","27","","9","","","","102.09","","","","-27","","NA"
"-140.20","69.61","KOMAKUK BEACH","2100682","2018-03-03 03:00","2018","03","03","03:00","-19.5","","","","","M","","","25","","7","","","","102.08","","","","-25","","NA"
"-140.20","69.61","KOMAKUK BEACH","2100682","2018-03-03 04:00","2018","03","03","04:00","-18.8","","","","","M","","","28","","4","","","","102.07","","","","-22","","NA"
"-140.20","69.61","KOMAKUK BEACH","2100682","2018-03-03 05:00","2018","03","03","05:00","-18.1","","","","","M","","","19","","4","","","","102.11","","","","-21","","NA"
"-140.20","69.61","KOMAKUK BEACH","2100682","2018-03-03 06:00","2018","03","03","06:00","-17.3","","","","","M","","","19","","13","","","","102.10","","","","-25","","NA"
"-140.20","69.61","KOMAKUK BEACH","2100682","2018-03-03 07:00","2018","03","03","07:00","-15.4","","","","","M","","","27","","4","","","","102.07","","","","-18","","NA"
"-140.20","69.61","KOMAKUK BEACH","2100682","2018-03-03 08:00","2018","03","03","08:00","-14.3","","","","","M","","","8","","4","","","","102.09","","","","-17","","NA"
"-140.20","69.61","KOMAKUK BEACH","2100682","2018-03-03 09:00","2018","03","03","09:00","-13.1","","","","","M","","","29","","4","","","","102.08","","","","-16","","NA"
"-140.20","69.61","KOMAKUK BEACH","2100682","2018-03-03 10:00","2018","03","03","10:00","-11.1","","","","","M","","","25","","6","","","","102.09","","","","-15","","NA"
"-140.20","69.61","KOMAKUK BEACH","2100682","2018-03-03 11:00","2018","03","03","11:00","-11.6","","","","","M","","","24","","6","","","","102.09","","","","-15","","NA"
"-140.20","69.61","KOMAKUK BEACH","2100682","2018-03-03 12:00","2018","03","03","12:00","-9.7","","","","","M","","","25","","11","","","","102.09","","","","-15","","NA"
"-140.20","69.61","KOMAKUK BEACH","2100682","2018-03-03 13:00","2018","03","03","13:00","-9.8","","","","","M","","","25","","13","","","","102.12","","","","-16","","NA"
"-140.20","69.61","KOMAKUK BEACH","2100682","2018-03-03 14:00","2018","03","03","14:00","-11.2","","","","","M","","","23","","19","","","","102.15","","","","-19","","NA"
"-140.20","69.61","KOMAKUK BEACH","2100682","2018-03-03 15:00","2018","03","03","15:00","-9.6","","","","","M","","","22","","20","","","","102.16","","","","-17","","NA"
"-140.20","69.61","KOMAKUK BEACH","2100682","2018-03-03 16:00","2018","03","03","16:00","-8.9","","","","","M","","","24","","19","","","","102.18","","","","-16","","NA"
"-140.20","69.61","KOMAKUK BEACH","2100682","2018-03-03 17:00","2018","03","03","17:00","-10.3","","","","","M","","","21","","13","","","","102.16","","","","-17","","NA"
"-140.20","69.61","KOMAKUK BEACH","2100682","2018-03-03 18:00","2018","03","03","18:00","-7.7","","","","","M","","","23","","6","","","","102.15","","","","-11","","NA"
"-140.20","69.61","KOMAKUK BEACH","2100682","2018-03-03 19:00","2018","03","03","19:00","-8.8","","","","","M","","","21","","11","","","","102.17","","","","-14","","NA"
"-140.20","69.61","KOMAKUK BEACH","2100682","2018-03-03 20:00","2018","03","03","20:00","-6.0","","","","","M","","","25","","19","","","","102.22","","","","-13","","NA"
"-140.20","69.61","KOMAKUK BEACH","2100682","2018-03-03 21:00","2018","03","03","21:00","-6.7","","","","","M","","","21","","9","","","","102.21","","","","-11","","NA"
"-140.20","69.61","KOMAKUK BEACH","2100682","2018-03-03 22:00","2018","03","03","22:00","-6.3","","","","","M","","","23","","4","","","","102.21","","","","-8","","NA"
"-140.20","69.61","KOMAKUK BEACH","2100682","2018-03-03 23:00","2018","03","03","23:00","-8.2","","","","","M","","","25","","15","","","","102.22","","","","-15","","NA"
"-140.20","69.61","KOMAKUK BEACH","2100682","2018-03-04 00:00","2018","03","04","00:00","-6.4","","","","","M","","","24","","19","","","","102.26","","","","-13","","NA"
"-140.20","69.61","KOMAKUK BEACH","2100682","2018-03-04 01:00","2018","03","04","01:00","-5.8","","","","","M","","","23","","20","","","","102.27","","","","-13","","NA"
"-140.20","69.61","KOMAKUK BEACH","2100682","2018-03-04 02:00","2018","03","04","02:00","-5.9","","","","","M","","","26","","20","","","","102.30","","","","-13","","NA"
"-140.20","69.61","KOMAKUK BEACH","2100682","2018-03-04 03:00","2018","03","04","03:00","-6.3","","","","","M","","","26","","22","","","","102.33","","","","-14","","NA"
"-140.20","69.61","KOMAKUK BEACH","2100682","2018-03-04 04:00","2018","03","04","04:00","-6.2","","","","","M","","","26","","22","","","","102.37","","","","-13","","NA"
"-140.20","69.61","KOMAKUK BEACH","2100682","2018-03-04 05:00","2018","03","04","05:00","-6.5","","","","","M","","","27","","20","","","","102.43","","","","-13","","NA"
"-140.20","69.61","KOMAKUK BEACH","2100682","2018-03-04 06:00","2018","03","04","06:00","-6.3","","","","","M","","","27","","19","","","","102.46","","","","-13","","NA"
"-140.20","69.61","KOMAKUK BEACH","2100682","2018-03-04 07:00","2018","03","04","07:00","-6.3","","","","","M","","","26","","19","","","","102.47","","","","-13","","NA"
"-140.20","69.61","KOMAKUK BEACH","2100682","2018-03-04 08:00","2018","03","04","08:00","-7.4","","","","","M","","","23","","19","","","","102.51","","","","-14","","NA"
"-140.20","69.61","KOMAKUK BEACH","2100682","2018-03-04 09:00","2018","03","04","09:00","-7.5","","","","","M","","","26","","20","","","","102.50","","","","-15","","NA"
"-140.20","69.61","KOMAKUK BEACH","2100682","2018-03-04 10:00","2018","03","04","10:00","-8.9","","","","","M","","","25","","15","","","","102.52","","","","-15","","NA"
"-140.20","69.61","KOMAKUK BEACH","2100682","2018-03-04 11:00","2018","03","04","11:00","-7.5","","","","","M","","","26","","13","","","","102.54","","","","-13","","NA"
"-140.20","69.61","KOMAKUK BEACH","2100682","2018-03-04 12:00","2018","03","04","12:00","-9.7","","","","","M","","","23","","13","","","","102.55","","","","-16","","NA"
"-140.20","69.61","KOMAKUK BEACH","2100682","2018-03-04 13:00","2018","03","04","13:00","-9.7","","","","","M","","","25","","9","","","","102.60","","","","-15","","NA"
"-140.20","69.61","KOMAKUK BEACH","2100682","2018-03-04 14:00","2018","03","04","14:00","-6.8","","","","","M","","","25","","19","","","","102.65","","","","-14","","NA"
"-140.20","69.61","KOMAKUK BEACH","2100682","2018-03-04 15:00","2018","03","04","15:00","-6.8","","","","","M","","","26","","20","","","","102.68","","","","-14","","NA"
"-140.20","69.61","KOMAKUK BEACH","2100682","2018-03-04 16:00","2018","03","04","16:00","-8.0","","","","","M","","","25","","17","","","","102.70","","","","-15","","NA"
"-140.20","69.61","KOMAKUK BEACH","2100682","2018-03-04 17:00","2018","03","04","17:00","-7.8","","","","","M","","","27","","20","","","","102.72","","","","-15","","NA"
"-140.20","69.61","KOMAKUK BEACH","2100682","2018-03-04 18:00","2018","03","04","18:00","-6.4","","","","","M","","","25","","19","","","","102.74","","","","-13","","NA"
"-140.20","69.61","KOMAKUK BEACH","2100682","2018-03-04 19:00","2018","03","04","19:00","-5.6","","","","","M","","","25","","26","","","","102.76","","","","-13","","NA"
"-140.20","69.61","KOMAKUK BEACH","2100682","2018-03-04 20:00","2018","03","04","20:00","-9.0","","","","","M","","","22","","19","","","","102.74","","","","-16","","NA"
"-140.20","69.61","KOMAKUK BEACH","2100682","2018-03-04 21:00","2018","03","04","21:00","-7.9","","","","","M","","","21","","17","","","","102.73","","","","-15","","NA"
"-140.20","69.61","KOMAKUK BEACH","2100682","2018-03-04 22:00","2018","03","04","22:00","-9.6","","","","","M","","","21","","17","","","","102.69","","","","-17","","NA"
"-140.20","69.61","KOMAKUK BEACH","2100682","2018-03-04 23:00","2018","03","04","23:00","-9.9","","","","","M","","","19","","19","","","","102.67","","","","-18","","NA"
"-140.20","69.61","KOMAKUK BEACH","2100682","2018-03-05 00:00","2018","03","05","00:00","-11.6","","","","","M","","","17","","17","","","","102.59","","","","-19","","NA"
"-140.20","69.61","KOMAKUK BEACH","2100682","2018-03-05 01:00","2018","03","05","01:00","-13.2","","","","","M","","","14","","11","","","","102.51","","","","-19","","NA"
"-140.20","69.61","KOMAKUK BEACH","2100682","2018-03-05 02:00","2018","03","05","02:00","-11.0","","","","","M","","","13","","6","","","","102.44","","","","-15","","NA"
"-140.20","69.61","KOMAKUK BEACH","2100682","2018-03-05 03:00","2018","03","05","03:00","-13.9","","","","","M","","","12","","13","","","","102.37","","","","-21","","NA"
"-140.20","69.61","KOMAKUK BEACH","2100682","2018-03-05 04:00","2018","03","05","04:00","-15.5","","","","","M","","","25","","15","","","","102.36","","","","-24","","NA"
"-140.20","69.61","KOMAKUK BEACH","2100682","2018-03-05 05:00","2018","03","05","05:00","-18.1","","","","","M","","","15","","4","","","","102.32","","","","-21","","NA"
"-140.20","69.61","KOMAKUK BEACH","2100682","2018-03-05 06:00","2018","03","05","06:00","-17.6","","","","","M","","","16","","4","","","","102.26","","","","-21","","NA"
"-140.20","69.61","KOMAKUK BEACH","2100682","2018-03-05 07:00","2018","03","05","07:00","-14.9","","","","","M","","","19","","9","","","","102.20","","","","-21","","NA"
"-140.20","69.61","KOMAKUK BEACH","2100682","2018-03-05 08:00","2018","03","05","08:00","-17.8","","","","","M","","","33","","6","","","","102.17","","","","-22","","NA"
"-140.20","69.61","KOMAKUK BEACH","2100682","2018-03-05 09:00","2018","03","05","09:00","-16.6","","","","","M","","","","","0","","","","102.16","","","","","","NA"
"-140.20","69.61","KOMAKUK BEACH","2100682","2018-03-05 10:00","2018","03","05","10:00","-14.4","","","","","M","","","","","0","","","","102.16","","","","","","NA"
"-140.20","69.61","KOMAKUK BEACH","2100682","2018-03-05 11:00","2018","03","05","11:00","-15.0","","","","","M","","","25","","7","","","","102.13","","","","-20","","NA"
"-140.20","69.61","KOMAKUK BEACH","2100682","2018-03-05 12:00","2018","03","05","12:00","-16.4","","","","","M","","","25","","6","","","","102.11","","","","-21","","NA"
"-140.20","69.61","KOMAKUK BEACH","2100682","2018-03-05 13:00","2018","03","05","13:00","-17.6","","","","","M","","","6","","4","","","","102.11","","","","-21","","NA"
"-140.20","69.61","KOMAKUK BEACH","2100682","2018-03-05 14:00","2018","03","05","14:00","-16.3","","","","","M","","","","","0","","","","102.11","","","","","","NA"
"-140.20","69.61","KOMAKUK BEACH","2100682","2018-03-05 15:00","2018","03","05","15:00","-15.4","","","","","M","","","9","","6","","","","102.08","","","","-20","","NA"
"-140.20","69.61","KOMAKUK BEACH","2100682","2018-03-05 16:00","2018","03","05","16:00","-12.8","","","","","M","","","10","","9","","","","102.05","","","","-18","","NA"
"-140.20","69.61","KOMAKUK BEACH","2100682","2018-03-05 17:00","2018","03","05","17:00","-16.1","","","","","M","","","9","","11","","","","102.01","","","","-23","","NA"
"-140.20","69.61","KOMAKUK BEACH","2100682","2018-03-05 18:00","2018","03","05","18:00","-14.6","","","","","M","","","15","","7","","","","101.99","","","","-19","","NA"
"-140.20","69.61","KOMAKUK BEACH","2100682","2018-03-05 19:00","2018","03","05","19:00","-16.7","","","","","M","","","13","","6","","","","101.99","","","","-21","","NA"
"-140.20","69.61","KOMAKUK BEACH","2100682","2018-03-05 20:00","2018","03","05","20:00","-15.2","","","","","M","","","9","","19","","","","101.97","","","","-24","","NA"
"-140.20","69.61","KOMAKUK BEACH","2100682","2018-03-05 21:00","2018","03","05","21:00","-14.1","","","","","M","","","14","","15","","","","101.96","","","","-22","","NA"
"-140.20","69.61","KOMAKUK BEACH","2100682","2018-03-05 22:00","2018","03","05","22:00","-15.6","","","","","M","","","19","","9","","","","101.94","","","","-22","","NA"
"-140.20","69.61","KOMAKUK BEACH","2100682","2018-03-05 23:00","2018","03","05","23:00","-16.8","","","","","M","","","","","0","","","","101.92","","","","","","NA"
"-140.20","69.61","KOMAKUK BEACH","2100682","2018-03-06 00:00","2018","03","06","00:00","-17.8","","","","","M","","","5","","7","","","","101.90","","","","-23","","NA"
"-140.20","69.61","KOMAKUK BEACH","2100682","2018-03-06 01:00","2018","03","06","01:00","-21.2","","","","","M","","","","","0","","","","101.91","","","","","","NA"
"-140.20","69.61","KOMAKUK BEACH","2100682","2018-03-06 02:00","2018","03","06","02:00","-18.3","","","","","M","","","28","","6","","","","101.91","","","","-23","","NA"
"-140.20","69.61","KOMAKUK BEACH","2100682","2018-03-06 03:00","2018","03","06","03:00","-17.7","","","","","M","","","26","","11","","","","101.91","","","","-25","","NA"
"-140.20","69.61","KOMAKUK BEACH","2100682","2018-03-06 04:00","2018","03","06","04:00","-20.7","","","","","M","","","27","","9","","","","101.89","","","","-28","","NA"
"-140.20","69.61","KOMAKUK BEACH","2100682","2018-03-06 05:00","2018","03","06","05:00","-20.3","","","","","M","","","27","","11","","","","101.86","","","","-28","","NA"
"-140.20","69.61","KOMAKUK BEACH","2100682","2018-03-06 06:00","2018","03","06","06:00","-17.7","","","","","M","","","28","","6","","","","101.85","","","","-22","","NA"
"-140.20","69.61","KOMAKUK BEACH","2100682","2018-03-06 07:00","2018","03","06","07:00","-19.7","","","","","M","","","26","","4","","","","101.83","","","","-23","","NA"
"-140.20","69.61","KOMAKUK BEACH","2100682","2018-03-06 08:00","2018","03","06","08:00","-20.3","","","","","M","","","27","","7","","","","101.82","","","","-26","","NA"
"-140.20","69.61","KOMAKUK BEACH","2100682","2018-03-06 09:00","2018","03","06","09:00","-19.9","","","","","M","","","25","","6","","","","101.77","","","","-25","","NA"
"-140.20","69.61","KOMAKUK BEACH","2100682","2018-03-06 10:00","2018","03","06","10:00","-17.9","","","","","M","","","27","","4","","","","101.73","","","","-21","","NA"
"-140.20","69.61","KOMAKUK BEACH","2100682","2018-03-06 11:00","2018","03","06","11:00","-19.0","","","","","M","","","20","","11","","","","101.70","","","","-26","","NA"
"-140.20","69.61","KOMAKUK BEACH","2100682","2018-03-06 12:00","2018","03","06","12:00","-16.8","","","","","M","","","20","","7","","","","101.68","","","","-22","","NA"
"-140.20","69.61","KOMAKUK BEACH","2100682","2018-03-06 13:00","2018","03","06","13:00","-17.2","","","","","M","","","17","","4","","","","101.63","","","","-20","","NA"
"-140.20","69.61","KOMAKUK BEACH","2100682","2018-03-06 14:00","2018","03","06","14:00","-18.7","","","","","M","","","14","","7","","","","101.61","","","","-24","","NA"
"-140.20","69.61","KOMAKUK BEACH","2100682","2018-03-06 15:00","2018","03","06","15:00","-17.2","","","","","M","","","9","","6","","","","101.58","","","","-22","","NA"
"-140.20","69.61","KOMAKUK BEACH","2100682","2018-03-06 16:00","2018","03","06","16:00","-10.5","","","","","M","","","19","","6","","","","101.55","","","","-14","","NA"
"-140.20","69.61","KOMAKUK BEACH","2100682","2018-03-06 17:00","2018","03","06","17:00","-15.6","","","","","M","","","16","","7","","","","101.52","","","","-21","","NA"
"-140.20","69.61","KOMAKUK BEACH","2100682","2018-03-06 18:00","2018","03","06","18:00","-13.8","","","","","M","","","20","","9","","","","101.48","","","","-19","","NA"
"-140.20","69.61","KOMAKUK BEACH","2100682","2018-03-06 19:00","2018","03","06","19:00","-16.3","","","","","M","","","","","0","","","","101.47","","","","","","NA"
"-140.20","69.61","KOMAKUK BEACH","2100682","2018-03-06 20:00","2018","03","06","20:00","-15.5","","","","","M","","","","","0","","","","101.46","","","","","","NA"
"-140.20","69.61","KOMAKUK BEACH","2100682","2018-03-06 21:00","2018","03","06","21:00","-13.9","","","","","M","","","18","","7","","","","101.45","","","","-19","","NA"
"-140.20","69.61","KOMAKUK BEACH","2100682","2018-03-06 22:00","2018","03","06","22:00","-10.4","","","","","M","","","24","","15","","","","101.46","","","","-17","","NA"
"-140.20","69.61","KOMAKUK BEACH","2100682","2018-03-06 23:00","2018","03","06","23:00","-9.1","","","","","M","","","26","","15","","","","101.47","","","","-16","","NA"
"-140.20","69.61","KOMAKUK BEACH","2100682","2018-03-07 00:00","2018","03","07","00:00","-7.5","","","","","M","","","24","","15","","","","101.45","","","","-14","","NA"
"-140.20","69.61","KOMAKUK BEACH","2100682","2018-03-07 01:00","2018","03","07","01:00","-6.7","","","","","M","","","23","","15","","","","101.45","","","","-13","","NA"
"-140.20","69.61","KOMAKUK BEACH","2100682","2018-03-07 02:00","2018","03","07","02:00","-8.4","","","","","M","","","22","","15","","","","101.43","","","","-15","","NA"
"-140.20","69.61","KOMAKUK BEACH","2100682","2018-03-07 03:00","2018","03","07","03:00","-7.9","","","","","M","","","22","","15","","","","101.43","","","","-14","","NA"
"-140.20","69.61","KOMAKUK BEACH","2100682","2018-03-07 04:00","2018","03","07","04:00","-7.3","","","","","M","","","21","","13","","","","101.41","","","","-13","","NA"
"-140.20","69.61","KOMAKUK BEACH","2100682","2018-03-07 05:00","2018","03","07","05:00","-8.3","","","","","M","","","1","","6","","","","101.43","","","","-12","","NA"
"-140.20","69.61","KOMAKUK BEACH","2100682","2018-03-07 06:00","2018","03","07","06:00","-9.9","","","","","M","","","19","","11","","","","101.44","","","","-15","","NA"
"-140.20","69.61","KOMAKUK BEACH","2100682","2018-03-07 07:00","2018","03","07","07:00","-9.9","","","","","M","","","22","","7","","","","101.43","","","","-14","","NA"
"-140.20","69.61","KOMAKUK BEACH","2100682","2018-03-07 08:00","2018","03","07","08:00","-8.7","","","","","M","","","28","","7","","","","101.41","","","","-13","","NA"
"-140.20","69.61","KOMAKUK BEACH","2100682","2018-03-07 09:00","2018","03","07","09:00","-10.4","","","","","M","","","28","","9","","","","101.42","","","","-15","","NA"
"-140.20","69.61","KOMAKUK BEACH","2100682","2018-03-07 10:00","2018","03","07","10:00","-10.8","","","","","M","","","26","","13","","","","101.40","","","","-17","","NA"
"-140.20","69.61","KOMAKUK BEACH","2100682","2018-03-07 11:00","2018","03","07","11:00","-10.8","","","","","M","","","27","","11","","","","101.40","","","","-17","","NA"
"-140.20","69.61","KOMAKUK BEACH","2100682","2018-03-07 12:00","2018","03","07","12:00","-10.9","","","","","M","","","29","","7","","","","101.40","","","","-15","","NA"
"-140.20","69.61","KOMAKUK BEACH","2100682","2018-03-07 13:00","2018","03","07","13:00","-11.0","","","","","M","","","29","","6","","","","101.41","","","","-15","","NA"
"-140.20","69.61","KOMAKUK BEACH","2100682","2018-03-07 14:00","2018","03","07","14:00","-11.1","","","","","M","","","20","","6","","","","101.41","","","","-15","","NA"
"-140.20","69.61","KOMAKUK BEACH","2100682","2018-03-07 15:00","2018","03","07","15:00","-11.0","","","","","M","","","15","","6","","","","101.41","","","","-15","","NA"
"-140.20","69.61","KOMAKUK BEACH","2100682","2018-03-07 16:00","2018","03","07","16:00","-11.7","","","","","M","","","13","","6","","","","101.39","","","","-15","","NA"
"-140.20","69.61","KOMAKUK BEACH","2100682","2018-03-07 17:00","2018","03","07","17:00","-11.9","","","","","M","","","12","","11","","","","101.36","","","","-18","","NA"
"-140.20","69.61","KOMAKUK BEACH","2100682","2018-03-07 18:00","2018","03","07","18:00","-12.1","","","","","M","","","6","","13","","","","101.33","","","","-19","","NA"
"-140.20","69.61","KOMAKUK BEACH","2100682","2018-03-07 19:00","2018","03","07","19:00","-12.4","","","","","M","","","6","","17","","","","101.28","","","","-20","","NA"
"-140.20","69.61","KOMAKUK BEACH","2100682","2018-03-07 20:00","2018","03","07","20:00","-12.3","","","","","M","","","8","","20","","","","101.21","","","","-21","","NA"
"-140.20","69.61","KOMAKUK BEACH","2100682","2018-03-07 21:00","2018","03","07","21:00","-17.1","","","","","M","","","10","","17","","","","101.15","","","","-26","","NA"
"-140.20","69.61","KOMAKUK BEACH","2100682","2018-03-07 22:00","2018","03","07","22:00","-14.7","","","","","M","","","9","","30","","","","101.04","","","","-26","","NA"
"-140.20","69.61","KOMAKUK BEACH","2100682","2018-03-07 23:00","2018","03","07","23:00","-14.4","","","","","M","","","10","","28","","","","100.98","","","","-25","","NA"
"-140.20","69.61","KOMAKUK BEACH","2100682","2018-03-08 00:00","2018","03","08","00:00","-15.0","","","","","M","","","10","","28","","","","100.87","","","","-26","","NA"
"-140.20","69.61","KOMAKUK BEACH","2100682","2018-03-08 01:00","2018","03","08","01:00","-15.1","","","","","M","","","9","","30","","","","100.82","","","","-26","","NA"
"-140.20","69.61","KOMAKUK BEACH","2100682","2018-03-08 02:00","2018","03","08","02:00","-15.2","","","","","M","","","10","","39","","","","100.70","","","","-28","","NA"
"-140.20","69.61","KOMAKUK BEACH","2100682","2018-03-08 03:00","2018","03","08","03:00","-15.8","","","","","M","","","10","","26","","","","100.66","","","","-26","","NA"
"-140.20","69.61","KOMAKUK BEACH","2100682","2018-03-08 04:00","2018","03","08","04:00","-16.0","","","","","M","","","8","","35","","","","100.55","","","","-28","","NA"
"-140.20","69.61","KOMAKUK BEACH","2100682","2018-03-08 05:00","2018","03","08","05:00","-16.2","","","","","M","","","8","","33","","","","100.43","","","","-28","","NA"
"-140.20","69.61","KOMAKUK BEACH","2100682","2018-03-08 06:00","2018","03","08","06:00","-17.2","","","","","M","","","8","","30","","","","100.34","","","","-29","","NA"
"-140.20","69.61","KOMAKUK BEACH","2100682","2018-03-08 07:00","2018","03","08","07:00","-21.0","","","","","M","","","26","","19","","","","100.27","","","","-31","","NA"
"-140.20","69.61","KOMAKUK BEACH","2100682","2018-03-08 08:00","2018","03","08","08:00","-22.0","","","","","M","","","27","","9","","","","100.21","","","","-29","","NA"
"-140.20","69.61","KOMAKUK BEACH","2100682","2018-03-08 09:00","2018","03","08","09:00","-22.1","","","","","M","","","24","","9","","","","100.14","","","","-29","","NA"
"-140.20","69.61","KOMAKUK BEACH","2100682","2018-03-08 10:00","2018","03","08","10:00","-21.6","","","","","M","","","27","","9","","","","100.04","","","","-29","","NA"
"-140.20","69.61","KOMAKUK BEACH","2100682","2018-03-08 11:00","2018","03","08","11:00","-23.2","","","","","M","","","28","","7","","","","99.96","","","","-29","","NA"
"-140.20","69.61","KOMAKUK BEACH","2100682","2018-03-08 12:00","2018","03","08","12:00","-22.5","","","","","M","","","29","","7","","","","99.90","","","","-29","","NA"
"-140.20","69.61","KOMAKUK BEACH","2100682","2018-03-08 13:00","2018","03","08","13:00","-22.0","","","","","M","","","","","0","","","","99.83","","","","","","NA"
"-140.20","69.61","KOMAKUK BEACH","2100682","2018-03-08 14:00","2018","03","08","14:00","-21.3","","","","","M","","","25","","9","","","","99.77","","","","-28","","NA"
"-140.20","69.61","KOMAKUK BEACH","2100682","2018-03-08 15:00","2018","03","08","15:00","-20.9","","","","","M","","","29","","6","","","","99.69","","","","-26","","NA"
"-140.20","69.61","KOMAKUK BEACH","2100682","2018-03-08 16:00","2018","03","08","16:00","-20.3","","","","","M","","","28","","11","","","","99.65","","","","-28","","NA"
"-140.20","69.61","KOMAKUK BEACH","2100682","2018-03-08 17:00","2018","03","08","17:00","-20.1","","","","","M","","","26","","11","","","","99.62","","","","-28","","NA"
"-140.20","69.61","KOMAKUK BEACH","2100682","2018-03-08 18:00","2018","03","08","18:00","-20.0","","","","","M","","","28","","11","","","","99.58","","","","-28","","NA"
"-140.20","69.61","KOMAKUK BEACH","2100682","2018-03-08 19:00","2018","03","08","19:00","-19.6","","","","","M","","","27","","13","","","","99.56","","","","-28","","NA"
"-140.20","69.61","KOMAKUK BEACH","2100682","2018-03-08 20:00","2018","03","08","20:00","-20.5","","","","","M","","","24","","15","","","","99.54","","","","-30","","NA"
"-140.20","69.61","KOMAKUK BEACH","2100682","2018-03-08 21:00","2018","03","08","21:00","-22.0","","","","","M","","","26","","7","","","","99.51","","","","-28","","NA"
"-140.20","69.61","KOMAKUK BEACH","2100682","2018-03-08 22:00","2018","03","08","22:00","-21.2","","","","","M","","","21","","7","","","","99.49","","","","-27","","NA"
"-140.20","69.61","KOMAKUK BEACH","2100682","2018-03-08 23:00","2018","03","08","23:00","-24.7","","","","","M","","","12","","4","","","","99.48","","","","-29","","NA"
"-140.20","69.61","KOMAKUK BEACH","2100682","2018-03-09 00:00","2018","03","09","00:00","-21.1","","","","","M","","","14","","4","","","","99.44","","","","-25","","NA"
"-140.20","69.61","KOMAKUK BEACH","2100682","2018-03-09 01:00","2018","03","09","01:00","-23.6","","","","","M","","","","","0","","","","99.45","","","","","","NA"
"-140.20","69.61","KOMAKUK BEACH","2100682","2018-03-09 02:00","2018","03","09","02:00","-22.4","","","","","M","","","26","","4","","","","99.45","","","","-26","","NA"
"-140.20","69.61","KOMAKUK BEACH","2100682","2018-03-09 03:00","2018","03","09","03:00","-24.6","","","","","M","","","25","","7","","","","99.46","","","","-31","","NA"
"-140.20","69.61","KOMAKUK BEACH","2100682","2018-03-09 04:00","2018","03","09","04:00","-23.2","","","","","M","","","25","","13","","","","99.48","","","","-32","","NA"
"-140.20","69.61","KOMAKUK BEACH","2100682","2018-03-09 05:00","2018","03","09","05:00","-23.7","","","","","M","","","27","","11","","","","99.49","","","","-32","","NA"
"-140.20","69.61","KOMAKUK BEACH","2100682","2018-03-09 06:00","2018","03","09","06:00","-24.4","","","","","M","","","27","","6","","","","99.52","","","","-30","","NA"
"-140.20","69.61","KOMAKUK BEACH","2100682","2018-03-09 07:00","2018","03","09","07:00","-25.3","","","","","M","","","","","0","","","","99.51","","","","","","NA"
"-140.20","69.61","KOMAKUK BEACH","2100682","2018-03-09 08:00","2018","03","09","08:00","-26.4","","","","","M","","","19","","11","","","","99.52","","","","-35","","NA"
"-140.20","69.61","KOMAKUK BEACH","2100682","2018-03-09 09:00","2018","03","09","09:00","-25.7","","","","","M","","","","","0","","","","99.53","","","","","","NA"
"-140.20","69.61","KOMAKUK BEACH","2100682","2018-03-09 10:00","2018","03","09","10:00","-25.2","","","","","M","","","8","","13","","","","99.55","","","","-35","","NA"
"-140.20","69.61","KOMAKUK BEACH","2100682","2018-03-09 11:00","2018","03","09","11:00","-24.6","","","","","M","","","9","","17","","","","99.54","","","","-35","","NA"
"-140.20","69.61","KOMAKUK BEACH","2100682","2018-03-09 12:00","2018","03","09","12:00","-22.8","","","","","M","","","9","","30","","","","99.53","","","","-36","","NA"
"-140.20","69.61","KOMAKUK BEACH","2100682","2018-03-09 13:00","2018","03","09","13:00","-21.8","","","","","M","","","9","","30","","","","99.55","","","","-35","","NA"
"-140.20","69.61","KOMAKUK BEACH","2100682","2018-03-09 14:00","2018","03","09","14:00","-20.2","","","","","M","","","10","","28","","","","99.59","","","","-32","","NA"
"-140.20","69.61","KOMAKUK BEACH","2100682","2018-03-09 15:00","2018","03","09","15:00","-19.4","","","","","M","","","9","","31","","","","99.63","","","","-32","","NA"
"-140.20","69.61","KOMAKUK BEACH","2100682","2018-03-09 16:00","2018","03","09","16:00","-18.9","","","","","M","","","9","","39","","","","99.65","","","","-33","","NA"
"-140.20","69.61","KOMAKUK BEACH","2100682","2018-03-09 17:00","2018","03","09","17:00","-18.7","","","","","M","","","9","","43","","","","99.69","","","","-33","","NA"
"-140.20","69.61","KOMAKUK BEACH","2100682","2018-03-09 18:00","2018","03","09","18:00","-19.2","","","","","M","","","9","","31","","","","99.77","","","","-32","","NA"
"-140.20","69.61","KOMAKUK BEACH","2100682","2018-03-09 19:00","2018","03","09","19:00","-19.3","","","","","M","","","9","","30","","","","99.85","","","","-32","","NA"
"-140.20","69.61","KOMAKUK BEACH","2100682","2018-03-09 20:00","2018","03","09","20:00","-20.1","","","","","M","","","11","","24","","","","99.95","","","","-32","","NA"
"-140.20","69.61","KOMAKUK BEACH","2100682","2018-03-09 21:00","2018","03","09","21:00","-21.0","","","","","M","","","10","","24","","","","100.03","","","","-33","","NA"
"-140.20","69.61","KOMAKUK BEACH","2100682","2018-03-09 22:00","2018","03","09","22:00","-22.1","","","","","M","","","11","","22","","","","100.10","","","","-34","","NA"
"-140.20","69.61","KOMAKUK BEACH","2100682","2018-03-09 23:00","2018","03","09","23:00","-22.7","","","","","M","","","12","","20","","","","100.15","","","","-34","","NA"
"-140.20","69.61","KOMAKUK BEACH","2100682","2018-03-10 00:00","2018","03","10","00:00","-21.7","","","","","M","","","12","","22","","","","100.22","","","","-33","","NA"
"-140.20","69.61","KOMAKUK BEACH","2100682","2018-03-10 01:00","2018","03","10","01:00","-22.9","","","","","M","","","11","","17","","","","100.32","","","","-33","","NA"
"-140.20","69.61","KOMAKUK BEACH","2100682","2018-03-10 02:00","2018","03","10","02:00","-23.1","","","","","M","","","11","","22","","","","100.42","","","","-35","","NA"
"-140.20","69.61","KOMAKUK BEACH","2100682","2018-03-10 03:00","2018","03","10","03:00","-21.9","","","","","M","","","14","","22","","","","100.51","","","","-33","","NA"
"-140.20","69.61","KOMAKUK BEACH","2100682","2018-03-10 04:00","2018","03","10","04:00","-20.0","","","","","M","","","16","","24","","","","100.59","","","","-31","","NA"
"-140.20","69.61","KOMAKUK BEACH","2100682","2018-03-10 05:00","2018","03","10","05:00","-18.7","","","","","M","","","14","","19","","","","100.67","","","","-29","","NA"
"-140.20","69.61","KOMAKUK BEACH","2100682","2018-03-10 06:00","2018","03","10","06:00","-18.2","","","","","M","","","14","","19","","","","100.73","","","","-28","","NA"
"-140.20","69.61","KOMAKUK BEACH","2100682","2018-03-10 07:00","2018","03","10","07:00","-18.0","","","","","M","","","13","","17","","","","100.80","","","","-27","","NA"
"-140.20","69.61","KOMAKUK BEACH","2100682","2018-03-10 08:00","2018","03","10","08:00","-18.0","","","","","M","","","13","","20","","","","100.83","","","","-28","","NA"
"-140.20","69.61","KOMAKUK BEACH","2100682","2018-03-10 09:00","2018","03","10","09:00","-18.0","","","","","M","","","11","","22","","","","100.87","","","","-28","","NA"
"-140.20","69.61","KOMAKUK BEACH","2100682","2018-03-10 10:00","2018","03","10","10:00","-18.0","","","","","M","","","12","","19","","","","100.90","","","","-28","","NA"
"-140.20","69.61","KOMAKUK BEACH","2100682","2018-03-10 11:00","2018","03","10","11:00","-17.8","","","","","M","","","11","","20","","","","100.91","","","","-28","","NA"
"-140.20","69.61","KOMAKUK BEACH","2100682","2018-03-10 12:00","2018","03","10","12:00","-18.0","","","","","M","","","11","","24","","","","100.96","","","","-29","","NA"
"-140.20","69.61","KOMAKUK BEACH","2100682","2018-03-10 13:00","2018","03","10","13:00","-18.4","","","","","M","","","11","","28","","","","101.00","","","","-30","","NA"
"-140.20","69.61","KOMAKUK BEACH","2100682","2018-03-10 14:00","2018","03","10","14:00","-18.8","","","","","M","","","10","","30","","","","101.00","","","","-31","","NA"
"-140.20","69.61","KOMAKUK BEACH","2100682","2018-03-10 15:00","2018","03","10","15:00","-18.8","","","","","M","","","9","","33","","","","101.03","","","","-32","","NA"
"-140.20","69.61","KOMAKUK BEACH","2100682","2018-03-10 16:00","2018","03","10","16:00","-18.9","","","","","M","","","10","","46","","","","101.02","","","","-33","","NA"
"-140.20","69.61","KOMAKUK BEACH","2100682","2018-03-10 17:00","2018","03","10","17:00","-19.3","","","","","M","","","9","","44","","","","101.04","","","","-34","","NA"
"-140.20","69.61","KOMAKUK BEACH","2100682","2018-03-10 18:00","2018","03","10","18:00","-19.6","","","","","M","","","9","","41","","","","101.07","","","","-34","","NA"
"-140.20","69.61","KOMAKUK BEACH","2100682","2018-03-10 19:00","2018","03","10","19:00","-19.9","","","","","M","","","9","","44","","","","101.08","","","","-35","","NA"
"-140.20","69.61","KOMAKUK BEACH","2100682","2018-03-10 20:00","2018","03","10","20:00","-20.1","","","","","M","","","9","","48","","","","101.06","","","","-35","","NA"
"-140.20","69.61","KOMAKUK BEACH","2100682","2018-03-10 21:00","2018","03","10","21:00","-20.4","","","","","M","","","10","","44","","","","101.13","","","","-35","","NA"
"-140.20","69.61","KOMAKUK BEACH","2100682","2018-03-10 22:00","2018","03","10","22:00","-20.9","","","","","M","","","10","","41","","","","101.16","","","","-35","","NA"
"-140.20","69.61","KOMAKUK BEACH","2100682","2018-03-10 23:00","2018","03","10","23:00","-21.1","","","","","M","","","10","","44","","","","101.19","","","","-36","","NA"
"-140.20","69.61","KOMAKUK BEACH","2100682","2018-03-11 00:00","2018","03","11","00:00","-21.3","","","","","M","","","10","","35","","","","101.20","","","","-35","","NA"
"-140.20","69.61","KOMAKUK BEACH","2100682","2018-03-11 01:00","2018","03","11","01:00","-21.8","","","","","M","","","10","","33","","","","101.21","","","","-35","","NA"
"-140.20","69.61","KOMAKUK BEACH","2100682","2018-03-11 02:00","2018","03","11","02:00","-22.1","","","","","M","","","10","","24","","","","101.25","","","","-34","","NA"
"-140.20","69.61","KOMAKUK BEACH","2100682","2018-03-11 03:00","2018","03","11","03:00","-22.3","","","","","M","","","10","","26","","","","101.32","","","","-35","","NA"
"-140.20","69.61","KOMAKUK BEACH","2100682","2018-03-11 04:00","2018","03","11","04:00","-23.1","","","","","M","","","10","","22","","","","101.37","","","","-35","","NA"
"-140.20","69.61","KOMAKUK BEACH","2100682","2018-03-11 05:00","2018","03","11","05:00","-22.9","","","","","M","","","9","","28","","","","101.36","","","","-36","","NA"
"-140.20","69.61","KOMAKUK BEACH","2100682","2018-03-11 06:00","2018","03","11","06:00","-23.1","","","","","M","","","10","","24","","","","101.37","","","","-35","","NA"
"-140.20","69.61","KOMAKUK BEACH","2100682","2018-03-11 07:00","2018","03","11","07:00","-22.9","","","","","M","","","9","","28","","","","101.39","","","","-36","","NA"
"-140.20","69.61","KOMAKUK BEACH","2100682","2018-03-11 08:00","2018","03","11","08:00","-22.8","","","","","M","","","9","","26","","","","101.42","","","","-35","","NA"
"-140.20","69.61","KOMAKUK BEACH","2100682","2018-03-11 09:00","2018","03","11","09:00","-22.8","","","","","M","","","10","","24","","","","101.45","","","","-35","","NA"
"-140.20","69.61","KOMAKUK BEACH","2100682","2018-03-11 10:00","2018","03","11","10:00","-22.1","","","","","M","","","10","","28","","","","101.44","","","","-35","","NA"
"-140.20","69.61","KOMAKUK BEACH","2100682","2018-03-11 11:00","2018","03","11","11:00","-22.0","","","","","M","","","9","","28","","","","101.42","","","","-35","","NA"
"-140.20","69.61","KOMAKUK BEACH","2100682","2018-03-11 12:00","2018","03","11","12:00","-21.7","","","","","M","","","9","","30","","","","101.42","","","","-35","","NA"
"-140.20","69.61","KOMAKUK BEACH","2100682","2018-03-11 13:00","2018","03","11","13:00","-21.3","","","","","M","","","10","","26","","","","101.42","","","","-33","","NA"
"-140.20","69.61","KOMAKUK BEACH","2100682","2018-03-11 14:00","2018","03","11","14:00","-20.9","","","","","M","","","9","","30","","","","101.43","","","","-34","","NA"
"-140.20","69.61","KOMAKUK BEACH","2100682","2018-03-11 15:00","2018","03","11","15:00","-20.9","","","","","M","","","9","","24","","","","101.45","","","","-33","","NA"
"-140.20","69.61","KOMAKUK BEACH","2100682","2018-03-11 16:00","2018","03","11","16:00","-20.3","","","","","M","","","10","","24","","","","101.42","","","","-32","","NA"
"-140.20","69.61","KOMAKUK BEACH","2100682","2018-03-11 17:00","2018","03","11","17:00","-20.5","","","","","M","","","9","","26","","","","101.36","","","","-32","","NA"
"-140.20","69.61","KOMAKUK BEACH","2100682","2018-03-11 18:00","2018","03","11","18:00","-21.0","","","","","M","","","10","","28","","","","101.30","","","","-34","","NA"
"-140.20","69.61","KOMAKUK BEACH","2100682","2018-03-11 19:00","2018","03","11","19:00","-21.2","","","","","M","","","10","","26","","","","101.22","","","","-33","","NA"
"-140.20","69.61","KOMAKUK BEACH","2100682","2018-03-11 20:00","2018","03","11","20:00","-21.5","","","","","M","","","10","","28","","","","101.17","","","","-34","","NA"
"-140.20","69.61","KOMAKUK BEACH","2100682","2018-03-11 21:00","2018","03","11","21:00","-22.3","","","","","M","","","8","","28","","","","101.13","","","","-35","","NA"
"-140.20","69.61","KOMAKUK BEACH","2100682","2018-03-11 22:00","2018","03","11","22:00","-21.4","","","","","M","","","9","","30","","","","101.07","","","","-34","","NA"
"-140.20","69.61","KOMAKUK BEACH","2100682","2018-03-11 23:00","2018","03","11","23:00","-21.0","","","","","M","","","8","","43","","","","100.96","","","","-36","","NA"
"-140.20","69.61","KOMAKUK BEACH","2100682","2018-03-12 00:00","2018","03","12","00:00","-20.3","","","","","M","","","9","","30","","","","100.92","","","","-33","","NA"
"-140.20","69.61","KOMAKUK BEACH","2100682","2018-03-12 01:00","2018","03","12","01:00","-20.8","","","","","M","","","9","","48","","","","100.79","","","","-36","","NA"
"-140.20","69.61","KOMAKUK BEACH","2100682","2018-03-12 02:00","2018","03","12","02:00","-20.6","","","","","M","","","10","","28","","","","100.79","","","","-33","","NA"
"-140.20","69.61","KOMAKUK BEACH","2100682","2018-03-12 03:00","2018","03","12","03:00","-20.7","","","","","M","","","9","","41","","","","100.65","","","","-35","","NA"
"-140.20","69.61","KOMAKUK BEACH","2100682","2018-03-12 04:00","2018","03","12","04:00","-21.0","","","","","M","","","9","","46","","","","100.53","","","","-36","","NA"
"-140.20","69.61","KOMAKUK BEACH","2100682","2018-03-12 05:00","2018","03","12","05:00","-21.4","","","","","M","","","10","","31","","","","100.56","","","","-35","","NA"
"-140.20","69.61","KOMAKUK BEACH","2100682","2018-03-12 06:00","2018","03","12","06:00","-21.0","","","","","M","","","9","","46","","","","100.48","","","","-36","","NA"
"-140.20","69.61","KOMAKUK BEACH","2100682","2018-03-12 07:00","2018","03","12","07:00","-20.1","","","","","M","","","9","","35","","","","100.54","","","","-34","","NA"
"-140.20","69.61","KOMAKUK BEACH","2100682","2018-03-12 08:00","2018","03","12","08:00","-19.0","","","","","M","","","10","","37","","","","100.51","","","","-32","","NA"
"-140.20","69.61","KOMAKUK BEACH","2100682","2018-03-12 09:00","2018","03","12","09:00","-18.1","","","","","M","","","11","","33","","","","100.56","","","","-31","","NA"
"-140.20","69.61","KOMAKUK BEACH","2100682","2018-03-12 10:00","2018","03","12","10:00","-17.1","","","","","M","","","10","","22","","","","100.59","","","","-27","","NA"
"-140.20","69.61","KOMAKUK BEACH","2100682","2018-03-12 11:00","2018","03","12","11:00","-16.9","","","","","M","","","9","","28","","","","100.54","","","","-28","","NA"
"-140.20","69.61","KOMAKUK BEACH","2100682","2018-03-12 12:00","2018","03","12","12:00","-16.5","","","","","M","","","9","","31","","","","100.54","","","","-28","","NA"
"-140.20","69.61","KOMAKUK BEACH","2100682","2018-03-12 13:00","2018","03","12","13:00","-16.9","","","","","M","","","9","","28","","","","100.57","","","","-28","","NA"
"-140.20","69.61","KOMAKUK BEACH","2100682","2018-03-12 14:00","2018","03","12","14:00","-17.3","","","","","M","","","10","","26","","","","100.60","","","","-28","","NA"
"-140.20","69.61","KOMAKUK BEACH","2100682","2018-03-12 15:00","2018","03","12","15:00","-17.4","","","","","M","","","8","","17","","","","100.73","","","","-26","","NA"
"-140.20","69.61","KOMAKUK BEACH","2100682","2018-03-12 16:00","2018","03","12","16:00","-18.3","","","","","M","","","29","","13","","","","100.80","","","","-26","","NA"
"-140.20","69.61","KOMAKUK BEACH","2100682","2018-03-12 17:00","2018","03","12","17:00","-17.1","","","","","M","","","27","","11","","","","100.87","","","","-24","","NA"
"-140.20","69.61","KOMAKUK BEACH","2100682","2018-03-12 18:00","2018","03","12","18:00","-17.2","","","","","M","","","27","","19","","","","100.91","","","","-27","","NA"
"-140.20","69.61","KOMAKUK BEACH","2100682","2018-03-12 19:00","2018","03","12","19:00","-17.2","","","","","M","","","22","","9","","","","100.99","","","","-23","","NA"
"-140.20","69.61","KOMAKUK BEACH","2100682","2018-03-12 20:00","2018","03","12","20:00","-16.4","","","","","M","","","25","","13","","","","101.03","","","","-24","","NA"
"-140.20","69.61","KOMAKUK BEACH","2100682","2018-03-12 21:00","2018","03","12","21:00","-17.8","","","","","M","","","26","","15","","","","101.04","","","","-26","","NA"
"-140.20","69.61","KOMAKUK BEACH","2100682","2018-03-12 22:00","2018","03","12","22:00","-18.5","","","","","M","","","26","","9","","","","101.08","","","","-25","","NA"
"-140.20","69.61","KOMAKUK BEACH","2100682","2018-03-12 23:00","2018","03","12","23:00","-21.0","","","","","M","","","17","","9","","","","101.09","","","","-28","","NA"
"-140.20","69.61","KOMAKUK BEACH","2100682","2018-03-13 00:00","2018","03","13","00:00","-17.3","","","","","M","","","15","","6","","","","101.11","","","","-22","","NA"
"-140.20","69.61","KOMAKUK BEACH","2100682","2018-03-13 01:00","2018","03","13","01:00","-20.6","","","","","M","","","","","0","","","","101.13","","","","","","NA"
"-140.20","69.61","KOMAKUK BEACH","2100682","2018-03-13 02:00","2018","03","13","02:00","-20.4","","","","","M","","","25","","9","","","","101.14","","","","-27","","NA"
"-140.20","69.61","KOMAKUK BEACH","2100682","2018-03-13 03:00","2018","03","13","03:00","-20.9","","","","","M","","","24","","7","","","","101.15","","","","-27","","NA"
"-140.20","69.61","KOMAKUK BEACH","2100682","2018-03-13 04:00","2018","03","13","04:00","-22.0","","","","","M","","","11","","4","","","","101.16","","","","-26","","NA"
"-140.20","69.61","KOMAKUK BEACH","2100682","2018-03-13 05:00","2018","03","13","05:00","-21.1","","","","","M","","","16","","4","","","","101.13","","","","-25","","NA"
"-140.20","69.61","KOMAKUK BEACH","2100682","2018-03-13 06:00","2018","03","13","06:00","-20.7","","","","","M","","","","","0","","","","101.09","","","","","","NA"
"-140.20","69.61","KOMAKUK BEACH","2100682","2018-03-13 07:00","2018","03","13","07:00","-21.2","","","","","M","","","","","0","","","","101.09","","","","","","NA"
"-140.20","69.61","KOMAKUK BEACH","2100682","2018-03-13 08:00","2018","03","13","08:00","-21.7","","","","","M","","","27","","9","","","","101.12","","","","-29","","NA"
"-140.20","69.61","KOMAKUK BEACH","2100682","2018-03-13 09:00","2018","03","13","09:00","-22.5","","","","","M","","","25","","13","","","","101.13","","","","-31","","NA"
"-140.20","69.61","KOMAKUK BEACH","2100682","2018-03-13 10:00","2018","03","13","10:00","-21.5","","","","","M","","","26","","19","","","","101.18","","","","-32","","NA"
"-140.20","69.61","KOMAKUK BEACH","2100682","2018-03-13 11:00","2018","03","13","11:00","-20.8","","","","","M","","","25","","17","","","","101.17","","","","-31","","NA"
"-140.20","69.61","KOMAKUK BEACH","2100682","2018-03-13 12:00","2018","03","13","12:00","-20.3","","","","","M","","","25","","15","","","","101.21","","","","-29","","NA"
"-140.20","69.61","KOMAKUK BEACH","2100682","2018-03-13 13:00","2018","03","13","13:00","-19.1","","","","","M","","","23","","13","","","","101.22","","","","-27","","NA"
"-140.20","69.61","KOMAKUK BEACH","2100682","2018-03-13 14:00","2018","03","13","14:00","-18.0","","","","","M","","","23","","7","","","","101.23","","","","-23","","NA"
"-140.20","69.61","KOMAKUK BEACH","2100682","2018-03-13 15:00","2018","03","13","15:00","-16.4","","","","","M","","","21","","6","","","","101.22","","","","-21","","NA"
"-140.20","69.61","KOMAKUK BEACH","2100682","2018-03-13 16:00","2018","03","13","16:00","-16.7","","","","","M","","","11","","13","","","","101.24","","","","-24","","NA"
"-140.20","69.61","KOMAKUK BEACH","2100682","2018-03-13 17:00","2018","03","13","17:00","-16.7","","","","","M","","","9","","13","","","","101.28","","","","-24","","NA"
"-140.20","69.61","KOMAKUK BEACH","2100682","2018-03-13 18:00","2018","03","13","18:00","-15.7","","","","","M","","","13","","15","","","","101.31","","","","-24","","NA"
"-140.20","69.61","KOMAKUK BEACH","2100682","2018-03-13 19:00","2018","03","13","19:00","-15.0","","","","","M","","","13","","17","","","","101.30","","","","-23","","NA"
"-140.20","69.61","KOMAKUK BEACH","2100682","2018-03-13 20:00","2018","03","13","20:00","-15.1","","","","","M","","","13","","9","","","","101.31","","","","-21","","NA"
"-140.20","69.61","KOMAKUK BEACH","2100682","2018-03-13 21:00","2018","03","13","21:00","-15.2","","","","","M","","","11","","11","","","","101.28","","","","-22","","NA"
"-140.20","69.61","KOMAKUK BEACH","2100682","2018-03-13 22:00","2018","03","13","22:00","-15.0","","","","","M","","","9","","22","","","","101.29","","","","-25","","NA"
"-140.20","69.61","KOMAKUK BEACH","2100682","2018-03-13 23:00","2018","03","13","23:00","-17.0","","","","","M","","","13","","20","","","","101.26","","","","-27","","NA"
"-140.20","69.61","KOMAKUK BEACH","2100682","2018-03-14 00:00","2018","03","14","00:00","-17.6","","","","","M","","","8","","24","","","","101.22","","","","-28","","NA"
"-140.20","69.61","KOMAKUK BEACH","2100682","2018-03-14 01:00","2018","03","14","01:00","-19.5","","","","","M","","","8","","37","","","","101.17","","","","-33","","NA"
"-140.20","69.61","KOMAKUK BEACH","2100682","2018-03-14 02:00","2018","03","14","02:00","-20.4","","","","","M","","","9","","30","","","","101.18","","","","-33","","NA"
"-140.20","69.61","KOMAKUK BEACH","2100682","2018-03-14 03:00","2018","03","14","03:00","-20.8","","","","","M","","","9","","28","","","","101.16","","","","-33","","NA"
"-140.20","69.61","KOMAKUK BEACH","2100682","2018-03-14 04:00","2018","03","14","04:00","-20.9","","","","","M","","","9","","30","","","","101.15","","","","-34","","NA"
"-140.20","69.61","KOMAKUK BEACH","2100682","2018-03-14 05:00","2018","03","14","05:00","-20.4","","","","","M","","","9","","30","","","","101.11","","","","-33","","NA"
"-140.20","69.61","KOMAKUK BEACH","2100682","2018-03-14 06:00","2018","03","14","06:00","-19.5","","","","","M","","","10","","43","","","","101.02","","","","-34","","NA"
"-140.20","69.61","KOMAKUK BEACH","2100682","2018-03-14 07:00","2018","03","14","07:00","-18.0","","","","","M","","","9","","33","","","","100.95","","","","-30","","NA"
"-140.20","69.61","KOMAKUK BEACH","2100682","2018-03-14 08:00","2018","03","14","08:00","-16.1","","","","","M","","","10","","46","","","","100.84","","","","-30","","NA"
"-140.20","69.61","KOMAKUK BEACH","2100682","2018-03-14 09:00","2018","03","14","09:00","-15.3","","","","","M","","","9","","48","","","","100.80","","","","-29","","NA"
"-140.20","69.61","KOMAKUK BEACH","2100682","2018-03-14 10:00","2018","03","14","10:00","-15.6","","","","","M","","","9","","50","","","","100.71","","","","-29","","NA"
"-140.20","69.61","KOMAKUK BEACH","2100682","2018-03-14 11:00","2018","03","14","11:00","-15.5","","","","","M","","","9","","50","","","","100.65","","","","-29","","NA"
"-140.20","69.61","KOMAKUK BEACH","2100682","2018-03-14 12:00","2018","03","14","12:00","-15.2","","","","","M","","","9","","46","","","","100.62","","","","-28","","NA"
"-140.20","69.61","KOMAKUK BEACH","2100682","2018-03-14 13:00","2018","03","14","13:00","-14.8","","","","","M","","","9","","52","","","","100.58","","","","-29","","NA"
"-140.20","69.61","KOMAKUK BEACH","2100682","2018-03-14 14:00","2018","03","14","14:00","-14.1","","","","","M","","","8","","46","","","","100.54","","","","-27","","NA"
"-140.20","69.61","KOMAKUK BEACH","2100682","2018-03-14 15:00","2018","03","14","15:00","-13.7","","","","","M","","","9","","52","","","","100.50","","","","-27","","NA"
"-140.20","69.61","KOMAKUK BEACH","2100682","2018-03-14 16:00","2018","03","14","16:00","-13.6","","","","","M","","","10","","46","","","","100.49","","","","-26","","NA"
"-140.20","69.61","KOMAKUK BEACH","2100682","2018-03-14 17:00","2018","03","14","17:00","-14.1","","","","","M","","","10","","44","","","","100.44","","","","-27","","NA"
"-140.20","69.61","KOMAKUK BEACH","2100682","2018-03-14 18:00","2018","03","14","18:00","-13.9","","","","","M","","","10","","50","","","","100.37","","","","-27","","NA"
"-140.20","69.61","KOMAKUK BEACH","2100682","2018-03-14 19:00","2018","03","14","19:00","-13.5","","","","","M","","","10","","46","","","","100.34","","","","-26","","NA"
"-140.20","69.61","KOMAKUK BEACH","2100682","2018-03-14 20:00","2018","03","14","20:00","-13.1","","","","","M","","","31","","4","","","","100.56","","","","-16","","NA"
"-140.20","69.61","KOMAKUK BEACH","2100682","2018-03-14 21:00","2018","03","14","21:00","-12.9","","","","","M","","","28","","17","","","","100.59","","","","-21","","NA"
"-140.20","69.61","KOMAKUK BEACH","2100682","2018-03-14 22:00","2018","03","14","22:00","-13.1","","","","","M","","","28","","11","","","","100.67","","","","-19","","NA"
"-140.20","69.61","KOMAKUK BEACH","2100682","2018-03-14 23:00","2018","03","14","23:00","-13.0","","","","","M","","","27","","13","","","","100.65","","","","-20","","NA"
"-140.20","69.61","KOMAKUK BEACH","2100682","2018-03-15 00:00","2018","03","15","00:00","-13.4","","","","","M","","","26","","17","","","","100.66","","","","-21","","NA"
"-140.20","69.61","KOMAKUK BEACH","2100682","2018-03-15 01:00","2018","03","15","01:00","-13.0","","","","","M","","","26","","20","","","","100.63","","","","-22","","NA"
"-140.20","69.61","KOMAKUK BEACH","2100682","2018-03-15 02:00","2018","03","15","02:00","-12.3","","","","","M","","","25","","22","","","","100.69","","","","-21","","NA"
"-140.20","69.61","KOMAKUK BEACH","2100682","2018-03-15 03:00","2018","03","15","03:00","-12.2","","","","","M","","","26","","22","","","","100.68","","","","-21","","NA"
"-140.20","69.61","KOMAKUK BEACH","2100682","2018-03-15 04:00","2018","03","15","04:00","-12.4","","","","","M","","","26","","24","","","","100.73","","","","-22","","NA"
"-140.20","69.61","KOMAKUK BEACH","2100682","2018-03-15 05:00","2018","03","15","05:00","-12.5","","","","","M","","","26","","20","","","","100.72","","","","-21","","NA"
"-140.20","69.61","KOMAKUK BEACH","2100682","2018-03-15 06:00","2018","03","15","06:00","-12.0","","","","","M","","","26","","24","","","","100.68","","","","-21","","NA"
"-140.20","69.61","KOMAKUK BEACH","2100682","2018-03-15 07:00","2018","03","15","07:00","-12.3","","","","","M","","","26","","19","","","","100.66","","","","-21","","NA"
"-140.20","69.61","KOMAKUK BEACH","2100682","2018-03-15 08:00","2018","03","15","08:00","-12.0","","","","","M","","","28","","22","","","","100.65","","","","-21","","NA"
"-140.20","69.61","KOMAKUK BEACH","2100682","2018-03-15 09:00","2018","03","15","09:00","-11.4","","","","","M","","","26","","30","","","","100.67","","","","-21","","NA"
"-140.20","69.61","KOMAKUK BEACH","2100682","2018-03-15 10:00","2018","03","15","10:00","-11.2","","","","","M","","","25","","28","","","","100.72","","","","-21","","NA"
"-140.20","69.61","KOMAKUK BEACH","2100682","2018-03-15 11:00","2018","03","15","11:00","-12.1","","","","","M","","","26","","30","","","","100.76","","","","-22","","NA"
"-140.20","69.61","KOMAKUK BEACH","2100682","2018-03-15 12:00","2018","03","15","12:00","-12.1","","","","","M","","","26","","33","","","","100.78","","","","-23","","NA"
"-140.20","69.61","KOMAKUK BEACH","2100682","2018-03-15 13:00","2018","03","15","13:00","-12.1","","","","","M","","","27","","28","","","","100.82","","","","-22","","NA"
"-140.20","69.61","KOMAKUK BEACH","2100682","2018-03-15 14:00","2018","03","15","14:00","-12.3","","","","","M","","","27","","41","","","","100.87","","","","-24","","NA"
"-140.20","69.61","KOMAKUK BEACH","2100682","2018-03-15 15:00","2018","03","15","15:00","-13.0","","","","","M","","","27","","43","","","","100.92","","","","-25","","NA"
"-140.20","69.61","KOMAKUK BEACH","2100682","2018-03-15 16:00","2018","03","15","16:00","-13.5","","","","","M","","","27","","31","","","","101.00","","","","-24","","NA"
"-140.20","69.61","KOMAKUK BEACH","2100682","2018-03-15 17:00","2018","03","15","17:00","-13.9","","","","","M","","","27","","33","","","","101.04","","","","-25","","NA"
"-140.20","69.61","KOMAKUK BEACH","2100682","2018-03-15 18:00","2018","03","15","18:00","-14.1","","","","","M","","","27","","43","","","","101.06","","","","-27","","NA"
"-140.20","69.61","KOMAKUK BEACH","2100682","2018-03-15 19:00","2018","03","15","19:00","-14.5","","","","","M","","","27","","33","","","","101.15","","","","-26","","NA"
"-140.20","69.61","KOMAKUK BEACH","2100682","2018-03-15 20:00","2018","03","15","20:00","-14.5","","","","","M","","","27","","30","","","","101.19","","","","-25","","NA"
"-140.20","69.61","KOMAKUK BEACH","2100682","2018-03-15 21:00","2018","03","15","21:00","-14.6","","","","","M","","","27","","30","","","","101.23","","","","-26","","NA"
"-140.20","69.61","KOMAKUK BEACH","2100682","2018-03-15 22:00","2018","03","15","22:00","-14.5","","","","","M","","","26","","33","","","","101.25","","","","-26","","NA"
"-140.20","69.61","KOMAKUK BEACH","2100682","2018-03-15 23:00","2018","03","15","23:00","-14.3","","","","","M","","","25","","31","","","","101.32","","","","-25","","NA"
"-140.20","69.61","KOMAKUK BEACH","2100682","2018-03-16 00:00","2018","03","16","00:00","-13.8","","","","","M","","","26","","30","","","","101.38","","","","-24","","NA"
"-140.20","69.61","KOMAKUK BEACH","2100682","2018-03-16 01:00","2018","03","16","01:00","-14.3","","","","","M","","","26","","30","","","","101.44","","","","-25","","NA"
"-140.20","69.61","KOMAKUK BEACH","2100682","2018-03-16 02:00","2018","03","16","02:00","-14.3","","","","","M","","","26","","24","","","","101.45","","","","-24","","NA"
"-140.20","69.61","KOMAKUK BEACH","2100682","2018-03-16 03:00","2018","03","16","03:00","-14.6","","","","","M","","","26","","30","","","","101.48","","","","-26","","NA"
"-140.20","69.61","KOMAKUK BEACH","2100682","2018-03-16 04:00","2018","03","16","04:00","-14.8","","","","","M","","","26","","30","","","","101.49","","","","-26","","NA"
"-140.20","69.61","KOMAKUK BEACH","2100682","2018-03-16 05:00","2018","03","16","05:00","-15.3","","","","","M","","","26","","24","","","","101.54","","","","-25","","NA"
"-140.20","69.61","KOMAKUK BEACH","2100682","2018-03-16 06:00","2018","03","16","06:00","-15.8","","","","","M","","","25","","20","","","","101.55","","","","-25","","NA"
"-140.20","69.61","KOMAKUK BEACH","2100682","2018-03-16 07:00","2018","03","16","07:00","-15.4","","","","","M","","","24","","24","","","","101.59","","","","-26","","NA"
"-140.20","69.61","KOMAKUK BEACH","2100682","2018-03-16 08:00","2018","03","16","08:00","-15.3","","","","","M","","","26","","19","","","","101.60","","","","-24","","NA"
"-140.20","69.61","KOMAKUK BEACH","2100682","2018-03-16 09:00","2018","03","16","09:00","-15.1","","","","","M","","","27","","19","","","","101.63","","","","-24","","NA"
"-140.20","69.61","KOMAKUK BEACH","2100682","2018-03-16 10:00","2018","03","16","10:00","-15.5","","","","","M","","","25","","11","","","","101.63","","","","-22","","NA"
"-140.20","69.61","KOMAKUK BEACH","2100682","2018-03-16 11:00","2018","03","16","11:00","-16.6","","","","","M","","","25","","15","","","","101.64","","","","-25","","NA"
"-140.20","69.61","KOMAKUK BEACH","2100682","2018-03-16 12:00","2018","03","16","12:00","-17.2","","","","","M","","","26","","13","","","","101.67","","","","-25","","NA"
"-140.20","69.61","KOMAKUK BEACH","2100682","2018-03-16 13:00","2018","03","16","13:00","-15.9","","","","","M","","","27","","15","","","","101.68","","","","-24","","NA"
"-140.20","69.61","KOMAKUK BEACH","2100682","2018-03-16 14:00","2018","03","16","14:00","-15.4","","","","","M","","","25","","11","","","","101.67","","","","-22","","NA"
"-140.20","69.61","KOMAKUK BEACH","2100682","2018-03-16 15:00","2018","03","16","15:00","-15.2","","","","","M","","","26","","13","","","","101.67","","","","-23","","NA"
"-140.20","69.61","KOMAKUK BEACH","2100682","2018-03-16 16:00","2018","03","16","16:00","-15.2","","","","","M","","","27","","11","","","","101.69","","","","-22","","NA"
"-140.20","69.61","KOMAKUK BEACH","2100682","2018-03-16 17:00","2018","03","16","17:00","-15.5","","","","","M","","","27","","17","","","","101.71","","","","-24","","NA"
"-140.20","69.61","KOMAKUK BEACH","2100682","2018-03-16 18:00","2018","03","16","18:00","-15.4","","","","","M","","","27","","15","","","","101.73","","","","-23","","NA"
"-140.20","69.61","KOMAKUK BEACH","2100682","2018-03-16 19:00","2018","03","16","19:00","-16.1","","","","","M","","","26","","17","","","","101.72","","","","-25","","NA"
"-140.20","69.61","KOMAKUK BEACH","2100682","2018-03-16 20:00","2018","03","16","20:00","-16.3","","","","","M","","","26","","15","","","","101.70","","","","-25","","NA"
"-140.20","69.61","KOMAKUK BEACH","2100682","2018-03-16 21:00","2018","03","16","21:00","-16.5","","","","","M","","","27","","11","","","","101.69","","","","-23","","NA"
"-140.20","69.61","KOMAKUK BEACH","2100682","2018-03-16 22:00","2018","03","16","22:00","-16.6","","","","","M","","","26","","13","","","","101.75","","","","-24","","NA"
"-140.20","69.61","KOMAKUK BEACH","2100682","2018-03-16 23:00","2018","03","16","23:00","-17.1","","","","","M","","","26","","20","","","","101.78","","","","-27","","NA"
"-140.20","69.61","KOMAKUK BEACH","2100682","2018-03-17 00:00","2018","03","17","00:00","-17.5","","","","","M","","","27","","24","","","","101.89","","","","-28","","NA"
"-140.20","69.61","KOMAKUK BEACH","2100682","2018-03-17 01:00","2018","03","17","01:00","-17.9","","","","","M","","","26","","28","","","","101.92","","","","-29","","NA"
"-140.20","69.61","KOMAKUK BEACH","2100682","2018-03-17 02:00","2018","03","17","02:00","-17.9","","","","","M","","","26","","30","","","","101.97","","","","-30","","NA"
"-140.20","69.61","KOMAKUK BEACH","2100682","2018-03-17 03:00","2018","03","17","03:00","-18.0","","","","","M","","","27","","30","","","","102.05","","","","-30","","NA"
"-140.20","69.61","KOMAKUK BEACH","2100682","2018-03-17 04:00","2018","03","17","04:00","-18.0","","","","","M","","","27","","31","","","","102.11","","","","-30","","NA"
"-140.20","69.61","KOMAKUK BEACH","2100682","2018-03-17 05:00","2018","03","17","05:00","-18.3","","","","","M","","","26","","33","","","","102.17","","","","-31","","NA"
"-140.20","69.61","KOMAKUK BEACH","2100682","2018-03-17 06:00","2018","03","17","06:00","-18.3","","","","","M","","","27","","33","","","","102.21","","","","-31","","NA"
"-140.20","69.61","KOMAKUK BEACH","2100682","2018-03-17 07:00","2018","03","17","07:00","-18.6","","","","","M","","","27","","41","","","","102.28","","","","-32","","NA"
"-140.20","69.61","KOMAKUK BEACH","2100682","2018-03-17 08:00","2018","03","17","08:00","-19.3","","","","","M","","","26","","37","","","","102.37","","","","-33","","NA"
"-140.20","69.61","KOMAKUK BEACH","2100682","2018-03-17 09:00","2018","03","17","09:00","-20.1","","","","","M","","","26","","41","","","","102.43","","","","-34","","NA"
"-140.20","69.61","KOMAKUK BEACH","2100682","2018-03-17 10:00","2018","03","17","10:00","-21.5","","","","","M","","","26","","39","","","","102.51","","","","-36","","NA"
"-140.20","69.61","KOMAKUK BEACH","2100682","2018-03-17 11:00","2018","03","17","11:00","-22.8","","","","","M","","","26","","37","","","","102.56","","","","-37","","NA"
"-140.20","69.61","KOMAKUK BEACH","2100682","2018-03-17 12:00","2018","03","17","12:00","-22.9","","","","","M","","","25","","28","","","","102.60","","","","-36","","NA"
"-140.20","69.61","KOMAKUK BEACH","2100682","2018-03-17 13:00","2018","03","17","13:00","-23.1","","","","","M","","","25","","26","","","","102.62","","","","-36","","NA"
"-140.20","69.61","KOMAKUK BEACH","2100682","2018-03-17 14:00","2018","03","17","14:00","-23.1","","","","","M","","","25","","24","","","","102.67","","","","-35","","NA"
"-140.20","69.61","KOMAKUK BEACH","2100682","2018-03-17 15:00","2018","03","17","15:00","-23.2","","","","","M","","","26","","28","","","","102.71","","","","-36","","NA"
"-140.20","69.61","KOMAKUK BEACH","2100682","2018-03-17 16:00","2018","03","17","16:00","-23.2","","","","","M","","","26","","28","","","","102.70","","","","-36","","NA"
"-140.20","69.61","KOMAKUK BEACH","2100682","2018-03-17 17:00","2018","03","17","17:00","-23.2","","","","","M","","","26","","24","","","","102.71","","","","-36","","NA"
"-140.20","69.61","KOMAKUK BEACH","2100682","2018-03-17 18:00","2018","03","17","18:00","-23.2","","","","","M","","","26","","20","","","","102.70","","","","-35","","NA"
"-140.20","69.61","KOMAKUK BEACH","2100682","2018-03-17 19:00","2018","03","17","19:00","-23.6","","","","","M","","","26","","17","","","","102.70","","","","-34","","NA"
"-140.20","69.61","KOMAKUK BEACH","2100682","2018-03-17 20:00","2018","03","17","20:00","-24.4","","","","","M","","","25","","15","","","","102.68","","","","-35","","NA"
"-140.20","69.61","KOMAKUK BEACH","2100682","2018-03-17 21:00","2018","03","17","21:00","-24.6","","","","","M","","","25","","17","","","","102.67","","","","-35","","NA"
"-140.20","69.61","KOMAKUK BEACH","2100682","2018-03-17 22:00","2018","03","17","22:00","-27.3","","","","","M","","","23","","15","","","","102.65","","","","-38","","NA"
"-140.20","69.61","KOMAKUK BEACH","2100682","2018-03-17 23:00","2018","03","17","23:00","-28.0","","","","","M","","","23","","15","","","","102.65","","","","-39","","NA"
"-140.20","69.61","KOMAKUK BEACH","2100682","2018-03-18 00:00","2018","03","18","00:00","-28.0","","","","","M","","","23","","15","","","","102.62","","","","-39","","NA"
"-140.20","69.61","KOMAKUK BEACH","2100682","2018-03-18 01:00","2018","03","18","01:00","-29.2","","","","","M","","","21","","4","","","","102.56","","","","-34","","NA"
"-140.20","69.61","KOMAKUK BEACH","2100682","2018-03-18 02:00","2018","03","18","02:00","-29.5","","","","","M","","","18","","9","","","","102.51","","","","-38","","NA"
"-140.20","69.61","KOMAKUK BEACH","2100682","2018-03-18 03:00","2018","03","18","03:00","-29.9","","","","","M","","","","","0","","","","102.48","","","","","","NA"
"-140.20","69.61","KOMAKUK BEACH","2100682","2018-03-18 04:00","2018","03","18","04:00","-27.2","","","","","M","","","19","","9","","","","102.46","","","","-35","","NA"
"-140.20","69.61","KOMAKUK BEACH","2100682","2018-03-18 05:00","2018","03","18","05:00","-30.1","","","","","M","","","20","","9","","","","102.41","","","","-39","","NA"
"-140.20","69.61","KOMAKUK BEACH","2100682","2018-03-18 06:00","2018","03","18","06:00","-30.0","","","","","M","","","18","","11","","","","102.38","","","","-40","","NA"
"-140.20","69.61","KOMAKUK BEACH","2100682","2018-03-18 07:00","2018","03","18","07:00","-31.9","","","","","M","","","19","","9","","","","102.31","","","","-41","","NA"
"-140.20","69.61","KOMAKUK BEACH","2100682","2018-03-18 08:00","2018","03","18","08:00","-31.9","","","","","M","","","19","","4","","","","102.25","","","","-37","","NA"
"-140.20","69.61","KOMAKUK BEACH","2100682","2018-03-18 09:00","2018","03","18","09:00","-32.1","","","","","M","","","13","","6","","","","102.21","","","","-39","","NA"
"-140.20","69.61","KOMAKUK BEACH","2100682","2018-03-18 10:00","2018","03","18","10:00","-33.3","","","","","M","","","8","","6","","","","102.17","","","","-40","","NA"
"-140.20","69.61","KOMAKUK BEACH","2100682","2018-03-18 11:00","2018","03","18","11:00","-31.8","","","","","M","","","18","","7","","","","102.11","","","","-39","","NA"
"-140.20","69.61","KOMAKUK BEACH","2100682","2018-03-18 12:00","2018","03","18","12:00","-29.8","","","","","M","","","10","","13","","","","102.07","","","","-40","","NA"
"-140.20","69.61","KOMAKUK BEACH","2100682","2018-03-18 13:00","2018","03","18","13:00","-28.5","","","","","M","","","10","","17","","","","102.03","","","","-40","","NA"
"-140.20","69.61","KOMAKUK BEACH","2100682","2018-03-18 14:00","2018","03","18","14:00","-27.3","","","","","M","","","9","","26","","","","101.97","","","","-41","","NA"
"-140.20","69.61","KOMAKUK BEACH","2100682","2018-03-18 15:00","2018","03","18","15:00","-27.0","","","","","M","","","8","","30","","","","101.95","","","","-42","","NA"
"-140.20","69.61","KOMAKUK BEACH","2100682","2018-03-18 16:00","2018","03","18","16:00","-24.4","","","","","M","","","10","","26","","","","101.92","","","","-37","","NA"
"-140.20","69.61","KOMAKUK BEACH","2100682","2018-03-18 17:00","2018","03","18","17:00","-24.2","","","","","M","","","10","","26","","","","101.91","","","","-37","","NA"
"-140.20","69.61","KOMAKUK BEACH","2100682","2018-03-18 18:00","2018","03","18","18:00","-25.1","","","","","M","","","11","","30","","","","101.86","","","","-39","","NA"
"-140.20","69.61","KOMAKUK BEACH","2100682","2018-03-18 19:00","2018","03","18","19:00","-25.3","","","","","M","","","11","","26","","","","101.81","","","","-39","","NA"
"-140.20","69.61","KOMAKUK BEACH","2100682","2018-03-18 20:00","2018","03","18","20:00","-26.2","","","","","M","","","10","","22","","","","101.77","","","","-39","","NA"
"-140.20","69.61","KOMAKUK BEACH","2100682","2018-03-18 21:00","2018","03","18","21:00","-25.2","","","","","M","","","11","","30","","","","101.72","","","","-39","","NA"
"-140.20","69.61","KOMAKUK BEACH","2100682","2018-03-18 22:00","2018","03","18","22:00","-25.2","","","","","M","","","11","","37","","","","101.69","","","","-41","","NA"
"-140.20","69.61","KOMAKUK BEACH","2100682","2018-03-18 23:00","2018","03","18","23:00","-25.5","","","","","M","","","11","","24","","","","101.68","","","","-38","","NA"
"-140.20","69.61","KOMAKUK BEACH","2100682","2018-03-19 00:00","2018","03","19","00:00","-25.0","","","","","M","","","9","","33","","","","101.63","","","","-40","","NA"
"-140.20","69.61","KOMAKUK BEACH","2100682","2018-03-19 01:00","2018","03","19","01:00","-24.5","","","","","M","","","9","","33","","","","101.59","","","","-39","","NA"
"-140.20","69.61","KOMAKUK BEACH","2100682","2018-03-19 02:00","2018","03","19","02:00","-22.9","","","","","M","","","10","","35","","","","101.58","","","","-37","","NA"
"-140.20","69.61","KOMAKUK BEACH","2100682","2018-03-19 03:00","2018","03","19","03:00","-22.9","","","","","M","","","9","","31","","","","101.59","","","","-37","","NA"
"-140.20","69.61","KOMAKUK BEACH","2100682","2018-03-19 04:00","2018","03","19","04:00","-23.2","","","","","M","","","10","","28","","","","101.58","","","","-36","","NA"
"-140.20","69.61","KOMAKUK BEACH","2100682","2018-03-19 05:00","2018","03","19","05:00","-23.9","","","","","M","","","10","","33","","","","101.54","","","","-38","","NA"
"-140.20","69.61","KOMAKUK BEACH","2100682","2018-03-19 06:00","2018","03","19","06:00","-24.6","","","","","M","","","10","","22","","","","101.55","","","","-37","","NA"
"-140.20","69.61","KOMAKUK BEACH","2100682","2018-03-19 07:00","2018","03","19","07:00","-24.9","","","","","M","","","9","","24","","","","101.52","","","","-38","","NA"
"-140.20","69.61","KOMAKUK BEACH","2100682","2018-03-19 08:00","2018","03","19","08:00","-25.5","","","","","M","","","9","","30","","","","101.54","","","","-40","","NA"
"-140.20","69.61","KOMAKUK BEACH","2100682","2018-03-19 09:00","2018","03","19","09:00","-25.0","","","","","M","","","10","","24","","","","101.57","","","","-38","","NA"
"-140.20","69.61","KOMAKUK BEACH","2100682","2018-03-19 10:00","2018","03","19","10:00","-26.0","","","","","M","","","8","","22","","","","101.58","","","","-39","","NA"
"-140.20","69.61","KOMAKUK BEACH","2100682","2018-03-19 11:00","2018","03","19","11:00","-24.9","","","","","M","","","10","","19","","","","101.61","","","","-36","","NA"
"-140.20","69.61","KOMAKUK BEACH","2100682","2018-03-19 12:00","2018","03","19","12:00","-23.9","","","","","M","","","14","","13","","","","101.65","","","","-33","","NA"
"-140.20","69.61","KOMAKUK BEACH","2100682","2018-03-19 13:00","2018","03","19","13:00","-22.5","","","","","M","","","11","","17","","","","101.65","","","","-33","","NA"
"-140.20","69.61","KOMAKUK BEACH","2100682","2018-03-19 14:00","2018","03","19","14:00","-22.6","","","","","M","","","9","","28","","","","101.57","","","","-36","","NA"
"-140.20","69.61","KOMAKUK BEACH","2100682","2018-03-19 15:00","2018","03","19","15:00","-21.9","","","","","M","","","9","","31","","","","101.58","","","","-35","","NA"
"-140.20","69.61","KOMAKUK BEACH","2100682","2018-03-19 16:00","2018","03","19","16:00","-21.3","","","","","M","","","10","","30","","","","101.62","","","","-34","","NA"
"-140.20","69.61","KOMAKUK BEACH","2100682","2018-03-19 17:00","2018","03","19","17:00","-20.8","","","","","M","","","9","","28","","","","101.64","","","","-33","","NA"
"-140.20","69.61","KOMAKUK BEACH","2100682","2018-03-19 18:00","2018","03","19","18:00","-20.4","","","","","M","","","10","","26","","","","101.63","","","","-32","","NA"
"-140.20","69.61","KOMAKUK BEACH","2100682","2018-03-19 19:00","2018","03","19","19:00","-20.5","","","","","M","","","9","","24","","","","101.66","","","","-32","","NA"
"-140.20","69.61","KOMAKUK BEACH","2100682","2018-03-19 20:00","2018","03","19","20:00","-20.3","","","","","M","","","9","","28","","","","101.66","","","","-33","","NA"
"-140.20","69.61","KOMAKUK BEACH","2100682","2018-03-19 21:00","2018","03","19","21:00","-20.4","","","","","M","","","10","","22","","","","101.68","","","","-31","","NA"
"-140.20","69.61","KOMAKUK BEACH","2100682","2018-03-19 22:00","2018","03","19","22:00","-20.3","","","","","M","","","11","","20","","","","101.71","","","","-31","","NA"
"-140.20","69.61","KOMAKUK BEACH","2100682","2018-03-19 23:00","2018","03","19","23:00","-20.2","","","","","M","","","10","","26","","","","101.71","","","","-32","","NA"
"-140.20","69.61","KOMAKUK BEACH","2100682","2018-03-20 00:00","2018","03","20","00:00","-20.0","","","","","M","","","10","","24","","","","101.73","","","","-31","","NA"
"-140.20","69.61","KOMAKUK BEACH","2100682","2018-03-20 01:00","2018","03","20","01:00","-19.8","","","","","M","","","10","","28","","","","101.71","","","","-32","","NA"
"-140.20","69.61","KOMAKUK BEACH","2100682","2018-03-20 02:00","2018","03","20","02:00","-20.0","","","","","M","","","9","","26","","","","101.76","","","","-32","","NA"
"-140.20","69.61","KOMAKUK BEACH","2100682","2018-03-20 03:00","2018","03","20","03:00","-20.0","","","","","M","","","9","","26","","","","101.74","","","","-32","","NA"
"-140.20","69.61","KOMAKUK BEACH","2100682","2018-03-20 04:00","2018","03","20","04:00","-19.6","","","","","M","","","10","","26","","","","101.72","","","","-31","","NA"
"-140.20","69.61","KOMAKUK BEACH","2100682","2018-03-20 05:00","2018","03","20","05:00","-19.5","","","","","M","","","12","","24","","","","101.76","","","","-31","","NA"
"-140.20","69.61","KOMAKUK BEACH","2100682","2018-03-20 06:00","2018","03","20","06:00","-19.6","","","","","M","","","10","","24","","","","101.81","","","","-31","","NA"
"-140.20","69.61","KOMAKUK BEACH","2100682","2018-03-20 07:00","2018","03","20","07:00","-20.3","","","","","M","","","11","","20","","","","101.83","","","","-31","","NA"
"-140.20","69.61","KOMAKUK BEACH","2100682","2018-03-20 08:00","2018","03","20","08:00","-21.9","","","","","M","","","25","","13","","","","101.88","","","","-31","","NA"
"-140.20","69.61","KOMAKUK BEACH","2100682","2018-03-20 09:00","2018","03","20","09:00","-22.1","","","","","M","","","26","","13","","","","102.00","","","","-31","","NA"
"-140.20","69.61","KOMAKUK BEACH","2100682","2018-03-20 10:00","2018","03","20","10:00","-19.5","","","","","M","","","31","","6","","","","102.03","","","","-24","","NA"
"-140.20","69.61","KOMAKUK BEACH","2100682","2018-03-20 11:00","2018","03","20","11:00","-17.6","","","","","M","","","26","","9","","","","102.11","","","","-24","","NA"
"-140.20","69.61","KOMAKUK BEACH","2100682","2018-03-20 12:00","2018","03","20","12:00","-14.8","","","","","M","","","27","","20","","","","102.17","","","","-24","","NA"
"-140.20","69.61","KOMAKUK BEACH","2100682","2018-03-20 13:00","2018","03","20","13:00","-14.5","","","","","M","","","28","","24","","","","102.25","","","","-24","","NA"
"-140.20","69.61","KOMAKUK BEACH","2100682","2018-03-20 14:00","2018","03","20","14:00","-15.7","","","","","M","","","26","","15","","","","102.37","","","","-24","","NA"
"-140.20","69.61","KOMAKUK BEACH","2100682","2018-03-20 15:00","2018","03","20","15:00","-14.8","","","","","M","","","26","","24","","","","102.46","","","","-25","","NA"
"-140.20","69.61","KOMAKUK BEACH","2100682","2018-03-20 16:00","2018","03","20","16:00","-14.7","","","","","M","","","27","","22","","","","102.57","","","","-24","","NA"
"-140.20","69.61","KOMAKUK BEACH","2100682","2018-03-20 17:00","2018","03","20","17:00","-14.7","","","","","M","","","27","","30","","","","102.65","","","","-26","","NA"
"-140.20","69.61","KOMAKUK BEACH","2100682","2018-03-20 18:00","2018","03","20","18:00","-14.9","","","","","M","","","28","","26","","","","102.72","","","","-25","","NA"
"-140.20","69.61","KOMAKUK BEACH","2100682","2018-03-20 19:00","2018","03","20","19:00","-15.8","","","","","M","","","27","","31","","","","102.81","","","","-27","","NA"
"-140.20","69.61","KOMAKUK BEACH","2100682","2018-03-20 20:00","2018","03","20","20:00","-16.1","","","","","M","","","27","","28","","","","102.90","","","","-27","","NA"
"-140.20","69.61","KOMAKUK BEACH","2100682","2018-03-20 21:00","2018","03","20","21:00","-16.9","","","","","M","","","26","","20","","","","102.95","","","","-27","","NA"
"-140.20","69.61","KOMAKUK BEACH","2100682","2018-03-20 22:00","2018","03","20","22:00","-16.9","","","","","M","","","26","","20","","","","103.02","","","","-27","","NA"
"-140.20","69.61","KOMAKUK BEACH","2100682","2018-03-20 23:00","2018","03","20","23:00","-17.8","","","","","M","","","26","","26","","","","103.05","","","","-29","","NA"
"-140.20","69.61","KOMAKUK BEACH","2100682","2018-03-21 00:00","2018","03","21","00:00","-18.9","","","","","M","","","27","","22","","","","103.10","","","","-30","","NA"
"-140.20","69.61","KOMAKUK BEACH","2100682","2018-03-21 01:00","2018","03","21","01:00","-17.8","","","","","M","","","26","","26","","","","103.18","","","","-29","","NA"
"-140.20","69.61","KOMAKUK BEACH","2100682","2018-03-21 02:00","2018","03","21","02:00","-17.6","","","","","M","","","26","","26","","","","103.25","","","","-29","","NA"
"-140.20","69.61","KOMAKUK BEACH","2100682","2018-03-21 03:00","2018","03","21","03:00","-18.6","","","","","M","","","26","","26","","","","103.35","","","","-30","","NA"
"-140.20","69.61","KOMAKUK BEACH","2100682","2018-03-21 04:00","2018","03","21","04:00","-18.3","","","","","M","","","26","","35","","","","103.38","","","","-31","","NA"
"-140.20","69.61","KOMAKUK BEACH","2100682","2018-03-21 05:00","2018","03","21","05:00","-18.8","","","","","M","","","26","","30","","","","103.46","","","","-31","","NA"
"-140.20","69.61","KOMAKUK BEACH","2100682","2018-03-21 06:00","2018","03","21","06:00","-20.2","","","","","M","","","26","","30","","","","103.60","","","","-33","","NA"
"-140.20","69.61","KOMAKUK BEACH","2100682","2018-03-21 07:00","2018","03","21","07:00","-20.4","","","","","M","","","26","","33","","","","103.70","","","","-34","","NA"
"-140.20","69.61","KOMAKUK BEACH","2100682","2018-03-21 08:00","2018","03","21","08:00","-20.8","","","","","M","","","26","","41","","","","103.79","","","","-35","","NA"
"-140.20","69.61","KOMAKUK BEACH","2100682","2018-03-21 09:00","2018","03","21","09:00","-20.7","","","","","M","","","25","","28","","","","103.87","","","","-33","","NA"
"-140.20","69.61","KOMAKUK BEACH","2100682","2018-03-21 10:00","2018","03","21","10:00","-20.1","","","","","M","","","26","","28","","","","103.93","","","","-32","","NA"
"-140.20","69.61","KOMAKUK BEACH","2100682","2018-03-21 11:00","2018","03","21","11:00","-20.5","","","","","M","","","26","","20","","","","103.99","","","","-31","","NA"
"-140.20","69.61","KOMAKUK BEACH","2100682","2018-03-21 12:00","2018","03","21","12:00","-20.4","","","","","M","","","26","","24","","","","104.03","","","","-32","","NA"
"-140.20","69.61","KOMAKUK BEACH","2100682","2018-03-21 13:00","2018","03","21","13:00","-20.2","","","","","M","","","26","","24","","","","104.06","","","","-32","","NA"
"-140.20","69.61","KOMAKUK BEACH","2100682","2018-03-21 14:00","2018","03","21","14:00","-19.7","","","","","M","","","26","","26","","","","104.09","","","","-31","","NA"
"-140.20","69.61","KOMAKUK BEACH","2100682","2018-03-21 15:00","2018","03","21","15:00","-19.7","","","","","M","","","26","","28","","","","104.08","","","","-32","","NA"
"-140.20","69.61","KOMAKUK BEACH","2100682","2018-03-21 16:00","2018","03","21","16:00","-19.9","","","","","M","","","26","","20","","","","104.07","","","","-30","","NA"
"-140.20","69.61","KOMAKUK BEACH","2100682","2018-03-21 17:00","2018","03","21","17:00","-19.8","","","","","M","","","25","","17","","","","104.05","","","","-29","","NA"
"-140.20","69.61","KOMAKUK BEACH","2100682","2018-03-21 18:00","2018","03","21","18:00","-19.7","","","","","M","","","25","","11","","","","104.04","","","","-27","","NA"
"-140.20","69.61","KOMAKUK BEACH","2100682","2018-03-21 19:00","2018","03","21","19:00","-19.7","","","","","M","","","26","","9","","","","104.00","","","","-26","","NA"
"-140.20","69.61","KOMAKUK BEACH","2100682","2018-03-21 20:00","2018","03","21","20:00","-20.8","","","","","M","","","21","","11","","","","103.98","","","","-29","","NA"
"-140.20","69.61","KOMAKUK BEACH","2100682","2018-03-21 21:00","2018","03","21","21:00","-24.1","","","","","M","","","12","","7","","","","103.93","","","","-30","","NA"
"-140.20","69.61","KOMAKUK BEACH","2100682","2018-03-21 22:00","2018","03","21","22:00","-22.9","","","","","M","","","9","","11","","","","103.89","","","","-31","","NA"
"-140.20","69.61","KOMAKUK BEACH","2100682","2018-03-21 23:00","2018","03","21","23:00","-25.0","","","","","M","","","10","","13","","","","103.79","","","","-34","","NA"
"-140.20","69.61","KOMAKUK BEACH","2100682","2018-03-22 00:00","2018","03","22","00:00","-24.1","","","","","M","","","10","","15","","","","103.67","","","","-34","","NA"
"-140.20","69.61","KOMAKUK BEACH","2100682","2018-03-22 01:00","2018","03","22","01:00","-25.4","","","","","M","","","14","","11","","","","103.55","","","","-34","","NA"
"-140.20","69.61","KOMAKUK BEACH","2100682","2018-03-22 02:00","2018","03","22","02:00","-26.8","","","","","M","","","25","","15","","","","103.50","","","","-37","","NA"
"-140.20","69.61","KOMAKUK BEACH","2100682","2018-03-22 03:00","2018","03","22","03:00","-26.5","","","","","M","","","25","","7","","","","103.46","","","","-33","","NA"
"-140.20","69.61","KOMAKUK BEACH","2100682","2018-03-22 04:00","2018","03","22","04:00","-27.1","","","","","M","","","7","","4","","","","103.41","","","","-31","","NA"
"-140.20","69.61","KOMAKUK BEACH","2100682","2018-03-22 05:00","2018","03","22","05:00","-28.2","","","","","M","","","18","","7","","","","103.36","","","","-35","","NA"
"-140.20","69.61","KOMAKUK BEACH","2100682","2018-03-22 06:00","2018","03","22","06:00","-26.8","","","","","M","","","11","","9","","","","103.29","","","","-35","","NA"
"-140.20","69.61","KOMAKUK BEACH","2100682","2018-03-22 07:00","2018","03","22","07:00","-27.6","","","","","M","","","8","","17","","","","103.21","","","","-39","","NA"
"-140.20","69.61","KOMAKUK BEACH","2100682","2018-03-22 08:00","2018","03","22","08:00","-29.0","","","","","M","","","14","","17","","","","103.18","","","","-41","","NA"
"-140.20","69.61","KOMAKUK BEACH","2100682","2018-03-22 09:00","2018","03","22","09:00","-27.4","","","","","M","","","12","","13","","","","103.15","","","","-37","","NA"
"-140.20","69.61","KOMAKUK BEACH","2100682","2018-03-22 10:00","2018","03","22","10:00","-26.2","","","","","M","","","10","","19","","","","103.09","","","","-38","","NA"
"-140.20","69.61","KOMAKUK BEACH","2100682","2018-03-22 11:00","2018","03","22","11:00","-24.6","","","","","M","","","11","","22","","","","103.04","","","","-37","","NA"
"-140.20","69.61","KOMAKUK BEACH","2100682","2018-03-22 12:00","2018","03","22","12:00","-22.4","","","","","M","","","11","","24","","","","102.98","","","","-34","","NA"
"-140.20","69.61","KOMAKUK BEACH","2100682","2018-03-22 13:00","2018","03","22","13:00","-21.5","","","","","M","","","11","","22","","","","102.96","","","","-33","","NA"
"-140.20","69.61","KOMAKUK BEACH","2100682","2018-03-22 14:00","2018","03","22","14:00","-20.7","","","","","M","","","9","","13","","","","102.94","","","","-29","","NA"
"-140.20","69.61","KOMAKUK BEACH","2100682","2018-03-22 15:00","2018","03","22","15:00","-21.0","","","","","M","","","7","","15","","","","102.97","","","","-30","","NA"
"-140.20","69.61","KOMAKUK BEACH","2100682","2018-03-22 16:00","2018","03","22","16:00","-20.3","","","","","M","","","9","","9","","","","102.97","","","","-27","","NA"
"-140.20","69.61","KOMAKUK BEACH","2100682","2018-03-22 17:00","2018","03","22","17:00","-19.9","","","","","M","","","9","","13","","","","102.97","","","","-28","","NA"
"-140.20","69.61","KOMAKUK BEACH","2100682","2018-03-22 18:00","2018","03","22","18:00","-19.1","","","","","M","","","10","","13","","","","102.95","","","","-27","","NA"
"-140.20","69.61","KOMAKUK BEACH","2100682","2018-03-22 19:00","2018","03","22","19:00","-19.5","","","","","M","","","8","","17","","","","102.98","","","","-29","","NA"
"-140.20","69.61","KOMAKUK BEACH","2100682","2018-03-22 20:00","2018","03","22","20:00","-21.2","","","","","M","","","7","","17","","","","103.01","","","","-31","","NA"
"-140.20","69.61","KOMAKUK BEACH","2100682","2018-03-22 21:00","2018","03","22","21:00","-23.6","","","","","M","","","8","","17","","","","103.02","","","","-34","","NA"
"-140.20","69.61","KOMAKUK BEACH","2100682","2018-03-22 22:00","2018","03","22","22:00","-24.3","","","","","M","","","10","","13","","","","103.04","","","","-34","","NA"
"-140.20","69.61","KOMAKUK BEACH","2100682","2018-03-22 23:00","2018","03","22","23:00","-23.7","","","","","M","","","9","","26","","","","103.03","","","","-37","","NA"
"-140.20","69.61","KOMAKUK BEACH","2100682","2018-03-23 00:00","2018","03","23","00:00","-24.8","","","","","M","","","9","","26","","","","103.03","","","","-38","","NA"
"-140.20","69.61","KOMAKUK BEACH","2100682","2018-03-23 01:00","2018","03","23","01:00","-25.0","","","","","M","","","8","","26","","","","103.02","","","","-38","","NA"
"-140.20","69.61","KOMAKUK BEACH","2100682","2018-03-23 02:00","2018","03","23","02:00","-24.6","","","","","M","","","8","","26","","","","103.02","","","","-38","","NA"
"-140.20","69.61","KOMAKUK BEACH","2100682","2018-03-23 03:00","2018","03","23","03:00","-24.7","","","","","M","","","8","","26","","","","103.05","","","","-38","","NA"
"-140.20","69.61","KOMAKUK BEACH","2100682","2018-03-23 04:00","2018","03","23","04:00","-24.0","","","","","M","","","9","","26","","","","103.03","","","","-37","","NA"
"-140.20","69.61","KOMAKUK BEACH","2100682","2018-03-23 05:00","2018","03","23","05:00","-23.4","","","","","M","","","10","","26","","","","103.01","","","","-36","","NA"
"-140.20","69.61","KOMAKUK BEACH","2100682","2018-03-23 06:00","2018","03","23","06:00","-23.5","","","","","M","","","9","","24","","","","103.02","","","","-36","","NA"
"-140.20","69.61","KOMAKUK BEACH","2100682","2018-03-23 07:00","2018","03","23","07:00","-25.5","","","","","M","","","9","","26","","","","103.03","","","","-39","","NA"
"-140.20","69.61","KOMAKUK BEACH","2100682","2018-03-23 08:00","2018","03","23","08:00","-26.2","","","","","M","","","10","","24","","","","103.05","","","","-39","","NA"
"-140.20","69.61","KOMAKUK BEACH","2100682","2018-03-23 09:00","2018","03","23","09:00","-26.4","","","","","M","","","10","","30","","","","103.04","","","","-41","","NA"
"-140.20","69.61","KOMAKUK BEACH","2100682","2018-03-23 10:00","2018","03","23","10:00","-26.1","","","","","M","","","9","","43","","","","102.99","","","","-43","","NA"
"-140.20","69.61","KOMAKUK BEACH","2100682","2018-03-23 11:00","2018","03","23","11:00","-24.6","","","","","M","","","10","","35","","","","102.98","","","","-39","","NA"
"-140.20","69.61","KOMAKUK BEACH","2100682","2018-03-23 12:00","2018","03","23","12:00","-24.9","","","","","M","","","10","","44","","","","102.94","","","","-41","","NA"
"-140.20","69.61","KOMAKUK BEACH","2100682","2018-03-23 13:00","2018","03","23","13:00","-24.3","","","","","M","","","10","","44","","","","102.88","","","","-40","","NA"
"-140.20","69.61","KOMAKUK BEACH","2100682","2018-03-23 14:00","2018","03","23","14:00","-24.0","","","","","M","","","9","","39","","","","102.88","","","","-39","","NA"
"-140.20","69.61","KOMAKUK BEACH","2100682","2018-03-23 15:00","2018","03","23","15:00","-23.9","","","","","M","","","10","","43","","","","102.84","","","","-40","","NA"
"-140.20","69.61","KOMAKUK BEACH","2100682","2018-03-23 16:00","2018","03","23","16:00","-23.3","","","","","M","","","10","","41","","","","102.80","","","","-39","","NA"
"-140.20","69.61","KOMAKUK BEACH","2100682","2018-03-23 17:00","2018","03","23","17:00","-23.0","","","","","M","","","9","","46","","","","102.78","","","","-39","","NA"
"-140.20","69.61","KOMAKUK BEACH","2100682","2018-03-23 18:00","2018","03","23","18:00","-22.8","","","","","M","","","9","","50","","","","102.72","","","","-39","","NA"
"-140.20","69.61","KOMAKUK BEACH","2100682","2018-03-23 19:00","2018","03","23","19:00","-23.0","","","","","M","","","9","","48","","","","102.72","","","","-39","","NA"
"-140.20","69.61","KOMAKUK BEACH","2100682","2018-03-23 20:00","2018","03","23","20:00","-23.0","","","","","M","","","9","","48","","","","102.69","","","","-39","","NA"
"-140.20","69.61","KOMAKUK BEACH","2100682","2018-03-23 21:00","2018","03","23","21:00","-23.5","","","","","M","","","9","","46","","","","102.68","","","","-40","","NA"
"-140.20","69.61","KOMAKUK BEACH","2100682","2018-03-23 22:00","2018","03","23","22:00","-24.1","","","","","M","","","10","","41","","","","102.69","","","","-40","","NA"
"-140.20","69.61","KOMAKUK BEACH","2100682","2018-03-23 23:00","2018","03","23","23:00","-24.7","","","","","M","","","11","","31","","","","102.71","","","","-39","","NA"
"-140.20","69.61","KOMAKUK BEACH","2100682","2018-03-24 00:00","2018","03","24","00:00","-24.6","","","","","M","","","10","","43","","","","102.68","","","","-41","","NA"
"-140.20","69.61","KOMAKUK BEACH","2100682","2018-03-24 01:00","2018","03","24","01:00","-25.5","","","","","M","","","9","","43","","","","102.67","","","","-42","","NA"
"-140.20","69.61","KOMAKUK BEACH","2100682","2018-03-24 02:00","2018","03","24","02:00","-26.3","","","","","M","","","10","","39","","","","102.66","","","","-42","","NA"
"-140.20","69.61","KOMAKUK BEACH","2100682","2018-03-24 03:00","2018","03","24","03:00","-26.8","","","","","M","","","10","","31","","","","102.66","","","","-42","","NA"
"-140.20","69.61","KOMAKUK BEACH","2100682","2018-03-24 04:00","2018","03","24","04:00","-27.1","","","","","M","","","10","","24","","","","102.70","","","","-40","","NA"
"-140.20","69.61","KOMAKUK BEACH","2100682","2018-03-24 05:00","2018","03","24","05:00","-27.4","","","","","M","","","11","","26","","","","102.70","","","","-41","","NA"
"-140.20","69.61","KOMAKUK BEACH","2100682","2018-03-24 06:00","2018","03","24","06:00","-28.0","","","","","M","","","10","","26","","","","102.67","","","","-42","","NA"
"-140.20","69.61","KOMAKUK BEACH","2100682","2018-03-24 07:00","2018","03","24","07:00","-28.3","","","","","M","","","9","","33","","","","102.67","","","","-44","","NA"
"-140.20","69.61","KOMAKUK BEACH","2100682","2018-03-24 08:00","2018","03","24","08:00","-28.5","","","","","M","","","10","","39","","","","102.67","","","","-45","","NA"
"-140.20","69.61","KOMAKUK BEACH","2100682","2018-03-24 09:00","2018","03","24","09:00"
"-140.20","69.61","KOMAKUK BEACH","2100682","2018-03-24 10:00","2018","03","24","10:00","-29.2","","","","","M","","","9","","26","","","","102.69","","","","-44","","NA"
"-140.20","69.61","KOMAKUK BEACH","2100682","2018-03-24 11:00","2018","03","24","11:00","-28.6","","","","","M","","","10","","26","","","","102.69","","","","-43","","NA"
"-140.20","69.61","KOMAKUK BEACH","2100682","2018-03-24 12:00","2018","03","24","12:00","-28.1","","","","","M","","","9","","31","","","","102.68","","","","-43","","NA"
"-140.20","69.61","KOMAKUK BEACH","2100682","2018-03-24 13:00","2018","03","24","13:00","-27.0","","","","","M","","","9","","28","","","","102.67","","","","-41","","NA"
"-140.20","69.61","KOMAKUK BEACH","2100682","2018-03-24 14:00","2018","03","24","14:00","-26.0","","","","","M","","","9","","30","","","","102.66","","","","-40","","NA"
"-140.20","69.61","KOMAKUK BEACH","2100682","2018-03-24 15:00","2018","03","24","15:00","-25.6","","","","","M","","","8","","33","","","","102.67","","","","-40","","NA"
"-140.20","69.61","KOMAKUK BEACH","2100682","2018-03-24 16:00","2018","03","24","16:00","-24.9","","","","","M","","","10","","22","","","","102.67","","","","-37","","NA"
"-140.20","69.61","KOMAKUK BEACH","2100682","2018-03-24 17:00","2018","03","24","17:00","-24.6","","","","","M","","","8","","35","","","","102.62","","","","-39","","NA"
"-140.20","69.61","KOMAKUK BEACH","2100682","2018-03-24 18:00","2018","03","24","18:00","-24.4","","","","","M","","","9","","33","","","","102.62","","","","-39","","NA"
"-140.20","69.61","KOMAKUK BEACH","2100682","2018-03-24 19:00","2018","03","24","19:00","-24.3","","","","","M","","","9","","28","","","","102.63","","","","-38","","NA"
"-140.20","69.61","KOMAKUK BEACH","2100682","2018-03-24 20:00","2018","03","24","20:00","-24.3","","","","","M","","","10","","24","","","","102.60","","","","-37","","NA"
"-140.20","69.61","KOMAKUK BEACH","2100682","2018-03-24 21:00","2018","03","24","21:00","-24.7","","","","","M","","","10","","24","","","","102.60","","","","-37","","NA"
"-140.20","69.61","KOMAKUK BEACH","2100682","2018-03-24 22:00","2018","03","24","22:00","-24.9","","","","","M","","","11","","22","","","","102.58","","","","-37","","NA"
"-140.20","69.61","KOMAKUK BEACH","2100682","2018-03-24 23:00","2018","03","24","23:00","-25.3","","","","","M","","","9","","24","","","","102.53","","","","-38","","NA"
"-140.20","69.61","KOMAKUK BEACH","2100682","2018-03-25 00:00","2018","03","25","00:00","-26.3","","","","","M","","","9","","30","","","","102.50","","","","-41","","NA"
"-140.20","69.61","KOMAKUK BEACH","2100682","2018-03-25 01:00","2018","03","25","01:00","-26.9","","","","","M","","","8","","30","","","","102.45","","","","-42","","NA"
"-140.20","69.61","KOMAKUK BEACH","2100682","2018-03-25 02:00","2018","03","25","02:00","-28.0","","","","","M","","","8","","31","","","","102.43","","","","-43","","NA"
"-140.20","69.61","KOMAKUK BEACH","2100682","2018-03-25 03:00","2018","03","25","03:00","-27.6","","","","","M","","","9","","30","","","","102.41","","","","-42","","NA"
"-140.20","69.61","KOMAKUK BEACH","2100682","2018-03-25 04:00","2018","03","25","04:00","-27.7","","","","","M","","","9","","30","","","","102.37","","","","-43","","NA"
"-140.20","69.61","KOMAKUK BEACH","2100682","2018-03-25 05:00","2018","03","25","05:00","-27.2","","","","","M","","","10","","26","","","","102.35","","","","-41","","NA"
"-140.20","69.61","KOMAKUK BEACH","2100682","2018-03-25 06:00","2018","03","25","06:00","-27.2","","","","","M","","","10","","24","","","","102.31","","","","-41","","NA"
"-140.20","69.61","KOMAKUK BEACH","2100682","2018-03-25 07:00","2018","03","25","07:00","-27.7","","","","","M","","","10","","24","","","","102.25","","","","-41","","NA"
"-140.20","69.61","KOMAKUK BEACH","2100682","2018-03-25 08:00","2018","03","25","08:00","-28.7","","","","","M","","","9","","28","","","","102.23","","","","-43","","NA"
"-140.20","69.61","KOMAKUK BEACH","2100682","2018-03-25 09:00","2018","03","25","09:00","-28.8","","","","","M","","","9","","24","","","","102.21","","","","-43","","NA"
"-140.20","69.61","KOMAKUK BEACH","2100682","2018-03-25 10:00","2018","03","25","10:00","-28.8","","","","","M","","","9","","28","","","","102.16","","","","-44","","NA"
"-140.20","69.61","KOMAKUK BEACH","2100682","2018-03-25 11:00","2018","03","25","11:00","-28.3","","","","","M","","","9","","31","","","","102.10","","","","-44","","NA"
"-140.20","69.61","KOMAKUK BEACH","2100682","2018-03-25 12:00","2018","03","25","12:00","-28.3","","","","","M","","","8","","37","","","","102.07","","","","-45","","NA"
"-140.20","69.61","KOMAKUK BEACH","2100682","2018-03-25 13:00","2018","03","25","13:00","-26.8","","","","","M","","","10","","43","","","","102.01","","","","-44","","NA"
"-140.20","69.61","KOMAKUK BEACH","2100682","2018-03-25 14:00","2018","03","25","14:00","-25.9","","","","","M","","","10","","44","","","","101.96","","","","-43","","NA"
"-140.20","69.61","KOMAKUK BEACH","2100682","2018-03-25 15:00","2018","03","25","15:00","-25.2","","","","","M","","","10","","35","","","","101.96","","","","-40","","NA"
"-140.20","69.61","KOMAKUK BEACH","2100682","2018-03-25 16:00","2018","03","25","16:00","-25.0","","","","","M","","","9","","44","","","","101.91","","","","-41","","NA"
"-140.20","69.61","KOMAKUK BEACH","2100682","2018-03-25 17:00","2018","03","25","17:00","-24.8","","","","","M","","","9","","50","","","","101.87","","","","-42","","NA"
"-140.20","69.61","KOMAKUK BEACH","2100682","2018-03-25 18:00","2018","03","25","18:00","-24.8","","","","","M","","","9","","50","","","","101.84","","","","-42","","NA"
"-140.20","69.61","KOMAKUK BEACH","2100682","2018-03-25 19:00","2018","03","25","19:00","-25.0","","","","","M","","","10","","44","","","","101.76","","","","-41","","NA"
"-140.20","69.61","KOMAKUK BEACH","2100682","2018-03-25 20:00","2018","03","25","20:00","-25.6","","","","","M","","","10","","41","","","","101.74","","","","-42","","NA"
"-140.20","69.61","KOMAKUK BEACH","2100682","2018-03-25 21:00","2018","03","25","21:00","-26.1","","","","","M","","","10","","44","","","","101.71","","","","-43","","NA"
"-140.20","69.61","KOMAKUK BEACH","2100682","2018-03-25 22:00","2018","03","25","22:00","-26.9","","","","","M","","","10","","44","","","","101.66","","","","-44","","NA"
"-140.20","69.61","KOMAKUK BEACH","2100682","2018-03-25 23:00","2018","03","25","23:00","-27.4","","","","","M","","","10","","31","","","","101.65","","","","-42","","NA"
"-140.20","69.61","KOMAKUK BEACH","2100682","2018-03-26 00:00","2018","03","26","00:00","-28.3","","","","","M","","","10","","39","","","","101.66","","","","-45","","NA"
"-140.20","69.61","KOMAKUK BEACH","2100682","2018-03-26 01:00","2018","03","26","01:00","-28.9","","","","","M","","","9","","46","","","","101.60","","","","-47","","NA"
"-140.20","69.61","KOMAKUK BEACH","2100682","2018-03-26 02:00","2018","03","26","02:00","-29.4","","","","","M","","","10","","30","","","","101.63","","","","-45","","NA"
"-140.20","69.61","KOMAKUK BEACH","2100682","2018-03-26 03:00","2018","03","26","03:00","-29.9","","","","","M","","","9","","31","","","","101.58","","","","-46","","NA"
"-140.20","69.61","KOMAKUK BEACH","2100682","2018-03-26 04:00","2018","03","26","04:00","-30.0","","","","","M","","","9","","35","","","","101.56","","","","-47","","NA"
"-140.20","69.61","KOMAKUK BEACH","2100682","2018-03-26 05:00","2018","03","26","05:00","-30.5","","","","","M","","","9","","30","","","","101.55","","","","-46","","NA"
"-140.20","69.61","KOMAKUK BEACH","2100682","2018-03-26 06:00","2018","03","26","06:00","-31.0","","","","","M","","","9","","39","","","","101.49","","","","-49","","NA"
"-140.20","69.61","KOMAKUK BEACH","2100682","2018-03-26 07:00","2018","03","26","07:00","-31.0","","","","","M","","","9","","35","","","","101.48","","","","-48","","NA"
"-140.20","69.61","KOMAKUK BEACH","2100682","2018-03-26 08:00","2018","03","26","08:00","-31.0","","","","","M","","","10","","28","","","","101.48","","","","-46","","NA"
"-140.20","69.61","KOMAKUK BEACH","2100682","2018-03-26 09:00","2018","03","26","09:00","-31.0","","","","","M","","","10","","28","","","","101.45","","","","-46","","NA"
"-140.20","69.61","KOMAKUK BEACH","2100682","2018-03-26 10:00","2018","03","26","10:00","-31.0","","","","","M","","","10","","24","","","","101.45","","","","-45","","NA"
"-140.20","69.61","KOMAKUK BEACH","2100682","2018-03-26 11:00","2018","03","26","11:00","-30.6","","","","","M","","","9","","31","","","","101.46","","","","-47","","NA"
"-140.20","69.61","KOMAKUK BEACH","2100682","2018-03-26 12:00","2018","03","26","12:00","-30.4","","","","","M","","","9","","37","","","","101.47","","","","-48","","NA"
"-140.20","69.61","KOMAKUK BEACH","2100682","2018-03-26 13:00","2018","03","26","13:00","-29.3","","","","","M","","","9","","30","","","","101.45","","","","-45","","NA"
"-140.20","69.61","KOMAKUK BEACH","2100682","2018-03-26 14:00","2018","03","26","14:00","-28.5","","","","","M","","","10","","30","","","","101.40","","","","-44","","NA"
"-140.20","69.61","KOMAKUK BEACH","2100682","2018-03-26 15:00","2018","03","26","15:00","-26.9","","","","","M","","","9","","31","","","","101.35","","","","-42","","NA"
"-140.20","69.61","KOMAKUK BEACH","2100682","2018-03-26 16:00","2018","03","26","16:00","-26.4","","","","","M","","","9","","37","","","","101.39","","","","-42","","NA"
"-140.20","69.61","KOMAKUK BEACH","2100682","2018-03-26 17:00","2018","03","26","17:00","-25.8","","","","","M","","","10","","37","","","","101.37","","","","-41","","NA"
"-140.20","69.61","KOMAKUK BEACH","2100682","2018-03-26 18:00","2018","03","26","18:00","-25.2","","","","","M","","","9","","30","","","","101.37","","","","-39","","NA"
"-140.20","69.61","KOMAKUK BEACH","2100682","2018-03-26 19:00","2018","03","26","19:00","-25.1","","","","","M","","","11","","24","","","","101.32","","","","-38","","NA"
"-140.20","69.61","KOMAKUK BEACH","2100682","2018-03-26 20:00","2018","03","26","20:00","-25.0","","","","","M","","","8","","31","","","","101.30","","","","-39","","NA"
"-140.20","69.61","KOMAKUK BEACH","2100682","2018-03-26 21:00","2018","03","26","21:00","-25.4","","","","","M","","","9","","30","","","","101.32","","","","-40","","NA"
"-140.20","69.61","KOMAKUK BEACH","2100682","2018-03-26 22:00","2018","03","26","22:00","-25.3","","","","","M","","","8","","30","","","","101.29","","","","-39","","NA"
"-140.20","69.61","KOMAKUK BEACH","2100682","2018-03-26 23:00","2018","03","26","23:00","-26.1","","","","","M","","","7","","33","","","","101.30","","","","-41","","NA"
"-140.20","69.61","KOMAKUK BEACH","2100682","2018-03-27 00:00","2018","03","27","00:00","-26.8","","","","","M","","","10","","24","","","","101.31","","","","-40","","NA"
"-140.20","69.61","KOMAKUK BEACH","2100682","2018-03-27 01:00","2018","03","27","01:00","-27.3","","","","","M","","","10","","20","","","","101.30","","","","-40","","NA"
"-140.20","69.61","KOMAKUK BEACH","2100682","2018-03-27 02:00","2018","03","27","02:00","-27.3","","","","","M","","","10","","17","","","","101.27","","","","-39","","NA"
"-140.20","69.61","KOMAKUK BEACH","2100682","2018-03-27 03:00","2018","03","27","03:00","-28.3","","","","","M","","","16","","4","","","","101.30","","","","-33","","NA"
"-140.20","69.61","KOMAKUK BEACH","2100682","2018-03-27 04:00","2018","03","27","04:00","-27.9","","","","","M","","","8","","17","","","","101.29","","","","-40","","NA"
"-140.20","69.61","KOMAKUK BEACH","2100682","2018-03-27 05:00","2018","03","27","05:00","-30.0","","","","","M","","","21","","7","","","","101.34","","","","-37","","NA"
"-140.20","69.61","KOMAKUK BEACH","2100682","2018-03-27 06:00","2018","03","27","06:00","-29.3","","","","","M","","","7","","13","","","","101.35","","","","-40","","NA"
"-140.20","69.61","KOMAKUK BEACH","2100682","2018-03-27 07:00","2018","03","27","07:00","-29.9","","","","","M","","","14","","4","","","","101.36","","","","-34","","NA"
"-140.20","69.61","KOMAKUK BEACH","2100682","2018-03-27 08:00","2018","03","27","08:00","-29.4","","","","","M","","","21","","4","","","","101.36","","","","-34","","NA"
"-140.20","69.61","KOMAKUK BEACH","2100682","2018-03-27 09:00","2018","03","27","09:00","-29.3","","","","","M","","","","","0","","","","101.39","","","","","","NA"
"-140.20","69.61","KOMAKUK BEACH","2100682","2018-03-27 10:00","2018","03","27","10:00","-28.8","","","","","M","","","12","","15","","","","101.45","","","","-40","","NA"
"-140.20","69.61","KOMAKUK BEACH","2100682","2018-03-27 11:00","2018","03","27","11:00","-27.0","","","","","M","","","8","","24","","","","101.45","","","","-40","","NA"
"-140.20","69.61","KOMAKUK BEACH","2100682","2018-03-27 12:00","2018","03","27","12:00","-26.0","","","","","M","","","8","","26","","","","101.47","","","","-40","","NA"
"-140.20","69.61","KOMAKUK BEACH","2100682","2018-03-27 13:00","2018","03","27","13:00","-24.8","","","","","M","","","9","","26","","","","101.52","","","","-38","","NA"
"-140.20","69.61","KOMAKUK BEACH","2100682","2018-03-27 14:00","2018","03","27","14:00","-24.0","","","","","M","","","9","","28","","","","101.53","","","","-37","","NA"
"-140.20","69.61","KOMAKUK BEACH","2100682","2018-03-27 15:00","2018","03","27","15:00","-22.8","","","","","M","","","9","","43","","","","101.52","","","","-38","","NA"
"-140.20","69.61","KOMAKUK BEACH","2100682","2018-03-27 16:00","2018","03","27","16:00","-22.3","","","","","M","","","9","","39","","","","101.58","","","","-37","","NA"
"-140.20","69.61","KOMAKUK BEACH","2100682","2018-03-27 17:00","2018","03","27","17:00","-21.0","","","","","M","","","9","","48","","","","101.60","","","","-37","","NA"
"-140.20","69.61","KOMAKUK BEACH","2100682","2018-03-27 18:00","2018","03","27","18:00","-20.9","","","","","M","","","9","","48","","","","101.61","","","","-36","","NA"
"-140.20","69.61","KOMAKUK BEACH","2100682","2018-03-27 19:00","2018","03","27","19:00","-20.9","","","","","M","","","9","","50","","","","101.62","","","","-37","","NA"
"-140.20","69.61","KOMAKUK BEACH","2100682","2018-03-27 20:00","2018","03","27","20:00","-20.8","","","","","M","","","10","","46","","","","101.66","","","","-36","","NA"
"-140.20","69.61","KOMAKUK BEACH","2100682","2018-03-27 21:00","2018","03","27","21:00","-21.5","","","","","M","","","9","","48","","","","101.68","","","","-37","","NA"
"-140.20","69.61","KOMAKUK BEACH","2100682","2018-03-27 22:00","2018","03","27","22:00","-22.2","","","","","M","","","10","","52","","","","101.70","","","","-39","","NA"
"-140.20","69.61","KOMAKUK BEACH","2100682","2018-03-27 23:00","2018","03","27","23:00","-22.5","","","","","M","","","9","","57","","","","101.69","","","","-40","","NA"
"-140.20","69.61","KOMAKUK BEACH","2100682","2018-03-28 00:00","2018","03","28","00:00","-22.8","","","","","M","","","9","","54","","","","101.71","","","","-40","","NA"
"-140.20","69.61","KOMAKUK BEACH","2100682","2018-03-28 01:00","2018","03","28","01:00","-23.0","","","","","M","","","9","","69","","","","101.65","","","","-42","","NA"
"-140.20","69.61","KOMAKUK BEACH","2100682","2018-03-28 02:00","2018","03","28","02:00","-23.6","","","","","M","","","9","","59","","","","101.73","","","","-41","","NA"
"-140.20","69.61","KOMAKUK BEACH","2100682","2018-03-28 03:00","2018","03","28","03:00","-24.3","","","","","M","","","9","","65","","","","101.76","","","","-43","","NA"
"-140.20","69.61","KOMAKUK BEACH","2100682","2018-03-28 04:00","2018","03","28","04:00","-25.0","","","","","M","","","9","","59","","","","101.74","","","","-43","","NA"
"-140.20","69.61","KOMAKUK BEACH","2100682","2018-03-28 05:00","2018","03","28","05:00","-25.5","","","","","M","","","10","","65","","","","101.77","","","","-45","","NA"
"-140.20","69.61","KOMAKUK BEACH","2100682","2018-03-28 06:00","2018","03","28","06:00","-25.9","","","","","M","","","10","","57","","","","101.83","","","","-44","","NA"
"-140.20","69.61","KOMAKUK BEACH","2100682","2018-03-28 07:00","2018","03","28","07:00","-26.3","","","","","M","","","10","","63","","","","101.84","","","","-46","","NA"
"-140.20","69.61","KOMAKUK BEACH","2100682","2018-03-28 08:00","2018","03","28","08:00","-26.3","","","","","M","","","10","","57","","","","101.85","","","","-45","","NA"
"-140.20","69.61","KOMAKUK BEACH","2100682","2018-03-28 09:00","2018","03","28","09:00","-26.7","","","","","M","","","10","","48","","","","101.92","","","","-44","","NA"
"-140.20","69.61","KOMAKUK BEACH","2100682","2018-03-28 10:00","2018","03","28","10:00","-26.6","","","","","M","","","11","","41","","","","102.00","","","","-43","","NA"
"-140.20","69.61","KOMAKUK BEACH","2100682","2018-03-28 11:00","2018","03","28","11:00","-26.5","","","","","M","","","10","","44","","","","102.04","","","","-43","","NA"
"-140.20","69.61","KOMAKUK BEACH","2100682","2018-03-28 12:00","2018","03","28","12:00","-25.8","","","","","M","","","10","","50","","","","102.09","","","","-43","","NA"
"-140.20","69.61","KOMAKUK BEACH","2100682","2018-03-28 13:00","2018","03","28","13:00","-25.2","","","","","M","","","10","","48","","","","102.11","","","","-42","","NA"
"-140.20","69.61","KOMAKUK BEACH","2100682","2018-03-28 14:00","2018","03","28","14:00","-23.9","","","","","M","","","11","","44","","","","102.18","","","","-40","","NA"
"-140.20","69.61","KOMAKUK BEACH","2100682","2018-03-28 15:00","2018","03","28","15:00","-23.1","","","","","M","","","10","","48","","","","102.23","","","","-39","","NA"
"-140.20","69.61","KOMAKUK BEACH","2100682","2018-03-28 16:00","2018","03","28","16:00","-22.4","","","","","M","","","10","","46","","","","102.30","","","","-38","","NA"
"-140.20","69.61","KOMAKUK BEACH","2100682","2018-03-28 17:00","2018","03","28","17:00","-21.8","","","","","M","","","10","","44","","","","102.33","","","","-37","","NA"
"-140.20","69.61","KOMAKUK BEACH","2100682","2018-03-28 18:00","2018","03","28","18:00","-20.8","","","","","M","","","10","","43","","","","102.37","","","","-36","","NA"
"-140.20","69.61","KOMAKUK BEACH","2100682","2018-03-28 19:00","2018","03","28","19:00","-19.9","","","","","M","","","10","","43","","","","102.35","","","","-34","","NA"
"-140.20","69.61","KOMAKUK BEACH","2100682","2018-03-28 20:00","2018","03","28","20:00","-19.6","","","","","M","","","10","","43","","","","102.37","","","","-34","","NA"
"-140.20","69.61","KOMAKUK BEACH","2100682","2018-03-28 21:00","2018","03","28","21:00","-19.8","","","","","M","","","10","","43","","","","102.39","","","","-34","","NA"
"-140.20","69.61","KOMAKUK BEACH","2100682","2018-03-28 22:00","2018","03","28","22:00","-20.6","","","","","M","","","10","","31","","","","102.41","","","","-34","","NA"
"-140.20","69.61","KOMAKUK BEACH","2100682","2018-03-28 23:00","2018","03","28","23:00","-21.4","","","","","M","","","10","","31","","","","102.44","","","","-35","","NA"
"-140.20","69.61","KOMAKUK BEACH","2100682","2018-03-29 00:00","2018","03","29","00:00","-21.6","","","","","M","","","10","","26","","","","102.45","","","","-34","","NA"
"-140.20","69.61","KOMAKUK BEACH","2100682","2018-03-29 01:00","2018","03","29","01:00","-22.1","","","","","M","","","10","","26","","","","102.45","","","","-35","","NA"
"-140.20","69.61","KOMAKUK BEACH","2100682","2018-03-29 02:00","2018","03","29","02:00","-22.5","","","","","M","","","11","","24","","","","102.46","","","","-35","","NA"
"-140.20","69.61","KOMAKUK BEACH","2100682","2018-03-29 03:00","2018","03","29","03:00","-23.1","","","","","M","","","10","","26","","","","102.45","","","","-36","","NA"
"-140.20","69.61","KOMAKUK BEACH","2100682","2018-03-29 04:00","2018","03","29","04:00","-23.7","","","","","M","","","9","","28","","","","102.46","","","","-37","","NA"
"-140.20","69.61","KOMAKUK BEACH","2100682","2018-03-29 05:00","2018","03","29","05:00","-24.2","","","","","M","","","11","","17","","","","102.50","","","","-35","","NA"
"-140.20","69.61","KOMAKUK BEACH","2100682","2018-03-29 06:00","2018","03","29","06:00","-24.3","","","","","M","","","10","","11","","","","102.50","","","","-33","","NA"
"-140.20","69.61","KOMAKUK BEACH","2100682","2018-03-29 07:00","2018","03","29","07:00","-25.0","","","","","M","","","9","","13","","","","102.50","","","","-34","","NA"
"-140.20","69.61","KOMAKUK BEACH","2100682","2018-03-29 08:00","2018","03","29","08:00","-25.8","","","","","M","","","11","","11","","","","102.50","","","","-35","","NA"
"-140.20","69.61","KOMAKUK BEACH","2100682","2018-03-29 09:00","2018","03","29","09:00","-26.2","","","","","M","","","","","0","","","","102.53","","","","","","NA"
"-140.20","69.61","KOMAKUK BEACH","2100682","2018-03-29 10:00","2018","03","29","10:00","-26.2","","","","","M","","","8","","4","","","","102.52","","","","-30","","NA"
"-140.20","69.61","KOMAKUK BEACH","2100682","2018-03-29 11:00","2018","03","29","11:00","-24.9","","","","","M","","","30","","7","","","","102.54","","","","-31","","NA"
"-140.20","69.61","KOMAKUK BEACH","2100682","2018-03-29 12:00","2018","03","29","12:00","-24.8","","","","","M","","","27","","9","","","","102.61","","","","-32","","NA"
"-140.20","69.61","KOMAKUK BEACH","2100682","2018-03-29 13:00","2018","03","29","13:00","-23.1","","","","","M","","","28","","9","","","","102.63","","","","-30","","NA"
"-140.20","69.61","KOMAKUK BEACH","2100682","2018-03-29 14:00","2018","03","29","14:00","-20.7","","","","","M","","","24","","4","","","","102.65","","","","-24","","NA"
"-140.20","69.61","KOMAKUK BEACH","2100682","2018-03-29 15:00","2018","03","29","15:00","-19.9","","","","","M","","","","","0","","","","102.69","","","","","","NA"
"-140.20","69.61","KOMAKUK BEACH","2100682","2018-03-29 16:00","2018","03","29","16:00","-18.1","","","","","M","","","20","","9","","","","102.70","","","","-24","","NA"
"-140.20","69.61","KOMAKUK BEACH","2100682","2018-03-29 17:00","2018","03","29","17:00","-16.9","","","","","M","","","25","","6","","","","102.72","","","","-21","","NA"
"-140.20","69.61","KOMAKUK BEACH","2100682","2018-03-29 18:00","2018","03","29","18:00","-15.8","","","","","M","","","25","","9","","","","102.72","","","","-22","","NA"
"-140.20","69.61","KOMAKUK BEACH","2100682","2018-03-29 19:00","2018","03","29","19:00","-15.0","","","","","M","","","25","","9","","","","102.75","","","","-21","","NA"
"-140.20","69.61","KOMAKUK BEACH","2100682","2018-03-29 20:00","2018","03","29","20:00","-14.5","","","","","M","","","26","","13","","","","102.74","","","","-22","","NA"
"-140.20","69.61","KOMAKUK BEACH","2100682","2018-03-29 21:00","2018","03","29","21:00","-14.7","","","","","M","","","25","","13","","","","102.77","","","","-22","","NA"
"-140.20","69.61","KOMAKUK BEACH","2100682","2018-03-29 22:00","2018","03","29","22:00","-14.7","","","","","M","","","26","","15","","","","102.79","","","","-23","","NA"
"-140.20","69.61","KOMAKUK BEACH","2100682","2018-03-29 23:00","2018","03","29","23:00","-15.8","","","","","M","","","26","","15","","","","102.81","","","","-24","","NA"
"-140.20","69.61","KOMAKUK BEACH","2100682","2018-03-30 00:00","2018","03","30","00:00","-17.5","","","","","M","","","27","","20","","","","102.84","","","","-27","","NA"
"-140.20","69.61","KOMAKUK BEACH","2100682","2018-03-30 01:00","2018","03","30","01:00","-18.9","","","","","M","","","26","","20","","","","102.86","","","","-29","","NA"
"-140.20","69.61","KOMAKUK BEACH","2100682","2018-03-30 02:00","2018","03","30","02:00","-19.4","","","","","M","","","28","","15","","","","102.91","","","","-28","","NA"
"-140.20","69.61","KOMAKUK BEACH","2100682","2018-03-30 03:00","2018","03","30","03:00","-18.1","","","","","M","","","28","","19","","","","102.94","","","","-28","","NA"
"-140.20","69.61","KOMAKUK BEACH","2100682","2018-03-30 04:00","2018","03","30","04:00","-19.0","","","","","M","","","27","","11","","","","102.98","","","","-26","","NA"
"-140.20","69.61","KOMAKUK BEACH","2100682","2018-03-30 05:00","2018","03","30","05:00","-18.2","","","","","M","","","27","","13","","","","103.01","","","","-26","","NA"
"-140.20","69.61","KOMAKUK BEACH","2100682","2018-03-30 06:00","2018","03","30","06:00","-16.7","","","","","M","","","27","","15","","","","103.02","","","","-25","","NA"
"-140.20","69.61","KOMAKUK BEACH","2100682","2018-03-30 07:00","2018","03","30","07:00","-16.5","","","","","M","","","26","","17","","","","103.05","","","","-25","","NA"
"-140.20","69.61","KOMAKUK BEACH","2100682","2018-03-30 08:00","2018","03","30","08:00","-16.7","","","","","M","","","26","","17","","","","103.09","","","","-26","","NA"
"-140.20","69.61","KOMAKUK BEACH","2100682","2018-03-30 09:00","2018","03","30","09:00","-17.2","","","","","M","","","28","","20","","","","103.13","","","","-27","","NA"
"-140.20","69.61","KOMAKUK BEACH","2100682","2018-03-30 10:00","2018","03","30","10:00","-18.3","","","","","M","","","27","","22","","","","103.16","","","","-29","","NA"
"-140.20","69.61","KOMAKUK BEACH","2100682","2018-03-30 11:00","2018","03","30","11:00","-16.1","","","","","M","","","27","","19","","","","103.18","","","","-25","","NA"
"-140.20","69.61","KOMAKUK BEACH","2100682","2018-03-30 12:00","2018","03","30","12:00","-15.8","","","","","M","","","29","","13","","","","103.21","","","","-23","","NA"
"-140.20","69.61","KOMAKUK BEACH","2100682","2018-03-30 13:00","2018","03","30","13:00","-14.9","","","","","M","","","27","","15","","","","103.23","","","","-23","","NA"
"-140.20","69.61","KOMAKUK BEACH","2100682","2018-03-30 14:00","2018","03","30","14:00","-13.6","","","","","M","","","28","","11","","","","103.27","","","","-20","","NA"
"-140.20","69.61","KOMAKUK BEACH","2100682","2018-03-30 15:00","2018","03","30","15:00","-13.4","","","","","M","","","27","","9","","","","103.32","","","","-19","","NA"
"-140.20","69.61","KOMAKUK BEACH","2100682","2018-03-30 16:00","2018","03","30","16:00","-12.3","","","","","M","","","27","","13","","","","103.33","","","","-19","","NA"
"-140.20","69.61","KOMAKUK BEACH","2100682","2018-03-30 17:00","2018","03","30","17:00","-11.5","","","","","M","","","25","","13","","","","103.34","","","","-18","","NA"
"-140.20","69.61","KOMAKUK BEACH","2100682","2018-03-30 18:00","2018","03","30","18:00","-11.2","","","","","M","","","29","","11","","","","103.35","","","","-17","","NA"
"-140.20","69.61","KOMAKUK BEACH","2100682","2018-03-30 19:00","2018","03","30","19:00","-11.3","","","","","M","","","27","","11","","","","103.35","","","","-17","","NA"
"-140.20","69.61","KOMAKUK BEACH","2100682","2018-03-30 20:00","2018","03","30","20:00","-10.5","","","","","M","","","27","","11","","","","103.37","","","","-16","","NA"
"-140.20","69.61","KOMAKUK BEACH","2100682","2018-03-30 21:00","2018","03","30","21:00","-11.3","","","","","M","","","29","","7","","","","103.35","","","","-16","","NA"
"-140.20","69.61","KOMAKUK BEACH","2100682","2018-03-30 22:00","2018","03","30","22:00","-12.3","","","","","M","","","25","","7","","","","103.35","","","","-17","","NA"
"-140.20","69.61","KOMAKUK BEACH","2100682","2018-03-30 23:00","2018","03","30","23:00","-12.6","","","","","M","","","25","","11","","","","103.34","","","","-19","","NA"
"-140.20","69.61","KOMAKUK BEACH","2100682","2018-03-31 00:00","2018","03","31","00:00","-13.2","","","","","M","","","24","","9","","","","103.30","","","","-19","","NA"
"-140.20","69.61","KOMAKUK BEACH","2100682","2018-03-31 01:00","2018","03","31","01:00","-15.3","","","","","M","","","9","","7","","","","103.27","","","","-20","","NA"
"-140.20","69.61","KOMAKUK BEACH","2100682","2018-03-31 02:00","2018","03","31","02:00","-12.6","","","","","M","","","11","","7","","","","103.25","","","","-17","","NA"
"-140.20","69.61","KOMAKUK BEACH","2100682","2018-03-31 03:00","2018","03","31","03:00","-18.7","","","","","M","","","12","","7","","","","103.18","","","","-24","","NA"
"-140.20","69.61","KOMAKUK BEACH","2100682","2018-03-31 04:00","2018","03","31","04:00","-17.1","","","","","M","","","11","","9","","","","103.13","","","","-23","","NA"
"-140.20","69.61","KOMAKUK BEACH","2100682","2018-03-31 05:00","2018","03","31","05:00","-17.5","","","","","M","","","8","","17","","","","103.01","","","","-27","","NA"
"-140.20","69.61","KOMAKUK BEACH","2100682","2018-03-31 06:00","2018","03","31","06:00","-19.7","","","","","M","","","7","","20","","","","102.89","","","","-30","","NA"
"-140.20","69.61","KOMAKUK BEACH","2100682","2018-03-31 07:00","2018","03","31","07:00","-20.4","","","","","M","","","24","","11","","","","102.89","","","","-28","","NA"
"-140.20","69.61","KOMAKUK BEACH","2100682","2018-03-31 08:00","2018","03","31","08:00","-19.8","","","","","M","","","18","","11","","","","102.85","","","","-27","","NA"
"-140.20","69.61","KOMAKUK BEACH","2100682","2018-03-31 09:00","2018","03","31","09:00","-18.1","","","","","M","","","","","0","","","","102.77","","","","","","NA"
"-140.20","69.61","KOMAKUK BEACH","2100682","2018-03-31 10:00","2018","03","31","10:00","-21.3","","","","","M","","","20","","7","","","","102.73","","","","-27","","NA"
"-140.20","69.61","KOMAKUK BEACH","2100682","2018-03-31 11:00","2018","03","31","11:00","-20.6","","","","","M","","","27","","9","","","","102.69","","","","-27","","NA"
"-140.20","69.61","KOMAKUK BEACH","2100682","2018-03-31 12:00","2018","03","31","12:00","-17.8","","","","","M","","","28","","11","","","","102.67","","","","-25","","NA"
"-140.20","69.61","KOMAKUK BEACH","2100682","2018-03-31 13:00","2018","03","31","13:00","-16.7","","","","","M","","","28","","11","","","","102.64","","","","-24","","NA"
"-140.20","69.61","KOMAKUK BEACH","2100682","2018-03-31 14:00","2018","03","31","14:00","-13.4","","","","","M","","","27","","11","","","","102.61","","","","-20","","NA"
"-140.20","69.61","KOMAKUK BEACH","2100682","2018-03-31 15:00","2018","03","31","15:00","-13.9","","","","","M","","","25","","7","","","","102.60","","","","-19","","NA"
"-140.20","69.61","KOMAKUK BEACH","2100682","2018-03-31 16:00","2018","03","31","16:00","-12.9","","","","","M","","","27","","7","","","","102.55","","","","-17","","NA"
"-140.20","69.61","KOMAKUK BEACH","2100682","2018-03-31 17:00","2018","03","31","17:00","-13.2","","","","","M","","","23","","7","","","","102.53","","","","-18","","NA"
"-140.20","69.61","KOMAKUK BEACH","2100682","2018-03-31 18:00","2018","03","31","18:00","-11.6","","","","","M","","","20","","13","","","","102.48","","","","-18","","NA"
"-140.20","69.61","KOMAKUK BEACH","2100682","2018-03-31 19:00","2018","03","31","19:00","-11.3","","","","","M","","","12","","9","","","","102.40","","","","-16","","NA"
"-140.20","69.61","KOMAKUK BEACH","2100682","2018-03-31 20:00","2018","03","31","20:00","-10.2","","","","","M","","","11","","13","","","","102.33","","","","-16","","NA"
"-140.20","69.61","KOMAKUK BEACH","2100682","2018-03-31 21:00","2018","03","31","21:00","-8.0","","","","","M","","","13","","6","","","","102.28","","","","-11","","NA"
"-140.20","69.61","KOMAKUK BEACH","2100682","2018-03-31 22:00","2018","03","31","22:00","-8.6","","","","","M","","","","","0","","","","102.24","","","","","","NA"
"-140.20","69.61","KOMAKUK BEACH","2100682","2018-03-31 23:00","2018","03","31","23:00","-8.1","","","","","M","","","24","","7","","","","102.20","","","","-12","","NA"
