"Longitude (x)","Latitude (y)","Station Name","Climate ID","Date/Time (LST)","Year","Month","Day","Time (LST)","Temp (°C)","Temp Flag","Dew Point Temp (°C)","Dew Point Temp Flag","Rel Hum (%)","Rel Hum Flag","Precip. Amount (mm)","Precip. Amount Flag","Wind Dir (10s deg)","Wind Dir Flag","Wind Spd (km/h)","Wind Spd Flag","Visibility (km)","Visibility Flag","Stn Press (kPa)","Stn Press Flag","Hmdx","Hmdx Flag","Wind Chill","Wind Chill Flag","Weather"
"-75.67","62.18","SALLUIT A","7117802","2019-03-01 00:00","2019","03","01","00:00","-19.3","","-21.4","","83","","","M","29","","5","","","M","98.81","","","","-23","","NA"
"-75.67","62.18","SALLUIT A","7117802","2019-03-01 01:00","2019","03","01","01:00","-19.7","","-21.9","","83","","","M","31","","4","","","M","98.78","","","","-23","","NA"
"-75.67","62.18","SALLUIT A","7117802","2019-03-01 02:00","2019","03","01","02:00","-20.0","","-22.3","","82","","","M","28","","5","","","M","98.76","","","","-24","","NA"
"-75.67","62.18","SALLUIT A","7117802","2019-03-01 03:00","2019","03","01","03:00","-20.3","","-22.7","","82","","","M","27","","9","","","M","98.73","","","","-27","","NA"
"-75.67","62.18","SALLUIT A","7117802","2019-03-01 04:00","2019","03","01","04:00","-20.8","","-23.2","","81","","","M","28","","8","","","M","98.69","","","","-27","","NA"
"-75.67","62.18","SALLUIT A","7117802","2019-03-01 05:00","2019","03","01","05:00","-21.4","","-24.1","","79","","","M","23","","4","","","M","98.70","","","","-25","","NA"
"-75.67","62.18","SALLUIT A","7117802","2019-03-01 06:00","2019","03","01","06:00","-21.1","","-23.8","","79","","","M","25","","11","","","M","98.68","","","","-29","","NA"
"-75.67","62.18","SALLUIT A","7117802","2019-03-01 07:00","2019","03","01","07:00","-22.4","","-25.4","","77","","","M","22","","10","","","M","98.63","","","","-30","","NA"
"-75.67","62.18","SALLUIT A","7117802","2019-03-01 08:00","2019","03","01","08:00","-21.6","","-24.7","","76","","","M","26","","13","","","M","98.59","","","","-30","","NA"
"-75.67","62.18","SALLUIT A","7117802","2019-03-01 09:00","2019","03","01","09:00","-21.3","","-24.3","","77","","","M","28","","17","","","M","98.58","","","","-31","","NA"
"-75.67","62.18","SALLUIT A","7117802","2019-03-01 10:00","2019","03","01","10:00","-21.0","","-24.1","","76","","","M","25","","15","","","M","98.51","","","","-30","","NA"
"-75.67","62.18","SALLUIT A","7117802","2019-03-01 11:00","2019","03","01","11:00","-20.5","","-23.9","","75","","","M","27","","16","","","M","98.50","","","","-30","","NA"
"-75.67","62.18","SALLUIT A","7117802","2019-03-01 12:00","2019","03","01","12:00","-20.3","","-23.6","","76","","","M","26","","16","","","M","98.47","","","","-30","","NA"
"-75.67","62.18","SALLUIT A","7117802","2019-03-01 13:00","2019","03","01","13:00","-20.1","","-23.6","","74","","","M","27","","17","","","M","98.50","","","","-30","","NA"
"-75.67","62.18","SALLUIT A","7117802","2019-03-01 14:00","2019","03","01","14:00","-20.4","","-23.6","","76","","","M","27","","22","","","M","98.45","","","","-31","","NA"
"-75.67","62.18","SALLUIT A","7117802","2019-03-01 15:00","2019","03","01","15:00","-19.9","","-23.2","","76","","","M","25","","6","","","M","98.52","","","","-25","","NA"
"-75.67","62.18","SALLUIT A","7117802","2019-03-01 16:00","2019","03","01","16:00","-19.9","","-23.1","","76","","","M","28","","4","","","M","98.53","","","","-23","","NA"
"-75.67","62.18","SALLUIT A","7117802","2019-03-01 17:00","2019","03","01","17:00","-20.1","","-23.2","","77","","","M","0","","1","","","M","98.49","","","","-21","","NA"
"-75.67","62.18","SALLUIT A","7117802","2019-03-01 18:00","2019","03","01","18:00","-20.1","","-23.1","","78","","","M","22","","5","","","M","98.50","","","","-24","","NA"
"-75.67","62.18","SALLUIT A","7117802","2019-03-01 19:00","2019","03","01","19:00","-21.7","","-24.6","","78","","","M","20","","17","","","M","98.53","","","","-32","","NA"
"-75.67","62.18","SALLUIT A","7117802","2019-03-01 20:00","2019","03","01","20:00","-21.1","","-24.8","","73","","","M","22","","14","","","M","98.54","","","","-30","","NA"
"-75.67","62.18","SALLUIT A","7117802","2019-03-01 21:00","2019","03","01","21:00","-21.9","","-25.8","","71","","","M","27","","12","","","M","98.50","","","","-30","","NA"
"-75.67","62.18","SALLUIT A","7117802","2019-03-01 22:00","2019","03","01","22:00","-20.2","","-24.8","","67","","","M","25","","9","","","M","98.50","","","","-27","","NA"
"-75.67","62.18","SALLUIT A","7117802","2019-03-01 23:00","2019","03","01","23:00","-19.9","","-25.0","","64","","","M","25","","6","","","M","98.44","","","","-25","","NA"
"-75.67","62.18","SALLUIT A","7117802","2019-03-02 00:00","2019","03","02","00:00","-20.8","","-25.4","","68","","","M","28","","3","","","M","98.43","","","","-23","","NA"
"-75.67","62.18","SALLUIT A","7117802","2019-03-02 01:00","2019","03","02","01:00","-22.5","","-26.4","","71","","","M","22","","11","","","M","98.39","","","","-31","","NA"
"-75.67","62.18","SALLUIT A","7117802","2019-03-02 02:00","2019","03","02","02:00","-22.1","","-26.4","","69","","","M","25","","17","","","M","98.40","","","","-32","","NA"
"-75.67","62.18","SALLUIT A","7117802","2019-03-02 03:00","2019","03","02","03:00","-22.5","","-27.1","","67","","","M","20","","16","","","M","98.40","","","","-32","","NA"
"-75.67","62.18","SALLUIT A","7117802","2019-03-02 04:00","2019","03","02","04:00","-23.8","","-27.8","","70","","","M","19","","27","","","M","98.39","","","","-37","","NA"
"-75.67","62.18","SALLUIT A","7117802","2019-03-02 05:00","2019","03","02","05:00","-24.8","","-28.6","","71","","","M","21","","24","","","M","98.37","","","","-38","","NA"
"-75.67","62.18","SALLUIT A","7117802","2019-03-02 06:00","2019","03","02","06:00","-24.0","","-27.9","","71","","","M","22","","27","","","M","98.36","","","","-37","","NA"
"-75.67","62.18","SALLUIT A","7117802","2019-03-02 07:00","2019","03","02","07:00","-25.1","","-28.6","","74","","","M","20","","38","","","M","98.36","","","","-41","","NA"
"-75.67","62.18","SALLUIT A","7117802","2019-03-02 08:00","2019","03","02","08:00","-25.1","","-28.3","","75","","","M","21","","36","","","M","98.30","","","","-40","","NA"
"-75.67","62.18","SALLUIT A","7117802","2019-03-02 09:00","2019","03","02","09:00","-23.9","","-27.3","","74","","","M","24","","21","","","M","98.27","","","","-36","","NA"
"-75.67","62.18","SALLUIT A","7117802","2019-03-02 10:00","2019","03","02","10:00","-22.2","","-26.1","","71","","","M","26","","26","","","M","98.23","","","","-35","","NA"
"-75.67","62.18","SALLUIT A","7117802","2019-03-02 11:00","2019","03","02","11:00","-22.6","","-26.8","","70","","","M","20","","27","","","M","98.20","","","","-35","","NA"
"-75.67","62.18","SALLUIT A","7117802","2019-03-02 12:00","2019","03","02","12:00","-23.4","","-26.7","","74","","","M","20","","37","","","M","98.19","","","","-38","","NA"
"-75.67","62.18","SALLUIT A","7117802","2019-03-02 13:00","2019","03","02","13:00","-22.7","","-26.3","","73","","","M","22","","32","","","M","98.13","","","","-36","","NA"
"-75.67","62.18","SALLUIT A","7117802","2019-03-02 14:00","2019","03","02","14:00","-22.9","","-26.4","","73","","","M","20","","36","","","M","98.14","","","","-37","","NA"
"-75.67","62.18","SALLUIT A","7117802","2019-03-02 15:00","2019","03","02","15:00","-22.9","","-26.3","","75","","","M","20","","36","","","M","98.12","","","","-37","","NA"
"-75.67","62.18","SALLUIT A","7117802","2019-03-02 16:00","2019","03","02","16:00","-23.6","","-27.1","","73","","","M","20","","43","","","M","98.12","","","","-39","","NA"
"-75.67","62.18","SALLUIT A","7117802","2019-03-02 17:00","2019","03","02","17:00","-24.7","","-27.8","","75","","","M","21","","41","","","M","98.12","","","","-41","","NA"
"-75.67","62.18","SALLUIT A","7117802","2019-03-02 18:00","2019","03","02","18:00","-25.0","","-28.1","","76","","","M","18","","51","","","M","98.08","","","","-42","","NA"
"-75.67","62.18","SALLUIT A","7117802","2019-03-02 19:00","2019","03","02","19:00","-25.1","","-28.1","","76","","","M","19","","46","","","M","98.07","","","","-42","","NA"
"-75.67","62.18","SALLUIT A","7117802","2019-03-02 20:00","2019","03","02","20:00","-24.9","","-27.7","","78","","","M","19","","42","","","M","98.06","","","","-41","","NA"
"-75.67","62.18","SALLUIT A","7117802","2019-03-02 21:00","2019","03","02","21:00","-24.7","","-27.7","","77","","","M","18","","35","","","M","98.01","","","","-40","","NA"
"-75.67","62.18","SALLUIT A","7117802","2019-03-02 22:00","2019","03","02","22:00","-24.6","","-27.4","","78","","","M","21","","40","","","M","97.96","","","","-40","","NA"
"-75.67","62.18","SALLUIT A","7117802","2019-03-02 23:00","2019","03","02","23:00","-24.9","","-27.8","","77","","","M","22","","31","","","M","97.98","","","","-39","","NA"
"-75.67","62.18","SALLUIT A","7117802","2019-03-03 00:00","2019","03","03","00:00","-24.8","","-27.7","","77","","","M","22","","45","","","M","97.89","","","","-41","","NA"
"-75.67","62.18","SALLUIT A","7117802","2019-03-03 01:00","2019","03","03","01:00","-24.5","","-27.4","","77","","","M","22","","55","","","M","97.81","","","","-42","","NA"
"-75.67","62.18","SALLUIT A","7117802","2019-03-03 02:00","2019","03","03","02:00","-24.6","","-27.4","","78","","","M","21","","45","","","M","97.82","","","","-41","","NA"
"-75.67","62.18","SALLUIT A","7117802","2019-03-03 03:00","2019","03","03","03:00","-25.0","","-28.0","","77","","","M","21","","32","","","M","97.86","","","","-39","","NA"
"-75.67","62.18","SALLUIT A","7117802","2019-03-03 04:00","2019","03","03","04:00","-25.1","","-28.1","","77","","","M","21","","46","","","M","97.87","","","","-42","","NA"
"-75.67","62.18","SALLUIT A","7117802","2019-03-03 05:00","2019","03","03","05:00","-25.1","","-28.2","","76","","","M","19","","44","","","M","97.85","","","","-42","","NA"
"-75.67","62.18","SALLUIT A","7117802","2019-03-03 06:00","2019","03","03","06:00","-24.9","","-28.0","","76","","","M","21","","47","","","M","97.81","","","","-42","","NA"
"-75.67","62.18","SALLUIT A","7117802","2019-03-03 07:00","2019","03","03","07:00","-24.9","","-27.8","","77","","","M","22","","45","","","M","97.84","","","","-41","","NA"
"-75.67","62.18","SALLUIT A","7117802","2019-03-03 08:00","2019","03","03","08:00","-24.8","","-27.8","","77","","","M","21","","48","","","M","97.81","","","","-42","","NA"
"-75.67","62.18","SALLUIT A","7117802","2019-03-03 09:00","2019","03","03","09:00","-24.4","","-27.5","","76","","","M","22","","42","","","M","97.81","","","","-40","","NA"
"-75.67","62.18","SALLUIT A","7117802","2019-03-03 10:00","2019","03","03","10:00","-24.3","","-27.4","","76","","","M","21","","46","","","M","97.79","","","","-41","","NA"
"-75.67","62.18","SALLUIT A","7117802","2019-03-03 11:00","2019","03","03","11:00","-24.2","","-27.5","","75","","","M","22","","44","","","M","97.80","","","","-40","","NA"
"-75.67","62.18","SALLUIT A","7117802","2019-03-03 12:00","2019","03","03","12:00","-23.8","","-27.2","","74","","","M","21","","43","","","M","97.80","","","","-40","","NA"
"-75.67","62.18","SALLUIT A","7117802","2019-03-03 13:00","2019","03","03","13:00","-23.5","","-26.8","","75","","","M","22","","44","","","M","97.81","","","","-39","","NA"
"-75.67","62.18","SALLUIT A","7117802","2019-03-03 14:00","2019","03","03","14:00","-23.8","","-27.1","","75","","","M","22","","37","","","M","97.86","","","","-39","","NA"
"-75.67","62.18","SALLUIT A","7117802","2019-03-03 15:00","2019","03","03","15:00","-23.6","","-26.9","","75","","","M","21","","41","","","M","97.91","","","","-39","","NA"
"-75.67","62.18","SALLUIT A","7117802","2019-03-03 16:00","2019","03","03","16:00","-23.4","","-26.6","","75","","","M","23","","45","","","M","97.90","","","","-39","","NA"
"-75.67","62.18","SALLUIT A","7117802","2019-03-03 17:00","2019","03","03","17:00","-23.4","","-26.6","","76","","","M","21","","47","","","M","97.93","","","","-40","","NA"
"-75.67","62.18","SALLUIT A","7117802","2019-03-03 18:00","2019","03","03","18:00","-23.4","","-26.6","","75","","","M","20","","39","","","M","98.01","","","","-39","","NA"
"-75.67","62.18","SALLUIT A","7117802","2019-03-03 19:00","2019","03","03","19:00","-23.6","","-26.9","","75","","","M","20","","50","","","M","98.02","","","","-40","","NA"
"-75.67","62.18","SALLUIT A","7117802","2019-03-03 20:00","2019","03","03","20:00","-24.4","","-27.9","","74","","","M","21","","37","","","M","98.08","","","","-40","","NA"
"-75.67","62.18","SALLUIT A","7117802","2019-03-03 21:00","2019","03","03","21:00","-24.5","","-28.0","","73","","","M","22","","14","","","M","98.16","","","","-34","","NA"
"-75.67","62.18","SALLUIT A","7117802","2019-03-03 22:00","2019","03","03","22:00","-24.7","","-28.4","","72","","","M","21","","20","","","M","98.22","","","","-36","","NA"
"-75.67","62.18","SALLUIT A","7117802","2019-03-03 23:00","2019","03","03","23:00","-24.8","","-28.5","","72","","","M","19","","28","","","M","98.23","","","","-38","","NA"
"-75.67","62.18","SALLUIT A","7117802","2019-03-04 00:00","2019","03","04","00:00","-25.2","","-28.8","","72","","","M","21","","22","","","M","98.30","","","","-38","","NA"
"-75.67","62.18","SALLUIT A","7117802","2019-03-04 01:00","2019","03","04","01:00","-25.4","","-28.9","","73","","","M","17","","21","","","M","98.35","","","","-38","","NA"
"-75.67","62.18","SALLUIT A","7117802","2019-03-04 02:00","2019","03","04","02:00","-25.3","","-28.9","","73","","","M","18","","32","","","M","98.35","","","","-40","","NA"
"-75.67","62.18","SALLUIT A","7117802","2019-03-04 03:00","2019","03","04","03:00","-25.2","","-28.9","","72","","","M","19","","23","","","M","98.35","","","","-38","","NA"
"-75.67","62.18","SALLUIT A","7117802","2019-03-04 04:00","2019","03","04","04:00","-25.4","","-29.1","","72","","","M","18","","19","","","M","98.39","","","","-37","","NA"
"-75.67","62.18","SALLUIT A","7117802","2019-03-04 05:00","2019","03","04","05:00","-25.6","","-29.2","","72","","","M","21","","10","","","M","98.44","","","","-34","","NA"
"-75.67","62.18","SALLUIT A","7117802","2019-03-04 06:00","2019","03","04","06:00","-24.6","","-28.2","","73","","","M","21","","9","","","M","98.44","","","","-32","","NA"
"-75.67","62.18","SALLUIT A","7117802","2019-03-04 07:00","2019","03","04","07:00","-25.4","","-29.1","","72","","","M","27","","4","","","M","98.46","","","","-29","","NA"
"-75.67","62.18","SALLUIT A","7117802","2019-03-04 08:00","2019","03","04","08:00","-25.9","","-29.3","","73","","","M","21","","4","","","M","98.47","","","","-30","","NA"
"-75.67","62.18","SALLUIT A","7117802","2019-03-04 09:00","2019","03","04","09:00","-24.4","","-28.1","","72","","","M","19","","2","","","M","98.47","","","","-26","","NA"
"-75.67","62.18","SALLUIT A","7117802","2019-03-04 10:00","2019","03","04","10:00","-24.6","","-28.0","","74","","","M","26","","6","","","M","98.44","","","","-30","","NA"
"-75.67","62.18","SALLUIT A","7117802","2019-03-04 11:00","2019","03","04","11:00","-24.2","","-27.5","","75","","","M","28","","4","","","M","98.42","","","","-28","","NA"
"-75.67","62.18","SALLUIT A","7117802","2019-03-04 12:00","2019","03","04","12:00","-23.9","","-27.1","","75","","","M","24","","7","","","M","98.39","","","","-30","","NA"
"-75.67","62.18","SALLUIT A","7117802","2019-03-04 13:00","2019","03","04","13:00","-23.6","","-26.9","","74","","","M","27","","5","","","M","98.37","","","","-28","","NA"
"-75.67","62.18","SALLUIT A","7117802","2019-03-04 14:00","2019","03","04","14:00","-22.9","","-26.6","","72","","","M","25","","3","","","M","98.35","","","","-26","","NA"
"-75.67","62.18","SALLUIT A","7117802","2019-03-04 15:00","2019","03","04","15:00","-23.1","","-26.4","","75","","","M","27","","3","","","M","98.36","","","","-26","","NA"
"-75.67","62.18","SALLUIT A","7117802","2019-03-04 16:00","2019","03","04","16:00","-23.5","","-26.3","","78","","","M","28","","3","","","M","98.35","","","","-26","","NA"
"-75.67","62.18","SALLUIT A","7117802","2019-03-04 17:00","2019","03","04","17:00","-23.8","","-26.4","","79","","","M","25","","2","","","M","98.34","","","","-26","","NA"
"-75.67","62.18","SALLUIT A","7117802","2019-03-04 18:00","2019","03","04","18:00","-23.7","","-26.4","","79","","","M","28","","3","","","M","98.32","","","","-27","","NA"
"-75.67","62.18","SALLUIT A","7117802","2019-03-04 19:00","2019","03","04","19:00","-23.4","","-26.2","","78","","","M","26","","1","","","M","98.29","","","","-24","","NA"
"-75.67","62.18","SALLUIT A","7117802","2019-03-04 20:00","2019","03","04","20:00","-23.3","","-25.8","","80","","","M","28","","3","","","M","98.26","","","","-26","","NA"
"-75.67","62.18","SALLUIT A","7117802","2019-03-04 21:00","2019","03","04","21:00","-23.5","","-26.1","","80","","","M","25","","3","","","M","98.23","","","","-26","","NA"
"-75.67","62.18","SALLUIT A","7117802","2019-03-04 22:00","2019","03","04","22:00","-23.2","","-25.8","","80","","","M","21","","3","","","M","98.20","","","","-26","","NA"
"-75.67","62.18","SALLUIT A","7117802","2019-03-04 23:00","2019","03","04","23:00","-23.6","","-26.1","","80","","","M","23","","3","","","M","98.14","","","","-26","","NA"
"-75.67","62.18","SALLUIT A","7117802","2019-03-05 00:00","2019","03","05","00:00","-23.7","","-26.2","","81","","","M","25","","4","","","M","98.09","","","","-28","","NA"
"-75.67","62.18","SALLUIT A","7117802","2019-03-05 01:00","2019","03","05","01:00","-24.2","","-26.7","","80","","","M","26","","4","","","M","98.04","","","","-28","","NA"
"-75.67","62.18","SALLUIT A","7117802","2019-03-05 02:00","2019","03","05","02:00","-24.1","","-26.5","","80","","","M","23","","4","","","M","98.00","","","","-28","","NA"
"-75.67","62.18","SALLUIT A","7117802","2019-03-05 03:00","2019","03","05","03:00","-24.8","","-27.7","","77","","","M","20","","5","","","M","97.95","","","","-30","","NA"
"-75.67","62.18","SALLUIT A","7117802","2019-03-05 04:00","2019","03","05","04:00","-24.9","","-27.9","","77","","","M","22","","5","","","M","97.92","","","","-30","","NA"
"-75.67","62.18","SALLUIT A","7117802","2019-03-05 05:00","2019","03","05","05:00","-25.3","","-28.4","","76","","","M","20","","8","","","M","97.90","","","","-32","","NA"
"-75.67","62.18","SALLUIT A","7117802","2019-03-05 06:00","2019","03","05","06:00","-25.3","","-28.4","","76","","","M","21","","11","","","M","97.91","","","","-34","","NA"
"-75.67","62.18","SALLUIT A","7117802","2019-03-05 07:00","2019","03","05","07:00","-25.9","","-29.1","","75","","","M","23","","8","","","M","97.90","","","","-33","","NA"
"-75.67","62.18","SALLUIT A","7117802","2019-03-05 08:00","2019","03","05","08:00","-25.9","","-29.3","","74","","","M","22","","15","","","M","97.90","","","","-36","","NA"
"-75.67","62.18","SALLUIT A","7117802","2019-03-05 09:00","2019","03","05","09:00","-26.2","","-29.9","","72","","","M","20","","20","","","M","97.86","","","","-38","","NA"
"-75.67","62.18","SALLUIT A","7117802","2019-03-05 10:00","2019","03","05","10:00","-25.7","","-29.7","","70","","","M","19","","24","","","M","97.82","","","","-39","","NA"
"-75.67","62.18","SALLUIT A","7117802","2019-03-05 11:00","2019","03","05","11:00","-25.6","","-29.4","","72","","","M","21","","28","","","M","97.81","","","","-39","","NA"
"-75.67","62.18","SALLUIT A","7117802","2019-03-05 12:00","2019","03","05","12:00","-25.6","","-29.3","","72","","","M","20","","32","","","M","97.79","","","","-40","","NA"
"-75.67","62.18","SALLUIT A","7117802","2019-03-05 13:00","2019","03","05","13:00","-25.8","","-29.3","","72","","","M","20","","32","","","M","97.80","","","","-41","","NA"
"-75.67","62.18","SALLUIT A","7117802","2019-03-05 14:00","2019","03","05","14:00","-25.5","","-29.2","","72","","","M","21","","30","","","M","97.83","","","","-40","","NA"
"-75.67","62.18","SALLUIT A","7117802","2019-03-05 15:00","2019","03","05","15:00","-25.9","","-29.5","","73","","","M","20","","31","","","M","97.84","","","","-40","","NA"
"-75.67","62.18","SALLUIT A","7117802","2019-03-05 16:00","2019","03","05","16:00","-25.8","","-29.3","","73","","","M","19","","33","","","M","97.85","","","","-41","","NA"
"-75.67","62.18","SALLUIT A","7117802","2019-03-05 17:00","2019","03","05","17:00","-26.1","","-29.6","","73","","","M","19","","28","","","M","97.87","","","","-40","","NA"
"-75.67","62.18","SALLUIT A","7117802","2019-03-05 18:00","2019","03","05","18:00","-26.4","","-29.5","","75","","","M","20","","37","","","M","97.86","","","","-42","","NA"
"-75.67","62.18","SALLUIT A","7117802","2019-03-05 19:00","2019","03","05","19:00","-27.0","","-30.1","","76","","","M","20","","33","","","M","97.86","","","","-42","","NA"
"-75.67","62.18","SALLUIT A","7117802","2019-03-05 20:00","2019","03","05","20:00","-27.7","","-31.0","","74","","","M","20","","31","","","M","97.85","","","","-43","","NA"
"-75.67","62.18","SALLUIT A","7117802","2019-03-05 21:00","2019","03","05","21:00","-28.8","","-32.3","","72","","","M","19","","20","","","M","97.86","","","","-42","","NA"
"-75.67","62.18","SALLUIT A","7117802","2019-03-05 22:00","2019","03","05","22:00","-28.5","","-32.2","","71","","","M","18","","26","","","M","97.85","","","","-43","","NA"
"-75.67","62.18","SALLUIT A","7117802","2019-03-05 23:00","2019","03","05","23:00","-28.7","","-32.0","","74","","","M","25","","19","","","M","97.80","","","","-41","","NA"
"-75.67","62.18","SALLUIT A","7117802","2019-03-06 00:00","2019","03","06","00:00","-28.8","","-32.1","","74","","","M","21","","18","","","M","97.76","","","","-41","","NA"
"-75.67","62.18","SALLUIT A","7117802","2019-03-06 01:00","2019","03","06","01:00","-28.9","","-32.4","","72","","","M","18","","44","","","M","97.74","","","","-47","","NA"
"-75.67","62.18","SALLUIT A","7117802","2019-03-06 02:00","2019","03","06","02:00","-29.5","","-33.2","","71","","","M","16","","37","","","M","97.75","","","","-46","","NA"
"-75.67","62.18","SALLUIT A","7117802","2019-03-06 03:00","2019","03","06","03:00","-29.7","","-33.1","","73","","","M","17","","42","","","M","97.72","","","","-47","","NA"
"-75.67","62.18","SALLUIT A","7117802","2019-03-06 04:00","2019","03","06","04:00","-29.4","","-32.9","","72","","","M","17","","48","","","M","97.70","","","","-48","","NA"
"-75.67","62.18","SALLUIT A","7117802","2019-03-06 05:00","2019","03","06","05:00","-30.0","","-33.6","","71","","","M","17","","43","","","M","97.68","","","","-48","","NA"
"-75.67","62.18","SALLUIT A","7117802","2019-03-06 06:00","2019","03","06","06:00","-28.9","","-32.3","","73","","","M","17","","36","","","M","97.71","","","","-45","","NA"
"-75.67","62.18","SALLUIT A","7117802","2019-03-06 07:00","2019","03","06","07:00","-29.2","","-32.6","","73","","","M","17","","24","","","M","97.72","","","","-43","","NA"
"-75.67","62.18","SALLUIT A","7117802","2019-03-06 08:00","2019","03","06","08:00","-28.9","","-32.7","","71","","","M","17","","30","","","M","97.72","","","","-44","","NA"
"-75.67","62.18","SALLUIT A","7117802","2019-03-06 09:00","2019","03","06","09:00","-28.2","","-32.1","","70","","","M","18","","36","","","M","97.71","","","","-44","","NA"
"-75.67","62.18","SALLUIT A","7117802","2019-03-06 10:00","2019","03","06","10:00","-28.5","","-32.5","","69","","","M","18","","29","","","M","97.72","","","","-43","","NA"
"-75.67","62.18","SALLUIT A","7117802","2019-03-06 11:00","2019","03","06","11:00","-27.9","","-31.9","","70","","","M","18","","36","","","M","97.69","","","","-44","","NA"
"-75.67","62.18","SALLUIT A","7117802","2019-03-06 12:00","2019","03","06","12:00","-27.9","","-32.1","","68","","","M","18","","33","","","M","97.67","","","","-43","","NA"
"-75.67","62.18","SALLUIT A","7117802","2019-03-06 13:00","2019","03","06","13:00","-27.3","","-31.4","","69","","","M","18","","30","","","M","97.69","","","","-42","","NA"
"-75.67","62.18","SALLUIT A","7117802","2019-03-06 14:00","2019","03","06","14:00","-27.0","","-31.2","","68","","","M","18","","30","","","M","97.69","","","","-42","","NA"
"-75.67","62.18","SALLUIT A","7117802","2019-03-06 15:00","2019","03","06","15:00","-26.9","","-31.2","","68","","","M","18","","29","","","M","97.71","","","","-41","","NA"
"-75.67","62.18","SALLUIT A","7117802","2019-03-06 16:00","2019","03","06","16:00","-27.1","","-31.3","","68","","","M","19","","33","","","M","97.68","","","","-42","","NA"
"-75.67","62.18","SALLUIT A","7117802","2019-03-06 17:00","2019","03","06","17:00","-27.9","","-31.8","","70","","","M","18","","39","","","M","97.69","","","","-45","","NA"
"-75.67","62.18","SALLUIT A","7117802","2019-03-06 18:00","2019","03","06","18:00","-28.4","","-32.0","","72","","","M","18","","34","","","M","97.71","","","","-44","","NA"
"-75.67","62.18","SALLUIT A","7117802","2019-03-06 19:00","2019","03","06","19:00","-27.9","","-31.7","","71","","","M","20","","24","","","M","97.72","","","","-42","","NA"
"-75.67","62.18","SALLUIT A","7117802","2019-03-06 20:00","2019","03","06","20:00","-28.8","","-32.5","","71","","","M","19","","25","","","M","97.72","","","","-43","","NA"
"-75.67","62.18","SALLUIT A","7117802","2019-03-06 21:00","2019","03","06","21:00","-28.9","","-32.5","","72","","","M","20","","18","","","M","97.69","","","","-41","","NA"
"-75.67","62.18","SALLUIT A","7117802","2019-03-06 22:00","2019","03","06","22:00","-29.2","","-32.6","","73","","","M","24","","17","","","M","97.65","","","","-41","","NA"
"-75.67","62.18","SALLUIT A","7117802","2019-03-06 23:00","2019","03","06","23:00","-28.8","","-32.3","","73","","","M","23","","16","","","M","97.61","","","","-40","","NA"
"-75.67","62.18","SALLUIT A","7117802","2019-03-07 00:00","2019","03","07","00:00","-30.1","","-33.5","","73","","","M","26","","15","","","M","97.57","","","","-42","","NA"
"-75.67","62.18","SALLUIT A","7117802","2019-03-07 01:00","2019","03","07","01:00","-29.5","","-32.8","","74","","","M","25","","10","","","M","97.51","","","","-39","","NA"
"-75.67","62.18","SALLUIT A","7117802","2019-03-07 02:00","2019","03","07","02:00","-29.9","","-32.8","","76","","","M","22","","7","","","M","97.50","","","","-37","","NA"
"-75.67","62.18","SALLUIT A","7117802","2019-03-07 03:00","2019","03","07","03:00","-30.1","","-33.1","","76","","","M","26","","4","","","M","97.47","","","","-35","","NA"
"-75.67","62.18","SALLUIT A","7117802","2019-03-07 04:00","2019","03","07","04:00","-31.4","","-34.4","","75","","","M","28","","7","","","M","97.45","","","","-39","","NA"
"-75.67","62.18","SALLUIT A","7117802","2019-03-07 05:00","2019","03","07","05:00","-31.6","","-34.6","","75","","","M","28","","7","","","M","97.44","","","","-39","","NA"
"-75.67","62.18","SALLUIT A","7117802","2019-03-07 06:00","2019","03","07","06:00","-30.6","","-33.5","","76","","","M","27","","5","","","M","97.42","","","","-36","","NA"
"-75.67","62.18","SALLUIT A","7117802","2019-03-07 07:00","2019","03","07","07:00","-31.2","","-34.0","","77","","","M","28","","4","","","M","97.41","","","","-36","","NA"
"-75.67","62.18","SALLUIT A","7117802","2019-03-07 08:00","2019","03","07","08:00","-30.8","","-33.6","","77","","","M","26","","5","","","M","97.40","","","","-37","","NA"
"-75.67","62.18","SALLUIT A","7117802","2019-03-07 09:00","2019","03","07","09:00","-29.1","","-31.8","","79","","","M","27","","4","","","M","97.35","","","","-34","","NA"
"-75.67","62.18","SALLUIT A","7117802","2019-03-07 10:00","2019","03","07","10:00","-29.1","","-31.9","","77","","","M","27","","7","","","M","97.32","","","","-36","","NA"
"-75.67","62.18","SALLUIT A","7117802","2019-03-07 11:00","2019","03","07","11:00","-29.0","","-32.0","","76","","","M","25","","6","","","M","97.32","","","","-35","","NA"
"-75.67","62.18","SALLUIT A","7117802","2019-03-07 12:00","2019","03","07","12:00","-27.3","","-30.3","","76","","","M","24","","4","","","M","97.30","","","","-32","","NA"
"-75.67","62.18","SALLUIT A","7117802","2019-03-07 13:00","2019","03","07","13:00","-26.6","","-29.4","","77","","","M","23","","5","","","M","97.28","","","","-32","","NA"
"-75.67","62.18","SALLUIT A","7117802","2019-03-07 14:00","2019","03","07","14:00","-25.1","","-28.1","","77","","","M","23","","4","","","M","97.27","","","","-29","","NA"
"-75.67","62.18","SALLUIT A","7117802","2019-03-07 15:00","2019","03","07","15:00","-25.1","","-28.2","","76","","","M","23","","5","","","M","97.29","","","","-30","","NA"
"-75.67","62.18","SALLUIT A","7117802","2019-03-07 16:00","2019","03","07","16:00","-25.3","","-28.2","","77","","","M","24","","5","","","M","97.28","","","","-30","","NA"
"-75.67","62.18","SALLUIT A","7117802","2019-03-07 17:00","2019","03","07","17:00","-25.0","","-27.8","","78","","","M","24","","5","","","M","97.28","","","","-30","","NA"
"-75.67","62.18","SALLUIT A","7117802","2019-03-07 18:00","2019","03","07","18:00","-25.0","","-27.7","","79","","","M","31","","6","","","M","97.30","","","","-31","","NA"
"-75.67","62.18","SALLUIT A","7117802","2019-03-07 19:00","2019","03","07","19:00","-25.1","","-27.9","","78","","","M","31","","4","","","M","97.31","","","","-29","","NA"
"-75.67","62.18","SALLUIT A","7117802","2019-03-07 20:00","2019","03","07","20:00","-24.8","","-27.4","","79","","","M","26","","4","","","M","97.29","","","","-29","","NA"
"-75.67","62.18","SALLUIT A","7117802","2019-03-07 21:00","2019","03","07","21:00","-24.0","","-26.4","","81","","","M","31","","11","","","M","97.27","","","","-32","","NA"
"-75.67","62.18","SALLUIT A","7117802","2019-03-07 22:00","2019","03","07","22:00","-24.6","","-27.1","","80","","","M","27","","3","","","M","97.24","","","","-28","","NA"
"-75.67","62.18","SALLUIT A","7117802","2019-03-07 23:00","2019","03","07","23:00","-23.7","","-26.2","","80","","","M","24","","5","","","M","97.20","","","","-28","","NA"
"-75.67","62.18","SALLUIT A","7117802","2019-03-08 00:00","2019","03","08","00:00","-23.1","","-25.6","","80","","","M","25","","3","","","M","97.20","","","","-26","","NA"
"-75.67","62.18","SALLUIT A","7117802","2019-03-08 01:00","2019","03","08","01:00","-23.4","","-26.1","","79","","","M","27","","5","","","M","97.21","","","","-28","","NA"
"-75.67","62.18","SALLUIT A","7117802","2019-03-08 02:00","2019","03","08","02:00","-22.6","","-25.2","","80","","","M","32","","8","","","M","97.21","","","","-29","","NA"
"-75.67","62.18","SALLUIT A","7117802","2019-03-08 03:00","2019","03","08","03:00","-22.9","","-25.5","","80","","","M","23","","5","","","M","97.21","","","","-28","","NA"
"-75.67","62.18","SALLUIT A","7117802","2019-03-08 04:00","2019","03","08","04:00","-23.3","","-25.9","","80","","","M","26","","4","","","M","97.23","","","","-27","","NA"
"-75.67","62.18","SALLUIT A","7117802","2019-03-08 05:00","2019","03","08","05:00","-23.4","","-26.1","","79","","","M","25","","11","","","M","97.24","","","","-32","","NA"
"-75.67","62.18","SALLUIT A","7117802","2019-03-08 06:00","2019","03","08","06:00","-23.1","","-25.9","","79","","","M","26","","12","","","M","97.27","","","","-32","","NA"
"-75.67","62.18","SALLUIT A","7117802","2019-03-08 07:00","2019","03","08","07:00","-22.8","","-25.4","","79","","","M","26","","9","","","M","97.29","","","","-30","","NA"
"-75.67","62.18","SALLUIT A","7117802","2019-03-08 08:00","2019","03","08","08:00","-22.5","","-25.1","","79","","","M","25","","11","","","M","97.33","","","","-31","","NA"
"-75.67","62.18","SALLUIT A","7117802","2019-03-08 09:00","2019","03","08","09:00","-21.3","","-23.6","","82","","","M","32","","18","","","M","97.39","","","","-32","","NA"
"-75.67","62.18","SALLUIT A","7117802","2019-03-08 10:00","2019","03","08","10:00","-21.6","","-23.9","","82","","","M","30","","20","","","M","97.42","","","","-32","","NA"
"-75.67","62.18","SALLUIT A","7117802","2019-03-08 11:00","2019","03","08","11:00","-21.3","","-23.7","","82","","","M","32","","11","","","M","97.48","","","","-29","","NA"
"-75.67","62.18","SALLUIT A","7117802","2019-03-08 12:00","2019","03","08","12:00","-21.6","","-24.2","","80","","","M","25","","16","","","M","97.52","","","","-31","","NA"
"-75.67","62.18","SALLUIT A","7117802","2019-03-08 13:00","2019","03","08","13:00","-22.1","","-24.9","","79","","","M","27","","20","","","M","97.56","","","","-33","","NA"
"-75.67","62.18","SALLUIT A","7117802","2019-03-08 14:00","2019","03","08","14:00","-22.1","","-24.9","","78","","","M","28","","15","","","M","97.64","","","","-32","","NA"
"-75.67","62.18","SALLUIT A","7117802","2019-03-08 15:00","2019","03","08","15:00","-21.8","","-24.8","","77","","","M","26","","16","","","M","97.72","","","","-32","","NA"
"-75.67","62.18","SALLUIT A","7117802","2019-03-08 16:00","2019","03","08","16:00","-21.4","","-24.6","","76","","","M","25","","8","","","M","97.79","","","","-28","","NA"
"-75.67","62.18","SALLUIT A","7117802","2019-03-08 17:00","2019","03","08","17:00","-20.9","","-24.5","","74","","","M","21","","3","","","M","97.85","","","","-24","","NA"
"-75.67","62.18","SALLUIT A","7117802","2019-03-08 18:00","2019","03","08","18:00","-21.0","","-23.9","","78","","","M","1","","8","","","M","97.94","","","","-27","","NA"
"-75.67","62.18","SALLUIT A","7117802","2019-03-08 19:00","2019","03","08","19:00","-21.1","","-23.4","","82","","","M","7","","6","","","M","98.01","","","","-26","","NA"
"-75.67","62.18","SALLUIT A","7117802","2019-03-08 20:00","2019","03","08","20:00","-20.9","","-22.9","","84","","","M","8","","8","","","M","98.07","","","","-27","","NA"
"-75.67","62.18","SALLUIT A","7117802","2019-03-08 21:00","2019","03","08","21:00","-20.8","","-22.9","","84","","","M","8","","8","","","M","98.13","","","","-27","","NA"
"-75.67","62.18","SALLUIT A","7117802","2019-03-08 22:00","2019","03","08","22:00","-20.5","","-22.8","","83","","","M","10","","9","","","M","98.17","","","","-27","","NA"
"-75.67","62.18","SALLUIT A","7117802","2019-03-08 23:00","2019","03","08","23:00","-20.6","","-23.0","","81","","","M","24","","5","","","M","98.25","","","","-25","","NA"
"-75.67","62.18","SALLUIT A","7117802","2019-03-09 00:00","2019","03","09","00:00","-20.4","","-23.1","","80","","","M","26","","12","","","M","98.32","","","","-29","","NA"
"-75.67","62.18","SALLUIT A","7117802","2019-03-09 01:00","2019","03","09","01:00","-20.8","","-23.8","","77","","","M","22","","21","","","M","98.38","","","","-32","","NA"
"-75.67","62.18","SALLUIT A","7117802","2019-03-09 02:00","2019","03","09","02:00","-21.9","","-25.1","","75","","","M","25","","14","","","M","98.47","","","","-31","","NA"
"-75.67","62.18","SALLUIT A","7117802","2019-03-09 03:00","2019","03","09","03:00","-22.9","","-26.3","","74","","","M","21","","8","","","M","98.54","","","","-30","","NA"
"-75.67","62.18","SALLUIT A","7117802","2019-03-09 04:00","2019","03","09","04:00","-23.7","","-27.1","","74","","","M","20","","22","","","M","98.63","","","","-36","","NA"
"-75.67","62.18","SALLUIT A","7117802","2019-03-09 05:00","2019","03","09","05:00","-24.7","","-28.1","","74","","","M","20","","29","","","M","98.73","","","","-39","","NA"
"-75.67","62.18","SALLUIT A","7117802","2019-03-09 06:00","2019","03","09","06:00","-25.7","","-28.9","","75","","","M","21","","28","","","M","98.84","","","","-40","","NA"
"-75.67","62.18","SALLUIT A","7117802","2019-03-09 07:00","2019","03","09","07:00","-25.3","","-28.4","","76","","","M","19","","27","","","M","98.91","","","","-39","","NA"
"-75.67","62.18","SALLUIT A","7117802","2019-03-09 08:00","2019","03","09","08:00","-25.0","","-28.1","","76","","","M","23","","28","","","M","98.97","","","","-39","","NA"
"-75.67","62.18","SALLUIT A","7117802","2019-03-09 09:00","2019","03","09","09:00","-26.5","","-29.9","","74","","","M","19","","40","","","M","99.06","","","","-43","","NA"
"-75.67","62.18","SALLUIT A","7117802","2019-03-09 10:00","2019","03","09","10:00","-25.7","","-29.3","","72","","","M","18","","33","","","M","99.14","","","","-41","","NA"
"-75.67","62.18","SALLUIT A","7117802","2019-03-09 11:00","2019","03","09","11:00","-24.8","","-28.3","","73","","","M","21","","31","","","M","99.19","","","","-39","","NA"
"-75.67","62.18","SALLUIT A","7117802","2019-03-09 12:00","2019","03","09","12:00","-24.5","","-27.9","","74","","","M","21","","34","","","M","99.21","","","","-39","","NA"
"-75.67","62.18","SALLUIT A","7117802","2019-03-09 13:00","2019","03","09","13:00","-25.1","","-28.4","","74","","","M","18","","34","","","M","99.27","","","","-40","","NA"
"-75.67","62.18","SALLUIT A","7117802","2019-03-09 14:00","2019","03","09","14:00","-25.3","","-28.9","","73","","","M","17","","31","","","M","99.36","","","","-40","","NA"
"-75.67","62.18","SALLUIT A","7117802","2019-03-09 15:00","2019","03","09","15:00","-25.1","","-28.4","","75","","","M","21","","45","","","M","99.38","","","","-42","","NA"
"-75.67","62.18","SALLUIT A","7117802","2019-03-09 16:00","2019","03","09","16:00","-24.9","","-28.3","","74","","","M","20","","37","","","M","99.43","","","","-40","","NA"
"-75.67","62.18","SALLUIT A","7117802","2019-03-09 17:00","2019","03","09","17:00","-25.6","","-28.9","","74","","","M","22","","55","","","M","99.37","","","","-44","","NA"
"-75.67","62.18","SALLUIT A","7117802","2019-03-09 18:00","2019","03","09","18:00","-25.6","","-28.9","","75","","","M","21","","47","","","M","99.46","","","","-43","","NA"
"-75.67","62.18","SALLUIT A","7117802","2019-03-09 19:00","2019","03","09","19:00","-25.5","","-28.7","","75","","","M","21","","28","","","M","99.50","","","","-39","","NA"
"-75.67","62.18","SALLUIT A","7117802","2019-03-09 20:00","2019","03","09","20:00","-25.4","","-28.9","","73","","","M","20","","38","","","M","99.52","","","","-41","","NA"
"-75.67","62.18","SALLUIT A","7117802","2019-03-09 21:00","2019","03","09","21:00","-26.0","","-29.1","","76","","","M","19","","37","","","M","99.56","","","","-42","","NA"
"-75.67","62.18","SALLUIT A","7117802","2019-03-09 22:00","2019","03","09","22:00","-25.4","","-28.7","","74","","","M","19","","32","","","M","99.59","","","","-40","","NA"
"-75.67","62.18","SALLUIT A","7117802","2019-03-09 23:00","2019","03","09","23:00","-26.3","","-29.8","","73","","","M","18","","29","","","M","99.60","","","","-41","","NA"
"-75.67","62.18","SALLUIT A","7117802","2019-03-10 00:00","2019","03","10","00:00","-26.3","","-29.9","","72","","","M","19","","27","","","M","99.55","","","","-40","","NA"
"-75.67","62.18","SALLUIT A","7117802","2019-03-10 01:00","2019","03","10","01:00","-26.7","","-30.4","","72","","","M","19","","27","","","M","99.54","","","","-41","","NA"
"-75.67","62.18","SALLUIT A","7117802","2019-03-10 02:00","2019","03","10","02:00","-27.6","","-31.1","","73","","","M","18","","32","","","M","99.53","","","","-43","","NA"
"-75.67","62.18","SALLUIT A","7117802","2019-03-10 03:00","2019","03","10","03:00","-27.4","","-30.9","","73","","","M","19","","32","","","M","99.52","","","","-43","","NA"
"-75.67","62.18","SALLUIT A","7117802","2019-03-10 04:00","2019","03","10","04:00","-26.7","","-30.2","","73","","","M","18","","32","","","M","99.50","","","","-42","","NA"
"-75.67","62.18","SALLUIT A","7117802","2019-03-10 05:00","2019","03","10","05:00","-26.4","","-29.8","","73","","","M","19","","25","","","M","99.47","","","","-40","","NA"
"-75.67","62.18","SALLUIT A","7117802","2019-03-10 06:00","2019","03","10","06:00","-26.6","","-30.1","","73","","","M","23","","22","","","M","99.44","","","","-39","","NA"
"-75.67","62.18","SALLUIT A","7117802","2019-03-10 07:00","2019","03","10","07:00","-26.4","","-29.8","","74","","","M","21","","12","","","M","99.46","","","","-36","","NA"
"-75.67","62.18","SALLUIT A","7117802","2019-03-10 08:00","2019","03","10","08:00","-27.1","","-30.5","","74","","","M","24","","13","","","M","99.42","","","","-37","","NA"
"-75.67","62.18","SALLUIT A","7117802","2019-03-10 09:00","2019","03","10","09:00","-28.1","","-31.4","","74","","","M","26","","9","","","M","99.39","","","","-36","","NA"
"-75.67","62.18","SALLUIT A","7117802","2019-03-10 10:00","2019","03","10","10:00","-26.1","","-30.1","","70","","","M","35","","4","","","M","99.36","","","","-30","","NA"
"-75.67","62.18","SALLUIT A","7117802","2019-03-10 11:00","2019","03","10","11:00","-26.4","","-30.1","","71","","","M","27","","9","","","M","99.30","","","","-34","","NA"
"-75.67","62.18","SALLUIT A","7117802","2019-03-10 12:00","2019","03","10","12:00","-25.6","","-29.4","","71","","","M","26","","7","","","M","99.26","","","","-32","","NA"
"-75.67","62.18","SALLUIT A","7117802","2019-03-10 13:00","2019","03","10","13:00","-25.9","","-29.3","","73","","","M","25","","8","","","M","99.23","","","","-33","","NA"
"-75.67","62.18","SALLUIT A","7117802","2019-03-10 14:00","2019","03","10","14:00","-25.0","","-28.6","","72","","","M","24","","7","","","M","99.18","","","","-31","","NA"
"-75.67","62.18","SALLUIT A","7117802","2019-03-10 15:00","2019","03","10","15:00","-25.2","","-28.9","","71","","","M","25","","4","","","M","99.16","","","","-29","","NA"
"-75.67","62.18","SALLUIT A","7117802","2019-03-10 16:00","2019","03","10","16:00","-24.7","","-28.4","","72","","","M","2","","1","","","M","99.11","","","","-26","","NA"
"-75.67","62.18","SALLUIT A","7117802","2019-03-10 17:00","2019","03","10","17:00","-24.9","","-28.2","","74","","","M","3","","5","","","M","99.08","","","","-30","","NA"
"-75.67","62.18","SALLUIT A","7117802","2019-03-10 18:00","2019","03","10","18:00","-25.9","","-29.1","","75","","","M","5","","8","","","M","99.08","","","","-33","","NA"
"-75.67","62.18","SALLUIT A","7117802","2019-03-10 19:00","2019","03","10","19:00","-25.7","","-28.7","","76","","","M","6","","5","","","M","99.07","","","","-31","","NA"
"-75.67","62.18","SALLUIT A","7117802","2019-03-10 20:00","2019","03","10","20:00","-26.1","","-29.1","","77","","","M","7","","4","","","M","99.04","","","","-30","","NA"
"-75.67","62.18","SALLUIT A","7117802","2019-03-10 21:00","2019","03","10","21:00","-26.4","","-29.7","","75","","","M","8","","7","","","M","98.99","","","","-33","","NA"
"-75.67","62.18","SALLUIT A","7117802","2019-03-10 22:00","2019","03","10","22:00","-25.8","","-28.8","","76","","","M","12","","2","","","M","98.96","","","","-28","","NA"
"-75.67","62.18","SALLUIT A","7117802","2019-03-10 23:00","2019","03","10","23:00","-25.6","","-28.1","","80","","","M","1","","2","","","M","98.92","","","","-28","","NA"
"-75.67","62.18","SALLUIT A","7117802","2019-03-11 00:00","2019","03","11","00:00","-26.0","","-28.4","","80","","","M","6","","4","","","M","98.89","","","","-30","","NA"
"-75.67","62.18","SALLUIT A","7117802","2019-03-11 01:00","2019","03","11","01:00","-25.5","","-27.9","","81","","","M","23","","1","","","M","98.85","","","","-27","","NA"
"-75.67","62.18","SALLUIT A","7117802","2019-03-11 02:00","2019","03","11","02:00","-25.8","","-28.0","","82","","","M","9","","2","","","M","98.84","","","","-28","","NA"
"-75.67","62.18","SALLUIT A","7117802","2019-03-11 03:00","2019","03","11","03:00","-26.0","","-28.3","","82","","","M","10","","4","","","M","98.80","","","","-30","","NA"
"-75.67","62.18","SALLUIT A","7117802","2019-03-11 04:00","2019","03","11","04:00","-25.6","","-27.9","","82","","","M","15","","2","","","M","98.78","","","","-28","","NA"
"-75.67","62.18","SALLUIT A","7117802","2019-03-11 05:00","2019","03","11","05:00","-26.2","","-28.6","","80","","","M","12","","4","","","M","98.77","","","","-30","","NA"
"-75.67","62.18","SALLUIT A","7117802","2019-03-11 06:00","2019","03","11","06:00","-25.1","","-27.4","","82","","","M","17","","2","","","M","98.74","","","","-27","","NA"
"-75.67","62.18","SALLUIT A","7117802","2019-03-11 07:00","2019","03","11","07:00","-25.8","","-28.1","","81","","","M","24","","1","","","M","98.75","","","","-27","","NA"
"-75.67","62.18","SALLUIT A","7117802","2019-03-11 08:00","2019","03","11","08:00","-25.8","","-28.6","","78","","","M","20","","2","","","M","98.77","","","","-28","","NA"
"-75.67","62.18","SALLUIT A","7117802","2019-03-11 09:00","2019","03","11","09:00","-25.3","","-28.1","","78","","","M","9","","1","","","M","98.74","","","","-26","","NA"
"-75.67","62.18","SALLUIT A","7117802","2019-03-11 10:00","2019","03","11","10:00","-24.4","","-27.1","","79","","","M","15","","2","","","M","98.72","","","","-26","","NA"
"-75.67","62.18","SALLUIT A","7117802","2019-03-11 11:00","2019","03","11","11:00","-25.0","","-27.8","","78","","","M","27","","3","","","M","98.66","","","","-28","","NA"
"-75.67","62.18","SALLUIT A","7117802","2019-03-11 12:00","2019","03","11","12:00","-24.5","","-27.2","","78","","","M","22","","4","","","M","98.69","","","","-28","","NA"
"-75.67","62.18","SALLUIT A","7117802","2019-03-11 13:00","2019","03","11","13:00","-23.9","","-26.6","","79","","","M","23","","3","","","M","98.66","","","","-27","","NA"
"-75.67","62.18","SALLUIT A","7117802","2019-03-11 14:00","2019","03","11","14:00","-23.6","","-26.3","","79","","","M","27","","3","","","M","98.61","","","","-26","","NA"
"-75.67","62.18","SALLUIT A","7117802","2019-03-11 15:00","2019","03","11","15:00","-23.6","","-26.2","","79","","","M","28","","3","","","M","98.61","","","","-26","","NA"
"-75.67","62.18","SALLUIT A","7117802","2019-03-11 16:00","2019","03","11","16:00","-23.9","","-26.6","","79","","","M","24","","3","","","M","98.60","","","","-27","","NA"
"-75.67","62.18","SALLUIT A","7117802","2019-03-11 17:00","2019","03","11","17:00","-23.5","","-26.1","","80","","","M","24","","1","","","M","98.60","","","","-24","","NA"
"-75.67","62.18","SALLUIT A","7117802","2019-03-11 18:00","2019","03","11","18:00","-24.3","","-27.0","","79","","","M","11","","3","","","M","98.60","","","","-27","","NA"
"-75.67","62.18","SALLUIT A","7117802","2019-03-11 19:00","2019","03","11","19:00","-25.6","","-28.5","","78","","","M","27","","4","","","M","98.60","","","","-30","","NA"
"-75.67","62.18","SALLUIT A","7117802","2019-03-11 20:00","2019","03","11","20:00","-25.9","","-28.7","","78","","","M","22","","4","","","M","98.62","","","","-30","","NA"
"-75.67","62.18","SALLUIT A","7117802","2019-03-11 21:00","2019","03","11","21:00","-25.5","","-28.4","","78","","","M","21","","2","","","M","98.61","","","","-28","","NA"
"-75.67","62.18","SALLUIT A","7117802","2019-03-11 22:00","2019","03","11","22:00","-26.1","","-29.1","","77","","","M","25","","7","","","M","98.51","","","","-33","","NA"
"-75.67","62.18","SALLUIT A","7117802","2019-03-11 23:00","2019","03","11","23:00","-26.9","","-29.8","","77","","","M","28","","9","","","M","98.47","","","","-35","","NA"
"-75.67","62.18","SALLUIT A","7117802","2019-03-12 00:00","2019","03","12","00:00","-26.6","","-29.5","","77","","","M","25","","8","","","M","98.46","","","","-34","","NA"
"-75.67","62.18","SALLUIT A","7117802","2019-03-12 01:00","2019","03","12","01:00","-26.4","","-29.3","","77","","","M","27","","10","","","M","98.43","","","","-35","","NA"
"-75.67","62.18","SALLUIT A","7117802","2019-03-12 02:00","2019","03","12","02:00","-26.1","","-29.0","","77","","","M","27","","7","","","M","98.39","","","","-33","","NA"
"-75.67","62.18","SALLUIT A","7117802","2019-03-12 03:00","2019","03","12","03:00","-25.9","","-28.7","","78","","","M","27","","8","","","M","98.37","","","","-33","","NA"
"-75.67","62.18","SALLUIT A","7117802","2019-03-12 04:00","2019","03","12","04:00","-24.8","","-27.6","","78","","","M","25","","5","","","M","98.36","","","","-30","","NA"
"-75.67","62.18","SALLUIT A","7117802","2019-03-12 05:00","2019","03","12","05:00","-25.1","","-27.9","","78","","","M","28","","8","","","M","98.34","","","","-32","","NA"
"-75.67","62.18","SALLUIT A","7117802","2019-03-12 06:00","2019","03","12","06:00","-25.5","","-28.4","","77","","","M","28","","7","","","M","98.31","","","","-32","","NA"
"-75.67","62.18","SALLUIT A","7117802","2019-03-12 07:00","2019","03","12","07:00","-23.6","","-26.4","","79","","","M","24","","8","","","M","98.30","","","","-30","","NA"
"-75.67","62.18","SALLUIT A","7117802","2019-03-12 08:00","2019","03","12","08:00","-22.5","","-25.1","","80","","","M","21","","12","","","M","98.28","","","","-31","","NA"
"-75.67","62.18","SALLUIT A","7117802","2019-03-12 09:00","2019","03","12","09:00","-22.9","","-25.6","","79","","","M","22","","14","","","M","98.28","","","","-32","","NA"
"-75.67","62.18","SALLUIT A","7117802","2019-03-12 10:00","2019","03","12","10:00","-22.1","","-24.7","","80","","","M","21","","10","","","M","98.27","","","","-30","","NA"
"-75.67","62.18","SALLUIT A","7117802","2019-03-12 11:00","2019","03","12","11:00","-22.8","","-25.7","","78","","","M","23","","5","","","M","98.25","","","","-27","","NA"
"-75.67","62.18","SALLUIT A","7117802","2019-03-12 12:00","2019","03","12","12:00","-21.6","","-25.4","","72","","","M","23","","14","","","M","98.22","","","","-31","","NA"
"-75.67","62.18","SALLUIT A","7117802","2019-03-12 13:00","2019","03","12","13:00","-21.4","","-25.5","","70","","","M","25","","15","","","M","98.21","","","","-31","","NA"
"-75.67","62.18","SALLUIT A","7117802","2019-03-12 14:00","2019","03","12","14:00","-21.6","","-26.0","","68","","","M","26","","11","","","M","98.17","","","","-30","","NA"
"-75.67","62.18","SALLUIT A","7117802","2019-03-12 15:00","2019","03","12","15:00","-22.1","","-26.2","","70","","","M","18","","5","","","M","98.21","","","","-27","","NA"
"-75.67","62.18","SALLUIT A","7117802","2019-03-12 16:00","2019","03","12","16:00","-21.8","","-26.1","","69","","","M","24","","13","","","M","98.20","","","","-31","","NA"
"-75.67","62.18","SALLUIT A","7117802","2019-03-12 17:00","2019","03","12","17:00","-21.3","","-26.0","","66","","","M","26","","9","","","M","98.18","","","","-28","","NA"
"-75.67","62.18","SALLUIT A","7117802","2019-03-12 18:00","2019","03","12","18:00","-19.6","","-25.5","","60","","","M","20","","10","","","M","98.18","","","","-27","","NA"
"-75.67","62.18","SALLUIT A","7117802","2019-03-12 19:00","2019","03","12","19:00","-20.3","","-25.9","","62","","","M","22","","14","","","M","98.16","","","","-29","","NA"
"-75.67","62.18","SALLUIT A","7117802","2019-03-12 20:00","2019","03","12","20:00","-20.0","","-25.8","","61","","","M","19","","16","","","M","98.16","","","","-29","","NA"
"-75.67","62.18","SALLUIT A","7117802","2019-03-12 21:00","2019","03","12","21:00","-20.3","","-25.8","","62","","","M","27","","21","","","M","98.18","","","","-31","","NA"
"-75.67","62.18","SALLUIT A","7117802","2019-03-12 22:00","2019","03","12","22:00","-20.9","","-26.1","","64","","","M","24","","16","","","M","98.18","","","","-31","","NA"
"-75.67","62.18","SALLUIT A","7117802","2019-03-12 23:00","2019","03","12","23:00","-21.4","","-25.8","","68","","","M","18","","34","","","M","98.15","","","","-35","","NA"
"-75.67","62.18","SALLUIT A","7117802","2019-03-13 00:00","2019","03","13","00:00","-21.8","","-26.1","","69","","","M","16","","41","","","M","98.13","","","","-37","","NA"
"-75.67","62.18","SALLUIT A","7117802","2019-03-13 01:00","2019","03","13","01:00","-22.1","","-26.5","","68","","","M","17","","32","","","M","98.18","","","","-36","","NA"
"-75.67","62.18","SALLUIT A","7117802","2019-03-13 02:00","2019","03","13","02:00","-20.9","","-25.2","","69","","","M","18","","27","","","M","98.18","","","","-33","","NA"
"-75.67","62.18","SALLUIT A","7117802","2019-03-13 03:00","2019","03","13","03:00","-21.1","","-25.0","","72","","","M","21","","14","","","M","98.18","","","","-30","","NA"
"-75.67","62.18","SALLUIT A","7117802","2019-03-13 04:00","2019","03","13","04:00","-21.3","","-25.1","","72","","","M","17","","12","","","M","98.19","","","","-30","","NA"
"-75.67","62.18","SALLUIT A","7117802","2019-03-13 05:00","2019","03","13","05:00","-22.9","","-26.1","","75","","","M","28","","7","","","M","98.21","","","","-29","","NA"
"-75.67","62.18","SALLUIT A","7117802","2019-03-13 06:00","2019","03","13","06:00","-23.4","","-26.9","","74","","","M","29","","4","","","M","98.25","","","","-27","","NA"
"-75.67","62.18","SALLUIT A","7117802","2019-03-13 07:00","2019","03","13","07:00","-22.8","","-26.3","","74","","","M","29","","5","","","M","98.29","","","","-27","","NA"
"-75.67","62.18","SALLUIT A","7117802","2019-03-13 08:00","2019","03","13","08:00","-23.7","","-26.9","","75","","","M","30","","6","","","M","98.30","","","","-29","","NA"
"-75.67","62.18","SALLUIT A","7117802","2019-03-13 09:00","2019","03","13","09:00","-23.9","","-27.8","","71","","","M","25","","10","","","M","98.34","","","","-32","","NA"
"-75.67","62.18","SALLUIT A","7117802","2019-03-13 10:00","2019","03","13","10:00","-22.4","","-26.3","","71","","","M","25","","8","","","M","98.35","","","","-29","","NA"
"-75.67","62.18","SALLUIT A","7117802","2019-03-13 11:00","2019","03","13","11:00","-21.4","","-25.6","","69","","","M","25","","8","","","M","98.38","","","","-28","","NA"
"-75.67","62.18","SALLUIT A","7117802","2019-03-13 12:00","2019","03","13","12:00","-21.3","","-25.3","","71","","","M","27","","8","","","M","98.41","","","","-28","","NA"
"-75.67","62.18","SALLUIT A","7117802","2019-03-13 13:00","2019","03","13","13:00","-21.7","","-25.1","","75","","","M","26","","11","","","M","98.43","","","","-30","","NA"
"-75.67","62.18","SALLUIT A","7117802","2019-03-13 14:00","2019","03","13","14:00","-19.6","","-23.6","","71","","","M","24","","7","","","M","98.46","","","","-25","","NA"
"-75.67","62.18","SALLUIT A","7117802","2019-03-13 15:00","2019","03","13","15:00","-19.6","","-23.3","","73","","","M","27","","4","","","M","98.54","","","","-23","","NA"
"-75.67","62.18","SALLUIT A","7117802","2019-03-13 16:00","2019","03","13","16:00","-18.9","","-22.8","","72","","","M","30","","3","","","M","98.59","","","","-21","","NA"
"-75.67","62.18","SALLUIT A","7117802","2019-03-13 17:00","2019","03","13","17:00","-18.6","","-22.9","","70","","","M","21","","12","","","M","98.64","","","","-26","","NA"
"-75.67","62.18","SALLUIT A","7117802","2019-03-13 18:00","2019","03","13","18:00","-19.4","","-22.9","","74","","","M","16","","13","","","M","98.69","","","","-28","","NA"
"-75.67","62.18","SALLUIT A","7117802","2019-03-13 19:00","2019","03","13","19:00","-18.4","","-21.9","","74","","","M","18","","17","","","M","98.78","","","","-28","","NA"
"-75.67","62.18","SALLUIT A","7117802","2019-03-13 20:00","2019","03","13","20:00","-19.7","","-23.1","","75","","","M","26","","7","","","M","98.80","","","","-25","","NA"
"-75.67","62.18","SALLUIT A","7117802","2019-03-13 21:00","2019","03","13","21:00","-19.6","","-23.2","","74","","","M","19","","18","","","M","98.83","","","","-29","","NA"
"-75.67","62.18","SALLUIT A","7117802","2019-03-13 22:00","2019","03","13","22:00","-18.7","","-22.2","","74","","","M","21","","9","","","M","98.86","","","","-25","","NA"
"-75.67","62.18","SALLUIT A","7117802","2019-03-13 23:00","2019","03","13","23:00","-18.1","","-21.7","","73","","","M","18","","18","","","M","98.87","","","","-28","","NA"
"-75.67","62.18","SALLUIT A","7117802","2019-03-14 00:00","2019","03","14","00:00","-18.1","","-21.1","","77","","","M","18","","23","","","M","98.87","","","","-29","","NA"
"-75.67","62.18","SALLUIT A","7117802","2019-03-14 01:00","2019","03","14","01:00","-18.3","","-21.9","","74","","","M","21","","12","","","M","98.92","","","","-26","","NA"
"-75.67","62.18","SALLUIT A","7117802","2019-03-14 02:00","2019","03","14","02:00","-18.1","","-21.9","","73","","","M","20","","25","","","M","98.90","","","","-29","","NA"
"-75.67","62.18","SALLUIT A","7117802","2019-03-14 03:00","2019","03","14","03:00","-17.5","","-21.3","","73","","","M","19","","27","","","M","98.92","","","","-29","","NA"
"-75.67","62.18","SALLUIT A","7117802","2019-03-14 04:00","2019","03","14","04:00","-19.8","","-22.8","","77","","","M","26","","6","","","M","98.95","","","","-25","","NA"
"-75.67","62.18","SALLUIT A","7117802","2019-03-14 05:00","2019","03","14","05:00","-21.4","","-24.3","","78","","","M","24","","16","","","M","98.95","","","","-31","","NA"
"-75.67","62.18","SALLUIT A","7117802","2019-03-14 06:00","2019","03","14","06:00","-19.6","","-22.6","","77","","","M","26","","5","","","M","98.95","","","","-24","","NA"
"-75.67","62.18","SALLUIT A","7117802","2019-03-14 07:00","2019","03","14","07:00","-20.3","","-23.4","","77","","","M","24","","9","","","M","98.98","","","","-27","","NA"
"-75.67","62.18","SALLUIT A","7117802","2019-03-14 08:00","2019","03","14","08:00","-17.8","","-21.5","","73","","","M","19","","22","","","M","98.99","","","","-28","","NA"
"-75.67","62.18","SALLUIT A","7117802","2019-03-14 09:00","2019","03","14","09:00","-17.5","","-21.4","","72","","","M","9","","2","","","M","98.99","","","","-19","","NA"
"-75.67","62.18","SALLUIT A","7117802","2019-03-14 10:00","2019","03","14","10:00","-17.0","","-21.3","","70","","","M","23","","8","","","M","98.98","","","","-23","","NA"
"-75.67","62.18","SALLUIT A","7117802","2019-03-14 11:00","2019","03","14","11:00","-15.8","","-20.4","","68","","","M","15","","8","","","M","98.93","","","","-21","","NA"
"-75.67","62.18","SALLUIT A","7117802","2019-03-14 12:00","2019","03","14","12:00","-15.4","","-20.2","","67","","","M","23","","17","","","M","98.85","","","","-24","","NA"
"-75.67","62.18","SALLUIT A","7117802","2019-03-14 13:00","2019","03","14","13:00","-14.8","","-19.6","","68","","","M","18","","17","","","M","98.82","","","","-23","","NA"
"-75.67","62.18","SALLUIT A","7117802","2019-03-14 14:00","2019","03","14","14:00","-15.5","","-19.6","","71","","","M","22","","8","","","M","98.78","","","","-21","","NA"
"-75.67","62.18","SALLUIT A","7117802","2019-03-14 15:00","2019","03","14","15:00","-14.0","","-18.4","","70","","","M","16","","28","","","M","98.76","","","","-24","","NA"
"-75.67","62.18","SALLUIT A","7117802","2019-03-14 16:00","2019","03","14","16:00","-13.7","","-18.1","","70","","","M","16","","27","","","M","98.68","","","","-24","","NA"
"-75.67","62.18","SALLUIT A","7117802","2019-03-14 17:00","2019","03","14","17:00","-14.8","","-18.7","","72","","","M","22","","22","","","M","98.64","","","","-24","","NA"
"-75.67","62.18","SALLUIT A","7117802","2019-03-14 18:00","2019","03","14","18:00","-14.0","","-17.7","","74","","","M","15","","27","","","M","98.57","","","","-24","","NA"
"-75.67","62.18","SALLUIT A","7117802","2019-03-14 19:00","2019","03","14","19:00","-12.9","","-16.4","","75","","","M","18","","13","","","M","98.50","","","","-20","","NA"
"-75.67","62.18","SALLUIT A","7117802","2019-03-14 20:00","2019","03","14","20:00","-12.5","","-16.1","","75","","","M","18","","21","","","M","98.45","","","","-21","","NA"
"-75.67","62.18","SALLUIT A","7117802","2019-03-14 21:00","2019","03","14","21:00","-13.2","","-16.2","","79","","","M","23","","9","","","M","98.39","","","","-19","","NA"
"-75.67","62.18","SALLUIT A","7117802","2019-03-14 22:00","2019","03","14","22:00","-12.8","","-15.4","","81","","","M","20","","5","","","M","98.31","","","","-16","","NA"
"-75.67","62.18","SALLUIT A","7117802","2019-03-14 23:00","2019","03","14","23:00","-12.7","","-15.4","","80","","","M","16","","9","","","M","98.18","","","","-18","","NA"
"-75.67","62.18","SALLUIT A","7117802","2019-03-15 00:00","2019","03","15","00:00","-12.8","","-15.4","","81","","","M","18","","16","","","M","98.11","","","","-20","","NA"
"-75.67","62.18","SALLUIT A","7117802","2019-03-15 01:00","2019","03","15","01:00","-12.9","","-15.8","","79","","","M","5","","4","","","M","98.00","","","","-16","","NA"
"-75.67","62.18","SALLUIT A","7117802","2019-03-15 02:00","2019","03","15","02:00","-13.1","","-15.7","","81","","","M","1","","8","","","M","97.90","","","","-18","","NA"
"-75.67","62.18","SALLUIT A","7117802","2019-03-15 03:00","2019","03","15","03:00","-13.2","","-14.9","","87","","","M","2","","12","","","M","97.77","","","","-20","","NA"
"-75.67","62.18","SALLUIT A","7117802","2019-03-15 04:00","2019","03","15","04:00","-13.3","","-14.8","","88","","","M","4","","13","","","M","97.69","","","","-20","","NA"
"-75.67","62.18","SALLUIT A","7117802","2019-03-15 05:00","2019","03","15","05:00","-13.2","","-14.6","","89","","","M","2","","15","","","M","97.60","","","","-21","","NA"
"-75.67","62.18","SALLUIT A","7117802","2019-03-15 06:00","2019","03","15","06:00","-12.8","","-14.1","","90","","","M","4","","15","","","M","97.52","","","","-20","","NA"
"-75.67","62.18","SALLUIT A","7117802","2019-03-15 07:00","2019","03","15","07:00","-12.4","","-13.6","","91","","","M","4","","15","","","M","97.45","","","","-20","","NA"
"-75.67","62.18","SALLUIT A","7117802","2019-03-15 08:00","2019","03","15","08:00","-12.3","","-13.4","","91","","","M","4","","16","","","M","97.37","","","","-20","","NA"
"-75.67","62.18","SALLUIT A","7117802","2019-03-15 09:00","2019","03","15","09:00","-12.3","","-13.7","","90","","","M","3","","22","","","M","97.29","","","","-21","","NA"
"-75.67","62.18","SALLUIT A","7117802","2019-03-15 10:00","2019","03","15","10:00","-12.5","","-13.9","","89","","","M","3","","25","","","M","97.20","","","","-22","","NA"
"-75.67","62.18","SALLUIT A","7117802","2019-03-15 11:00","2019","03","15","11:00","-12.4","","-13.9","","89","","","M","3","","20","","","M","97.13","","","","-21","","NA"
"-75.67","62.18","SALLUIT A","7117802","2019-03-15 12:00","2019","03","15","12:00","-12.1","","-13.5","","89","","","M","3","","20","","","M","97.06","","","","-21","","NA"
"-75.67","62.18","SALLUIT A","7117802","2019-03-15 13:00","2019","03","15","13:00","-11.6","","-13.0","","89","","","M","3","","23","","","M","96.99","","","","-20","","NA"
"-75.67","62.18","SALLUIT A","7117802","2019-03-15 14:00","2019","03","15","14:00","-11.0","","-12.4","","90","","","M","4","","22","","","M","96.94","","","","-20","","NA"
"-75.67","62.18","SALLUIT A","7117802","2019-03-15 15:00","2019","03","15","15:00","-11.3","","-12.7","","89","","","M","3","","33","","","M","96.92","","","","-22","","NA"
"-75.67","62.18","SALLUIT A","7117802","2019-03-15 16:00","2019","03","15","16:00","-11.4","","-12.9","","89","","","M","2","","36","","","M","96.89","","","","-22","","NA"
"-75.67","62.18","SALLUIT A","7117802","2019-03-15 17:00","2019","03","15","17:00","-11.3","","-12.7","","90","","","M","2","","32","","","M","96.88","","","","-22","","NA"
"-75.67","62.18","SALLUIT A","7117802","2019-03-15 18:00","2019","03","15","18:00","-11.0","","-12.4","","90","","","M","4","","41","","","M","96.84","","","","-22","","NA"
"-75.67","62.18","SALLUIT A","7117802","2019-03-15 19:00","2019","03","15","19:00","-10.9","","-12.2","","90","","","M","4","","35","","","M","96.90","","","","-21","","NA"
"-75.67","62.18","SALLUIT A","7117802","2019-03-15 20:00","2019","03","15","20:00","-10.9","","-12.3","","90","","","M","4","","53","","","M","96.89","","","","-23","","NA"
"-75.67","62.18","SALLUIT A","7117802","2019-03-15 21:00","2019","03","15","21:00","-10.9","","-12.2","","90","","","M","3","","48","","","M","96.93","","","","-23","","NA"
"-75.67","62.18","SALLUIT A","7117802","2019-03-15 22:00","2019","03","15","22:00","-10.8","","-12.1","","90","","","M","4","","43","","","M","96.94","","","","-22","","NA"
"-75.67","62.18","SALLUIT A","7117802","2019-03-15 23:00","2019","03","15","23:00","-11.0","","-12.3","","90","","","M","3","","50","","","M","96.93","","","","-23","","NA"
"-75.67","62.18","SALLUIT A","7117802","2019-03-16 00:00","2019","03","16","00:00","-13.0","","-14.6","","88","","","M","3","","52","","","M","96.95","","","","-26","","NA"
"-75.67","62.18","SALLUIT A","7117802","2019-03-16 01:00","2019","03","16","01:00","-13.8","","-15.5","","88","","","M","3","","44","","","M","97.00","","","","-26","","NA"
"-75.67","62.18","SALLUIT A","7117802","2019-03-16 02:00","2019","03","16","02:00","-13.8","","-15.4","","88","","","M","3","","42","","","M","97.03","","","","-26","","NA"
"-75.67","62.18","SALLUIT A","7117802","2019-03-16 03:00","2019","03","16","03:00","-15.3","","-17.1","","86","","","M","1","","42","","","M","97.07","","","","-28","","NA"
"-75.67","62.18","SALLUIT A","7117802","2019-03-16 04:00","2019","03","16","04:00","-16.4","","-18.3","","85","","","M","1","","37","","","M","97.15","","","","-29","","NA"
"-75.67","62.18","SALLUIT A","7117802","2019-03-16 05:00","2019","03","16","05:00","-16.8","","-18.7","","85","","","M","1","","38","","","M","97.19","","","","-30","","NA"
"-75.67","62.18","SALLUIT A","7117802","2019-03-16 06:00","2019","03","16","06:00","-17.5","","-19.5","","85","","","M","1","","34","","","M","97.24","","","","-30","","NA"
"-75.67","62.18","SALLUIT A","7117802","2019-03-16 07:00","2019","03","16","07:00","-18.1","","-20.1","","84","","","M","1","","32","","","M","97.30","","","","-30","","NA"
"-75.67","62.18","SALLUIT A","7117802","2019-03-16 08:00","2019","03","16","08:00","-18.0","","-20.1","","84","","","M","1","","27","","","M","97.34","","","","-29","","NA"
"-75.67","62.18","SALLUIT A","7117802","2019-03-16 09:00","2019","03","16","09:00","-17.8","","-19.8","","84","","","M","1","","34","","","M","97.39","","","","-30","","NA"
"-75.67","62.18","SALLUIT A","7117802","2019-03-16 10:00","2019","03","16","10:00","-17.2","","-19.2","","85","","","M","1","","36","","","M","97.42","","","","-30","","NA"
"-75.67","62.18","SALLUIT A","7117802","2019-03-16 11:00","2019","03","16","11:00","-17.1","","-19.1","","84","","","M","1","","32","","","M","97.47","","","","-29","","NA"
"-75.67","62.18","SALLUIT A","7117802","2019-03-16 12:00","2019","03","16","12:00","-17.1","","-19.1","","84","","","M","36","","31","","","M","97.50","","","","-29","","NA"
"-75.67","62.18","SALLUIT A","7117802","2019-03-16 13:00","2019","03","16","13:00","-17.0","","-19.0","","85","","","M","1","","32","","","M","97.51","","","","-29","","NA"
"-75.67","62.18","SALLUIT A","7117802","2019-03-16 14:00","2019","03","16","14:00","-16.8","","-18.8","","85","","","M","1","","30","","","M","97.54","","","","-28","","NA"
"-75.67","62.18","SALLUIT A","7117802","2019-03-16 15:00","2019","03","16","15:00","-16.7","","-18.7","","85","","","M","1","","32","","","M","97.57","","","","-29","","NA"
"-75.67","62.18","SALLUIT A","7117802","2019-03-16 16:00","2019","03","16","16:00","-16.8","","-18.8","","85","","","M","36","","35","","","M","97.62","","","","-29","","NA"
"-75.67","62.18","SALLUIT A","7117802","2019-03-16 17:00","2019","03","16","17:00","-16.8","","-18.8","","85","","","M","1","","29","","","M","97.69","","","","-28","","NA"
"-75.67","62.18","SALLUIT A","7117802","2019-03-16 18:00","2019","03","16","18:00","-17.3","","-19.3","","84","","","M","2","","45","","","M","97.74","","","","-31","","NA"
"-75.67","62.18","SALLUIT A","7117802","2019-03-16 19:00","2019","03","16","19:00","-17.5","","-19.6","","84","","","M","2","","41","","","M","97.77","","","","-31","","NA"
"-75.67","62.18","SALLUIT A","7117802","2019-03-16 20:00","2019","03","16","20:00","-17.9","","-20.0","","84","","","M","2","","47","","","M","97.82","","","","-32","","NA"
"-75.67","62.18","SALLUIT A","7117802","2019-03-16 21:00","2019","03","16","21:00","-18.1","","-20.2","","84","","","M","2","","41","","","M","97.88","","","","-32","","NA"
"-75.67","62.18","SALLUIT A","7117802","2019-03-16 22:00","2019","03","16","22:00","-18.3","","-20.4","","84","","","M","2","","45","","","M","97.89","","","","-33","","NA"
"-75.67","62.18","SALLUIT A","7117802","2019-03-16 23:00","2019","03","16","23:00","-18.7","","-20.8","","83","","","M","2","","39","","","M","97.94","","","","-32","","NA"
"-75.67","62.18","SALLUIT A","7117802","2019-03-17 00:00","2019","03","17","00:00","-19.4","","-21.6","","83","","","M","1","","34","","","M","97.96","","","","-32","","NA"
"-75.67","62.18","SALLUIT A","7117802","2019-03-17 01:00","2019","03","17","01:00","-20.2","","-22.6","","82","","","M","3","","32","","","M","98.02","","","","-33","","NA"
"-75.67","62.18","SALLUIT A","7117802","2019-03-17 02:00","2019","03","17","02:00","-20.7","","-23.1","","82","","","M","2","","32","","","M","98.06","","","","-34","","NA"
"-75.67","62.18","SALLUIT A","7117802","2019-03-17 03:00","2019","03","17","03:00","-20.6","","-23.0","","82","","","M","2","","35","","","M","98.08","","","","-34","","NA"
"-75.67","62.18","SALLUIT A","7117802","2019-03-17 04:00","2019","03","17","04:00","-20.9","","-23.2","","82","","","M","3","","36","","","M","98.15","","","","-35","","NA"
"-75.67","62.18","SALLUIT A","7117802","2019-03-17 05:00","2019","03","17","05:00","-21.0","","-23.4","","82","","","M","3","","38","","","M","98.18","","","","-35","","NA"
"-75.67","62.18","SALLUIT A","7117802","2019-03-17 06:00","2019","03","17","06:00","-21.4","","-23.8","","81","","","M","3","","37","","","M","98.23","","","","-36","","NA"
"-75.67","62.18","SALLUIT A","7117802","2019-03-17 07:00","2019","03","17","07:00","-21.3","","-23.7","","81","","","M","3","","35","","","M","98.28","","","","-35","","NA"
"-75.67","62.18","SALLUIT A","7117802","2019-03-17 08:00","2019","03","17","08:00","-21.3","","-23.7","","81","","","M","3","","30","","","M","98.33","","","","-34","","NA"
"-75.67","62.18","SALLUIT A","7117802","2019-03-17 09:00","2019","03","17","09:00","-21.2","","-23.7","","81","","","M","4","","24","","","M","98.34","","","","-33","","NA"
"-75.67","62.18","SALLUIT A","7117802","2019-03-17 10:00","2019","03","17","10:00","-21.0","","-23.4","","81","","","M","3","","32","","","M","98.32","","","","-34","","NA"
"-75.67","62.18","SALLUIT A","7117802","2019-03-17 11:00","2019","03","17","11:00","-20.3","","-22.7","","82","","","M","2","","26","","","M","98.36","","","","-32","","NA"
"-75.67","62.18","SALLUIT A","7117802","2019-03-17 12:00","2019","03","17","12:00","-20.0","","-22.3","","82","","","M","1","","29","","","M","98.41","","","","-32","","NA"
"-75.67","62.18","SALLUIT A","7117802","2019-03-17 13:00","2019","03","17","13:00","-19.9","","-22.2","","82","","","M","1","","28","","","M","98.44","","","","-32","","NA"
"-75.67","62.18","SALLUIT A","7117802","2019-03-17 14:00","2019","03","17","14:00","-19.8","","-22.1","","82","","","M","1","","29","","","M","98.45","","","","-32","","NA"
"-75.67","62.18","SALLUIT A","7117802","2019-03-17 15:00","2019","03","17","15:00","-19.9","","-22.2","","82","","","M","35","","31","","","M","98.48","","","","-33","","NA"
"-75.67","62.18","SALLUIT A","7117802","2019-03-17 16:00","2019","03","17","16:00","-20.2","","-22.6","","82","","","M","36","","31","","","M","98.51","","","","-33","","NA"
"-75.67","62.18","SALLUIT A","7117802","2019-03-17 17:00","2019","03","17","17:00","-20.7","","-23.1","","81","","","M","35","","18","","","M","98.58","","","","-31","","NA"
"-75.67","62.18","SALLUIT A","7117802","2019-03-17 18:00","2019","03","17","18:00","-21.3","","-23.7","","81","","","M","34","","21","","","M","98.61","","","","-32","","NA"
"-75.67","62.18","SALLUIT A","7117802","2019-03-17 19:00","2019","03","17","19:00","-21.6","","-24.1","","81","","","M","35","","18","","","M","98.64","","","","-32","","NA"
"-75.67","62.18","SALLUIT A","7117802","2019-03-17 20:00","2019","03","17","20:00","-21.4","","-23.8","","81","","","M","35","","22","","","M","98.66","","","","-33","","NA"
"-75.67","62.18","SALLUIT A","7117802","2019-03-17 21:00","2019","03","17","21:00","-21.1","","-23.5","","82","","","M","34","","21","","","M","98.65","","","","-32","","NA"
"-75.67","62.18","SALLUIT A","7117802","2019-03-17 22:00","2019","03","17","22:00","-21.5","","-24.0","","81","","","M","35","","14","","","M","98.61","","","","-31","","NA"
"-75.67","62.18","SALLUIT A","7117802","2019-03-17 23:00","2019","03","17","23:00","-21.4","","-23.8","","81","","","M","33","","12","","","M","98.59","","","","-30","","NA"
"-75.67","62.18","SALLUIT A","7117802","2019-03-18 00:00","2019","03","18","00:00","-22.0","","-24.5","","81","","","M","18","","3","","","M","98.56","","","","-25","","NA"
"-75.67","62.18","SALLUIT A","7117802","2019-03-18 01:00","2019","03","18","01:00","-24.2","","-26.9","","79","","","M","21","","8","","","M","98.55","","","","-31","","NA"
"-75.67","62.18","SALLUIT A","7117802","2019-03-18 02:00","2019","03","18","02:00","-24.3","","-27.0","","79","","","M","20","","11","","","M","98.53","","","","-33","","NA"
"-75.67","62.18","SALLUIT A","7117802","2019-03-18 03:00","2019","03","18","03:00","-24.7","","-27.4","","79","","","M","21","","8","","","M","98.51","","","","-32","","NA"
"-75.67","62.18","SALLUIT A","7117802","2019-03-18 04:00","2019","03","18","04:00","-24.2","","-26.9","","79","","","M","27","","8","","","M","98.50","","","","-31","","NA"
"-75.67","62.18","SALLUIT A","7117802","2019-03-18 05:00","2019","03","18","05:00","-23.7","","-26.3","","79","","","M","25","","14","","","M","98.51","","","","-33","","NA"
"-75.67","62.18","SALLUIT A","7117802","2019-03-18 06:00","2019","03","18","06:00","-24.5","","-27.2","","79","","","M","23","","14","","","M","98.51","","","","-34","","NA"
"-75.67","62.18","SALLUIT A","7117802","2019-03-18 07:00","2019","03","18","07:00","-25.2","","-28.0","","78","","","M","21","","14","","","M","98.56","","","","-35","","NA"
"-75.67","62.18","SALLUIT A","7117802","2019-03-18 08:00","2019","03","18","08:00","-24.5","","-27.2","","78","","","M","19","","15","","","M","98.54","","","","-35","","NA"
"-75.67","62.18","SALLUIT A","7117802","2019-03-18 09:00","2019","03","18","09:00","-24.1","","-26.9","","79","","","M","23","","13","","","M","98.54","","","","-33","","NA"
"-75.67","62.18","SALLUIT A","7117802","2019-03-18 10:00","2019","03","18","10:00","-23.1","","-25.7","","79","","","M","25","","19","","","M","98.54","","","","-34","","NA"
"-75.67","62.18","SALLUIT A","7117802","2019-03-18 11:00","2019","03","18","11:00","-22.6","","-25.2","","80","","","M","24","","17","","","M","98.53","","","","-33","","NA"
"-75.67","62.18","SALLUIT A","7117802","2019-03-18 12:00","2019","03","18","12:00","-22.1","","-24.7","","80","","","M","26","","26","","","M","98.53","","","","-35","","NA"
"-75.67","62.18","SALLUIT A","7117802","2019-03-18 13:00","2019","03","18","13:00","-21.9","","-24.4","","80","","","M","26","","33","","","M","98.52","","","","-36","","NA"
"-75.67","62.18","SALLUIT A","7117802","2019-03-18 14:00","2019","03","18","14:00","-21.9","","-24.5","","80","","","M","25","","37","","","M","98.53","","","","-36","","NA"
"-75.67","62.18","SALLUIT A","7117802","2019-03-18 15:00","2019","03","18","15:00","-21.9","","-24.4","","80","","","M","26","","37","","","M","98.50","","","","-36","","NA"
"-75.67","62.18","SALLUIT A","7117802","2019-03-18 16:00","2019","03","18","16:00","-21.7","","-24.4","","80","","","M","24","","31","","","M","98.55","","","","-35","","NA"
"-75.67","62.18","SALLUIT A","7117802","2019-03-18 17:00","2019","03","18","17:00","-22.1","","-24.8","","79","","","M","22","","27","","","M","98.56","","","","-35","","NA"
"-75.67","62.18","SALLUIT A","7117802","2019-03-18 18:00","2019","03","18","18:00","-22.8","","-25.9","","76","","","M","22","","25","","","M","98.57","","","","-35","","NA"
"-75.67","62.18","SALLUIT A","7117802","2019-03-18 19:00","2019","03","18","19:00","-23.6","","-26.6","","77","","","M","25","","36","","","M","98.52","","","","-38","","NA"
"-75.67","62.18","SALLUIT A","7117802","2019-03-18 20:00","2019","03","18","20:00","-23.2","","-25.9","","79","","","M","25","","31","","","M","98.50","","","","-37","","NA"
"-75.67","62.18","SALLUIT A","7117802","2019-03-18 21:00","2019","03","18","21:00","-23.0","","-25.8","","79","","","M","25","","32","","","M","98.45","","","","-37","","NA"
"-75.67","62.18","SALLUIT A","7117802","2019-03-18 22:00","2019","03","18","22:00","-22.4","","-25.2","","79","","","M","23","","32","","","M","98.39","","","","-36","","NA"
"-75.67","62.18","SALLUIT A","7117802","2019-03-18 23:00","2019","03","18","23:00","-21.6","","-24.4","","79","","","M","25","","44","","","M","98.28","","","","-37","","NA"
"-75.67","62.18","SALLUIT A","7117802","2019-03-19 00:00","2019","03","19","00:00","-22.3","","-25.1","","78","","","M","21","","39","","","M","98.24","","","","-37","","NA"
"-75.67","62.18","SALLUIT A","7117802","2019-03-19 01:00","2019","03","19","01:00","-20.9","","-24.3","","75","","","M","24","","25","","","M","98.20","","","","-33","","NA"
"-75.67","62.18","SALLUIT A","7117802","2019-03-19 02:00","2019","03","19","02:00","-20.7","","-23.7","","77","","","M","23","","41","","","M","98.14","","","","-35","","NA"
"-75.67","62.18","SALLUIT A","7117802","2019-03-19 03:00","2019","03","19","03:00","-20.4","","-23.3","","78","","","M","23","","30","","","M","98.13","","","","-33","","NA"
"-75.67","62.18","SALLUIT A","7117802","2019-03-19 04:00","2019","03","19","04:00","-20.2","","-23.1","","78","","","M","23","","31","","","M","98.03","","","","-33","","NA"
"-75.67","62.18","SALLUIT A","7117802","2019-03-19 05:00","2019","03","19","05:00","-19.7","","-22.3","","81","","","M","25","","35","","","M","97.97","","","","-33","","NA"
"-75.67","62.18","SALLUIT A","7117802","2019-03-19 06:00","2019","03","19","06:00","-20.1","","-22.9","","79","","","M","21","","22","","","M","97.95","","","","-31","","NA"
"-75.67","62.18","SALLUIT A","7117802","2019-03-19 07:00","2019","03","19","07:00","-20.3","","-22.9","","80","","","M","22","","34","","","M","97.85","","","","-34","","NA"
"-75.67","62.18","SALLUIT A","7117802","2019-03-19 08:00","2019","03","19","08:00","-19.3","","-22.4","","77","","","M","24","","29","","","M","97.82","","","","-31","","NA"
"-75.67","62.18","SALLUIT A","7117802","2019-03-19 09:00","2019","03","19","09:00","-19.2","","-22.4","","76","","","M","24","","27","","","M","97.75","","","","-31","","NA"
"-75.67","62.18","SALLUIT A","7117802","2019-03-19 10:00","2019","03","19","10:00","-18.8","","-21.9","","77","","","M","24","","31","","","M","97.73","","","","-31","","NA"
"-75.67","62.18","SALLUIT A","7117802","2019-03-19 11:00","2019","03","19","11:00","-18.8","","-21.9","","77","","","M","20","","19","","","M","97.74","","","","-29","","NA"
"-75.67","62.18","SALLUIT A","7117802","2019-03-19 12:00","2019","03","19","12:00","-18.4","","-21.5","","77","","","M","23","","13","","","M","97.70","","","","-26","","NA"
"-75.67","62.18","SALLUIT A","7117802","2019-03-19 13:00","2019","03","19","13:00","-18.4","","-21.5","","77","","","M","25","","13","","","M","97.70","","","","-26","","NA"
"-75.67","62.18","SALLUIT A","7117802","2019-03-19 14:00","2019","03","19","14:00","-18.4","","-21.6","","76","","","M","26","","10","","","M","97.70","","","","-25","","NA"
"-75.67","62.18","SALLUIT A","7117802","2019-03-19 15:00","2019","03","19","15:00","-17.9","","-21.1","","76","","","M","24","","5","","","M","97.69","","","","-22","","NA"
"-75.67","62.18","SALLUIT A","7117802","2019-03-19 16:00","2019","03","19","16:00","-18.8","","-21.9","","77","","","M","29","","10","","","M","97.69","","","","-26","","NA"
"-75.67","62.18","SALLUIT A","7117802","2019-03-19 17:00","2019","03","19","17:00","-19.3","","-21.4","","83","","","M","2","","15","","","M","97.74","","","","-28","","NA"
"-75.67","62.18","SALLUIT A","7117802","2019-03-19 18:00","2019","03","19","18:00","-19.8","","-21.9","","83","","","M","35","","15","","","M","97.79","","","","-29","","NA"
"-75.67","62.18","SALLUIT A","7117802","2019-03-19 19:00","2019","03","19","19:00","-20.9","","-23.0","","83","","","M","34","","14","","","M","97.86","","","","-30","","NA"
"-75.67","62.18","SALLUIT A","7117802","2019-03-19 20:00","2019","03","19","20:00","-21.3","","-23.6","","82","","","M","31","","10","","","M","97.90","","","","-29","","NA"
"-75.67","62.18","SALLUIT A","7117802","2019-03-19 21:00","2019","03","19","21:00","-21.7","","-24.1","","81","","","M","33","","18","","","M","97.90","","","","-32","","NA"
"-75.67","62.18","SALLUIT A","7117802","2019-03-19 22:00","2019","03","19","22:00","-22.4","","-24.8","","81","","","M","33","","22","","","M","97.89","","","","-34","","NA"
"-75.67","62.18","SALLUIT A","7117802","2019-03-19 23:00","2019","03","19","23:00","-22.7","","-25.2","","81","","","M","32","","26","","","M","97.91","","","","-35","","NA"
"-75.67","62.18","SALLUIT A","7117802","2019-03-20 00:00","2019","03","20","00:00","-23.5","","-26.0","","80","","","M","33","","20","","","M","97.94","","","","-35","","NA"
"-75.67","62.18","SALLUIT A","7117802","2019-03-20 01:00","2019","03","20","01:00","-24.0","","-26.5","","80","","","M","34","","17","","","M","97.95","","","","-35","","NA"
"-75.67","62.18","SALLUIT A","7117802","2019-03-20 02:00","2019","03","20","02:00","-24.0","","-26.6","","79","","","M","34","","19","","","M","97.98","","","","-35","","NA"
"-75.67","62.18","SALLUIT A","7117802","2019-03-20 03:00","2019","03","20","03:00","-25.0","","-27.8","","78","","","M","26","","12","","","M","98.03","","","","-34","","NA"
"-75.67","62.18","SALLUIT A","7117802","2019-03-20 04:00","2019","03","20","04:00","-26.1","","-29.1","","76","","","M","25","","13","","","M","98.02","","","","-36","","NA"
"-75.67","62.18","SALLUIT A","7117802","2019-03-20 05:00","2019","03","20","05:00","-25.2","","-28.4","","75","","","M","24","","7","","","M","98.05","","","","-32","","NA"
"-75.67","62.18","SALLUIT A","7117802","2019-03-20 06:00","2019","03","20","06:00","-26.5","","-30.0","","73","","","M","23","","8","","","M","98.07","","","","-34","","NA"
"-75.67","62.18","SALLUIT A","7117802","2019-03-20 07:00","2019","03","20","07:00","-24.5","","-28.2","","72","","","M","25","","14","","","M","98.09","","","","-34","","NA"
"-75.67","62.18","SALLUIT A","7117802","2019-03-20 08:00","2019","03","20","08:00","-23.5","","-26.9","","74","","","M","23","","12","","","M","98.09","","","","-32","","NA"
"-75.67","62.18","SALLUIT A","7117802","2019-03-20 09:00","2019","03","20","09:00","-22.4","","-25.2","","78","","","M","25","","19","","","M","98.09","","","","-33","","NA"
"-75.67","62.18","SALLUIT A","7117802","2019-03-20 10:00","2019","03","20","10:00","-21.0","","-24.1","","77","","","M","26","","28","","","M","98.06","","","","-34","","NA"
"-75.67","62.18","SALLUIT A","7117802","2019-03-20 11:00","2019","03","20","11:00","-21.1","","-24.7","","73","","","M","26","","36","","","M","98.02","","","","-35","","NA"
"-75.67","62.18","SALLUIT A","7117802","2019-03-20 12:00","2019","03","20","12:00","-20.4","","-24.7","","69","","","M","26","","35","","","M","98.01","","","","-34","","NA"
"-75.67","62.18","SALLUIT A","7117802","2019-03-20 13:00","2019","03","20","13:00","-20.5","","-24.8","","69","","","M","25","","37","","","M","97.97","","","","-34","","NA"
"-75.67","62.18","SALLUIT A","7117802","2019-03-20 14:00","2019","03","20","14:00","-19.9","","-24.6","","67","","","M","23","","20","","","M","97.98","","","","-30","","NA"
"-75.67","62.18","SALLUIT A","7117802","2019-03-20 15:00","2019","03","20","15:00","-19.7","","-25.0","","63","","","M","24","","38","","","M","97.92","","","","-33","","NA"
"-75.67","62.18","SALLUIT A","7117802","2019-03-20 16:00","2019","03","20","16:00","-19.2","","-25.3","","59","","","M","23","","37","","","M","97.89","","","","-33","","NA"
"-75.67","62.18","SALLUIT A","7117802","2019-03-20 17:00","2019","03","20","17:00","-19.3","","-24.7","","63","","","M","22","","35","","","M","97.84","","","","-32","","NA"
"-75.67","62.18","SALLUIT A","7117802","2019-03-20 18:00","2019","03","20","18:00","-19.1","","-23.6","","68","","","M","24","","49","","","M","97.68","","","","-34","","NA"
"-75.67","62.18","SALLUIT A","7117802","2019-03-20 19:00","2019","03","20","19:00","-19.3","","-23.1","","72","","","M","23","","47","","","M","97.64","","","","-34","","NA"
"-75.67","62.18","SALLUIT A","7117802","2019-03-20 20:00","2019","03","20","20:00","-19.2","","-23.3","","71","","","M","23","","42","","","M","97.52","","","","-33","","NA"
"-75.67","62.18","SALLUIT A","7117802","2019-03-20 21:00","2019","03","20","21:00","-19.4","","-23.6","","70","","","M","22","","53","","","M","97.43","","","","-35","","NA"
"-75.67","62.18","SALLUIT A","7117802","2019-03-20 22:00","2019","03","20","22:00","-19.2","","-23.1","","72","","","M","21","","48","","","M","97.29","","","","-34","","NA"
"-75.67","62.18","SALLUIT A","7117802","2019-03-20 23:00","2019","03","20","23:00","-19.2","","-22.7","","75","","","M","20","","50","","","M","97.13","","","","-34","","NA"
"-75.67","62.18","SALLUIT A","7117802","2019-03-21 00:00","2019","03","21","00:00","-19.2","","-22.2","","78","","","M","18","","33","","","M","97.06","","","","-32","","NA"
"-75.67","62.18","SALLUIT A","7117802","2019-03-21 01:00","2019","03","21","01:00","-19.1","","-22.2","","77","","","M","19","","46","","","M","96.93","","","","-34","","NA"
"-75.67","62.18","SALLUIT A","7117802","2019-03-21 02:00","2019","03","21","02:00","-18.8","","-21.6","","79","","","M","22","","51","","","M","96.82","","","","-34","","NA"
"-75.67","62.18","SALLUIT A","7117802","2019-03-21 03:00","2019","03","21","03:00","-19.3","","-22.3","","78","","","M","18","","47","","","M","96.75","","","","-34","","NA"
"-75.67","62.18","SALLUIT A","7117802","2019-03-21 04:00","2019","03","21","04:00","-19.3","","-22.4","","77","","","M","18","","34","","","M","96.67","","","","-32","","NA"
"-75.67","62.18","SALLUIT A","7117802","2019-03-21 05:00","2019","03","21","05:00","-19.1","","-22.3","","76","","","M","18","","28","","","M","96.57","","","","-31","","NA"
"-75.67","62.18","SALLUIT A","7117802","2019-03-21 06:00","2019","03","21","06:00","-19.0","","-22.1","","77","","","M","17","","15","","","M","96.54","","","","-28","","NA"
"-75.67","62.18","SALLUIT A","7117802","2019-03-21 07:00","2019","03","21","07:00","-19.0","","-21.9","","78","","","M","27","","2","","","M","96.50","","","","-21","","NA"
"-75.67","62.18","SALLUIT A","7117802","2019-03-21 08:00","2019","03","21","08:00","-19.0","","-21.8","","79","","","M","26","","3","","","M","96.52","","","","-21","","NA"
"-75.67","62.18","SALLUIT A","7117802","2019-03-21 09:00","2019","03","21","09:00","-18.7","","-21.2","","81","","","M","6","","4","","","M","96.49","","","","-22","","NA"
"-75.67","62.18","SALLUIT A","7117802","2019-03-21 10:00","2019","03","21","10:00","-18.3","","-20.8","","81","","","M","4","","10","","","M","96.48","","","","-25","","NA"
"-75.67","62.18","SALLUIT A","7117802","2019-03-21 11:00","2019","03","21","11:00","-18.1","","-20.1","","84","","","M","3","","15","","","M","96.51","","","","-27","","NA"
"-75.67","62.18","SALLUIT A","7117802","2019-03-21 12:00","2019","03","21","12:00","-17.7","","-19.9","","83","","","M","3","","26","","","M","96.56","","","","-29","","NA"
"-75.67","62.18","SALLUIT A","7117802","2019-03-21 13:00","2019","03","21","13:00","-17.6","","-19.8","","83","","","M","2","","28","","","M","96.63","","","","-29","","NA"
"-75.67","62.18","SALLUIT A","7117802","2019-03-21 14:00","2019","03","21","14:00","-17.4","","-19.7","","82","","","M","2","","29","","","M","96.71","","","","-29","","NA"
"-75.67","62.18","SALLUIT A","7117802","2019-03-21 15:00","2019","03","21","15:00","-17.3","","-19.4","","84","","","M","2","","32","","","M","96.82","","","","-29","","NA"
"-75.67","62.18","SALLUIT A","7117802","2019-03-21 16:00","2019","03","21","16:00","-16.8","","-19.2","","82","","","M","1","","33","","","M","96.89","","","","-29","","NA"
"-75.67","62.18","SALLUIT A","7117802","2019-03-21 17:00","2019","03","21","17:00","-18.3","","-20.4","","84","","","M","36","","34","","","M","97.02","","","","-31","","NA"
"-75.67","62.18","SALLUIT A","7117802","2019-03-21 18:00","2019","03","21","18:00","-19.3","","-21.6","","82","","","M","36","","32","","","M","97.16","","","","-32","","NA"
"-75.67","62.18","SALLUIT A","7117802","2019-03-21 19:00","2019","03","21","19:00","-20.2","","-22.4","","83","","","M","1","","30","","","M","97.27","","","","-33","","NA"
"-75.67","62.18","SALLUIT A","7117802","2019-03-21 20:00","2019","03","21","20:00","-20.7","","-23.0","","83","","","M","3","","23","","","M","97.33","","","","-32","","NA"
"-75.67","62.18","SALLUIT A","7117802","2019-03-21 21:00","2019","03","21","21:00","-21.2","","-23.5","","83","","","M","2","","13","","","M","97.42","","","","-30","","NA"
"-75.67","62.18","SALLUIT A","7117802","2019-03-21 22:00","2019","03","21","22:00","-22.0","","-24.4","","81","","","M","2","","6","","","M","97.49","","","","-27","","NA"
"-75.67","62.18","SALLUIT A","7117802","2019-03-21 23:00","2019","03","21","23:00","-21.7","","-24.1","","81","","","M","4","","12","","","M","97.55","","","","-30","","NA"
"-75.67","62.18","SALLUIT A","7117802","2019-03-22 00:00","2019","03","22","00:00","-22.1","","-24.5","","81","","","M","3","","12","","","M","97.63","","","","-31","","NA"
"-75.67","62.18","SALLUIT A","7117802","2019-03-22 01:00","2019","03","22","01:00","-21.8","","-24.1","","82","","","M","1","","11","","","M","97.71","","","","-30","","NA"
"-75.67","62.18","SALLUIT A","7117802","2019-03-22 02:00","2019","03","22","02:00","-22.4","","-24.8","","81","","","M","32","","9","","","M","97.78","","","","-30","","NA"
"-75.67","62.18","SALLUIT A","7117802","2019-03-22 03:00","2019","03","22","03:00","-22.6","","-25.0","","81","","","M","33","","11","","","M","97.84","","","","-31","","NA"
"-75.67","62.18","SALLUIT A","7117802","2019-03-22 04:00","2019","03","22","04:00","-23.4","","-26.0","","80","","","M","32","","12","","","M","97.92","","","","-32","","NA"
"-75.67","62.18","SALLUIT A","7117802","2019-03-22 05:00","2019","03","22","05:00","-23.3","","-25.8","","80","","","M","30","","8","","","M","98.01","","","","-30","","NA"
"-75.67","62.18","SALLUIT A","7117802","2019-03-22 06:00","2019","03","22","06:00","-24.4","","-27.0","","79","","","M","26","","5","","","M","98.09","","","","-29","","NA"
"-75.67","62.18","SALLUIT A","7117802","2019-03-22 07:00","2019","03","22","07:00","-23.5","","-26.1","","80","","","M","26","","7","","","M","98.15","","","","-30","","NA"
"-75.67","62.18","SALLUIT A","7117802","2019-03-22 08:00","2019","03","22","08:00","-24.4","","-27.2","","78","","","M","22","","9","","","M","98.17","","","","-32","","NA"
"-75.67","62.18","SALLUIT A","7117802","2019-03-22 09:00","2019","03","22","09:00","-23.3","","-26.0","","79","","","M","24","","9","","","M","98.25","","","","-31","","NA"
"-75.67","62.18","SALLUIT A","7117802","2019-03-22 10:00","2019","03","22","10:00","-23.2","","-26.0","","78","","","M","24","","8","","","M","98.28","","","","-30","","NA"
"-75.67","62.18","SALLUIT A","7117802","2019-03-22 11:00","2019","03","22","11:00","-22.1","","-24.9","","78","","","M","26","","16","","","M","98.28","","","","-32","","NA"
"-75.67","62.18","SALLUIT A","7117802","2019-03-22 12:00","2019","03","22","12:00","-21.9","","-24.8","","78","","","M","21","","14","","","M","98.27","","","","-31","","NA"
"-75.67","62.18","SALLUIT A","7117802","2019-03-22 13:00","2019","03","22","13:00","-22.5","","-25.4","","78","","","M","21","","34","","","M","98.26","","","","-37","","NA"
"-75.67","62.18","SALLUIT A","7117802","2019-03-22 14:00","2019","03","22","14:00","-23.4","","-26.3","","78","","","M","20","","41","","","M","98.26","","","","-39","","NA"
"-75.67","62.18","SALLUIT A","7117802","2019-03-22 15:00","2019","03","22","15:00","-22.9","","-25.8","","78","","","M","20","","36","","","M","98.19","","","","-37","","NA"
"-75.67","62.18","SALLUIT A","7117802","2019-03-22 16:00","2019","03","22","16:00","-22.8","","-25.6","","78","","","M","22","","48","","","M","98.16","","","","-39","","NA"
"-75.67","62.18","SALLUIT A","7117802","2019-03-22 17:00","2019","03","22","17:00","-22.4","","-25.1","","79","","","M","22","","52","","","M","98.06","","","","-39","","NA"
"-75.67","62.18","SALLUIT A","7117802","2019-03-22 18:00","2019","03","22","18:00","-21.9","","-24.7","","78","","","M","22","","54","","","M","97.96","","","","-38","","NA"
"-75.67","62.18","SALLUIT A","7117802","2019-03-22 19:00","2019","03","22","19:00","-21.8","","-24.9","","77","","","M","21","","64","","","M","97.85","","","","-39","","NA"
"-75.67","62.18","SALLUIT A","7117802","2019-03-22 20:00","2019","03","22","20:00","-21.4","","-24.8","","75","","","M","19","","58","","","M","97.76","","","","-38","","NA"
"-75.67","62.18","SALLUIT A","7117802","2019-03-22 21:00","2019","03","22","21:00","-21.2","","-24.2","","77","","","M","18","","54","","","M","97.61","","","","-37","","NA"
"-75.67","62.18","SALLUIT A","7117802","2019-03-22 22:00","2019","03","22","22:00","-21.0","","-23.6","","80","","","M","","M","","M","","M","97.22","","","","","","NA"
"-75.67","62.18","SALLUIT A","7117802","2019-03-22 23:00","2019","03","22","23:00","-20.0","","-22.4","","81","","","M","","M","","M","","M","97.10","","","","","","NA"
"-75.67","62.18","SALLUIT A","7117802","2019-03-23 00:00","2019","03","23","00:00","-18.8","","-21.1","","82","","","M","","M","","M","","M","96.68","","","","","","NA"
"-75.67","62.18","SALLUIT A","7117802","2019-03-23 01:00","2019","03","23","01:00","-19.3","","-21.6","","82","","","M","","M","","M","","M","96.45","","","","","","NA"
"-75.67","62.18","SALLUIT A","7117802","2019-03-23 02:00","2019","03","23","02:00","-19.5","","-21.8","","82","","","M","","M","","M","","M","96.16","","","","","","NA"
"-75.67","62.18","SALLUIT A","7117802","2019-03-23 03:00","2019","03","23","03:00","-19.4","","-21.7","","82","","","M","","M","","M","","M","96.06","","","","","","NA"
"-75.67","62.18","SALLUIT A","7117802","2019-03-23 04:00","2019","03","23","04:00","-18.6","","-20.9","","83","","","M","","M","","M","","M","95.87","","","","","","NA"
"-75.67","62.18","SALLUIT A","7117802","2019-03-23 05:00","2019","03","23","05:00","-17.2","","-19.4","","84","","","M","","M","","M","","M","95.64","","","","","","NA"
"-75.67","62.18","SALLUIT A","7117802","2019-03-23 06:00","2019","03","23","06:00","-17.1","","-19.2","","84","","","M","","M","","M","","M","95.42","","","","","","NA"
"-75.67","62.18","SALLUIT A","7117802","2019-03-23 07:00","2019","03","23","07:00","-16.4","","-18.5","","84","","","M","","M","","M","","M","95.21","","","","","","NA"
"-75.67","62.18","SALLUIT A","7117802","2019-03-23 08:00","2019","03","23","08:00","-15.4","","-17.4","","85","","","M","","M","","M","","M","95.14","","","","","","NA"
"-75.67","62.18","SALLUIT A","7117802","2019-03-23 09:00","2019","03","23","09:00","-14.8","","-16.8","","85","","","M","18","","72","","","M","95.17","","","","-30","","NA"
"-75.67","62.18","SALLUIT A","7117802","2019-03-23 10:00","2019","03","23","10:00","-14.2","","-16.3","","85","","","M","18","","67","","","M","95.00","","","","-29","","NA"
"-75.67","62.18","SALLUIT A","7117802","2019-03-23 11:00","2019","03","23","11:00","-12.4","","-14.1","","87","","","M","21","","72","","","M","94.75","","","","-27","","NA"
"-75.67","62.18","SALLUIT A","7117802","2019-03-23 12:00","2019","03","23","12:00","-13.2","","-15.1","","86","","","M","21","","72","","","M","94.70","","","","-28","","NA"
"-75.67","62.18","SALLUIT A","7117802","2019-03-23 13:00","2019","03","23","13:00","-13.2","","-15.2","","85","","","M","23","","75","","","M","94.60","","","","-28","","NA"
"-75.67","62.18","SALLUIT A","7117802","2019-03-23 14:00","2019","03","23","14:00","-11.4","","-13.2","","87","","","M","25","","55","","","M","94.69","","","","-24","","NA"
"-75.67","62.18","SALLUIT A","7117802","2019-03-23 15:00","2019","03","23","15:00","-12.7","","-15.0","","83","","","M","29","","53","","","M","94.88","","","","-26","","NA"
"-75.67","62.18","SALLUIT A","7117802","2019-03-23 16:00","2019","03","23","16:00","-14.2","","-16.1","","86","","","M","29","","42","","","M","95.05","","","","-27","","NA"
"-75.67","62.18","SALLUIT A","7117802","2019-03-23 17:00","2019","03","23","17:00","-15.1","","-16.8","","87","","","M","30","","34","","","M","95.20","","","","-27","","NA"
"-75.67","62.18","SALLUIT A","7117802","2019-03-23 18:00","2019","03","23","18:00","-16.3","","-18.2","","85","","","M","29","","36","","","M","95.32","","","","-29","","NA"
"-75.67","62.18","SALLUIT A","7117802","2019-03-23 19:00","2019","03","23","19:00","-17.5","","-19.5","","84","","","M","31","","49","","","M","95.40","","","","-32","","NA"
"-75.67","62.18","SALLUIT A","7117802","2019-03-23 20:00","2019","03","23","20:00","-17.9","","-20.0","","84","","","M","31","","38","","","M","95.48","","","","-31","","NA"
"-75.67","62.18","SALLUIT A","7117802","2019-03-23 21:00","2019","03","23","21:00","-18.7","","-20.9","","83","","","M","31","","34","","","M","95.55","","","","-32","","NA"
"-75.67","62.18","SALLUIT A","7117802","2019-03-23 22:00","2019","03","23","22:00","-19.2","","-21.4","","83","","","M","31","","42","","","M","95.55","","","","-33","","NA"
"-75.67","62.18","SALLUIT A","7117802","2019-03-23 23:00","2019","03","23","23:00","-19.6","","-22.1","","81","","","M","32","","39","","","M","95.58","","","","-33","","NA"
"-75.67","62.18","SALLUIT A","7117802","2019-03-24 00:00","2019","03","24","00:00","-19.9","","-22.2","","82","","","M","31","","42","","","M","95.55","","","","-34","","NA"
"-75.67","62.18","SALLUIT A","7117802","2019-03-24 01:00","2019","03","24","01:00","-20.1","","-22.5","","82","","","M","32","","46","","","M","95.58","","","","-35","","NA"
"-75.67","62.18","SALLUIT A","7117802","2019-03-24 02:00","2019","03","24","02:00","-20.6","","-23.1","","81","","","M","32","","53","","","M","95.57","","","","-37","","NA"
"-75.67","62.18","SALLUIT A","7117802","2019-03-24 03:00","2019","03","24","03:00","-21.4","","-23.7","","82","","","M","30","","38","","","M","95.60","","","","-36","","NA"
"-75.67","62.18","SALLUIT A","7117802","2019-03-24 04:00","2019","03","24","04:00","-21.9","","-25.1","","76","","","M","29","","32","","","M","95.61","","","","-35","","NA"
"-75.67","62.18","SALLUIT A","7117802","2019-03-24 05:00","2019","03","24","05:00","-22.2","","-25.0","","78","","","M","28","","32","","","M","95.59","","","","-36","","NA"
"-75.67","62.18","SALLUIT A","7117802","2019-03-24 06:00","2019","03","24","06:00","-22.4","","-25.2","","78","","","M","29","","41","","","M","95.54","","","","-37","","NA"
"-75.67","62.18","SALLUIT A","7117802","2019-03-24 07:00","2019","03","24","07:00","-22.1","","-24.9","","78","","","M","28","","35","","","M","95.50","","","","-36","","NA"
"-75.67","62.18","SALLUIT A","7117802","2019-03-24 08:00","2019","03","24","08:00","-21.6","","-24.8","","76","","","M","28","","41","","","M","95.49","","","","-36","","NA"
"-75.67","62.18","SALLUIT A","7117802","2019-03-24 09:00","2019","03","24","09:00","-21.3","","-23.6","","82","","","M","26","","41","","","M","95.46","","","","-36","","NA"
"-75.67","62.18","SALLUIT A","7117802","2019-03-24 10:00","2019","03","24","10:00","-20.7","","-23.2","","81","","","M","26","","34","","","M","95.44","","","","-34","","NA"
"-75.67","62.18","SALLUIT A","7117802","2019-03-24 11:00","2019","03","24","11:00","-20.2","","-22.5","","82","","","M","25","","40","","","M","95.42","","","","-34","","NA"
"-75.67","62.18","SALLUIT A","7117802","2019-03-24 12:00","2019","03","24","12:00","-19.6","","-22.7","","77","","","M","27","","37","","","M","95.41","","","","-33","","NA"
"-75.67","62.18","SALLUIT A","7117802","2019-03-24 13:00","2019","03","24","13:00","-19.4","","-21.7","","82","","","M","26","","45","","","M","95.38","","","","-34","","NA"
"-75.67","62.18","SALLUIT A","7117802","2019-03-24 14:00","2019","03","24","14:00","-18.9","","-21.4","","80","","","M","27","","48","","","M","95.35","","","","-34","","NA"
"-75.67","62.18","SALLUIT A","7117802","2019-03-24 15:00","2019","03","24","15:00","-18.6","","-20.7","","84","","","M","26","","46","","","M","95.36","","","","-33","","NA"
"-75.67","62.18","SALLUIT A","7117802","2019-03-24 16:00","2019","03","24","16:00","-18.0","","-20.3","","82","","","M","27","","43","","","M","95.33","","","","-32","","NA"
"-75.67","62.18","SALLUIT A","7117802","2019-03-24 17:00","2019","03","24","17:00","-17.7","","-19.9","","83","","","M","27","","37","","","M","95.35","","","","-31","","NA"
"-75.67","62.18","SALLUIT A","7117802","2019-03-24 18:00","2019","03","24","18:00","-17.4","","-19.4","","85","","","M","28","","31","","","M","95.36","","","","-29","","NA"
"-75.67","62.18","SALLUIT A","7117802","2019-03-24 19:00","2019","03","24","19:00","-17.0","","-19.0","","85","","","M","29","","37","","","M","95.34","","","","-30","","NA"
"-75.67","62.18","SALLUIT A","7117802","2019-03-24 20:00","2019","03","24","20:00","-16.5","","-18.5","","85","","","M","32","","39","","","M","95.37","","","","-29","","NA"
"-75.67","62.18","SALLUIT A","7117802","2019-03-24 21:00","2019","03","24","21:00","-16.2","","-18.1","","86","","","M","34","","28","","","M","95.36","","","","-27","","NA"
"-75.67","62.18","SALLUIT A","7117802","2019-03-24 22:00","2019","03","24","22:00","-16.8","","-18.8","","85","","","M","36","","19","","","M","95.38","","","","-26","","NA"
"-75.67","62.18","SALLUIT A","7117802","2019-03-24 23:00","2019","03","24","23:00","-17.0","","-18.9","","86","","","M","36","","22","","","M","95.39","","","","-27","","NA"
"-75.67","62.18","SALLUIT A","7117802","2019-03-25 00:00","2019","03","25","00:00","-17.4","","-19.4","","85","","","M","2","","30","","","M","95.44","","","","-29","","NA"
"-75.67","62.18","SALLUIT A","7117802","2019-03-25 01:00","2019","03","25","01:00","-17.7","","-19.8","","84","","","M","2","","40","","","M","95.53","","","","-31","","NA"
"-75.67","62.18","SALLUIT A","7117802","2019-03-25 02:00","2019","03","25","02:00","-18.4","","-20.4","","85","","","M","2","","32","","","M","95.59","","","","-31","","NA"
"-75.67","62.18","SALLUIT A","7117802","2019-03-25 03:00","2019","03","25","03:00","-19.4","","-21.4","","84","","","M","3","","19","","","M","95.67","","","","-29","","NA"
"-75.67","62.18","SALLUIT A","7117802","2019-03-25 04:00","2019","03","25","04:00","-19.3","","-21.4","","84","","","M","3","","21","","","M","95.67","","","","-30","","NA"
"-75.67","62.18","SALLUIT A","7117802","2019-03-25 05:00","2019","03","25","05:00","-19.0","","-21.1","","84","","","M","3","","12","","","M","95.70","","","","-27","","NA"
"-75.67","62.18","SALLUIT A","7117802","2019-03-25 06:00","2019","03","25","06:00","-18.8","","-20.9","","84","","","M","5","","9","","","M","95.77","","","","-25","","NA"
"-75.67","62.18","SALLUIT A","7117802","2019-03-25 07:00","2019","03","25","07:00","-17.2","","-19.3","","84","","","M","1","","30","","","M","95.82","","","","-29","","NA"
"-75.67","62.18","SALLUIT A","7117802","2019-03-25 08:00","2019","03","25","08:00","-17.6","","-19.7","","84","","","M","1","","36","","","M","95.90","","","","-30","","NA"
"-75.67","62.18","SALLUIT A","7117802","2019-03-25 09:00","2019","03","25","09:00","-17.6","","-19.7","","84","","","M","1","","30","","","M","95.91","","","","-29","","NA"
"-75.67","62.18","SALLUIT A","7117802","2019-03-25 10:00","2019","03","25","10:00","-17.2","","-19.2","","84","","","M","36","","30","","","M","95.79","","","","-29","","NA"
"-75.67","62.18","SALLUIT A","7117802","2019-03-25 11:00","2019","03","25","11:00","-16.9","","-18.9","","84","","","M","1","","52","","","M","95.77","","","","-31","","NA"
"-75.67","62.18","SALLUIT A","7117802","2019-03-25 12:00","2019","03","25","12:00","-17.3","","-19.4","","84","","","M","1","","48","","","M","95.78","","","","-31","","NA"
"-75.67","62.18","SALLUIT A","7117802","2019-03-25 13:00","2019","03","25","13:00","-16.8","","-18.8","","85","","","M","36","","52","","","M","95.84","","","","-31","","NA"
"-75.67","62.18","SALLUIT A","7117802","2019-03-25 14:00","2019","03","25","14:00","-16.6","","-18.6","","85","","","M","36","","48","","","M","95.92","","","","-31","","NA"
"-75.67","62.18","SALLUIT A","7117802","2019-03-25 15:00","2019","03","25","15:00","-16.7","","-18.7","","85","","","M","34","","40","","","M","95.99","","","","-30","","NA"
"-75.67","62.18","SALLUIT A","7117802","2019-03-25 16:00","2019","03","25","16:00","-16.5","","-18.5","","85","","","M","36","","43","","","M","96.07","","","","-30","","NA"
"-75.67","62.18","SALLUIT A","7117802","2019-03-25 17:00","2019","03","25","17:00","-16.5","","-18.4","","85","","","M","1","","42","","","M","96.14","","","","-30","","NA"
"-75.67","62.18","SALLUIT A","7117802","2019-03-25 18:00","2019","03","25","18:00","-16.3","","-18.2","","85","","","M","35","","40","","","M","96.23","","","","-29","","NA"
"-75.67","62.18","SALLUIT A","7117802","2019-03-25 19:00","2019","03","25","19:00","-15.9","","-17.8","","86","","","M","35","","40","","","M","96.28","","","","-29","","NA"
"-75.67","62.18","SALLUIT A","7117802","2019-03-25 20:00","2019","03","25","20:00","-15.4","","-17.2","","86","","","M","36","","40","","","M","96.37","","","","-28","","NA"
"-75.67","62.18","SALLUIT A","7117802","2019-03-25 21:00","2019","03","25","21:00","-15.1","","-16.9","","86","","","M","2","","44","","","M","96.48","","","","-28","","NA"
"-75.67","62.18","SALLUIT A","7117802","2019-03-25 22:00","2019","03","25","22:00","-16.1","","-18.0","","85","","","M","4","","35","","","M","96.63","","","","-28","","NA"
"-75.67","62.18","SALLUIT A","7117802","2019-03-25 23:00","2019","03","25","23:00","-17.7","","-19.7","","85","","","M","2","","18","","","M","96.79","","","","-27","","NA"
"-75.67","62.18","SALLUIT A","7117802","2019-03-26 00:00","2019","03","26","00:00","-18.4","","-20.6","","83","","","M","7","","20","","","M","96.90","","","","-28","","NA"
"-75.67","62.18","SALLUIT A","7117802","2019-03-26 01:00","2019","03","26","01:00","-19.3","","-21.6","","83","","","M","5","","16","","","M","97.05","","","","-29","","NA"
"-75.67","62.18","SALLUIT A","7117802","2019-03-26 02:00","2019","03","26","02:00","-18.5","","-20.8","","82","","","M","6","","21","","","M","97.17","","","","-29","","NA"
"-75.67","62.18","SALLUIT A","7117802","2019-03-26 03:00","2019","03","26","03:00","-19.8","","-22.2","","82","","","M","29","","4","","","M","97.32","","","","-23","","NA"
"-75.67","62.18","SALLUIT A","7117802","2019-03-26 04:00","2019","03","26","04:00","-19.6","","-21.8","","83","","","M","20","","5","","","M","97.40","","","","-24","","NA"
"-75.67","62.18","SALLUIT A","7117802","2019-03-26 05:00","2019","03","26","05:00","-19.4","","-22.4","","77","","","M","16","","9","","","M","97.47","","","","-26","","NA"
"-75.67","62.18","SALLUIT A","7117802","2019-03-26 06:00","2019","03","26","06:00","-19.8","","-23.5","","72","","","M","26","","12","","","M","97.57","","","","-28","","NA"
"-75.67","62.18","SALLUIT A","7117802","2019-03-26 07:00","2019","03","26","07:00","-19.6","","-22.6","","77","","","M","22","","8","","","M","97.66","","","","-26","","NA"
"-75.67","62.18","SALLUIT A","7117802","2019-03-26 08:00","2019","03","26","08:00","-19.1","","-24.5","","63","","","M","23","","8","","","M","97.68","","","","-25","","NA"
"-75.67","62.18","SALLUIT A","7117802","2019-03-26 09:00","2019","03","26","09:00","-18.4","","-23.2","","66","","","M","19","","24","","","M","97.74","","","","-29","","NA"
"-75.67","62.18","SALLUIT A","7117802","2019-03-26 10:00","2019","03","26","10:00","-17.9","","-22.9","","65","","","M","20","","29","","","M","97.76","","","","-30","","NA"
"-75.67","62.18","SALLUIT A","7117802","2019-03-26 11:00","2019","03","26","11:00","-17.0","","-21.6","","68","","","M","21","","25","","","M","97.83","","","","-28","","NA"
"-75.67","62.18","SALLUIT A","7117802","2019-03-26 12:00","2019","03","26","12:00","-16.6","","-21.3","","67","","","M","20","","27","","","M","97.86","","","","-28","","NA"
"-75.67","62.18","SALLUIT A","7117802","2019-03-26 13:00","2019","03","26","13:00","-16.8","","-21.5","","67","","","M","21","","35","","","M","97.82","","","","-29","","NA"
"-75.67","62.18","SALLUIT A","7117802","2019-03-26 14:00","2019","03","26","14:00","-15.7","","-19.5","","73","","","M","23","","26","","","M","97.88","","","","-26","","NA"
"-75.67","62.18","SALLUIT A","7117802","2019-03-26 15:00","2019","03","26","15:00","-15.9","","-19.3","","75","","","M","23","","30","","","M","97.90","","","","-27","","NA"
"-75.67","62.18","SALLUIT A","7117802","2019-03-26 16:00","2019","03","26","16:00","-16.2","","-18.9","","80","","","M","21","","36","","","M","97.89","","","","-29","","NA"
"-75.67","62.18","SALLUIT A","7117802","2019-03-26 17:00","2019","03","26","17:00","-16.1","","-18.5","","82","","","M","21","","32","","","M","97.91","","","","-28","","NA"
"-75.67","62.18","SALLUIT A","7117802","2019-03-26 18:00","2019","03","26","18:00","-16.0","","-18.8","","79","","","M","22","","36","","","M","97.88","","","","-28","","NA"
"-75.67","62.18","SALLUIT A","7117802","2019-03-26 19:00","2019","03","26","19:00","-17.0","","-19.8","","79","","","M","21","","31","","","M","97.88","","","","-29","","NA"
"-75.67","62.18","SALLUIT A","7117802","2019-03-26 20:00","2019","03","26","20:00","-17.7","","-20.1","","82","","","M","21","","33","","","M","97.86","","","","-30","","NA"
"-75.67","62.18","SALLUIT A","7117802","2019-03-26 21:00","2019","03","26","21:00","-18.5","","-20.8","","82","","","M","22","","36","","","M","97.82","","","","-32","","NA"
"-75.67","62.18","SALLUIT A","7117802","2019-03-26 22:00","2019","03","26","22:00","-19.1","","-21.6","","81","","","M","22","","32","","","M","97.80","","","","-32","","NA"
"-75.67","62.18","SALLUIT A","7117802","2019-03-26 23:00","2019","03","26","23:00","-19.4","","-21.7","","82","","","M","21","","31","","","M","97.76","","","","-32","","NA"
"-75.67","62.18","SALLUIT A","7117802","2019-03-27 00:00","2019","03","27","00:00","-17.8","","-20.2","","82","","","M","20","","52","","","M","97.70","","","","-33","","NA"
"-75.67","62.18","SALLUIT A","7117802","2019-03-27 01:00","2019","03","27","01:00","-18.5","","-21.3","","79","","","M","18","","50","","","M","97.65","","","","-33","","NA"
"-75.67","62.18","SALLUIT A","7117802","2019-03-27 02:00","2019","03","27","02:00","-19.2","","-22.0","","79","","","M","19","","43","","","M","97.63","","","","-33","","NA"
"-75.67","62.18","SALLUIT A","7117802","2019-03-27 03:00","2019","03","27","03:00","-19.7","","-22.7","","77","","","M","18","","43","","","M","97.60","","","","-34","","NA"
"-75.67","62.18","SALLUIT A","7117802","2019-03-27 04:00","2019","03","27","04:00","-20.1","","-23.4","","76","","","M","17","","37","","","M","97.52","","","","-34","","NA"
"-75.67","62.18","SALLUIT A","7117802","2019-03-27 05:00","2019","03","27","05:00","-20.0","","-23.0","","77","","","M","17","","45","","","M","97.47","","","","-35","","NA"
"-75.67","62.18","SALLUIT A","7117802","2019-03-27 06:00","2019","03","27","06:00","-19.9","","-23.1","","76","","","M","18","","47","","","M","97.43","","","","-35","","NA"
"-75.67","62.18","SALLUIT A","7117802","2019-03-27 07:00","2019","03","27","07:00","-20.2","","-23.2","","77","","","M","17","","54","","","M","97.38","","","","-36","","NA"
"-75.67","62.18","SALLUIT A","7117802","2019-03-27 08:00","2019","03","27","08:00","-20.1","","-23.4","","75","","","M","18","","49","","","M","97.34","","","","-35","","NA"
"-75.67","62.18","SALLUIT A","7117802","2019-03-27 09:00","2019","03","27","09:00","-19.3","","-23.0","","73","","","M","17","","48","","","M","97.28","","","","-34","","NA"
"-75.67","62.18","SALLUIT A","7117802","2019-03-27 10:00","2019","03","27","10:00","-18.4","","-22.1","","73","","","M","17","","39","","","M","97.24","","","","-32","","NA"
"-75.67","62.18","SALLUIT A","7117802","2019-03-27 11:00","2019","03","27","11:00","-17.9","","-21.6","","73","","","M","17","","43","","","M","97.17","","","","-32","","NA"
"-75.67","62.18","SALLUIT A","7117802","2019-03-27 12:00","2019","03","27","12:00","-16.6","","-21.2","","68","","","M","17","","45","","","M","97.06","","","","-30","","NA"
"-75.67","62.18","SALLUIT A","7117802","2019-03-27 13:00","2019","03","27","13:00","-15.4","","-20.8","","64","","","M","16","","28","","","M","97.01","","","","-26","","NA"
"-75.67","62.18","SALLUIT A","7117802","2019-03-27 14:00","2019","03","27","14:00","-14.8","","-19.2","","70","","","M","17","","32","","","M","96.95","","","","-26","","NA"
"-75.67","62.18","SALLUIT A","7117802","2019-03-27 15:00","2019","03","27","15:00","-14.7","","-17.4","","80","","","M","16","","63","","","M","96.77","","","","-29","","NA"
"-75.67","62.18","SALLUIT A","7117802","2019-03-27 16:00","2019","03","27","16:00","-13.5","","-16.0","","82","","","M","16","","62","","","M","96.67","","","","-28","","NA"
"-75.67","62.18","SALLUIT A","7117802","2019-03-27 17:00","2019","03","27","17:00","-13.2","","-15.5","","83","","","M","16","","60","","","M","96.61","","","","-27","","NA"
"-75.67","62.18","SALLUIT A","7117802","2019-03-27 18:00","2019","03","27","18:00","-12.6","","-14.8","","84","","","M","17","","62","","","M","96.54","","","","-26","","NA"
"-75.67","62.18","SALLUIT A","7117802","2019-03-27 19:00","2019","03","27","19:00","-13.2","","-15.5","","84","","","M","17","","66","","","M","96.52","","","","-28","","NA"
"-75.67","62.18","SALLUIT A","7117802","2019-03-27 20:00","2019","03","27","20:00","-14.0","","-16.3","","83","","","M","16","","73","","","M","96.43","","","","-29","","NA"
"-75.67","62.18","SALLUIT A","7117802","2019-03-27 21:00","2019","03","27","21:00","-13.7","","-16.4","","80","","","M","16","","45","","","M","96.47","","","","-26","","NA"
"-75.67","62.18","SALLUIT A","7117802","2019-03-27 22:00","2019","03","27","22:00","-13.7","","-16.1","","82","","","M","17","","62","","","M","96.35","","","","-28","","NA"
"-75.67","62.18","SALLUIT A","7117802","2019-03-27 23:00","2019","03","27","23:00","-12.6","","-14.7","","84","","","M","15","","51","","","M","96.27","","","","-25","","NA"
"-75.67","62.18","SALLUIT A","7117802","2019-03-28 00:00","2019","03","28","00:00","-11.8","","-14.1","","83","","","M","18","","49","","","M","96.23","","","","-24","","NA"
"-75.67","62.18","SALLUIT A","7117802","2019-03-28 01:00","2019","03","28","01:00","-11.1","","-13.0","","86","","","M","19","","56","","","M","96.15","","","","-24","","NA"
"-75.67","62.18","SALLUIT A","7117802","2019-03-28 02:00","2019","03","28","02:00","-10.4","","-12.7","","84","","","M","20","","42","","","M","96.20","","","","-22","","NA"
"-75.67","62.18","SALLUIT A","7117802","2019-03-28 03:00","2019","03","28","03:00","-11.2","","-13.1","","85","","","M","20","","56","","","M","96.12","","","","-24","","NA"
"-75.67","62.18","SALLUIT A","7117802","2019-03-28 04:00","2019","03","28","04:00","-11.6","","-13.9","","83","","","M","25","","30","","","M","96.22","","","","-22","","NA"
"-75.67","62.18","SALLUIT A","7117802","2019-03-28 05:00","2019","03","28","05:00","-12.3","","-14.5","","84","","","M","22","","36","","","M","96.16","","","","-23","","NA"
"-75.67","62.18","SALLUIT A","7117802","2019-03-28 06:00","2019","03","28","06:00","-12.8","","-15.0","","84","","","M","22","","41","","","M","96.18","","","","-25","","NA"
"-75.67","62.18","SALLUIT A","7117802","2019-03-28 07:00","2019","03","28","07:00","-13.1","","-15.5","","82","","","M","21","","44","","","M","96.17","","","","-25","","NA"
"-75.67","62.18","SALLUIT A","7117802","2019-03-28 08:00","2019","03","28","08:00","-12.7","","-15.6","","79","","","M","21","","35","","","M","96.17","","","","-24","","NA"
"-75.67","62.18","SALLUIT A","7117802","2019-03-28 09:00","2019","03","28","09:00","-12.8","","-15.9","","78","","","M","20","","36","","","M","96.16","","","","-24","","NA"
"-75.67","62.18","SALLUIT A","7117802","2019-03-28 10:00","2019","03","28","10:00","-12.3","","-15.4","","78","","","M","20","","38","","","M","96.12","","","","-24","","NA"
"-75.67","62.18","SALLUIT A","7117802","2019-03-28 11:00","2019","03","28","11:00","-12.1","","-15.3","","77","","","M","21","","35","","","M","96.10","","","","-23","","NA"
"-75.67","62.18","SALLUIT A","7117802","2019-03-28 12:00","2019","03","28","12:00","-12.5","","-15.4","","79","","","M","20","","35","","","M","96.09","","","","-23","","NA"
"-75.67","62.18","SALLUIT A","7117802","2019-03-28 13:00","2019","03","28","13:00","-13.3","","-16.0","","80","","","M","21","","35","","","M","96.06","","","","-25","","NA"
"-75.67","62.18","SALLUIT A","7117802","2019-03-28 14:00","2019","03","28","14:00","-13.3","","-15.9","","81","","","M","22","","28","","","M","96.03","","","","-24","","NA"
"-75.67","62.18","SALLUIT A","7117802","2019-03-28 15:00","2019","03","28","15:00","-13.5","","-16.4","","79","","","M","22","","27","","","M","96.06","","","","-24","","NA"
"-75.67","62.18","SALLUIT A","7117802","2019-03-28 16:00","2019","03","28","16:00","-13.4","","-16.1","","80","","","M","20","","17","","","M","96.10","","","","-21","","NA"
"-75.67","62.18","SALLUIT A","7117802","2019-03-28 17:00","2019","03","28","17:00","-13.5","","-16.5","","78","","","M","24","","19","","","M","96.12","","","","-22","","NA"
"-75.67","62.18","SALLUIT A","7117802","2019-03-28 18:00","2019","03","28","18:00","-13.8","","-16.6","","80","","","M","23","","17","","","M","96.14","","","","-22","","NA"
"-75.67","62.18","SALLUIT A","7117802","2019-03-28 19:00","2019","03","28","19:00","-14.0","","-16.5","","82","","","M","24","","18","","","M","96.14","","","","-22","","NA"
"-75.67","62.18","SALLUIT A","7117802","2019-03-28 20:00","2019","03","28","20:00","-14.2","","-16.2","","85","","","M","25","","19","","","M","96.16","","","","-23","","NA"
"-75.67","62.18","SALLUIT A","7117802","2019-03-28 21:00","2019","03","28","21:00","-14.9","","-17.0","","84","","","M","25","","23","","","M","96.14","","","","-25","","NA"
"-75.67","62.18","SALLUIT A","7117802","2019-03-28 22:00","2019","03","28","22:00","-15.5","","-17.5","","85","","","M","25","","19","","","M","96.12","","","","-25","","NA"
"-75.67","62.18","SALLUIT A","7117802","2019-03-28 23:00","2019","03","28","23:00","-16.2","","-18.6","","82","","","M","21","","20","","","M","96.11","","","","-26","","NA"
"-75.67","62.18","SALLUIT A","7117802","2019-03-29 00:00","2019","03","29","00:00","-17.0","","-19.5","","81","","","M","20","","24","","","M","96.11","","","","-28","","NA"
"-75.67","62.18","SALLUIT A","7117802","2019-03-29 01:00","2019","03","29","01:00","-17.3","","-19.8","","81","","","M","21","","21","","","M","96.10","","","","-27","","NA"
"-75.67","62.18","SALLUIT A","7117802","2019-03-29 02:00","2019","03","29","02:00","-17.4","","-20.0","","80","","","M","22","","19","","","M","96.10","","","","-27","","NA"
"-75.67","62.18","SALLUIT A","7117802","2019-03-29 03:00","2019","03","29","03:00","-17.3","","-19.9","","81","","","M","22","","24","","","M","96.08","","","","-28","","NA"
"-75.67","62.18","SALLUIT A","7117802","2019-03-29 04:00","2019","03","29","04:00","-17.3","","-19.8","","81","","","M","23","","27","","","M","96.08","","","","-29","","NA"
"-75.67","62.18","SALLUIT A","7117802","2019-03-29 05:00","2019","03","29","05:00","-17.1","","-19.6","","81","","","M","23","","26","","","M","96.08","","","","-28","","NA"
"-75.67","62.18","SALLUIT A","7117802","2019-03-29 06:00","2019","03","29","06:00","-16.9","","-19.6","","80","","","M","22","","26","","","M","96.07","","","","-28","","NA"
"-75.67","62.18","SALLUIT A","7117802","2019-03-29 07:00","2019","03","29","07:00","-16.8","","-19.4","","81","","","M","22","","33","","","M","96.07","","","","-29","","NA"
"-75.67","62.18","SALLUIT A","7117802","2019-03-29 08:00","2019","03","29","08:00","-16.5","","-19.2","","79","","","M","21","","33","","","M","96.07","","","","-28","","NA"
"-75.67","62.18","SALLUIT A","7117802","2019-03-29 09:00","2019","03","29","09:00","-15.9","","-18.5","","80","","","M","22","","33","","","M","96.12","","","","-28","","NA"
"-75.67","62.18","SALLUIT A","7117802","2019-03-29 10:00","2019","03","29","10:00","-15.9","","-18.7","","80","","","M","21","","42","","","M","96.13","","","","-29","","NA"
"-75.67","62.18","SALLUIT A","7117802","2019-03-29 11:00","2019","03","29","11:00","-16.2","","-18.9","","80","","","M","22","","46","","","M","96.14","","","","-30","","NA"
"-75.67","62.18","SALLUIT A","7117802","2019-03-29 12:00","2019","03","29","12:00","-17.6","","-20.1","","82","","","M","21","","49","","","M","96.18","","","","-32","","NA"
"-75.67","62.18","SALLUIT A","7117802","2019-03-29 13:00","2019","03","29","13:00","-18.3","","-20.8","","81","","","M","21","","57","","","M","96.22","","","","-34","","NA"
"-75.67","62.18","SALLUIT A","7117802","2019-03-29 14:00","2019","03","29","14:00","-19.0","","-21.4","","81","","","M","21","","52","","","M","96.29","","","","-34","","NA"
"-75.67","62.18","SALLUIT A","7117802","2019-03-29 15:00","2019","03","29","15:00","-19.6","","-22.2","","80","","","M","21","","56","","","M","96.38","","","","-36","","NA"
"-75.67","62.18","SALLUIT A","7117802","2019-03-29 16:00","2019","03","29","16:00","-19.8","","-22.3","","81","","","M","22","","62","","","M","96.43","","","","-36","","NA"
"-75.67","62.18","SALLUIT A","7117802","2019-03-29 17:00","2019","03","29","17:00","-20.4","","-23.1","","80","","","M","21","","67","","","M","96.48","","","","-38","","NA"
"-75.67","62.18","SALLUIT A","7117802","2019-03-29 18:00","2019","03","29","18:00","-20.5","","-23.1","","81","","","M","21","","63","","","M","96.53","","","","-37","","NA"
"-75.67","62.18","SALLUIT A","7117802","2019-03-29 19:00","2019","03","29","19:00","-21.1","","-23.7","","80","","","M","21","","65","","","M","96.59","","","","-38","","NA"
"-75.67","62.18","SALLUIT A","7117802","2019-03-29 20:00","2019","03","29","20:00","-21.4","","-24.0","","79","","","M","21","","60","","","M","96.60","","","","-38","","NA"
"-75.67","62.18","SALLUIT A","7117802","2019-03-29 21:00","2019","03","29","21:00","-21.3","","-23.9","","80","","","M","21","","60","","","M","96.61","","","","-38","","NA"
"-75.67","62.18","SALLUIT A","7117802","2019-03-29 22:00","2019","03","29","22:00","-20.9","","-23.6","","80","","","M","21","","65","","","M","96.58","","","","-38","","NA"
"-75.67","62.18","SALLUIT A","7117802","2019-03-29 23:00","2019","03","29","23:00","-20.6","","-23.2","","80","","","M","21","","51","","","M","96.60","","","","-36","","NA"
"-75.67","62.18","SALLUIT A","7117802","2019-03-30 00:00","2019","03","30","00:00","-20.2","","-22.7","","80","","","M","22","","54","","","M","96.58","","","","-36","","NA"
"-75.67","62.18","SALLUIT A","7117802","2019-03-30 01:00","2019","03","30","01:00","-19.9","","-22.6","","80","","","M","22","","46","","","M","96.63","","","","-35","","NA"
"-75.67","62.18","SALLUIT A","7117802","2019-03-30 02:00","2019","03","30","02:00","-19.6","","-22.3","","80","","","M","21","","53","","","M","96.63","","","","-35","","NA"
"-75.67","62.18","SALLUIT A","7117802","2019-03-30 03:00","2019","03","30","03:00","-19.6","","-22.2","","80","","","M","21","","50","","","M","96.66","","","","-35","","NA"
"-75.67","62.18","SALLUIT A","7117802","2019-03-30 04:00","2019","03","30","04:00","-19.7","","-22.2","","81","","","M","21","","47","","","M","96.71","","","","-35","","NA"
"-75.67","62.18","SALLUIT A","7117802","2019-03-30 05:00","2019","03","30","05:00","-19.8","","-22.4","","80","","","M","20","","41","","","M","96.73","","","","-34","","NA"
"-75.67","62.18","SALLUIT A","7117802","2019-03-30 06:00","2019","03","30","06:00","-19.2","","-21.7","","81","","","M","21","","40","","","M","96.76","","","","-33","","NA"
"-75.67","62.18","SALLUIT A","7117802","2019-03-30 07:00","2019","03","30","07:00","-18.9","","-21.3","","82","","","M","21","","49","","","M","96.80","","","","-34","","NA"
"-75.67","62.18","SALLUIT A","7117802","2019-03-30 08:00","2019","03","30","08:00","-18.6","","-21.1","","81","","","M","20","","49","","","M","96.83","","","","-33","","NA"
"-75.67","62.18","SALLUIT A","7117802","2019-03-30 09:00","2019","03","30","09:00","-17.8","","-20.4","","81","","","M","21","","49","","","M","96.87","","","","-32","","NA"
"-75.67","62.18","SALLUIT A","7117802","2019-03-30 10:00","2019","03","30","10:00","-16.6","","-19.3","","79","","","M","21","","41","","","M","96.94","","","","-30","","NA"
"-75.67","62.18","SALLUIT A","7117802","2019-03-30 11:00","2019","03","30","11:00","-15.8","","-18.3","","81","","","M","22","","43","","","M","96.96","","","","-29","","NA"
"-75.67","62.18","SALLUIT A","7117802","2019-03-30 12:00","2019","03","30","12:00","-14.8","","-17.6","","79","","","M","21","","37","","","M","97.03","","","","-27","","NA"
"-75.67","62.18","SALLUIT A","7117802","2019-03-30 13:00","2019","03","30","13:00","-14.3","","-17.2","","79","","","M","21","","38","","","M","97.09","","","","-26","","NA"
"-75.67","62.18","SALLUIT A","7117802","2019-03-30 14:00","2019","03","30","14:00","-13.6","","-16.8","","78","","","M","22","","34","","","M","97.14","","","","-25","","NA"
"-75.67","62.18","SALLUIT A","7117802","2019-03-30 15:00","2019","03","30","15:00","-13.5","","-16.5","","78","","","M","24","","37","","","M","97.21","","","","-25","","NA"
"-75.67","62.18","SALLUIT A","7117802","2019-03-30 16:00","2019","03","30","16:00","-13.6","","-16.7","","78","","","M","25","","42","","","M","97.25","","","","-26","","NA"
"-75.67","62.18","SALLUIT A","7117802","2019-03-30 17:00","2019","03","30","17:00","-14.4","","-16.9","","81","","","M","24","","41","","","M","97.31","","","","-27","","NA"
"-75.67","62.18","SALLUIT A","7117802","2019-03-30 18:00","2019","03","30","18:00","-14.9","","-17.5","","81","","","M","25","","48","","","M","97.35","","","","-28","","NA"
"-75.67","62.18","SALLUIT A","7117802","2019-03-30 19:00","2019","03","30","19:00","-15.5","","-18.3","","80","","","M","25","","36","","","M","97.42","","","","-28","","NA"
"-75.67","62.18","SALLUIT A","7117802","2019-03-30 20:00","2019","03","30","20:00","-15.3","","-18.2","","79","","","M","24","","41","","","M","97.46","","","","-28","","NA"
"-75.67","62.18","SALLUIT A","7117802","2019-03-30 21:00","2019","03","30","21:00","-15.5","","-18.4","","79","","","M","23","","32","","","M","97.52","","","","-27","","NA"
"-75.67","62.18","SALLUIT A","7117802","2019-03-30 22:00","2019","03","30","22:00","-16.1","","-19.3","","77","","","M","22","","37","","","M","97.53","","","","-29","","NA"
"-75.67","62.18","SALLUIT A","7117802","2019-03-30 23:00","2019","03","30","23:00","-16.3","","-19.3","","78","","","M","26","","35","","","M","97.52","","","","-29","","NA"
"-75.67","62.18","SALLUIT A","7117802","2019-03-31 00:00","2019","03","31","00:00","-16.4","","-19.2","","80","","","M","24","","29","","","M","97.56","","","","-28","","NA"
"-75.67","62.18","SALLUIT A","7117802","2019-03-31 01:00","2019","03","31","01:00","-16.7","","-19.5","","79","","","M","21","","27","","","M","97.62","","","","-28","","NA"
"-75.67","62.18","SALLUIT A","7117802","2019-03-31 02:00","2019","03","31","02:00","-17.6","","-20.4","","79","","","M","23","","32","","","M","97.64","","","","-30","","NA"
"-75.67","62.18","SALLUIT A","7117802","2019-03-31 03:00","2019","03","31","03:00","-18.3","","-20.8","","81","","","M","22","","29","","","M","97.68","","","","-30","","NA"
"-75.67","62.18","SALLUIT A","7117802","2019-03-31 04:00","2019","03","31","04:00","-18.5","","-20.9","","82","","","M","22","","34","","","M","97.67","","","","-31","","NA"
"-75.67","62.18","SALLUIT A","7117802","2019-03-31 05:00","2019","03","31","05:00","-19.6","","-21.9","","82","","","M","21","","46","","","M","97.70","","","","-34","","NA"
"-75.67","62.18","SALLUIT A","7117802","2019-03-31 06:00","2019","03","31","06:00","-19.6","","-22.1","","81","","","M","21","","27","","","M","97.77","","","","-31","","NA"
"-75.67","62.18","SALLUIT A","7117802","2019-03-31 07:00","2019","03","31","07:00","-19.6","","-22.1","","81","","","M","21","","46","","","M","97.76","","","","-34","","NA"
"-75.67","62.18","SALLUIT A","7117802","2019-03-31 08:00","2019","03","31","08:00","-18.8","","-21.5","","79","","","M","21","","46","","","M","97.82","","","","-33","","NA"
"-75.67","62.18","SALLUIT A","7117802","2019-03-31 09:00","2019","03","31","09:00","-18.2","","-21.3","","77","","","M","19","","37","","","M","97.89","","","","-31","","NA"
"-75.67","62.18","SALLUIT A","7117802","2019-03-31 10:00","2019","03","31","10:00","-17.8","","-20.7","","79","","","M","22","","47","","","M","97.83","","","","-32","","NA"
"-75.67","62.18","SALLUIT A","7117802","2019-03-31 11:00","2019","03","31","11:00","-15.8","","-19.4","","74","","","M","24","","34","","","M","97.87","","","","-28","","NA"
"-75.67","62.18","SALLUIT A","7117802","2019-03-31 12:00","2019","03","31","12:00","-15.8","","-19.3","","75","","","M","24","","37","","","M","97.88","","","","-28","","NA"
"-75.67","62.18","SALLUIT A","7117802","2019-03-31 13:00","2019","03","31","13:00","-15.0","","-19.4","","70","","","M","24","","37","","","M","97.90","","","","-27","","NA"
"-75.67","62.18","SALLUIT A","7117802","2019-03-31 14:00","2019","03","31","14:00","-14.0","","-17.4","","76","","","M","23","","39","","","M","97.92","","","","-26","","NA"
"-75.67","62.18","SALLUIT A","7117802","2019-03-31 15:00","2019","03","31","15:00","-14.4","","-16.9","","82","","","M","21","","49","","","M","97.91","","","","-28","","NA"
"-75.67","62.18","SALLUIT A","7117802","2019-03-31 16:00","2019","03","31","16:00","-14.4","","-17.3","","79","","","M","22","","46","","","M","97.91","","","","-27","","NA"
"-75.67","62.18","SALLUIT A","7117802","2019-03-31 17:00","2019","03","31","17:00","-14.4","","-17.4","","78","","","M","20","","32","","","M","97.97","","","","-26","","NA"
"-75.67","62.18","SALLUIT A","7117802","2019-03-31 18:00","2019","03","31","18:00","-14.9","","-17.8","","78","","","M","21","","37","","","M","97.98","","","","-27","","NA"
"-75.67","62.18","SALLUIT A","7117802","2019-03-31 19:00","2019","03","31","19:00","-15.1","","-17.7","","80","","","M","19","","38","","","M","98.01","","","","-27","","NA"
"-75.67","62.18","SALLUIT A","7117802","2019-03-31 20:00","2019","03","31","20:00","-15.2","","-18.1","","78","","","M","19","","28","","","M","98.04","","","","-26","","NA"
"-75.67","62.18","SALLUIT A","7117802","2019-03-31 21:00","2019","03","31","21:00","-15.1","","-18.0","","79","","","M","19","","28","","","M","98.04","","","","-26","","NA"
"-75.67","62.18","SALLUIT A","7117802","2019-03-31 22:00","2019","03","31","22:00","-15.4","","-18.3","","79","","","M","19","","21","","","M","98.05","","","","-25","","NA"
"-75.67","62.18","SALLUIT A","7117802","2019-03-31 23:00","2019","03","31","23:00","-16.0","","-19.0","","78","","","M","18","","40","","","M","97.96","","","","-29","","NA"
