"Longitude (x)","Latitude (y)","Station Name","Climate ID","Date/Time (LST)","Year","Month","Day","Time (LST)","Temp (°C)","Temp Flag","Dew Point Temp (°C)","Dew Point Temp Flag","Rel Hum (%)","Rel Hum Flag","Precip. Amount (mm)","Precip. Amount Flag","Wind Dir (10s deg)","Wind Dir Flag","Wind Spd (km/h)","Wind Spd Flag","Visibility (km)","Visibility Flag","Stn Press (kPa)","Stn Press Flag","Hmdx","Hmdx Flag","Wind Chill","Wind Chill Flag","Weather"
"-95.85","68.64","GJOA HAVEN AWOS A","2302338","2012-02-01 00:00","2012","02","01","00:00","-25.5","","-30.1","","65","","","","18","","20","","11.3","","100.42","","","","-37","",""
"-95.85","68.64","GJOA HAVEN AWOS A","2302338","2012-02-01 01:00","2012","02","01","01:00","-25.1","","-29.6","","66","","","","18","","17","","5.6","","100.42","","","","-36","","Snow"
"-95.85","68.64","GJOA HAVEN AWOS A","2302338","2012-02-01 02:00","2012","02","01","02:00","-24.5","","-28.9","","67","","","","18","","20","","2.9","","100.42","","","","-36","",""
"-95.85","68.64","GJOA HAVEN AWOS A","2302338","2012-02-01 03:00","2012","02","01","03:00","-24.5","","-29.0","","66","","","","19","","20","","15.0","","100.39","","","","-36","",""
"-95.85","68.64","GJOA HAVEN AWOS A","2302338","2012-02-01 04:00","2012","02","01","04:00","-24.2","","-28.7","","66","","","","20","","22","","15.0","","100.42","","","","-36","",""
"-95.85","68.64","GJOA HAVEN AWOS A","2302338","2012-02-01 05:00","2012","02","01","05:00","-24.2","","-28.6","","67","","","","21","","17","","12.9","","100.42","","","","-35","",""
"-95.85","68.64","GJOA HAVEN AWOS A","2302338","2012-02-01 06:00","2012","02","01","06:00","-24.3","","-28.7","","67","","","","22","","17","","15.0","","100.45","","","","-35","",""
"-95.85","68.64","GJOA HAVEN AWOS A","2302338","2012-02-01 07:00","2012","02","01","07:00","-24.4","","-28.8","","67","","","","21","","15","","15.0","","100.47","","","","-35","",""
"-95.85","68.64","GJOA HAVEN AWOS A","2302338","2012-02-01 08:00","2012","02","01","08:00","-24.5","","-28.9","","67","","","","22","","15","","15.0","","100.51","","","","-35","",""
"-95.85","68.64","GJOA HAVEN AWOS A","2302338","2012-02-01 09:00","2012","02","01","09:00","-25.5","","-30.1","","65","","","","22","","15","","15.0","","100.53","","","","-36","",""
"-95.85","68.64","GJOA HAVEN AWOS A","2302338","2012-02-01 10:00","2012","02","01","10:00","-26.7","","-31.4","","64","","","","22","","13","","12.9","","100.56","","","","-37","",""
"-95.85","68.64","GJOA HAVEN AWOS A","2302338","2012-02-01 11:00","2012","02","01","11:00","-28.5","","-33.3","","63","","","","22","","13","","15.0","","100.61","","","","-39","",""
"-95.85","68.64","GJOA HAVEN AWOS A","2302338","2012-02-01 12:00","2012","02","01","12:00","-29.4","","-34.3","","62","","","","22","","15","","15.0","","100.64","","","","-41","",""
"-95.85","68.64","GJOA HAVEN AWOS A","2302338","2012-02-01 13:00","2012","02","01","13:00","-30.2","","-35.1","","62","","","","22","","15","","15.0","","100.71","","","","-42","",""
"-95.85","68.64","GJOA HAVEN AWOS A","2302338","2012-02-01 14:00","2012","02","01","14:00","-30.7","","-35.6","","62","","","","22","","11","","12.9","","100.77","","","","-41","",""
"-95.85","68.64","GJOA HAVEN AWOS A","2302338","2012-02-01 15:00","2012","02","01","15:00","-31.7","","-36.8","","61","","","","21","","13","","15.0","","100.83","","","","-43","",""
"-95.85","68.64","GJOA HAVEN AWOS A","2302338","2012-02-01 16:00","2012","02","01","16:00","-31.8","","-37.0","","60","","","","20","","15","","15.0","","100.91","","","","-44","",""
"-95.85","68.64","GJOA HAVEN AWOS A","2302338","2012-02-01 17:00","2012","02","01","17:00","-32.2","","-37.3","","60","","","","20","","17","","15.0","","100.92","","","","-45","",""
"-95.85","68.64","GJOA HAVEN AWOS A","2302338","2012-02-01 18:00","2012","02","01","18:00","-32.3","","-37.4","","60","","","","20","","17","","15.0","","100.94","","","","-45","",""
"-95.85","68.64","GJOA HAVEN AWOS A","2302338","2012-02-01 19:00","2012","02","01","19:00","-32.2","","-37.2","","61","","","","20","","15","","15.0","","100.95","","","","-44","",""
"-95.85","68.64","GJOA HAVEN AWOS A","2302338","2012-02-01 20:00","2012","02","01","20:00","-31.8","","-36.9","","61","","","","21","","13","","15.0","","100.99","","","","-43","",""
"-95.85","68.64","GJOA HAVEN AWOS A","2302338","2012-02-01 21:00","2012","02","01","21:00","-31.0","","-36.0","","61","","","","21","","15","","15.0","","100.99","","","","-43","",""
"-95.85","68.64","GJOA HAVEN AWOS A","2302338","2012-02-01 22:00","2012","02","01","22:00","-30.7","","-35.6","","62","","","","21","","17","","15.0","","101.02","","","","-43","",""
"-95.85","68.64","GJOA HAVEN AWOS A","2302338","2012-02-01 23:00","2012","02","01","23:00","-29.4","","-34.4","","62","","","","21","","19","","15.0","","101.05","","","","-42","",""
"-95.85","68.64","GJOA HAVEN AWOS A","2302338","2012-02-02 00:00","2012","02","02","00:00","-28.2","","-33.0","","63","","","","21","","19","","15.0","","101.07","","","","-41","",""
"-95.85","68.64","GJOA HAVEN AWOS A","2302338","2012-02-02 01:00","2012","02","02","01:00","-26.8","","-31.4","","65","","","","22","","19","","15.0","","101.14","","","","-39","",""
"-95.85","68.64","GJOA HAVEN AWOS A","2302338","2012-02-02 02:00","2012","02","02","02:00","-25.7","","-30.2","","66","","","","21","","19","","15.0","","101.14","","","","-37","",""
"-95.85","68.64","GJOA HAVEN AWOS A","2302338","2012-02-02 03:00","2012","02","02","03:00","-25.3","","-29.8","","66","","","","21","","19","","15.0","","101.20","","","","-37","",""
"-95.85","68.64","GJOA HAVEN AWOS A","2302338","2012-02-02 04:00","2012","02","02","04:00","-27.3","","-32.0","","64","","","","21","","17","","15.0","","101.20","","","","-39","",""
"-95.85","68.64","GJOA HAVEN AWOS A","2302338","2012-02-02 05:00","2012","02","02","05:00","-28.1","","-32.9","","63","","","","20","","22","","15.0","","101.22","","","","-41","",""
"-95.85","68.64","GJOA HAVEN AWOS A","2302338","2012-02-02 06:00","2012","02","02","06:00","-28.7","","-33.6","","63","","","","21","","19","","15.0","","101.26","","","","-41","",""
"-95.85","68.64","GJOA HAVEN AWOS A","2302338","2012-02-02 07:00","2012","02","02","07:00","-29.0","","-33.8","","63","","","","22","","15","","15.0","","101.29","","","","-40","",""
"-95.85","68.64","GJOA HAVEN AWOS A","2302338","2012-02-02 08:00","2012","02","02","08:00","-29.4","","-34.5","","61","","","","20","","15","","15.0","","101.27","","","","-41","",""
"-95.85","68.64","GJOA HAVEN AWOS A","2302338","2012-02-02 09:00","2012","02","02","09:00","-29.5","","-34.6","","61","","","","20","","20","","15.0","","101.25","","","","-42","",""
"-95.85","68.64","GJOA HAVEN AWOS A","2302338","2012-02-02 10:00","2012","02","02","10:00","-28.8","","-33.8","","62","","","","22","","17","","12.9","","101.28","","","","-41","",""
"-95.85","68.64","GJOA HAVEN AWOS A","2302338","2012-02-02 11:00","2012","02","02","11:00","-28.4","","-33.1","","64","","","","21","","15","","15.0","","101.29","","","","-39","",""
"-95.85","68.64","GJOA HAVEN AWOS A","2302338","2012-02-02 12:00","2012","02","02","12:00","-28.3","","-33.1","","63","","","","19","","17","","15.0","","101.25","","","","-40","",""
"-95.85","68.64","GJOA HAVEN AWOS A","2302338","2012-02-02 13:00","2012","02","02","13:00","-27.5","","-32.3","","64","","","","20","","22","","15.0","","101.20","","","","-40","",""
"-95.85","68.64","GJOA HAVEN AWOS A","2302338","2012-02-02 14:00","2012","02","02","14:00","-27.3","","-32.1","","64","","","","20","","19","","15.0","","101.11","","","","-39","",""
"-95.85","68.64","GJOA HAVEN AWOS A","2302338","2012-02-02 15:00","2012","02","02","15:00","-26.7","","-31.5","","64","","","","20","","24","","8.0","","101.03","","","","-40","",""
"-95.85","68.64","GJOA HAVEN AWOS A","2302338","2012-02-02 16:00","2012","02","02","16:00","-25.6","","-30.1","","66","","","","19","","32","","2.7","","100.93","","","","-40","",""
"-95.85","68.64","GJOA HAVEN AWOS A","2302338","2012-02-02 17:00","2012","02","02","17:00","-24.8","","-29.4","","66","","","","19","","33","","1.6","","100.84","","","","-39","",""
"-95.85","68.64","GJOA HAVEN AWOS A","2302338","2012-02-02 18:00","2012","02","02","18:00","-24.4","","-28.9","","66","","","","19","","37","","1.0","","100.71","","","","-40","",""
"-95.85","68.64","GJOA HAVEN AWOS A","2302338","2012-02-02 19:00","2012","02","02","19:00","-23.8","","-28.2","","67","","","","19","","37","","0.6","","100.61","","","","-39","",""
"-95.85","68.64","GJOA HAVEN AWOS A","2302338","2012-02-02 20:00","2012","02","02","20:00","-23.1","","-27.4","","68","","","","18","","41","","0.3","","100.46","","","","-38","",""
"-95.85","68.64","GJOA HAVEN AWOS A","2302338","2012-02-02 21:00","2012","02","02","21:00","-22.4","","-26.6","","69","","","","18","","39","","0.3","","100.30","","","","-37","",""
"-95.85","68.64","GJOA HAVEN AWOS A","2302338","2012-02-02 22:00","2012","02","02","22:00","-21.2","","-25.3","","69","","","","18","","39","","0.3","","100.13","","","","-36","",""
"-95.85","68.64","GJOA HAVEN AWOS A","2302338","2012-02-02 23:00","2012","02","02","23:00","-19.8","","-23.8","","70","","","","19","","46","","0.2","","99.97","","","","-35","",""
"-95.85","68.64","GJOA HAVEN AWOS A","2302338","2012-02-03 00:00","2012","02","03","00:00","-18.6","","-22.4","","72","","","","19","","44","","0.2","","99.82","","","","-33","","Snow"
"-95.85","68.64","GJOA HAVEN AWOS A","2302338","2012-02-03 01:00","2012","02","03","01:00","-19.1","","-22.7","","73","","","","19","","52","","0.2","","99.70","","","","-34","",""
"-95.85","68.64","GJOA HAVEN AWOS A","2302338","2012-02-03 02:00","2012","02","03","02:00","-19.1","","-22.8","","72","","","","19","","50","","0.2","","99.57","","","","-34","",""
"-95.85","68.64","GJOA HAVEN AWOS A","2302338","2012-02-03 03:00","2012","02","03","03:00","-19.0","","-22.8","","72","","","","20","","61","","0.2","","99.37","","","","-35","","Snow"
"-95.85","68.64","GJOA HAVEN AWOS A","2302338","2012-02-03 04:00","2012","02","03","04:00","-19.1","","-22.9","","72","","","","20","","50","","0.2","","99.37","","","","-34","","Snow"
"-95.85","68.64","GJOA HAVEN AWOS A","2302338","2012-02-03 05:00","2012","02","03","05:00","-18.0","","-21.5","","74","","","","21","","44","","0.2","","99.36","","","","-32","",""
"-95.85","68.64","GJOA HAVEN AWOS A","2302338","2012-02-03 06:00","2012","02","03","06:00","-17.3","","-20.7","","75","","","","21","","44","","0.2","","99.27","","","","-31","","Snow"
"-95.85","68.64","GJOA HAVEN AWOS A","2302338","2012-02-03 07:00","2012","02","03","07:00","-16.7","","-20.0","","76","","","","21","","35","","0.2","","99.23","","","","-29","","Snow"
"-95.85","68.64","GJOA HAVEN AWOS A","2302338","2012-02-03 08:00","2012","02","03","08:00","-15.2","","-18.2","","78","","","","23","","30","","1.1","","99.21","","","","-26","","Snow"
"-95.85","68.64","GJOA HAVEN AWOS A","2302338","2012-02-03 09:00","2012","02","03","09:00","-15.3","","-18.1","","79","","","","26","","35","","2.7","","99.28","","","","-27","","Snow"
"-95.85","68.64","GJOA HAVEN AWOS A","2302338","2012-02-03 10:00","2012","02","03","10:00","-18.0","","-21.3","","75","","","","27","","37","","1.8","","99.32","","","","-31","","Snow"
"-95.85","68.64","GJOA HAVEN AWOS A","2302338","2012-02-03 11:00","2012","02","03","11:00","-19.1","","-22.7","","73","","","","27","","41","","1.1","","99.46","","","","-33","",""
"-95.85","68.64","GJOA HAVEN AWOS A","2302338","2012-02-03 12:00","2012","02","03","12:00","-20.4","","-24.2","","72","","","","27","","35","","2.7","","99.59","","","","-34","",""
"-95.85","68.64","GJOA HAVEN AWOS A","2302338","2012-02-03 13:00","2012","02","03","13:00","-21.0","","-24.9","","71","","","","28","","37","","2.1","","99.70","","","","-35","",""
"-95.85","68.64","GJOA HAVEN AWOS A","2302338","2012-02-03 14:00","2012","02","03","14:00","-21.8","","-25.8","","70","","","","30","","37","","1.1","","99.79","","","","-36","",""
"-95.85","68.64","GJOA HAVEN AWOS A","2302338","2012-02-03 15:00","2012","02","03","15:00","-23.5","","-27.7","","68","","","","30","","39","","0.5","","99.97","","","","-39","",""
"-95.85","68.64","GJOA HAVEN AWOS A","2302338","2012-02-03 16:00","2012","02","03","16:00","-24.9","","-29.4","","66","","","","29","","32","","1.3","","100.11","","","","-39","",""
"-95.85","68.64","GJOA HAVEN AWOS A","2302338","2012-02-03 17:00","2012","02","03","17:00","-25.8","","-30.2","","67","","","","30","","35","","1.6","","100.20","","","","-41","",""
"-95.85","68.64","GJOA HAVEN AWOS A","2302338","2012-02-03 18:00","2012","02","03","18:00","-26.5","","-31.1","","65","","","","30","","30","","4.8","","100.28","","","","-41","",""
"-95.85","68.64","GJOA HAVEN AWOS A","2302338","2012-02-03 19:00","2012","02","03","19:00","-27.1","","-31.7","","65","","","","30","","22","","9.7","","100.44","","","","-40","",""
"-95.85","68.64","GJOA HAVEN AWOS A","2302338","2012-02-03 20:00","2012","02","03","20:00","-27.8","","-32.5","","64","","","","29","","17","","14.5","","100.54","","","","-39","",""
"-95.85","68.64","GJOA HAVEN AWOS A","2302338","2012-02-03 21:00","2012","02","03","21:00","-28.4","","-33.1","","64","","","","30","","22","","15.0","","100.57","","","","-42","",""
"-95.85","68.64","GJOA HAVEN AWOS A","2302338","2012-02-03 22:00","2012","02","03","22:00","-29.0","","-34.0","","62","","","","30","","15","","15.0","","100.60","","","","-40","",""
"-95.85","68.64","GJOA HAVEN AWOS A","2302338","2012-02-03 23:00","2012","02","03","23:00","-29.3","","-34.0","","64","","","","32","","7","","15.0","","100.60","","","","-36","",""
"-95.85","68.64","GJOA HAVEN AWOS A","2302338","2012-02-04 00:00","2012","02","04","00:00","-29.0","","-33.8","","63","","","","35","","19","","15.0","","100.58","","","","-42","",""
"-95.85","68.64","GJOA HAVEN AWOS A","2302338","2012-02-04 01:00","2012","02","04","01:00","-29.1","","-33.8","","64","","","","26","","13","","15.0","","100.60","","","","-39","",""
"-95.85","68.64","GJOA HAVEN AWOS A","2302338","2012-02-04 02:00","2012","02","04","02:00","-28.6","","-33.4","","63","","","","33","","6","","15.0","","100.54","","","","-35","",""
"-95.85","68.64","GJOA HAVEN AWOS A","2302338","2012-02-04 03:00","2012","02","04","03:00","-28.0","","-32.7","","64","","","","26","","9","","15.0","","100.52","","","","-36","",""
"-95.85","68.64","GJOA HAVEN AWOS A","2302338","2012-02-04 04:00","2012","02","04","04:00","-27.3","","-31.9","","65","","","","10","","11","","15.0","","100.39","","","","-36","",""
"-95.85","68.64","GJOA HAVEN AWOS A","2302338","2012-02-04 05:00","2012","02","04","05:00","-26.7","","-31.3","","65","","","","9","","17","","15.0","","100.29","","","","-38","",""
"-95.85","68.64","GJOA HAVEN AWOS A","2302338","2012-02-04 06:00","2012","02","04","06:00","-26.2","","-30.7","","66","","","","9","","24","","15.0","","100.12","","","","-39","",""
"-95.85","68.64","GJOA HAVEN AWOS A","2302338","2012-02-04 07:00","2012","02","04","07:00","-25.7","","-30.2","","66","","","","11","","20","","12.9","","100.12","","","","-38","",""
"-95.85","68.64","GJOA HAVEN AWOS A","2302338","2012-02-04 08:00","2012","02","04","08:00","-25.0","","-29.5","","66","","","","10","","30","","15.0","","99.98","","","","-39","",""
"-95.85","68.64","GJOA HAVEN AWOS A","2302338","2012-02-04 09:00","2012","02","04","09:00","-24.6","","-29.1","","66","","","","9","","41","","2.3","","99.77","","","","-40","",""
"-95.85","68.64","GJOA HAVEN AWOS A","2302338","2012-02-04 10:00","2012","02","04","10:00","-24.0","","-28.3","","68","","","","8","","44","","0.6","","99.64","","","","-40","","Snow"
"-95.85","68.64","GJOA HAVEN AWOS A","2302338","2012-02-04 11:00","2012","02","04","11:00","-23.4","","-27.6","","68","","","","8","","43","","0.5","","99.62","","","","-39","","Snow"
"-95.85","68.64","GJOA HAVEN AWOS A","2302338","2012-02-04 12:00","2012","02","04","12:00","-22.0","","-26.2","","69","","","","7","","46","","0.5","","99.72","","","","-38","","Snow"
"-95.85","68.64","GJOA HAVEN AWOS A","2302338","2012-02-04 13:00","2012","02","04","13:00","-22.8","","-27.0","","68","","","","6","","46","","0.3","","99.78","","","","-39","","Snow"
"-95.85","68.64","GJOA HAVEN AWOS A","2302338","2012-02-04 14:00","2012","02","04","14:00","-23.3","","-27.5","","68","","","","5","","39","","1.0","","99.95","","","","-38","","Snow"
"-95.85","68.64","GJOA HAVEN AWOS A","2302338","2012-02-04 15:00","2012","02","04","15:00","-23.8","","-28.4","","66","","","","4","","44","","0.6","","100.10","","","","-40","",""
"-95.85","68.64","GJOA HAVEN AWOS A","2302338","2012-02-04 16:00","2012","02","04","16:00","-24.8","","-29.4","","66","","","","4","","44","","0.5","","100.31","","","","-41","",""
"-95.85","68.64","GJOA HAVEN AWOS A","2302338","2012-02-04 17:00","2012","02","04","17:00","-25.3","","-30.0","","65","","","","4","","41","","1.0","","100.47","","","","-41","",""
"-95.85","68.64","GJOA HAVEN AWOS A","2302338","2012-02-04 18:00","2012","02","04","18:00","-25.9","","-30.5","","65","","","","4","","37","","2.6","","100.65","","","","-42","",""
"-95.85","68.64","GJOA HAVEN AWOS A","2302338","2012-02-04 19:00","2012","02","04","19:00","-25.7","","-30.4","","65","","","","3","","39","","2.4","","100.80","","","","-42","",""
"-95.85","68.64","GJOA HAVEN AWOS A","2302338","2012-02-04 20:00","2012","02","04","20:00","-26.6","","-31.3","","64","","","","1","","39","","1.6","","100.93","","","","-43","",""
"-95.85","68.64","GJOA HAVEN AWOS A","2302338","2012-02-04 21:00","2012","02","04","21:00","-27.0","","-31.6","","65","","","","2","","32","","15.0","","101.05","","","","-42","",""
"-95.85","68.64","GJOA HAVEN AWOS A","2302338","2012-02-04 22:00","2012","02","04","22:00","-28.7","","-33.2","","65","","","","36","","24","","15.0","","101.16","","","","-43","",""
"-95.85","68.64","GJOA HAVEN AWOS A","2302338","2012-02-04 23:00","2012","02","04","23:00","-30.0","","-34.8","","63","","","","35","","28","","15.0","","101.27","","","","-45","",""
"-95.85","68.64","GJOA HAVEN AWOS A","2302338","2012-02-05 00:00","2012","02","05","00:00","-30.5","","-35.5","","62","","","","36","","32","","15.0","","101.36","","","","-47","",""
"-95.85","68.64","GJOA HAVEN AWOS A","2302338","2012-02-05 01:00","2012","02","05","01:00","-30.1","","-35.0","","62","","","","1","","30","","8.0","","101.50","","","","-46","",""
"-95.85","68.64","GJOA HAVEN AWOS A","2302338","2012-02-05 02:00","2012","02","05","02:00","-30.7","","-35.6","","62","","","","36","","30","","15.0","","101.57","","","","-47","",""
"-95.85","68.64","GJOA HAVEN AWOS A","2302338","2012-02-05 03:00","2012","02","05","03:00","-31.2","","-36.1","","62","","","","36","","30","","15.0","","101.71","","","","-47","",""
"-95.85","68.64","GJOA HAVEN AWOS A","2302338","2012-02-05 04:00","2012","02","05","04:00","-31.7","","-36.9","","60","","","","36","","24","","8.0","","101.77","","","","-46","",""
"-95.85","68.64","GJOA HAVEN AWOS A","2302338","2012-02-05 05:00","2012","02","05","05:00","-31.5","","-36.5","","61","","","","36","","32","","15.0","","101.82","","","","-48","",""
"-95.85","68.64","GJOA HAVEN AWOS A","2302338","2012-02-05 06:00","2012","02","05","06:00","-32.4","","-37.4","","61","","","","34","","37","","6.4","","101.87","","","","-50","",""
"-95.85","68.64","GJOA HAVEN AWOS A","2302338","2012-02-05 07:00","2012","02","05","07:00","-32.4","","-37.5","","60","","","","34","","37","","6.4","","101.92","","","","-50","",""
"-95.85","68.64","GJOA HAVEN AWOS A","2302338","2012-02-05 08:00","2012","02","05","08:00","-32.6","","-37.6","","61","","","","35","","37","","1.8","","102.02","","","","-50","",""
"-95.85","68.64","GJOA HAVEN AWOS A","2302338","2012-02-05 09:00","2012","02","05","09:00","-33.0","","-37.9","","61","","","","35","","35","","2.1","","102.06","","","","-51","",""
"-95.85","68.64","GJOA HAVEN AWOS A","2302338","2012-02-05 10:00","2012","02","05","10:00","-33.0","","-37.9","","61","","","","34","","41","","1.1","","102.09","","","","-52","",""
"-95.85","68.64","GJOA HAVEN AWOS A","2302338","2012-02-05 11:00","2012","02","05","11:00","-32.8","","-37.7","","62","","","","34","","39","","1.8","","102.10","","","","-51","",""
"-95.85","68.64","GJOA HAVEN AWOS A","2302338","2012-02-05 12:00","2012","02","05","12:00","-32.8","","-37.7","","62","","","","34","","43","","1.6","","102.14","","","","-52","",""
"-95.85","68.64","GJOA HAVEN AWOS A","2302338","2012-02-05 13:00","2012","02","05","13:00","-32.0","","-37.1","","61","","","","34","","37","","2.4","","102.18","","","","-50","",""
"-95.85","68.64","GJOA HAVEN AWOS A","2302338","2012-02-05 14:00","2012","02","05","14:00","-31.7","","-36.6","","62","","","","34","","37","","2.1","","102.25","","","","-49","",""
"-95.85","68.64","GJOA HAVEN AWOS A","2302338","2012-02-05 15:00","2012","02","05","15:00","-31.8","","-36.7","","62","","","","34","","33","","8.0","","102.31","","","","-49","",""
"-95.85","68.64","GJOA HAVEN AWOS A","2302338","2012-02-05 16:00","2012","02","05","16:00","-29.2","","-34.0","","63","","","","33","","32","","12.9","","102.30","","","","-45","",""
"-95.85","68.64","GJOA HAVEN AWOS A","2302338","2012-02-05 17:00","2012","02","05","17:00","-28.4","","-33.3","","63","","","","32","","30","","6.4","","102.32","","","","-44","",""
"-95.85","68.64","GJOA HAVEN AWOS A","2302338","2012-02-05 18:00","2012","02","05","18:00","-27.7","","-32.5","","64","","","","31","","32","","12.9","","102.30","","","","-43","",""
"-95.85","68.64","GJOA HAVEN AWOS A","2302338","2012-02-05 19:00","2012","02","05","19:00","-27.3","","-31.9","","65","","","","31","","33","","14.5","","102.23","","","","-43","",""
"-95.85","68.64","GJOA HAVEN AWOS A","2302338","2012-02-05 20:00","2012","02","05","20:00","-26.8","","-31.5","","64","","","","29","","20","","15.0","","102.12","","","","-39","",""
"-95.85","68.64","GJOA HAVEN AWOS A","2302338","2012-02-05 21:00","2012","02","05","21:00","-26.7","","-31.2","","66","","","","28","","24","","15.0","","101.97","","","","-40","",""
"-95.85","68.64","GJOA HAVEN AWOS A","2302338","2012-02-05 22:00","2012","02","05","22:00","-26.0","","-30.5","","66","","","","30","","35","","2.4","","101.98","","","","-41","",""
"-95.85","68.64","GJOA HAVEN AWOS A","2302338","2012-02-05 23:00","2012","02","05","23:00","-25.6","","-30.2","","65","","","","30","","35","","1.4","","101.88","","","","-41","",""
"-95.85","68.64","GJOA HAVEN AWOS A","2302338","2012-02-06 00:00","2012","02","06","00:00","-25.0","","-29.5","","66","","","","32","","37","","0.8","","101.88","","","","-40","",""
"-95.85","68.64","GJOA HAVEN AWOS A","2302338","2012-02-06 01:00","2012","02","06","01:00","-24.9","","-29.3","","67","","","","32","","35","","1.0","","101.85","","","","-40","",""
"-95.85","68.64","GJOA HAVEN AWOS A","2302338","2012-02-06 02:00","2012","02","06","02:00","-26.1","","-30.9","","64","","","","34","","28","","4.0","","101.84","","","","-40","",""
"-95.85","68.64","GJOA HAVEN AWOS A","2302338","2012-02-06 03:00","2012","02","06","03:00","-27.5","","-32.2","","64","","","","31","","28","","6.4","","101.83","","","","-42","",""
"-95.85","68.64","GJOA HAVEN AWOS A","2302338","2012-02-06 04:00","2012","02","06","04:00","-28.7","","-33.6","","63","","","","31","","28","","15.0","","101.78","","","","-43","",""
"-95.85","68.64","GJOA HAVEN AWOS A","2302338","2012-02-06 05:00","2012","02","06","05:00","-28.1","","-32.9","","63","","","","28","","17","","8.0","","101.73","","","","-40","",""
"-95.85","68.64","GJOA HAVEN AWOS A","2302338","2012-02-06 06:00","2012","02","06","06:00","-27.6","","-32.2","","65","","","","30","","30","","4.8","","101.62","","","","-42","",""
"-95.85","68.64","GJOA HAVEN AWOS A","2302338","2012-02-06 07:00","2012","02","06","07:00","-28.6","","-33.5","","63","","","","28","","26","","12.9","","101.55","","","","-43","",""
"-95.85","68.64","GJOA HAVEN AWOS A","2302338","2012-02-06 08:00","2012","02","06","08:00","-27.5","","-32.2","","64","","","","28","","26","","8.0","","101.40","","","","-41","",""
"-95.85","68.64","GJOA HAVEN AWOS A","2302338","2012-02-06 09:00","2012","02","06","09:00","-26.4","","-31.1","","64","","","","28","","33","","15.0","","101.24","","","","-41","",""
"-95.85","68.64","GJOA HAVEN AWOS A","2302338","2012-02-06 10:00","2012","02","06","10:00","-25.3","","-29.8","","66","","","","28","","32","","15.0","","101.15","","","","-40","",""
"-95.85","68.64","GJOA HAVEN AWOS A","2302338","2012-02-06 11:00","2012","02","06","11:00","-24.6","","-28.9","","67","","","","26","","20","","15.0","","101.03","","","","-36","",""
"-95.85","68.64","GJOA HAVEN AWOS A","2302338","2012-02-06 12:00","2012","02","06","12:00","-24.8","","-29.3","","66","","","","26","","30","","6.4","","100.88","","","","-39","",""
"-95.85","68.64","GJOA HAVEN AWOS A","2302338","2012-02-06 13:00","2012","02","06","13:00","-25.2","","-29.7","","66","","","","26","","28","","8.0","","100.68","","","","-39","",""
"-95.85","68.64","GJOA HAVEN AWOS A","2302338","2012-02-06 14:00","2012","02","06","14:00","-24.9","","-29.4","","66","","","","28","","28","","5.6","","100.64","","","","-39","",""
"-95.85","68.64","GJOA HAVEN AWOS A","2302338","2012-02-06 15:00","2012","02","06","15:00","-24.7","","-29.2","","66","","","","26","","26","","6.4","","100.45","","","","-38","",""
"-95.85","68.64","GJOA HAVEN AWOS A","2302338","2012-02-06 16:00","2012","02","06","16:00","-24.8","","-29.2","","67","","","","29","","28","","9.7","","100.32","","","","-38","",""
"-95.85","68.64","GJOA HAVEN AWOS A","2302338","2012-02-06 17:00","2012","02","06","17:00","-25.4","","-29.8","","67","","","","31","","39","","2.4","","100.28","","","","-41","",""
"-95.85","68.64","GJOA HAVEN AWOS A","2302338","2012-02-06 18:00","2012","02","06","18:00","-25.6","","-30.1","","66","","","","33","","28","","1.9","","100.21","","","","-39","",""
"-95.85","68.64","GJOA HAVEN AWOS A","2302338","2012-02-06 19:00","2012","02","06","19:00","-26.1","","-30.9","","64","","","","34","","35","","1.4","","100.16","","","","-41","",""
"-95.85","68.64","GJOA HAVEN AWOS A","2302338","2012-02-06 20:00","2012","02","06","20:00","-26.8","","-31.4","","65","","","","33","","37","","1.0","","100.13","","","","-43","",""
"-95.85","68.64","GJOA HAVEN AWOS A","2302338","2012-02-06 21:00","2012","02","06","21:00","-27.8","","-32.5","","64","","","","32","","33","","0.8","","100.09","","","","-43","",""
"-95.85","68.64","GJOA HAVEN AWOS A","2302338","2012-02-06 22:00","2012","02","06","22:00","-28.1","","-33.0","","63","","","","32","","43","","0.5","","100.07","","","","-45","",""
"-95.85","68.64","GJOA HAVEN AWOS A","2302338","2012-02-06 23:00","2012","02","06","23:00","-28.4","","-33.3","","63","","","","33","","50","","0.3","","100.06","","","","-47","",""
"-95.85","68.64","GJOA HAVEN AWOS A","2302338","2012-02-07 00:00","2012","02","07","00:00","-29.5","","-34.5","","62","","","","33","","56","","0.3","","100.11","","","","-49","","Snow"
"-95.85","68.64","GJOA HAVEN AWOS A","2302338","2012-02-07 01:00","2012","02","07","01:00","-30.6","","-35.4","","63","","","","33","","59","","0.2","","100.13","","","","-51","","Snow"
"-95.85","68.64","GJOA HAVEN AWOS A","2302338","2012-02-07 02:00","2012","02","07","02:00","-31.3","","-36.6","","60","","","","34","","50","","0.2","","100.21","","","","-51","","Snow"
"-95.85","68.64","GJOA HAVEN AWOS A","2302338","2012-02-07 03:00","2012","02","07","03:00","-31.8","","-37.1","","59","","","","34","","46","","0.2","","100.19","","","","-51","","Snow"
"-95.85","68.64","GJOA HAVEN AWOS A","2302338","2012-02-07 04:00","2012","02","07","04:00","-32.2","","-37.2","","61","","","","33","","57","","0.2","","100.23","","","","-53","","Snow"
"-95.85","68.64","GJOA HAVEN AWOS A","2302338","2012-02-07 05:00","2012","02","07","05:00","-32.2","","-37.5","","59","","","","33","","57","","0.2","","100.17","","","","-53","","Snow"
"-95.85","68.64","GJOA HAVEN AWOS A","2302338","2012-02-07 06:00","2012","02","07","06:00","-32.2","","-37.3","","60","","","","34","","63","","0.0","","100.21","","","","-54","","Snow"
"-95.85","68.64","GJOA HAVEN AWOS A","2302338","2012-02-07 07:00","2012","02","07","07:00","-31.8","","-37.1","","59","","","","33","","59","","0.0","","100.16","","","","-53","","Snow"
"-95.85","68.64","GJOA HAVEN AWOS A","2302338","2012-02-07 08:00","2012","02","07","08:00","-32.1","","-37.2","","60","","","","34","","65","","0.0","","100.21","","","","-54","","Snow"
"-95.85","68.64","GJOA HAVEN AWOS A","2302338","2012-02-07 09:00","2012","02","07","09:00","-32.3","","-37.3","","61","","","","34","","67","","0.0","","100.14","","","","-54","","Snow"
"-95.85","68.64","GJOA HAVEN AWOS A","2302338","2012-02-07 10:00","2012","02","07","10:00","-32.3","","-37.2","","62","","","","33","","61","","0.0","","100.11","","","","-54","","Snow"
"-95.85","68.64","GJOA HAVEN AWOS A","2302338","2012-02-07 11:00","2012","02","07","11:00","-32.1","","-37.6","","58","","","","35","","54","","0.0","","100.20","","","","-52","","Snow"
"-95.85","68.64","GJOA HAVEN AWOS A","2302338","2012-02-07 12:00","2012","02","07","12:00","-31.8","","-37.0","","60","","","","34","","56","","0.0","","100.15","","","","-52","","Snow"
"-95.85","68.64","GJOA HAVEN AWOS A","2302338","2012-02-07 13:00","2012","02","07","13:00","-31.8","","-36.8","","61","","","","34","","57","","0.0","","100.18","","","","-52","","Snow"
"-95.85","68.64","GJOA HAVEN AWOS A","2302338","2012-02-07 14:00","2012","02","07","14:00","-32.3","","-37.3","","61","","","","34","","52","","0.0","","100.19","","","","-52","","Snow"
"-95.85","68.64","GJOA HAVEN AWOS A","2302338","2012-02-07 15:00","2012","02","07","15:00","-32.6","","-37.7","","60","","","","34","","52","","0.0","","100.19","","","","-53","","Snow"
"-95.85","68.64","GJOA HAVEN AWOS A","2302338","2012-02-07 16:00","2012","02","07","16:00","-32.4","","-37.4","","61","","","","34","","44","","0.0","","100.17","","","","-51","","Snow"
"-95.85","68.64","GJOA HAVEN AWOS A","2302338","2012-02-07 17:00","2012","02","07","17:00","-32.4","","-37.2","","62","","","","35","","41","","0.2","","100.23","","","","-51","","Snow"
"-95.85","68.64","GJOA HAVEN AWOS A","2302338","2012-02-07 18:00","2012","02","07","18:00","-32.6","","-37.5","","62","","","","35","","44","","0.2","","100.21","","","","-52","","Snow"
"-95.85","68.64","GJOA HAVEN AWOS A","2302338","2012-02-07 19:00","2012","02","07","19:00","-32.6","","-37.8","","60","","","","35","","54","","0.2","","100.17","","","","-53","","Snow"
"-95.85","68.64","GJOA HAVEN AWOS A","2302338","2012-02-07 20:00","2012","02","07","20:00","-32.6","","-37.3","","63","","","","36","","46","","0.2","","100.26","","","","-52","","Snow"
"-95.85","68.64","GJOA HAVEN AWOS A","2302338","2012-02-07 21:00","2012","02","07","21:00","-32.7","","-37.7","","61","","","","36","","46","","0.2","","100.28","","","","-52","","Snow"
"-95.85","68.64","GJOA HAVEN AWOS A","2302338","2012-02-07 22:00","2012","02","07","22:00","-32.8","","-37.7","","62","","","","35","","46","","0.3","","100.29","","","","-52","","Snow"
"-95.85","68.64","GJOA HAVEN AWOS A","2302338","2012-02-07 23:00","2012","02","07","23:00","-33.0","","-37.8","","62","","","","35","","39","","0.6","","100.37","","","","-51","",""
"-95.85","68.64","GJOA HAVEN AWOS A","2302338","2012-02-08 00:00","2012","02","08","00:00","-33.0","","-37.9","","61","","","","34","","32","","1.0","","100.42","","","","-50","",""
"-95.85","68.64","GJOA HAVEN AWOS A","2302338","2012-02-08 01:00","2012","02","08","01:00","-33.1","","-38.0","","61","","","","34","","37","","0.6","","100.42","","","","-51","",""
"-95.85","68.64","GJOA HAVEN AWOS A","2302338","2012-02-08 02:00","2012","02","08","02:00","-32.5","","-37.6","","60","","","","34","","39","","0.6","","100.41","","","","-51","",""
"-95.85","68.64","GJOA HAVEN AWOS A","2302338","2012-02-08 03:00","2012","02","08","03:00","-31.5","","-36.7","","60","","","","34","","43","","0.6","","100.42","","","","-50","",""
"-95.85","68.64","GJOA HAVEN AWOS A","2302338","2012-02-08 04:00","2012","02","08","04:00","-30.1","","-35.0","","62","","","","34","","39","","0.6","","100.43","","","","-47","",""
"-95.85","68.64","GJOA HAVEN AWOS A","2302338","2012-02-08 05:00","2012","02","08","05:00","-29.7","","-34.8","","61","","","","35","","43","","0.3","","100.44","","","","-48","","Snow"
"-95.85","68.64","GJOA HAVEN AWOS A","2302338","2012-02-08 06:00","2012","02","08","06:00","-29.5","","-34.3","","63","","","","34","","43","","0.3","","100.43","","","","-47","",""
"-95.85","68.64","GJOA HAVEN AWOS A","2302338","2012-02-08 07:00","2012","02","08","07:00","-29.4","","-34.3","","62","","","","35","","50","","0.3","","100.41","","","","-48","","Snow"
"-95.85","68.64","GJOA HAVEN AWOS A","2302338","2012-02-08 08:00","2012","02","08","08:00","-29.7","","-34.6","","62","","","","35","","56","","0.2","","100.38","","","","-49","","Snow"
"-95.85","68.64","GJOA HAVEN AWOS A","2302338","2012-02-08 09:00","2012","02","08","09:00","-29.6","","-34.5","","62","","","","35","","52","","0.2","","100.36","","","","-49","","Snow"
"-95.85","68.64","GJOA HAVEN AWOS A","2302338","2012-02-08 10:00","2012","02","08","10:00","-29.7","","-34.5","","63","","","","35","","54","","0.2","","100.38","","","","-49","","Snow"
"-95.85","68.64","GJOA HAVEN AWOS A","2302338","2012-02-08 11:00","2012","02","08","11:00","-29.6","","-34.4","","63","","","","36","","57","","0.2","","100.40","","","","-49","","Snow"
"-95.85","68.64","GJOA HAVEN AWOS A","2302338","2012-02-08 12:00","2012","02","08","12:00","-29.2","","-34.1","","63","","","","36","","54","","0.2","","100.41","","","","-48","","Snow"
"-95.85","68.64","GJOA HAVEN AWOS A","2302338","2012-02-08 13:00","2012","02","08","13:00","-29.1","","-33.9","","63","","","","36","","44","","0.3","","100.54","","","","-47","","Snow"
"-95.85","68.64","GJOA HAVEN AWOS A","2302338","2012-02-08 14:00","2012","02","08","14:00","-28.8","","-33.6","","63","","","","36","","46","","0.3","","100.60","","","","-47","","Snow"
"-95.85","68.64","GJOA HAVEN AWOS A","2302338","2012-02-08 15:00","2012","02","08","15:00","-28.5","","-33.3","","63","","","","36","","43","","0.3","","100.68","","","","-46","","Snow"
"-95.85","68.64","GJOA HAVEN AWOS A","2302338","2012-02-08 16:00","2012","02","08","16:00","-28.1","","-32.9","","63","","","","36","","41","","0.5","","100.72","","","","-45","",""
"-95.85","68.64","GJOA HAVEN AWOS A","2302338","2012-02-08 17:00","2012","02","08","17:00","-27.5","","-32.3","","64","","","","36","","39","","0.6","","100.78","","","","-44","","Snow"
"-95.85","68.64","GJOA HAVEN AWOS A","2302338","2012-02-08 18:00","2012","02","08","18:00","-27.0","","-31.5","","66","","","","1","","35","","1.0","","100.88","","","","-43","",""
"-95.85","68.64","GJOA HAVEN AWOS A","2302338","2012-02-08 19:00","2012","02","08","19:00","-26.6","","-31.1","","66","","","","36","","35","","1.3","","100.96","","","","-42","",""
"-95.85","68.64","GJOA HAVEN AWOS A","2302338","2012-02-08 20:00","2012","02","08","20:00","-26.4","","-30.9","","66","","","","36","","37","","0.8","","101.03","","","","-42","",""
"-95.85","68.64","GJOA HAVEN AWOS A","2302338","2012-02-08 21:00","2012","02","08","21:00","-26.3","","-30.8","","66","","","","36","","33","","1.0","","101.10","","","","-41","","Snow"
"-95.85","68.64","GJOA HAVEN AWOS A","2302338","2012-02-08 22:00","2012","02","08","22:00","-26.2","","-30.8","","65","","","","36","","37","","0.6","","101.18","","","","-42","",""
"-95.85","68.64","GJOA HAVEN AWOS A","2302338","2012-02-08 23:00","2012","02","08","23:00","-26.1","","-30.8","","65","","","","36","","33","","1.3","","101.27","","","","-41","",""
"-95.85","68.64","GJOA HAVEN AWOS A","2302338","2012-02-09 00:00","2012","02","09","00:00","-26.1","","-30.6","","66","","","","36","","35","","1.4","","101.34","","","","-41","",""
"-95.85","68.64","GJOA HAVEN AWOS A","2302338","2012-02-09 01:00","2012","02","09","01:00","-25.9","","-30.4","","66","","","","36","","32","","2.6","","101.42","","","","-41","",""
"-95.85","68.64","GJOA HAVEN AWOS A","2302338","2012-02-09 02:00","2012","02","09","02:00","-26.8","","-31.4","","65","","","","35","","30","","1.9","","101.53","","","","-41","",""
"-95.85","68.64","GJOA HAVEN AWOS A","2302338","2012-02-09 03:00","2012","02","09","03:00","-27.5","","-32.4","","63","","","","34","","30","","2.6","","101.59","","","","-42","",""
"-95.85","68.64","GJOA HAVEN AWOS A","2302338","2012-02-09 04:00","2012","02","09","04:00","-27.1","","-31.8","","64","","","","36","","35","","1.0","","101.64","","","","-43","",""
"-95.85","68.64","GJOA HAVEN AWOS A","2302338","2012-02-09 05:00","2012","02","09","05:00","-27.3","","-32.1","","64","","","","35","","37","","1.0","","101.70","","","","-43","",""
"-95.85","68.64","GJOA HAVEN AWOS A","2302338","2012-02-09 06:00","2012","02","09","06:00","-27.5","","-32.4","","63","","","","35","","41","","0.6","","101.72","","","","-44","","Snow"
"-95.85","68.64","GJOA HAVEN AWOS A","2302338","2012-02-09 07:00","2012","02","09","07:00","-27.8","","-32.6","","64","","","","35","","39","","1.0","","101.74","","","","-44","",""
"-95.85","68.64","GJOA HAVEN AWOS A","2302338","2012-02-09 08:00","2012","02","09","08:00","-29.0","","-33.8","","63","","","","35","","35","","1.8","","101.75","","","","-45","",""
"-95.85","68.64","GJOA HAVEN AWOS A","2302338","2012-02-09 09:00","2012","02","09","09:00","-29.3","","-34.1","","63","","","","35","","41","","1.1","","101.77","","","","-47","",""
"-95.85","68.64","GJOA HAVEN AWOS A","2302338","2012-02-09 10:00","2012","02","09","10:00","-29.7","","-34.4","","64","","","","34","","32","","1.4","","101.79","","","","-46","",""
"-95.85","68.64","GJOA HAVEN AWOS A","2302338","2012-02-09 11:00","2012","02","09","11:00","-29.2","","-33.8","","64","","","","33","","30","","1.1","","101.84","","","","-45","",""
"-95.85","68.64","GJOA HAVEN AWOS A","2302338","2012-02-09 12:00","2012","02","09","12:00","-28.8","","-33.7","","63","","","","34","","41","","0.8","","101.84","","","","-46","",""
"-95.85","68.64","GJOA HAVEN AWOS A","2302338","2012-02-09 13:00","2012","02","09","13:00","-28.4","","-33.2","","63","","","","34","","43","","0.6","","101.84","","","","-46","",""
"-95.85","68.64","GJOA HAVEN AWOS A","2302338","2012-02-09 14:00","2012","02","09","14:00","-28.1","","-33.1","","62","","","","35","","41","","0.5","","101.91","","","","-45","","Snow"
"-95.85","68.64","GJOA HAVEN AWOS A","2302338","2012-02-09 15:00","2012","02","09","15:00","-27.0","","-31.4","","66","","","","34","","44","","0.8","","101.92","","","","-44","",""
"-95.85","68.64","GJOA HAVEN AWOS A","2302338","2012-02-09 16:00","2012","02","09","16:00","-26.4","","-31.1","","64","","","","34","","39","","2.9","","102.01","","","","-43","",""
"-95.85","68.64","GJOA HAVEN AWOS A","2302338","2012-02-09 17:00","2012","02","09","17:00","-25.3","","-29.9","","65","","","","34","","46","","1.6","","102.01","","","","-42","",""
"-95.85","68.64","GJOA HAVEN AWOS A","2302338","2012-02-09 18:00","2012","02","09","18:00","-25.5","","-30.1","","65","","","","34","","39","","4.8","","102.05","","","","-41","",""
"-95.85","68.64","GJOA HAVEN AWOS A","2302338","2012-02-09 19:00","2012","02","09","19:00","-24.3","","-28.6","","68","","","","33","","41","","8.0","","102.04","","","","-40","",""
"-95.85","68.64","GJOA HAVEN AWOS A","2302338","2012-02-09 20:00","2012","02","09","20:00","-22.6","","-26.8","","69","","","","34","","37","","1.3","","102.10","","","","-37","","Snow"
"-95.85","68.64","GJOA HAVEN AWOS A","2302338","2012-02-09 21:00","2012","02","09","21:00","-21.9","","-25.8","","71","","","","32","","30","","2.4","","102.04","","","","-35","","Snow"
"-95.85","68.64","GJOA HAVEN AWOS A","2302338","2012-02-09 22:00","2012","02","09","22:00","-21.4","","-25.3","","71","","","","32","","33","","1.6","","101.97","","","","-35","","Snow"
"-95.85","68.64","GJOA HAVEN AWOS A","2302338","2012-02-09 23:00","2012","02","09","23:00","-21.1","","-25.0","","71","","","","30","","33","","11.3","","101.95","","","","-35","",""
"-95.85","68.64","GJOA HAVEN AWOS A","2302338","2012-02-10 00:00","2012","02","10","00:00","-19.9","","-23.7","","72","","","","29","","35","","15.0","","101.85","","","","-33","",""
"-95.85","68.64","GJOA HAVEN AWOS A","2302338","2012-02-10 01:00","2012","02","10","01:00","-20.0","","-23.7","","72","","","","29","","32","","15.0","","101.77","","","","-33","",""
"-95.85","68.64","GJOA HAVEN AWOS A","2302338","2012-02-10 02:00","2012","02","10","02:00","-21.4","","-25.3","","71","","","","27","","32","","15.0","","101.67","","","","-35","",""
"-95.85","68.64","GJOA HAVEN AWOS A","2302338","2012-02-10 03:00","2012","02","10","03:00","-20.0","","-23.7","","72","","","","29","","35","","9.7","","101.60","","","","-33","",""
"-95.85","68.64","GJOA HAVEN AWOS A","2302338","2012-02-10 04:00","2012","02","10","04:00","-18.8","","-22.3","","74","","","","28","","33","","11.3","","101.53","","","","-32","",""
"-95.85","68.64","GJOA HAVEN AWOS A","2302338","2012-02-10 05:00","2012","02","10","05:00","-18.3","","-21.8","","74","","","","27","","32","","15.0","","101.39","","","","-31","",""
"-95.85","68.64","GJOA HAVEN AWOS A","2302338","2012-02-10 06:00","2012","02","10","06:00","-18.0","","-21.3","","75","","","","28","","37","","14.5","","101.35","","","","-31","",""
"-95.85","68.64","GJOA HAVEN AWOS A","2302338","2012-02-10 07:00","2012","02","10","07:00","-17.9","","-21.3","","75","","","","27","","28","","15.0","","101.17","","","","-29","",""
"-95.85","68.64","GJOA HAVEN AWOS A","2302338","2012-02-10 08:00","2012","02","10","08:00","-16.7","","-19.8","","77","","","","26","","39","","5.6","","100.83","","","","-30","",""
"-95.85","68.64","GJOA HAVEN AWOS A","2302338","2012-02-10 09:00","2012","02","10","09:00","-17.0","","-20.1","","77","","","","28","","46","","2.4","","100.72","","","","-31","",""
"-95.85","68.64","GJOA HAVEN AWOS A","2302338","2012-02-10 10:00","2012","02","10","10:00","-17.7","","-20.9","","76","","","","29","","48","","1.3","","100.60","","","","-32","",""
"-95.85","68.64","GJOA HAVEN AWOS A","2302338","2012-02-10 11:00","2012","02","10","11:00","-17.6","","-20.9","","75","","","","30","","37","","3.2","","100.59","","","","-31","",""
"-95.85","68.64","GJOA HAVEN AWOS A","2302338","2012-02-10 12:00","2012","02","10","12:00","-18.0","","-21.3","","75","","","","31","","39","","2.4","","100.54","","","","-31","",""
"-95.85","68.64","GJOA HAVEN AWOS A","2302338","2012-02-10 13:00","2012","02","10","13:00","-18.1","","-21.5","","75","","","","32","","33","","12.9","","100.53","","","","-31","",""
"-95.85","68.64","GJOA HAVEN AWOS A","2302338","2012-02-10 14:00","2012","02","10","14:00","-18.3","","-21.7","","75","","","","32","","35","","11.3","","100.50","","","","-31","",""
"-95.85","68.64","GJOA HAVEN AWOS A","2302338","2012-02-10 15:00","2012","02","10","15:00","-18.7","","-22.2","","74","","","","32","","30","","15.0","","100.48","","","","-31","",""
"-95.85","68.64","GJOA HAVEN AWOS A","2302338","2012-02-10 16:00","2012","02","10","16:00","-19.0","","-22.6","","73","","","","32","","24","","15.0","","100.49","","","","-30","",""
"-95.85","68.64","GJOA HAVEN AWOS A","2302338","2012-02-10 17:00","2012","02","10","17:00","-19.5","","-23.2","","72","","","","32","","26","","15.0","","100.45","","","","-31","",""
"-95.85","68.64","GJOA HAVEN AWOS A","2302338","2012-02-10 18:00","2012","02","10","18:00","-20.3","","-24.0","","72","","","","33","","19","","15.0","","100.41","","","","-31","",""
"-95.85","68.64","GJOA HAVEN AWOS A","2302338","2012-02-10 19:00","2012","02","10","19:00","-20.5","","-24.5","","70","","","","33","","28","","15.0","","100.36","","","","-33","",""
"-95.85","68.64","GJOA HAVEN AWOS A","2302338","2012-02-10 20:00","2012","02","10","20:00","-22.3","","-26.2","","71","","","","31","","24","","15.0","","100.30","","","","-34","",""
"-95.85","68.64","GJOA HAVEN AWOS A","2302338","2012-02-10 21:00","2012","02","10","21:00","-22.4","","-26.3","","70","","","","27","","6","","15.0","","100.27","","","","-28","",""
"-95.85","68.64","GJOA HAVEN AWOS A","2302338","2012-02-10 22:00","2012","02","10","22:00","-22.9","","-26.8","","70","","","","30","","17","","15.0","","100.20","","","","-33","",""
"-95.85","68.64","GJOA HAVEN AWOS A","2302338","2012-02-10 23:00","2012","02","10","23:00","-23.2","","-27.2","","70","","","","31","","17","","15.0","","100.17","","","","-34","",""
"-95.85","68.64","GJOA HAVEN AWOS A","2302338","2012-02-11 00:00","2012","02","11","00:00","-23.5","","-28.1","","66","","","","28","","11","","15.0","","100.13","","","","-32","",""
"-95.85","68.64","GJOA HAVEN AWOS A","2302338","2012-02-11 01:00","2012","02","11","01:00","-22.9","","-27.2","","68","","","","32","","15","","15.0","","100.09","","","","-33","",""
"-95.85","68.64","GJOA HAVEN AWOS A","2302338","2012-02-11 02:00","2012","02","11","02:00","-21.7","","-25.8","","69","","","","34","","17","","15.0","","100.07","","","","-32","",""
"-95.85","68.64","GJOA HAVEN AWOS A","2302338","2012-02-11 03:00","2012","02","11","03:00","-21.5","","-25.7","","69","","","","35","","13","","15.0","","99.99","","","","-30","",""
"-95.85","68.64","GJOA HAVEN AWOS A","2302338","2012-02-11 04:00","2012","02","11","04:00","-21.5","","-25.6","","69","","","","3","","7","","15.0","","99.91","","","","-27","",""
"-95.85","68.64","GJOA HAVEN AWOS A","2302338","2012-02-11 05:00","2012","02","11","05:00","-23.1","","-26.1","","76","","","","","","0","","15.0","","99.90","","","","","",""
"-95.85","68.64","GJOA HAVEN AWOS A","2302338","2012-02-11 06:00","2012","02","11","06:00","-23.5","","-28.2","","65","","","","28","","4","","15.0","","99.83","","","","-27","",""
"-95.85","68.64","GJOA HAVEN AWOS A","2302338","2012-02-11 07:00","2012","02","11","07:00","-21.6","","-25.3","","72","","","","5","","4","","15.0","","99.82","","","","-25","",""
"-95.85","68.64","GJOA HAVEN AWOS A","2302338","2012-02-11 08:00","2012","02","11","08:00","-21.6","","-25.3","","72","","","","","","0","","15.0","","99.77","","","","","",""
"-95.85","68.64","GJOA HAVEN AWOS A","2302338","2012-02-11 09:00","2012","02","11","09:00","-22.0","","-26.1","","69","","","","7","","7","","15.0","","99.71","","","","-28","",""
"-95.85","68.64","GJOA HAVEN AWOS A","2302338","2012-02-11 10:00","2012","02","11","10:00","-21.1","","-25.1","","70","","","","8","","11","","9.7","","99.67","","","","-29","",""
"-95.85","68.64","GJOA HAVEN AWOS A","2302338","2012-02-11 11:00","2012","02","11","11:00","-20.2","","-24.0","","72","","","","10","","17","","8.0","","99.61","","","","-30","","Snow"
"-95.85","68.64","GJOA HAVEN AWOS A","2302338","2012-02-11 12:00","2012","02","11","12:00","-20.8","","-24.7","","71","","","","12","","13","","15.0","","99.63","","","","-29","",""
"-95.85","68.64","GJOA HAVEN AWOS A","2302338","2012-02-11 13:00","2012","02","11","13:00","-20.9","","-24.8","","71","","","","12","","13","","12.9","","99.58","","","","-30","",""
"-95.85","68.64","GJOA HAVEN AWOS A","2302338","2012-02-11 14:00","2012","02","11","14:00","-20.8","","-24.7","","71","","","","13","","11","","15.0","","99.59","","","","-29","",""
"-95.85","68.64","GJOA HAVEN AWOS A","2302338","2012-02-11 15:00","2012","02","11","15:00","-20.8","","-24.8","","70","","","","14","","15","","11.3","","99.56","","","","-30","",""
"-95.85","68.64","GJOA HAVEN AWOS A","2302338","2012-02-11 16:00","2012","02","11","16:00","-20.8","","-24.8","","70","","","","14","","11","","15.0","","99.55","","","","-29","",""
"-95.85","68.64","GJOA HAVEN AWOS A","2302338","2012-02-11 17:00","2012","02","11","17:00","-20.6","","-24.5","","71","","","","13","","13","","15.0","","99.48","","","","-29","","Snow"
"-95.85","68.64","GJOA HAVEN AWOS A","2302338","2012-02-11 18:00","2012","02","11","18:00","-20.4","","-24.2","","72","","","","12","","19","","15.0","","99.42","","","","-31","",""
"-95.85","68.64","GJOA HAVEN AWOS A","2302338","2012-02-11 19:00","2012","02","11","19:00","-20.4","","-24.3","","71","","","","14","","15","","15.0","","99.41","","","","-30","",""
"-95.85","68.64","GJOA HAVEN AWOS A","2302338","2012-02-11 20:00","2012","02","11","20:00","-20.2","","-24.1","","71","","","","14","","15","","15.0","","99.32","","","","-29","",""
"-95.85","68.64","GJOA HAVEN AWOS A","2302338","2012-02-11 21:00","2012","02","11","21:00","-20.1","","-23.9","","72","","","","14","","13","","15.0","","99.29","","","","-29","",""
"-95.85","68.64","GJOA HAVEN AWOS A","2302338","2012-02-11 22:00","2012","02","11","22:00","-19.9","","-23.7","","72","","","","15","","15","","15.0","","99.21","","","","-29","",""
"-95.85","68.64","GJOA HAVEN AWOS A","2302338","2012-02-11 23:00","2012","02","11","23:00","-20.1","","-24.0","","71","","","","16","","13","","15.0","","99.18","","","","-29","",""
"-95.85","68.64","GJOA HAVEN AWOS A","2302338","2012-02-12 00:00","2012","02","12","00:00","-22.0","","-26.0","","70","","","","18","","15","","15.0","","99.12","","","","-32","",""
"-95.85","68.64","GJOA HAVEN AWOS A","2302338","2012-02-12 01:00","2012","02","12","01:00","-22.9","","-27.3","","67","","","","17","","13","","15.0","","99.07","","","","-32","",""
"-95.85","68.64","GJOA HAVEN AWOS A","2302338","2012-02-12 02:00","2012","02","12","02:00","-23.6","","-27.8","","68","","","","17","","13","","15.0","","99.08","","","","-33","",""
"-95.85","68.64","GJOA HAVEN AWOS A","2302338","2012-02-12 03:00","2012","02","12","03:00","-24.2","","-28.5","","68","","","","18","","17","","15.0","","99.01","","","","-35","",""
"-95.85","68.64","GJOA HAVEN AWOS A","2302338","2012-02-12 04:00","2012","02","12","04:00","-23.9","","-28.2","","68","","","","18","","19","","15.0","","98.95","","","","-35","",""
"-95.85","68.64","GJOA HAVEN AWOS A","2302338","2012-02-12 05:00","2012","02","12","05:00","-23.7","","-27.9","","68","","","","18","","13","","15.0","","98.93","","","","-33","",""
"-95.85","68.64","GJOA HAVEN AWOS A","2302338","2012-02-12 06:00","2012","02","12","06:00","-23.3","","-27.6","","68","","","","18","","19","","15.0","","98.87","","","","-34","",""
"-95.85","68.64","GJOA HAVEN AWOS A","2302338","2012-02-12 07:00","2012","02","12","07:00","-22.3","","-26.4","","69","","","","20","","19","","15.0","","98.82","","","","-33","",""
"-95.85","68.64","GJOA HAVEN AWOS A","2302338","2012-02-12 08:00","2012","02","12","08:00","-22.6","","-26.8","","69","","","","20","","11","","15.0","","98.79","","","","-31","",""
"-95.85","68.64","GJOA HAVEN AWOS A","2302338","2012-02-12 09:00","2012","02","12","09:00","-21.8","","-25.8","","70","","","","22","","15","","11.3","","98.78","","","","-31","",""
"-95.85","68.64","GJOA HAVEN AWOS A","2302338","2012-02-12 10:00","2012","02","12","10:00","-21.3","","-25.3","","70","","","","22","","15","","9.7","","98.80","","","","-31","",""
"-95.85","68.64","GJOA HAVEN AWOS A","2302338","2012-02-12 11:00","2012","02","12","11:00","-20.3","","-24.2","","71","","","","22","","17","","11.3","","98.76","","","","-30","",""
"-95.85","68.64","GJOA HAVEN AWOS A","2302338","2012-02-12 12:00","2012","02","12","12:00","-20.1","","-24.0","","71","","","","22","","19","","4.8","","98.77","","","","-30","","Snow"
"-95.85","68.64","GJOA HAVEN AWOS A","2302338","2012-02-12 13:00","2012","02","12","13:00","-20.0","","-23.7","","72","","","","22","","20","","2.4","","98.78","","","","-30","","Snow"
"-95.85","68.64","GJOA HAVEN AWOS A","2302338","2012-02-12 14:00","2012","02","12","14:00","-19.1","","-22.9","","72","","","","22","","15","","1.4","","98.81","","","","-28","","Snow"
"-95.85","68.64","GJOA HAVEN AWOS A","2302338","2012-02-12 15:00","2012","02","12","15:00","-18.3","","-21.8","","74","","","","22","","15","","4.8","","98.83","","","","-27","","Snow"
"-95.85","68.64","GJOA HAVEN AWOS A","2302338","2012-02-12 16:00","2012","02","12","16:00","-17.7","","-21.0","","75","","","","23","","15","","8.0","","98.83","","","","-26","","Snow"
"-95.85","68.64","GJOA HAVEN AWOS A","2302338","2012-02-12 17:00","2012","02","12","17:00","-17.7","","-20.9","","76","","","","23","","11","","8.0","","98.84","","","","-25","",""
"-95.85","68.64","GJOA HAVEN AWOS A","2302338","2012-02-12 18:00","2012","02","12","18:00","-18.7","","-22.1","","75","","","","30","","7","","11.3","","98.86","","","","-24","",""
"-95.85","68.64","GJOA HAVEN AWOS A","2302338","2012-02-12 19:00","2012","02","12","19:00","-19.1","","-22.5","","74","","","","27","","9","","15.0","","98.90","","","","-26","",""
"-95.85","68.64","GJOA HAVEN AWOS A","2302338","2012-02-12 20:00","2012","02","12","20:00","-19.6","","-23.2","","73","","","","31","","11","","15.0","","98.93","","","","-27","",""
"-95.85","68.64","GJOA HAVEN AWOS A","2302338","2012-02-12 21:00","2012","02","12","21:00","-20.4","","-24.2","","72","","","","31","","11","","15.0","","98.97","","","","-28","",""
"-95.85","68.64","GJOA HAVEN AWOS A","2302338","2012-02-12 22:00","2012","02","12","22:00","-20.9","","-24.8","","71","","","","27","","13","","15.0","","99.02","","","","-30","",""
"-95.85","68.64","GJOA HAVEN AWOS A","2302338","2012-02-12 23:00","2012","02","12","23:00","-20.8","","-24.4","","73","","","","26","","7","","15.0","","99.06","","","","-27","",""
"-95.85","68.64","GJOA HAVEN AWOS A","2302338","2012-02-13 00:00","2012","02","13","00:00","-20.5","","-24.3","","72","","","","27","","15","","15.0","","99.14","","","","-30","",""
"-95.85","68.64","GJOA HAVEN AWOS A","2302338","2012-02-13 01:00","2012","02","13","01:00","-19.7","","-23.4","","72","","","","32","","20","","15.0","","99.22","","","","-30","",""
"-95.85","68.64","GJOA HAVEN AWOS A","2302338","2012-02-13 02:00","2012","02","13","02:00","-19.7","","-23.4","","72","","","","32","","22","","15.0","","99.28","","","","-31","",""
"-95.85","68.64","GJOA HAVEN AWOS A","2302338","2012-02-13 03:00","2012","02","13","03:00","-19.8","","-23.6","","72","","","","34","","19","","15.0","","99.36","","","","-30","",""
"-95.85","68.64","GJOA HAVEN AWOS A","2302338","2012-02-13 04:00","2012","02","13","04:00","-19.4","","-23.0","","73","","","","31","","17","","15.0","","99.41","","","","-29","",""
"-95.85","68.64","GJOA HAVEN AWOS A","2302338","2012-02-13 05:00","2012","02","13","05:00","-19.5","","-23.1","","73","","","","32","","11","","15.0","","99.48","","","","-27","",""
"-95.85","68.64","GJOA HAVEN AWOS A","2302338","2012-02-13 06:00","2012","02","13","06:00","-19.4","","-23.3","","71","","","","35","","15","","15.0","","99.51","","","","-28","","Snow"
"-95.85","68.64","GJOA HAVEN AWOS A","2302338","2012-02-13 07:00","2012","02","13","07:00","-19.7","","-23.4","","72","","","","36","","15","","15.0","","99.53","","","","-29","",""
"-95.85","68.64","GJOA HAVEN AWOS A","2302338","2012-02-13 08:00","2012","02","13","08:00","-20.2","","-24.0","","72","","","","31","","7","","15.0","","99.56","","","","-26","",""
"-95.85","68.64","GJOA HAVEN AWOS A","2302338","2012-02-13 09:00","2012","02","13","09:00","-20.3","","-24.1","","72","","","","27","","6","","15.0","","99.62","","","","-25","",""
"-95.85","68.64","GJOA HAVEN AWOS A","2302338","2012-02-13 10:00","2012","02","13","10:00","-20.4","","-24.3","","71","","","","25","","6","","14.5","","99.65","","","","-25","","Snow"
"-95.85","68.64","GJOA HAVEN AWOS A","2302338","2012-02-13 11:00","2012","02","13","11:00","-20.4","","-24.2","","72","","","","31","","6","","15.0","","99.69","","","","-25","","Snow"
"-95.85","68.64","GJOA HAVEN AWOS A","2302338","2012-02-13 12:00","2012","02","13","12:00","-19.7","","-23.3","","73","","","","36","","6","","15.0","","99.70","","","","-25","",""
"-95.85","68.64","GJOA HAVEN AWOS A","2302338","2012-02-13 13:00","2012","02","13","13:00","-19.3","","-23.0","","72","","","","4","","7","","12.9","","99.75","","","","-25","",""
"-95.85","68.64","GJOA HAVEN AWOS A","2302338","2012-02-13 14:00","2012","02","13","14:00","-19.1","","-22.6","","74","","","","1","","4","","15.0","","99.76","","","","-22","",""
"-95.85","68.64","GJOA HAVEN AWOS A","2302338","2012-02-13 15:00","2012","02","13","15:00","-19.4","","-23.1","","72","","","","26","","4","","15.0","","99.78","","","","-23","",""
"-95.85","68.64","GJOA HAVEN AWOS A","2302338","2012-02-13 16:00","2012","02","13","16:00","-19.0","","-22.8","","72","","","","5","","4","","15.0","","99.78","","","","-22","",""
"-95.85","68.64","GJOA HAVEN AWOS A","2302338","2012-02-13 17:00","2012","02","13","17:00","-19.3","","-23.0","","72","","","","","","0","","15.0","","99.79","","","","","",""
"-95.85","68.64","GJOA HAVEN AWOS A","2302338","2012-02-13 18:00","2012","02","13","18:00","-19.5","","-23.1","","73","","","","6","","4","","15.0","","99.76","","","","-23","",""
"-95.85","68.64","GJOA HAVEN AWOS A","2302338","2012-02-13 19:00","2012","02","13","19:00","-20.2","","-23.9","","72","","","","14","","6","","15.0","","99.77","","","","-25","",""
"-95.85","68.64","GJOA HAVEN AWOS A","2302338","2012-02-13 20:00","2012","02","13","20:00","-20.8","","-24.7","","71","","","","9","","4","","15.0","","99.73","","","","-24","",""
"-95.85","68.64","GJOA HAVEN AWOS A","2302338","2012-02-13 21:00","2012","02","13","21:00","-20.5","","-24.3","","72","","","","8","","7","","15.0","","99.70","","","","-26","",""
"-95.85","68.64","GJOA HAVEN AWOS A","2302338","2012-02-13 22:00","2012","02","13","22:00","-20.4","","-24.2","","72","","","","4","","4","","15.0","","99.70","","","","-24","","Snow"
"-95.85","68.64","GJOA HAVEN AWOS A","2302338","2012-02-13 23:00","2012","02","13","23:00","-19.5","","-23.3","","72","","","","9","","9","","15.0","","99.69","","","","-26","",""
"-95.85","68.64","GJOA HAVEN AWOS A","2302338","2012-02-14 00:00","2012","02","14","00:00","-19.3","","-23.0","","72","","","","9","","13","","15.0","","99.67","","","","-28","",""
"-95.85","68.64","GJOA HAVEN AWOS A","2302338","2012-02-14 01:00","2012","02","14","01:00","-19.1","","-22.9","","72","","","","9","","6","","15.0","","99.62","","","","-24","",""
"-95.85","68.64","GJOA HAVEN AWOS A","2302338","2012-02-14 02:00","2012","02","14","02:00","-19.1","","-22.7","","73","","","","6","","15","","15.0","","99.61","","","","-28","",""
"-95.85","68.64","GJOA HAVEN AWOS A","2302338","2012-02-14 03:00","2012","02","14","03:00","-19.1","","-22.7","","73","","","","6","","19","","15.0","","99.59","","","","-29","",""
"-95.85","68.64","GJOA HAVEN AWOS A","2302338","2012-02-14 04:00","2012","02","14","04:00","-19.0","","-22.8","","72","","","","5","","19","","15.0","","99.56","","","","-29","",""
"-95.85","68.64","GJOA HAVEN AWOS A","2302338","2012-02-14 05:00","2012","02","14","05:00","-19.0","","-22.8","","72","","","","7","","15","","15.0","","99.57","","","","-28","",""
"-95.85","68.64","GJOA HAVEN AWOS A","2302338","2012-02-14 06:00","2012","02","14","06:00","-19.1","","-22.7","","73","","","","5","","15","","15.0","","99.55","","","","-28","",""
"-95.85","68.64","GJOA HAVEN AWOS A","2302338","2012-02-14 07:00","2012","02","14","07:00","-19.0","","-22.7","","73","","","","5","","20","","15.0","","99.49","","","","-29","",""
"-95.85","68.64","GJOA HAVEN AWOS A","2302338","2012-02-14 08:00","2012","02","14","08:00","-19.0","","-22.6","","73","","","","5","","19","","15.0","","99.48","","","","-29","","Snow"
"-95.85","68.64","GJOA HAVEN AWOS A","2302338","2012-02-14 09:00","2012","02","14","09:00","-18.9","","-22.4","","74","","","","5","","19","","15.0","","99.42","","","","-29","",""
"-95.85","68.64","GJOA HAVEN AWOS A","2302338","2012-02-14 10:00","2012","02","14","10:00","-18.4","","-21.9","","74","","","","","M","","M","15.0","","99.41","","","","","",""
"-95.85","68.64","GJOA HAVEN AWOS A","2302338","2012-02-14 11:00","2012","02","14","11:00","-18.3","","-21.7","","75","","","","","M","","M","15.0","","99.38","","","","","",""
"-95.85","68.64","GJOA HAVEN AWOS A","2302338","2012-02-14 12:00","2012","02","14","12:00","-18.4","","-19.4","","92","","","","1","","13","","15.0","","99.35","","","","-26","",""
"-95.85","68.64","GJOA HAVEN AWOS A","2302338","2012-02-14 13:00","2012","02","14","13:00","-18.5","","-19.4","","93","","","","36","","17","","15.0","","99.34","","","","-28","",""
"-95.85","68.64","GJOA HAVEN AWOS A","2302338","2012-02-14 14:00","2012","02","14","14:00","-18.2","","-24.1","","60","","","","2","","22","","","M","99.35","","","","-29","",""
"-95.85","68.64","GJOA HAVEN AWOS A","2302338","2012-02-14 15:00","2012","02","14","15:00","-17.8","","-20.9","","77","","","","3","","20","","15.0","","99.33","","","","-28","",""
"-95.85","68.64","GJOA HAVEN AWOS A","2302338","2012-02-14 16:00","2012","02","14","16:00","-17.7","","-20.7","","77","","","","2","","20","","15.0","","99.33","","","","-28","","Snow"
"-95.85","68.64","GJOA HAVEN AWOS A","2302338","2012-02-14 17:00","2012","02","14","17:00","-17.7","","-20.7","","77","","","","3","","20","","11.3","","99.34","","","","-28","","Snow"
"-95.85","68.64","GJOA HAVEN AWOS A","2302338","2012-02-14 18:00","2012","02","14","18:00","-17.6","","-20.6","","77","","","","3","","22","","4.8","","99.34","","","","-28","","Snow"
"-95.85","68.64","GJOA HAVEN AWOS A","2302338","2012-02-14 19:00","2012","02","14","19:00","-18.0","","-21.1","","77","","","","3","","24","","2.3","","99.33","","","","-29","","Snow"
"-95.85","68.64","GJOA HAVEN AWOS A","2302338","2012-02-14 20:00","2012","02","14","20:00","-18.4","","-21.6","","76","","","","3","","26","","4.0","","99.32","","","","-30","","Snow"
"-95.85","68.64","GJOA HAVEN AWOS A","2302338","2012-02-14 21:00","2012","02","14","21:00","-18.8","","-22.0","","76","","","","4","","30","","3.4","","99.29","","","","-31","","Snow"
"-95.85","68.64","GJOA HAVEN AWOS A","2302338","2012-02-14 22:00","2012","02","14","22:00","-19.7","","-23.1","","74","","","","3","","33","","2.4","","99.31","","","","-33","","Snow"
"-95.85","68.64","GJOA HAVEN AWOS A","2302338","2012-02-14 23:00","2012","02","14","23:00","-20.0","","-23.5","","74","","","","3","","30","","2.3","","99.34","","","","-33","","Snow"
"-95.85","68.64","GJOA HAVEN AWOS A","2302338","2012-02-15 00:00","2012","02","15","00:00","-20.1","","-23.8","","72","","","","3","","26","","4.8","","99.39","","","","-32","","Snow"
"-95.85","68.64","GJOA HAVEN AWOS A","2302338","2012-02-15 01:00","2012","02","15","01:00","-20.2","","-23.7","","74","","","","2","","26","","3.2","","99.43","","","","-32","","Snow"
"-95.85","68.64","GJOA HAVEN AWOS A","2302338","2012-02-15 02:00","2012","02","15","02:00","-20.6","","-24.3","","72","","","","2","","28","","4.8","","99.45","","","","-33","","Snow"
"-95.85","68.64","GJOA HAVEN AWOS A","2302338","2012-02-15 03:00","2012","02","15","03:00","-20.6","","-24.3","","72","","","","2","","28","","8.0","","99.50","","","","-33","","Snow"
"-95.85","68.64","GJOA HAVEN AWOS A","2302338","2012-02-15 04:00","2012","02","15","04:00","-20.3","","-23.8","","74","","","","2","","24","","6.4","","99.54","","","","-32","","Snow"
"-95.85","68.64","GJOA HAVEN AWOS A","2302338","2012-02-15 05:00","2012","02","15","05:00","-21.0","","-24.5","","73","","","","2","","26","","6.4","","99.58","","","","-33","","Snow"
"-95.85","68.64","GJOA HAVEN AWOS A","2302338","2012-02-15 06:00","2012","02","15","06:00","-21.0","","-24.7","","72","","","","3","","26","","15.0","","99.58","","","","-33","",""
"-95.85","68.64","GJOA HAVEN AWOS A","2302338","2012-02-15 07:00","2012","02","15","07:00","-21.3","","-24.8","","73","","","","2","","24","","6.4","","99.62","","","","-33","","Snow"
"-95.85","68.64","GJOA HAVEN AWOS A","2302338","2012-02-15 08:00","2012","02","15","08:00","-21.3","","-25.0","","72","","","","2","","22","","15.0","","99.68","","","","-33","",""
"-95.85","68.64","GJOA HAVEN AWOS A","2302338","2012-02-15 09:00","2012","02","15","09:00","-21.4","","-24.8","","74","","","","1","","26","","6.4","","99.75","","","","-34","","Snow"
"-95.85","68.64","GJOA HAVEN AWOS A","2302338","2012-02-15 10:00","2012","02","15","10:00","-23.0","","-26.9","","70","","","","35","","26","","9.7","","99.80","","","","-36","",""
"-95.85","68.64","GJOA HAVEN AWOS A","2302338","2012-02-15 11:00","2012","02","15","11:00","-22.9","","-26.6","","72","","","","35","","22","","15.0","","99.84","","","","-35","",""
"-95.85","68.64","GJOA HAVEN AWOS A","2302338","2012-02-15 12:00","2012","02","15","12:00","-22.5","","-26.4","","70","","","","35","","24","","15.0","","99.88","","","","-35","",""
"-95.85","68.64","GJOA HAVEN AWOS A","2302338","2012-02-15 13:00","2012","02","15","13:00","-23.0","","-26.9","","70","","","","35","","28","","15.0","","99.94","","","","-36","",""
"-95.85","68.64","GJOA HAVEN AWOS A","2302338","2012-02-15 14:00","2012","02","15","14:00","-22.2","","-26.1","","71","","","","35","","22","","2.9","","100.00","","","","-34","",""
"-95.85","68.64","GJOA HAVEN AWOS A","2302338","2012-02-15 15:00","2012","02","15","15:00","-21.5","","-25.2","","72","","","","35","","22","","2.3","","100.06","","","","-33","",""
"-95.85","68.64","GJOA HAVEN AWOS A","2302338","2012-02-15 16:00","2012","02","15","16:00","-18.4","","-21.6","","76","","","","35","","26","","11.3","","100.11","","","","-30","",""
"-95.85","68.64","GJOA HAVEN AWOS A","2302338","2012-02-15 17:00","2012","02","15","17:00","-18.0","","-21.1","","77","","","","35","","24","","15.0","","100.17","","","","-29","",""
"-95.85","68.64","GJOA HAVEN AWOS A","2302338","2012-02-15 18:00","2012","02","15","18:00","-18.2","","-21.4","","76","","","","35","","28","","15.0","","100.21","","","","-30","",""
"-95.85","68.64","GJOA HAVEN AWOS A","2302338","2012-02-15 19:00","2012","02","15","19:00","-19.0","","-22.4","","74","","","","36","","24","","15.0","","100.24","","","","-30","",""
"-95.85","68.64","GJOA HAVEN AWOS A","2302338","2012-02-15 20:00","2012","02","15","20:00","-19.6","","-23.3","","72","","","","36","","28","","15.0","","100.29","","","","-32","",""
"-95.85","68.64","GJOA HAVEN AWOS A","2302338","2012-02-15 21:00","2012","02","15","21:00","-20.1","","-23.9","","72","","","","35","","22","","15.0","","100.32","","","","-31","",""
"-95.85","68.64","GJOA HAVEN AWOS A","2302338","2012-02-15 22:00","2012","02","15","22:00","-19.4","","-23.2","","72","","","","35","","26","","15.0","","100.38","","","","-31","",""
"-95.85","68.64","GJOA HAVEN AWOS A","2302338","2012-02-15 23:00","2012","02","15","23:00","-19.6","","-23.3","","72","","","","35","","22","","15.0","","100.42","","","","-30","",""
"-95.85","68.64","GJOA HAVEN AWOS A","2302338","2012-02-16 00:00","2012","02","16","00:00","-19.9","","-23.5","","73","","","","35","","26","","15.0","","100.46","","","","-32","",""
"-95.85","68.64","GJOA HAVEN AWOS A","2302338","2012-02-16 01:00","2012","02","16","01:00","-19.8","","-23.4","","73","","","","34","","26","","15.0","","100.52","","","","-32","",""
"-95.85","68.64","GJOA HAVEN AWOS A","2302338","2012-02-16 02:00","2012","02","16","02:00","-19.1","","-22.7","","73","","","","34","","20","","15.0","","100.59","","","","-29","",""
"-95.85","68.64","GJOA HAVEN AWOS A","2302338","2012-02-16 03:00","2012","02","16","03:00","-19.7","","-23.2","","74","","","","35","","24","","15.0","","100.65","","","","-31","",""
"-95.85","68.64","GJOA HAVEN AWOS A","2302338","2012-02-16 04:00","2012","02","16","04:00","-20.5","","-24.2","","72","","","","34","","22","","15.0","","100.71","","","","-32","",""
"-95.85","68.64","GJOA HAVEN AWOS A","2302338","2012-02-16 05:00","2012","02","16","05:00","-20.7","","-24.3","","73","","","","34","","20","","15.0","","100.75","","","","-31","",""
"-95.85","68.64","GJOA HAVEN AWOS A","2302338","2012-02-16 06:00","2012","02","16","06:00","-22.2","","-25.9","","72","","","","34","","19","","15.0","","100.78","","","","-33","",""
"-95.85","68.64","GJOA HAVEN AWOS A","2302338","2012-02-16 07:00","2012","02","16","07:00","-25.1","","-29.1","","69","","","","33","","20","","15.0","","100.79","","","","-37","",""
"-95.85","68.64","GJOA HAVEN AWOS A","2302338","2012-02-16 08:00","2012","02","16","08:00","-27.5","","-31.4","","69","","","","32","","22","","8.0","","100.83","","","","-40","",""
"-95.85","68.64","GJOA HAVEN AWOS A","2302338","2012-02-16 09:00","2012","02","16","09:00","-28.1","","-32.5","","66","","","","34","","19","","6.4","","100.85","","","","-40","",""
"-95.85","68.64","GJOA HAVEN AWOS A","2302338","2012-02-16 10:00","2012","02","16","10:00","-27.7","","-31.9","","67","","","","33","","26","","2.3","","100.86","","","","-42","",""
"-95.85","68.64","GJOA HAVEN AWOS A","2302338","2012-02-16 11:00","2012","02","16","11:00","-27.3","","-31.7","","66","","","","33","","32","","2.7","","100.90","","","","-42","",""
"-95.85","68.64","GJOA HAVEN AWOS A","2302338","2012-02-16 12:00","2012","02","16","12:00","-26.4","","-30.6","","68","","","","32","","26","","15.0","","100.92","","","","-40","",""
"-95.85","68.64","GJOA HAVEN AWOS A","2302338","2012-02-16 13:00","2012","02","16","13:00","-27.3","","-31.7","","66","","","","32","","20","","6.4","","100.97","","","","-40","",""
"-95.85","68.64","GJOA HAVEN AWOS A","2302338","2012-02-16 14:00","2012","02","16","14:00","-28.6","","-33.0","","66","","","","34","","13","","4.8","","101.01","","","","-39","",""
"-95.85","68.64","GJOA HAVEN AWOS A","2302338","2012-02-16 15:00","2012","02","16","15:00","-28.9","","-33.4","","65","","","","33","","30","","12.9","","101.02","","","","-44","",""
"-95.85","68.64","GJOA HAVEN AWOS A","2302338","2012-02-16 16:00","2012","02","16","16:00","-29.2","","-34.0","","63","","","","34","","30","","11.3","","101.06","","","","-45","",""
"-95.85","68.64","GJOA HAVEN AWOS A","2302338","2012-02-16 17:00","2012","02","16","17:00","-30.0","","-34.6","","64","","","","34","","28","","9.7","","101.08","","","","-45","",""
"-95.85","68.64","GJOA HAVEN AWOS A","2302338","2012-02-16 18:00","2012","02","16","18:00","-29.5","","-34.0","","65","","","","34","","30","","8.0","","101.09","","","","-45","",""
"-95.85","68.64","GJOA HAVEN AWOS A","2302338","2012-02-16 19:00","2012","02","16","19:00","-30.0","","-34.8","","63","","","","34","","32","","4.8","","101.12","","","","-46","",""
"-95.85","68.64","GJOA HAVEN AWOS A","2302338","2012-02-16 20:00","2012","02","16","20:00","-30.9","","-35.4","","65","","","","34","","22","","3.2","","101.13","","","","-45","",""
"-95.85","68.64","GJOA HAVEN AWOS A","2302338","2012-02-16 21:00","2012","02","16","21:00","-30.5","","-35.2","","63","","","","34","","32","","8.0","","101.10","","","","-47","",""
"-95.85","68.64","GJOA HAVEN AWOS A","2302338","2012-02-16 22:00","2012","02","16","22:00","-30.9","","-35.2","","66","","","","35","","30","","6.4","","101.14","","","","-47","",""
"-95.85","68.64","GJOA HAVEN AWOS A","2302338","2012-02-16 23:00","2012","02","16","23:00","-30.9","","-35.3","","65","","","","34","","32","","8.0","","101.15","","","","-47","",""
"-95.85","68.64","GJOA HAVEN AWOS A","2302338","2012-02-17 00:00","2012","02","17","00:00","-30.0","","-35.1","","61","","","","34","","30","","8.0","","101.20","","","","-46","",""
"-95.85","68.64","GJOA HAVEN AWOS A","2302338","2012-02-17 01:00","2012","02","17","01:00","-32.5","","-36.8","","65","","","","29","","9","","5.6","","101.22","","","","-42","",""
"-95.85","68.64","GJOA HAVEN AWOS A","2302338","2012-02-17 02:00","2012","02","17","02:00","-32.4","","-37.0","","64","","","","31","","19","","8.0","","101.24","","","","-46","",""
"-95.85","68.64","GJOA HAVEN AWOS A","2302338","2012-02-17 03:00","2012","02","17","03:00","-31.8","","-36.2","","65","","","","27","","7","","11.3","","101.28","","","","-39","",""
"-95.85","68.64","GJOA HAVEN AWOS A","2302338","2012-02-17 04:00","2012","02","17","04:00","-30.1","","-34.7","","64","","","","34","","20","","15.0","","101.26","","","","-43","",""
"-95.85","68.64","GJOA HAVEN AWOS A","2302338","2012-02-17 05:00","2012","02","17","05:00","-32.9","","-37.8","","61","","","","25","","7","","15.0","","101.24","","","","-41","",""
"-95.85","68.64","GJOA HAVEN AWOS A","2302338","2012-02-17 06:00","2012","02","17","06:00","-31.4","","-36.1","","63","","","","34","","13","","15.0","","101.25","","","","-42","",""
"-95.85","68.64","GJOA HAVEN AWOS A","2302338","2012-02-17 07:00","2012","02","17","07:00","-31.1","","-35.9","","63","","","","29","","4","","15.0","","101.24","","","","-36","",""
"-95.85","68.64","GJOA HAVEN AWOS A","2302338","2012-02-17 08:00","2012","02","17","08:00","-31.5","","-35.7","","66","","","","22","","7","","15.0","","101.20","","","","-39","",""
"-95.85","68.64","GJOA HAVEN AWOS A","2302338","2012-02-17 09:00","2012","02","17","09:00","-29.1","","-33.7","","64","","","","25","","6","","15.0","","101.20","","","","-35","",""
"-95.85","68.64","GJOA HAVEN AWOS A","2302338","2012-02-17 10:00","2012","02","17","10:00","-30.1","","-34.6","","65","","","","22","","6","","15.0","","101.17","","","","-37","",""
"-95.85","68.64","GJOA HAVEN AWOS A","2302338","2012-02-17 11:00","2012","02","17","11:00","-28.9","","-33.3","","66","","","","23","","11","","15.0","","101.11","","","","-38","",""
"-95.85","68.64","GJOA HAVEN AWOS A","2302338","2012-02-17 12:00","2012","02","17","12:00","-27.6","","-31.9","","67","","","","22","","9","","12.9","","101.10","","","","-36","",""
"-95.85","68.64","GJOA HAVEN AWOS A","2302338","2012-02-17 13:00","2012","02","17","13:00","-27.2","","-31.6","","66","","","","21","","11","","15.0","","101.09","","","","-36","",""
"-95.85","68.64","GJOA HAVEN AWOS A","2302338","2012-02-17 14:00","2012","02","17","14:00","-28.7","","-33.1","","66","","","","18","","11","","11.3","","101.06","","","","-38","",""
"-95.85","68.64","GJOA HAVEN AWOS A","2302338","2012-02-17 15:00","2012","02","17","15:00","-29.7","","-33.9","","67","","","","18","","13","","15.0","","101.01","","","","-40","",""
"-95.85","68.64","GJOA HAVEN AWOS A","2302338","2012-02-17 16:00","2012","02","17","16:00","-29.9","","-34.4","","65","","","","18","","15","","15.0","","100.99","","","","-41","",""
"-95.85","68.64","GJOA HAVEN AWOS A","2302338","2012-02-17 17:00","2012","02","17","17:00","-29.1","","-33.8","","64","","","","17","","11","","15.0","","100.97","","","","-39","",""
"-95.85","68.64","GJOA HAVEN AWOS A","2302338","2012-02-17 18:00","2012","02","17","18:00","-29.1","","-33.6","","65","","","","16","","13","","15.0","","100.93","","","","-39","",""
"-95.85","68.64","GJOA HAVEN AWOS A","2302338","2012-02-17 19:00","2012","02","17","19:00","-28.3","","-32.7","","66","","","","14","","15","","15.0","","100.84","","","","-39","",""
"-95.85","68.64","GJOA HAVEN AWOS A","2302338","2012-02-17 20:00","2012","02","17","20:00","-29.1","","-33.5","","66","","","","12","","20","","14.5","","100.74","","","","-42","",""
"-95.85","68.64","GJOA HAVEN AWOS A","2302338","2012-02-17 21:00","2012","02","17","21:00","-28.3","","-32.8","","65","","","","13","","19","","15.0","","100.68","","","","-41","",""
"-95.85","68.64","GJOA HAVEN AWOS A","2302338","2012-02-17 22:00","2012","02","17","22:00","-28.7","","-33.1","","66","","","","13","","20","","11.3","","100.61","","","","-41","",""
"-95.85","68.64","GJOA HAVEN AWOS A","2302338","2012-02-17 23:00","2012","02","17","23:00","-28.4","","-32.9","","65","","","","10","","19","","15.0","","100.57","","","","-41","",""
"-95.85","68.64","GJOA HAVEN AWOS A","2302338","2012-02-18 00:00","2012","02","18","00:00","-28.1","","-32.6","","65","","","","9","","17","","15.0","","100.55","","","","-40","",""
"-95.85","68.64","GJOA HAVEN AWOS A","2302338","2012-02-18 01:00","2012","02","18","01:00","-27.4","","-31.8","","66","","","","11","","22","","15.0","","100.49","","","","-40","",""
"-95.85","68.64","GJOA HAVEN AWOS A","2302338","2012-02-18 02:00","2012","02","18","02:00","-26.7","","-30.9","","68","","","","9","","20","","15.0","","100.45","","","","-39","",""
"-95.85","68.64","GJOA HAVEN AWOS A","2302338","2012-02-18 03:00","2012","02","18","03:00","-26.5","","-30.8","","67","","","","9","","22","","15.0","","100.39","","","","-39","",""
"-95.85","68.64","GJOA HAVEN AWOS A","2302338","2012-02-18 04:00","2012","02","18","04:00","-26.4","","-30.7","","67","","","","9","","24","","15.0","","100.35","","","","-40","",""
"-95.85","68.64","GJOA HAVEN AWOS A","2302338","2012-02-18 05:00","2012","02","18","05:00","-25.8","","-30.1","","67","","","","8","","22","","15.0","","100.31","","","","-38","",""
"-95.85","68.64","GJOA HAVEN AWOS A","2302338","2012-02-18 06:00","2012","02","18","06:00","-25.4","","-29.6","","68","","","","8","","26","","6.4","","100.28","","","","-39","","Snow"
"-95.85","68.64","GJOA HAVEN AWOS A","2302338","2012-02-18 07:00","2012","02","18","07:00","-24.8","","-29.1","","67","","","","9","","22","","1.9","","100.26","","","","-37","",""
"-95.85","68.64","GJOA HAVEN AWOS A","2302338","2012-02-18 08:00","2012","02","18","08:00","-24.5","","-28.6","","69","","","","8","","22","","3.4","","100.24","","","","-37","","Snow"
"-95.85","68.64","GJOA HAVEN AWOS A","2302338","2012-02-18 09:00","2012","02","18","09:00","-23.8","","-28.0","","68","","","","7","","20","","3.1","","100.22","","","","-35","","Snow"
"-95.85","68.64","GJOA HAVEN AWOS A","2302338","2012-02-18 10:00","2012","02","18","10:00","-23.4","","-27.3","","70","","","","6","","24","","2.3","","100.21","","","","-36","","Snow"
"-95.85","68.64","GJOA HAVEN AWOS A","2302338","2012-02-18 11:00","2012","02","18","11:00","-23.0","","-26.9","","70","","","","6","","24","","8.0","","100.22","","","","-35","",""
"-95.85","68.64","GJOA HAVEN AWOS A","2302338","2012-02-18 12:00","2012","02","18","12:00","-23.4","","-27.4","","70","","","","5","","26","","3.4","","100.25","","","","-36","",""
"-95.85","68.64","GJOA HAVEN AWOS A","2302338","2012-02-18 13:00","2012","02","18","13:00","-23.7","","-27.7","","70","","","","5","","30","","2.1","","100.29","","","","-37","","Snow"
"-95.85","68.64","GJOA HAVEN AWOS A","2302338","2012-02-18 14:00","2012","02","18","14:00","-23.9","","-28.1","","68","","","","4","","30","","3.4","","100.30","","","","-38","",""
"-95.85","68.64","GJOA HAVEN AWOS A","2302338","2012-02-18 15:00","2012","02","18","15:00","-25.4","","-29.6","","68","","","","3","","28","","6.4","","100.34","","","","-39","","Snow"
"-95.85","68.64","GJOA HAVEN AWOS A","2302338","2012-02-18 16:00","2012","02","18","16:00","-25.3","","-29.6","","67","","","","4","","33","","4.8","","100.38","","","","-40","",""
"-95.85","68.64","GJOA HAVEN AWOS A","2302338","2012-02-18 17:00","2012","02","18","17:00","-25.4","","-29.8","","67","","","","3","","32","","3.2","","100.44","","","","-40","","Snow"
"-95.85","68.64","GJOA HAVEN AWOS A","2302338","2012-02-18 18:00","2012","02","18","18:00","-27.1","","-31.2","","68","","","","3","","32","","6.4","","100.49","","","","-42","",""
"-95.85","68.64","GJOA HAVEN AWOS A","2302338","2012-02-18 19:00","2012","02","18","19:00","-28.1","","-32.4","","67","","","","3","","35","","3.7","","100.55","","","","-44","",""
"-95.85","68.64","GJOA HAVEN AWOS A","2302338","2012-02-18 20:00","2012","02","18","20:00","-29.0","","-33.5","","65","","","","3","","35","","3.5","","100.59","","","","-45","",""
"-95.85","68.64","GJOA HAVEN AWOS A","2302338","2012-02-18 21:00","2012","02","18","21:00","-29.8","","-34.4","","64","","","","2","","37","","1.6","","100.67","","","","-47","",""
"-95.85","68.64","GJOA HAVEN AWOS A","2302338","2012-02-18 22:00","2012","02","18","22:00","-30.7","","-35.3","","64","","","","1","","37","","2.4","","100.72","","","","-48","",""
"-95.85","68.64","GJOA HAVEN AWOS A","2302338","2012-02-18 23:00","2012","02","18","23:00","-31.6","","-36.0","","65","","","","1","","37","","2.4","","100.78","","","","-49","",""
"-95.85","68.64","GJOA HAVEN AWOS A","2302338","2012-02-19 00:00","2012","02","19","00:00","-31.6","","-36.5","","62","","","","1","","33","","3.5","","100.82","","","","-48","",""
"-95.85","68.64","GJOA HAVEN AWOS A","2302338","2012-02-19 01:00","2012","02","19","01:00","-33.0","","-37.8","","62","","","","36","","33","","3.7","","100.89","","","","-50","",""
"-95.85","68.64","GJOA HAVEN AWOS A","2302338","2012-02-19 02:00","2012","02","19","02:00","-33.6","","-38.0","","65","","","","36","","32","","6.4","","100.95","","","","-51","",""
"-95.85","68.64","GJOA HAVEN AWOS A","2302338","2012-02-19 03:00","2012","02","19","03:00","-34.9","","-39.7","","62","","","","35","","32","","9.7","","101.01","","","","-52","",""
"-95.85","68.64","GJOA HAVEN AWOS A","2302338","2012-02-19 04:00","2012","02","19","04:00","-35.3","","-40.0","","62","","","","35","","32","","11.3","","101.07","","","","-53","",""
"-95.85","68.64","GJOA HAVEN AWOS A","2302338","2012-02-19 05:00","2012","02","19","05:00","-35.4","","-40.0","","63","","","","35","","33","","9.7","","101.12","","","","-53","",""
"-95.85","68.64","GJOA HAVEN AWOS A","2302338","2012-02-19 06:00","2012","02","19","06:00","-35.7","","-40.4","","62","","","","36","","26","","11.3","","101.16","","","","-52","",""
"-95.85","68.64","GJOA HAVEN AWOS A","2302338","2012-02-19 07:00","2012","02","19","07:00","-35.7","","-40.3","","63","","","","34","","30","","11.3","","101.18","","","","-53","",""
"-95.85","68.64","GJOA HAVEN AWOS A","2302338","2012-02-19 08:00","2012","02","19","08:00","-35.1","","-39.6","","63","","","","35","","32","","11.3","","101.20","","","","-53","",""
"-95.85","68.64","GJOA HAVEN AWOS A","2302338","2012-02-19 09:00","2012","02","19","09:00","-35.6","","-40.2","","63","","","","34","","28","","15.0","","101.23","","","","-52","",""
"-95.85","68.64","GJOA HAVEN AWOS A","2302338","2012-02-19 10:00","2012","02","19","10:00","-35.0","","-39.5","","63","","","","34","","30","","15.0","","101.26","","","","-52","",""
"-95.85","68.64","GJOA HAVEN AWOS A","2302338","2012-02-19 11:00","2012","02","19","11:00","-34.3","","-38.7","","64","","","","35","","28","","12.9","","101.26","","","","-51","",""
"-95.85","68.64","GJOA HAVEN AWOS A","2302338","2012-02-19 12:00","2012","02","19","12:00","-33.6","","-38.0","","65","","","","34","","30","","15.0","","101.27","","","","-50","",""
"-95.85","68.64","GJOA HAVEN AWOS A","2302338","2012-02-19 13:00","2012","02","19","13:00","-33.4","","-38.2","","62","","","","34","","24","","15.0","","101.33","","","","-49","",""
"-95.85","68.64","GJOA HAVEN AWOS A","2302338","2012-02-19 14:00","2012","02","19","14:00","-33.3","","-38.0","","63","","","","34","","24","","15.0","","101.37","","","","-48","",""
"-95.85","68.64","GJOA HAVEN AWOS A","2302338","2012-02-19 15:00","2012","02","19","15:00","-33.5","","-38.3","","62","","","","34","","24","","15.0","","101.42","","","","-49","",""
"-95.85","68.64","GJOA HAVEN AWOS A","2302338","2012-02-19 16:00","2012","02","19","16:00","-33.8","","-38.4","","63","","","","33","","24","","15.0","","101.48","","","","-49","",""
"-95.85","68.64","GJOA HAVEN AWOS A","2302338","2012-02-19 17:00","2012","02","19","17:00","-34.0","","-38.4","","64","","","","33","","15","","11.3","","101.50","","","","-46","",""
"-95.85","68.64","GJOA HAVEN AWOS A","2302338","2012-02-19 18:00","2012","02","19","18:00","-34.5","","-39.1","","63","","","","32","","20","","15.0","","101.55","","","","-49","",""
"-95.85","68.64","GJOA HAVEN AWOS A","2302338","2012-02-19 19:00","2012","02","19","19:00","-34.9","","-39.4","","63","","","","32","","19","","15.0","","101.57","","","","-49","",""
"-95.85","68.64","GJOA HAVEN AWOS A","2302338","2012-02-19 20:00","2012","02","19","20:00","-34.4","","-39.0","","63","","","","33","","17","","15.0","","101.59","","","","-48","",""
"-95.85","68.64","GJOA HAVEN AWOS A","2302338","2012-02-19 21:00","2012","02","19","21:00","-34.0","","-38.5","","64","","","","34","","19","","15.0","","101.61","","","","-48","",""
"-95.85","68.64","GJOA HAVEN AWOS A","2302338","2012-02-19 22:00","2012","02","19","22:00","-33.8","","-38.5","","63","","","","35","","13","","15.0","","101.61","","","","-45","",""
"-95.85","68.64","GJOA HAVEN AWOS A","2302338","2012-02-19 23:00","2012","02","19","23:00","-33.8","","-38.5","","63","","","","31","","4","","15.0","","101.62","","","","-39","",""
"-95.85","68.64","GJOA HAVEN AWOS A","2302338","2012-02-20 00:00","2012","02","20","00:00","-34.9","","-39.8","","61","","","","33","","19","","15.0","","101.67","","","","-49","",""
"-95.85","68.64","GJOA HAVEN AWOS A","2302338","2012-02-20 01:00","2012","02","20","01:00","-34.9","","-39.1","","65","","","","35","","15","","15.0","","101.72","","","","-47","",""
"-95.85","68.64","GJOA HAVEN AWOS A","2302338","2012-02-20 02:00","2012","02","20","02:00","-34.9","","-39.9","","60","","","","35","","9","","15.0","","101.73","","","","-44","",""
"-95.85","68.64","GJOA HAVEN AWOS A","2302338","2012-02-20 03:00","2012","02","20","03:00","-33.7","","-38.2","","64","","","","33","","6","","15.0","","101.76","","","","-41","",""
"-95.85","68.64","GJOA HAVEN AWOS A","2302338","2012-02-20 04:00","2012","02","20","04:00","-34.6","","-39.4","","62","","","","32","","6","","15.0","","101.79","","","","-42","",""
"-95.85","68.64","GJOA HAVEN AWOS A","2302338","2012-02-20 05:00","2012","02","20","05:00","-34.4","","-39.2","","62","","","","30","","6","","15.0","","101.82","","","","-42","",""
"-95.85","68.64","GJOA HAVEN AWOS A","2302338","2012-02-20 06:00","2012","02","20","06:00","-35.9","","-40.8","","61","","","","28","","4","","15.0","","101.83","","","","-41","",""
"-95.85","68.64","GJOA HAVEN AWOS A","2302338","2012-02-20 07:00","2012","02","20","07:00","-35.2","","-39.2","","67","","","","31","","6","","15.0","","101.82","","","","-42","",""
"-95.85","68.64","GJOA HAVEN AWOS A","2302338","2012-02-20 08:00","2012","02","20","08:00","-35.5","","-40.1","","63","","","","31","","9","","15.0","","101.81","","","","-45","",""
"-95.85","68.64","GJOA HAVEN AWOS A","2302338","2012-02-20 09:00","2012","02","20","09:00","-35.3","","-40.2","","61","","","","30","","7","","15.0","","101.82","","","","-43","",""
"-95.85","68.64","GJOA HAVEN AWOS A","2302338","2012-02-20 10:00","2012","02","20","10:00","-35.4","","-40.1","","62","","","","","","0","","15.0","","101.81","","","","","",""
"-95.85","68.64","GJOA HAVEN AWOS A","2302338","2012-02-20 11:00","2012","02","20","11:00","-35.3","","-40.1","","61","","","","23","","6","","15.0","","101.81","","","","-43","",""
"-95.85","68.64","GJOA HAVEN AWOS A","2302338","2012-02-20 12:00","2012","02","20","12:00","-34.6","","-39.8","","59","","","","24","","4","","15.0","","101.81","","","","-40","",""
"-95.85","68.64","GJOA HAVEN AWOS A","2302338","2012-02-20 13:00","2012","02","20","13:00","-34.3","","-39.2","","61","","","","25","","7","","15.0","","101.80","","","","-42","",""
"-95.85","68.64","GJOA HAVEN AWOS A","2302338","2012-02-20 14:00","2012","02","20","14:00","-34.3","","-38.9","","63","","","","24","","6","","15.0","","101.80","","","","-41","",""
"-95.85","68.64","GJOA HAVEN AWOS A","2302338","2012-02-20 15:00","2012","02","20","15:00","-34.9","","-39.7","","62","","","","25","","9","","14.5","","101.81","","","","-44","",""
"-95.85","68.64","GJOA HAVEN AWOS A","2302338","2012-02-20 16:00","2012","02","20","16:00","-35.6","","-39.9","","65","","","","24","","9","","11.3","","101.80","","","","-45","",""
"-95.85","68.64","GJOA HAVEN AWOS A","2302338","2012-02-20 17:00","2012","02","20","17:00","-35.4","","-39.8","","64","","","","26","","9","","15.0","","101.80","","","","-45","",""
"-95.85","68.64","GJOA HAVEN AWOS A","2302338","2012-02-20 18:00","2012","02","20","18:00","-35.5","","-39.8","","65","","","","25","","13","","15.0","","101.75","","","","-47","",""
"-95.85","68.64","GJOA HAVEN AWOS A","2302338","2012-02-20 19:00","2012","02","20","19:00","-35.6","","-40.0","","64","","","","23","","13","","15.0","","101.72","","","","-47","",""
"-95.85","68.64","GJOA HAVEN AWOS A","2302338","2012-02-20 20:00","2012","02","20","20:00","-35.4","","-39.9","","63","","","","23","","9","","15.0","","101.67","","","","-45","",""
"-95.85","68.64","GJOA HAVEN AWOS A","2302338","2012-02-20 21:00","2012","02","20","21:00","-35.8","","-40.6","","61","","","","21","","7","","15.0","","101.62","","","","-44","",""
"-95.85","68.64","GJOA HAVEN AWOS A","2302338","2012-02-20 22:00","2012","02","20","22:00","-36.1","","-40.7","","63","","","","22","","13","","15.0","","101.58","","","","-48","",""
"-95.85","68.64","GJOA HAVEN AWOS A","2302338","2012-02-20 23:00","2012","02","20","23:00","-36.6","","-41.0","","64","","","","20","","9","","15.0","","101.54","","","","-46","",""
"-95.85","68.64","GJOA HAVEN AWOS A","2302338","2012-02-21 00:00","2012","02","21","00:00","-36.6","","-41.1","","63","","","","20","","15","","12.9","","101.51","","","","-50","",""
"-95.85","68.64","GJOA HAVEN AWOS A","2302338","2012-02-21 01:00","2012","02","21","01:00","-36.2","","-40.7","","63","","","","21","","13","","15.0","","101.51","","","","-48","",""
"-95.85","68.64","GJOA HAVEN AWOS A","2302338","2012-02-21 02:00","2012","02","21","02:00","-36.2","","-40.9","","62","","","","20","","11","","15.0","","101.45","","","","-47","",""
"-95.85","68.64","GJOA HAVEN AWOS A","2302338","2012-02-21 03:00","2012","02","21","03:00","-35.8","","-40.4","","63","","","","18","","17","","15.0","","101.40","","","","-49","",""
"-95.85","68.64","GJOA HAVEN AWOS A","2302338","2012-02-21 04:00","2012","02","21","04:00","-36.1","","-40.5","","64","","","","19","","13","","15.0","","101.37","","","","-48","",""
"-95.85","68.64","GJOA HAVEN AWOS A","2302338","2012-02-21 05:00","2012","02","21","05:00","-35.3","","-39.8","","63","","","","19","","19","","15.0","","101.32","","","","-49","",""
"-95.85","68.64","GJOA HAVEN AWOS A","2302338","2012-02-21 06:00","2012","02","21","06:00","-34.9","","-39.5","","63","","","","19","","15","","15.0","","101.27","","","","-47","",""
"-95.85","68.64","GJOA HAVEN AWOS A","2302338","2012-02-21 07:00","2012","02","21","07:00","-35.0","","-39.5","","63","","","","19","","13","","15.0","","101.22","","","","-47","",""
"-95.85","68.64","GJOA HAVEN AWOS A","2302338","2012-02-21 08:00","2012","02","21","08:00","-34.6","","-39.2","","63","","","","18","","15","","15.0","","101.15","","","","-47","",""
"-95.85","68.64","GJOA HAVEN AWOS A","2302338","2012-02-21 09:00","2012","02","21","09:00","-33.9","","-38.4","","64","","","","18","","13","","15.0","","101.10","","","","-45","",""
"-95.85","68.64","GJOA HAVEN AWOS A","2302338","2012-02-21 10:00","2012","02","21","10:00","-33.3","","-37.8","","64","","","","16","","15","","15.0","","101.06","","","","-45","",""
"-95.85","68.64","GJOA HAVEN AWOS A","2302338","2012-02-21 11:00","2012","02","21","11:00","-32.3","","-36.9","","64","","","","15","","15","","15.0","","100.98","","","","-44","",""
"-95.85","68.64","GJOA HAVEN AWOS A","2302338","2012-02-21 12:00","2012","02","21","12:00","-32.2","","-36.9","","63","","","","17","","17","","15.0","","100.96","","","","-45","",""
"-95.85","68.64","GJOA HAVEN AWOS A","2302338","2012-02-21 13:00","2012","02","21","13:00","-31.5","","-36.1","","64","","","","16","","15","","15.0","","100.94","","","","-43","",""
"-95.85","68.64","GJOA HAVEN AWOS A","2302338","2012-02-21 14:00","2012","02","21","14:00","-30.6","","-35.0","","65","","","","17","","13","","15.0","","100.90","","","","-41","",""
"-95.85","68.64","GJOA HAVEN AWOS A","2302338","2012-02-21 15:00","2012","02","21","15:00","-29.7","","-34.3","","64","","","","18","","15","","15.0","","100.86","","","","-41","",""
"-95.85","68.64","GJOA HAVEN AWOS A","2302338","2012-02-21 16:00","2012","02","21","16:00","-28.3","","-32.8","","65","","","","19","","15","","15.0","","100.83","","","","-39","",""
"-95.85","68.64","GJOA HAVEN AWOS A","2302338","2012-02-21 17:00","2012","02","21","17:00","-28.2","","-32.9","","64","","","","19","","19","","15.0","","100.79","","","","-41","",""
"-95.85","68.64","GJOA HAVEN AWOS A","2302338","2012-02-21 18:00","2012","02","21","18:00","-28.2","","-32.9","","64","","","","19","","17","","15.0","","100.74","","","","-40","",""
"-95.85","68.64","GJOA HAVEN AWOS A","2302338","2012-02-21 19:00","2012","02","21","19:00","-28.1","","-32.8","","64","","","","19","","17","","15.0","","100.69","","","","-40","",""
"-95.85","68.64","GJOA HAVEN AWOS A","2302338","2012-02-21 20:00","2012","02","21","20:00","-28.1","","-32.6","","65","","","","20","","13","","15.0","","100.65","","","","-38","",""
"-95.85","68.64","GJOA HAVEN AWOS A","2302338","2012-02-21 21:00","2012","02","21","21:00","-27.1","","-31.5","","66","","","","19","","20","","15.0","","100.60","","","","-39","",""
"-95.85","68.64","GJOA HAVEN AWOS A","2302338","2012-02-21 22:00","2012","02","21","22:00","-26.6","","-31.0","","66","","","","18","","20","","15.0","","100.57","","","","-39","",""
"-95.85","68.64","GJOA HAVEN AWOS A","2302338","2012-02-21 23:00","2012","02","21","23:00","-25.3","","-29.6","","67","","","","20","","22","","15.0","","100.56","","","","-38","",""
"-95.85","68.64","GJOA HAVEN AWOS A","2302338","2012-02-22 00:00","2012","02","22","00:00","-25.8","","-30.2","","67","","","","19","","24","","15.0","","100.55","","","","-39","",""
"-95.85","68.64","GJOA HAVEN AWOS A","2302338","2012-02-22 01:00","2012","02","22","01:00","-25.3","","-29.7","","67","","","","19","","22","","15.0","","100.57","","","","-38","",""
"-95.85","68.64","GJOA HAVEN AWOS A","2302338","2012-02-22 02:00","2012","02","22","02:00","-25.7","","-30.2","","66","","","","19","","24","","15.0","","100.56","","","","-39","",""
"-95.85","68.64","GJOA HAVEN AWOS A","2302338","2012-02-22 03:00","2012","02","22","03:00","-25.8","","-30.2","","67","","","","19","","20","","15.0","","100.55","","","","-38","",""
"-95.85","68.64","GJOA HAVEN AWOS A","2302338","2012-02-22 04:00","2012","02","22","04:00","-25.4","","-29.8","","67","","","","19","","22","","12.9","","100.52","","","","-38","",""
"-95.85","68.64","GJOA HAVEN AWOS A","2302338","2012-02-22 05:00","2012","02","22","05:00","-24.8","","-29.1","","67","","","","19","","26","","5.6","","100.50","","","","-38","",""
"-95.85","68.64","GJOA HAVEN AWOS A","2302338","2012-02-22 06:00","2012","02","22","06:00"
"-95.85","68.64","GJOA HAVEN AWOS A","2302338","2012-02-22 07:00","2012","02","22","07:00","-25.7","","-30.1","","67","","","","18","","11","","15.0","","100.45","","","","-34","","Snow"
"-95.85","68.64","GJOA HAVEN AWOS A","2302338","2012-02-22 08:00","2012","02","22","08:00","-25.6","","-29.9","","67","","","","18","","19","","15.0","","100.43","","","","-37","","Snow"
"-95.85","68.64","GJOA HAVEN AWOS A","2302338","2012-02-22 09:00","2012","02","22","09:00","-25.9","","-30.3","","66","","","","18","","19","","9.7","","100.42","","","","-38","","Snow"
"-95.85","68.64","GJOA HAVEN AWOS A","2302338","2012-02-22 10:00","2012","02","22","10:00","-25.7","","-30.2","","66","","","","17","","17","","8.0","","100.42","","","","-37","","Snow"
"-95.85","68.64","GJOA HAVEN AWOS A","2302338","2012-02-22 11:00","2012","02","22","11:00","-25.5","","-30.0","","66","","","","16","","20","","15.0","","100.39","","","","-37","",""
"-95.85","68.64","GJOA HAVEN AWOS A","2302338","2012-02-22 12:00","2012","02","22","12:00","-26.5","","-31.0","","66","","","","16","","17","","15.0","","100.41","","","","-38","",""
"-95.85","68.64","GJOA HAVEN AWOS A","2302338","2012-02-22 13:00","2012","02","22","13:00","-26.6","","-31.2","","65","","","","15","","13","","15.0","","100.43","","","","-36","",""
"-95.85","68.64","GJOA HAVEN AWOS A","2302338","2012-02-22 14:00","2012","02","22","14:00","-26.3","","-30.9","","65","","","","15","","20","","15.0","","100.43","","","","-38","",""
"-95.85","68.64","GJOA HAVEN AWOS A","2302338","2012-02-22 15:00","2012","02","22","15:00","-26.1","","-30.5","","66","","","","14","","19","","15.0","","100.42","","","","-38","",""
"-95.85","68.64","GJOA HAVEN AWOS A","2302338","2012-02-22 16:00","2012","02","22","16:00","-27.0","","-31.4","","66","","","","14","","17","","11.3","","100.41","","","","-38","",""
"-95.85","68.64","GJOA HAVEN AWOS A","2302338","2012-02-22 17:00","2012","02","22","17:00","-26.8","","-31.4","","65","","","","14","","19","","6.4","","100.41","","","","-39","",""
"-95.85","68.64","GJOA HAVEN AWOS A","2302338","2012-02-22 18:00","2012","02","22","18:00","-26.3","","-30.6","","67","","","","16","","19","","4.0","","100.39","","","","-38","",""
"-95.85","68.64","GJOA HAVEN AWOS A","2302338","2012-02-22 19:00","2012","02","22","19:00","-26.9","","-31.4","","66","","","","16","","19","","8.0","","100.39","","","","-39","",""
"-95.85","68.64","GJOA HAVEN AWOS A","2302338","2012-02-22 20:00","2012","02","22","20:00","-27.6","","-32.3","","64","","","","17","","19","","15.0","","100.36","","","","-40","",""
"-95.85","68.64","GJOA HAVEN AWOS A","2302338","2012-02-22 21:00","2012","02","22","21:00","-27.6","","-32.1","","65","","","","16","","15","","15.0","","100.37","","","","-38","",""
"-95.85","68.64","GJOA HAVEN AWOS A","2302338","2012-02-22 22:00","2012","02","22","22:00","-27.9","","-32.4","","65","","","","16","","13","","15.0","","100.37","","","","-38","",""
"-95.85","68.64","GJOA HAVEN AWOS A","2302338","2012-02-22 23:00","2012","02","22","23:00","-28.7","","-33.0","","66","","","","6","","7","","15.0","","100.37","","","","-36","",""
"-95.85","68.64","GJOA HAVEN AWOS A","2302338","2012-02-23 00:00","2012","02","23","00:00","-28.4","","-32.9","","65","","","","11","","7","","4.8","","100.38","","","","-35","",""
"-95.85","68.64","GJOA HAVEN AWOS A","2302338","2012-02-23 01:00","2012","02","23","01:00","-27.4","","-32.0","","65","","","","15","","13","","15.0","","100.38","","","","-37","",""
"-95.85","68.64","GJOA HAVEN AWOS A","2302338","2012-02-23 02:00","2012","02","23","02:00","-26.8","","-31.4","","65","","","","14","","9","","4.8","","100.40","","","","-35","","Snow"
"-95.85","68.64","GJOA HAVEN AWOS A","2302338","2012-02-23 03:00","2012","02","23","03:00","-27.4","","-32.1","","64","","","","7","","11","","6.4","","100.42","","","","-37","","Snow"
"-95.85","68.64","GJOA HAVEN AWOS A","2302338","2012-02-23 04:00","2012","02","23","04:00","-28.0","","-32.5","","65","","","","8","","7","","11.3","","100.41","","","","-35","",""
"-95.85","68.64","GJOA HAVEN AWOS A","2302338","2012-02-23 05:00","2012","02","23","05:00","-28.0","","-32.5","","65","","","","6","","11","","15.0","","100.40","","","","-37","",""
"-95.85","68.64","GJOA HAVEN AWOS A","2302338","2012-02-23 06:00","2012","02","23","06:00","-28.3","","-33.0","","64","","","","6","","13","","8.0","","100.42","","","","-39","","Snow"
"-95.85","68.64","GJOA HAVEN AWOS A","2302338","2012-02-23 07:00","2012","02","23","07:00","-28.4","","-33.0","","65","","","","8","","13","","5.6","","100.42","","","","-39","",""
"-95.85","68.64","GJOA HAVEN AWOS A","2302338","2012-02-23 08:00","2012","02","23","08:00","-28.0","","-32.4","","66","","","","7","","9","","15.0","","100.43","","","","-36","",""
"-95.85","68.64","GJOA HAVEN AWOS A","2302338","2012-02-23 09:00","2012","02","23","09:00","-29.4","","-34.2","","63","","","","3","","9","","15.0","","100.45","","","","-38","",""
"-95.85","68.64","GJOA HAVEN AWOS A","2302338","2012-02-23 10:00","2012","02","23","10:00","-29.4","","-33.7","","66","","","","3","","17","","15.0","","100.46","","","","-41","",""
"-95.85","68.64","GJOA HAVEN AWOS A","2302338","2012-02-23 11:00","2012","02","23","11:00","-29.2","","-33.9","","64","","","","2","","17","","15.0","","100.49","","","","-41","",""
"-95.85","68.64","GJOA HAVEN AWOS A","2302338","2012-02-23 12:00","2012","02","23","12:00","-29.2","","-33.7","","65","","","","2","","13","","15.0","","100.52","","","","-40","",""
"-95.85","68.64","GJOA HAVEN AWOS A","2302338","2012-02-23 13:00","2012","02","23","13:00","-30.5","","-34.8","","66","","","","2","","15","","15.0","","100.56","","","","-42","",""
"-95.85","68.64","GJOA HAVEN AWOS A","2302338","2012-02-23 14:00","2012","02","23","14:00","-30.2","","-34.6","","65","","","","36","","20","","15.0","","100.60","","","","-43","",""
"-95.85","68.64","GJOA HAVEN AWOS A","2302338","2012-02-23 15:00","2012","02","23","15:00","-30.7","","-35.0","","66","","","","36","","17","","15.0","","100.63","","","","-43","",""
"-95.85","68.64","GJOA HAVEN AWOS A","2302338","2012-02-23 16:00","2012","02","23","16:00","-30.0","","-34.4","","65","","","","35","","20","","15.0","","100.67","","","","-43","",""
"-95.85","68.64","GJOA HAVEN AWOS A","2302338","2012-02-23 17:00","2012","02","23","17:00","-29.9","","-34.2","","66","","","","35","","19","","15.0","","100.69","","","","-43","",""
"-95.85","68.64","GJOA HAVEN AWOS A","2302338","2012-02-23 18:00","2012","02","23","18:00","-31.1","","-35.6","","65","","","","34","","24","","15.0","","100.70","","","","-46","",""
"-95.85","68.64","GJOA HAVEN AWOS A","2302338","2012-02-23 19:00","2012","02","23","19:00","-32.4","","-37.3","","62","","","","34","","22","","11.3","","100.73","","","","-47","",""
"-95.85","68.64","GJOA HAVEN AWOS A","2302338","2012-02-23 20:00","2012","02","23","20:00","-31.8","","-36.8","","61","","","","33","","24","","8.0","","100.75","","","","-47","",""
"-95.85","68.64","GJOA HAVEN AWOS A","2302338","2012-02-23 21:00","2012","02","23","21:00","-32.2","","-37.0","","62","","","","34","","28","","14.5","","100.77","","","","-48","",""
"-95.85","68.64","GJOA HAVEN AWOS A","2302338","2012-02-23 22:00","2012","02","23","22:00","-33.6","","-38.4","","62","","","","32","","22","","15.0","","100.80","","","","-48","",""
"-95.85","68.64","GJOA HAVEN AWOS A","2302338","2012-02-23 23:00","2012","02","23","23:00","-34.8","","-39.5","","62","","","","32","","24","","11.3","","100.82","","","","-50","",""
"-95.85","68.64","GJOA HAVEN AWOS A","2302338","2012-02-24 00:00","2012","02","24","00:00","-35.6","","-40.2","","63","","","","32","","22","","14.5","","100.87","","","","-51","",""
"-95.85","68.64","GJOA HAVEN AWOS A","2302338","2012-02-24 01:00","2012","02","24","01:00","-35.9","","-40.6","","62","","","","32","","20","","15.0","","100.91","","","","-51","",""
"-95.85","68.64","GJOA HAVEN AWOS A","2302338","2012-02-24 02:00","2012","02","24","02:00","-36.0","","-40.6","","63","","","","33","","24","","15.0","","100.96","","","","-52","",""
"-95.85","68.64","GJOA HAVEN AWOS A","2302338","2012-02-24 03:00","2012","02","24","03:00","-36.5","","-41.1","","62","","","","33","","22","","15.0","","100.99","","","","-52","",""
"-95.85","68.64","GJOA HAVEN AWOS A","2302338","2012-02-24 04:00","2012","02","24","04:00","-36.4","","-41.0","","62","","","","33","","19","","15.0","","101.02","","","","-51","",""
"-95.85","68.64","GJOA HAVEN AWOS A","2302338","2012-02-24 05:00","2012","02","24","05:00","-37.2","","-42.1","","60","","","","33","","19","","15.0","","101.06","","","","-52","",""
"-95.85","68.64","GJOA HAVEN AWOS A","2302338","2012-02-24 06:00","2012","02","24","06:00","-36.6","","-41.2","","62","","","","34","","13","","15.0","","101.11","","","","-49","",""
"-95.85","68.64","GJOA HAVEN AWOS A","2302338","2012-02-24 07:00","2012","02","24","07:00","-36.4","","-41.1","","62","","","","34","","19","","12.9","","101.15","","","","-51","",""
"-95.85","68.64","GJOA HAVEN AWOS A","2302338","2012-02-24 08:00","2012","02","24","08:00","-36.9","","-41.4","","63","","","","35","","17","","8.0","","101.18","","","","-51","",""
"-95.85","68.64","GJOA HAVEN AWOS A","2302338","2012-02-24 09:00","2012","02","24","09:00","-36.5","","-41.1","","62","","","","36","","24","","8.0","","101.21","","","","-53","",""
"-95.85","68.64","GJOA HAVEN AWOS A","2302338","2012-02-24 10:00","2012","02","24","10:00","-36.0","","-40.5","","63","","","","36","","20","","8.0","","101.27","","","","-51","",""
"-95.85","68.64","GJOA HAVEN AWOS A","2302338","2012-02-24 11:00","2012","02","24","11:00","-36.0","","-40.6","","63","","","","1","","26","","12.9","","101.31","","","","-52","",""
"-95.85","68.64","GJOA HAVEN AWOS A","2302338","2012-02-24 12:00","2012","02","24","12:00","-35.7","","-40.2","","63","","","","36","","17","","15.0","","101.37","","","","-49","",""
"-95.85","68.64","GJOA HAVEN AWOS A","2302338","2012-02-24 13:00","2012","02","24","13:00","-35.8","","-40.2","","64","","","","35","","17","","15.0","","101.43","","","","-49","",""
"-95.85","68.64","GJOA HAVEN AWOS A","2302338","2012-02-24 14:00","2012","02","24","14:00","-35.9","","-40.3","","64","","","","36","","20","","15.0","","101.46","","","","-51","",""
"-95.85","68.64","GJOA HAVEN AWOS A","2302338","2012-02-24 15:00","2012","02","24","15:00","-36.1","","-40.7","","63","","","","36","","24","","15.0","","101.52","","","","-52","",""
"-95.85","68.64","GJOA HAVEN AWOS A","2302338","2012-02-24 16:00","2012","02","24","16:00","-36.9","","-41.5","","62","","","","36","","19","","15.0","","101.58","","","","-51","",""
"-95.85","68.64","GJOA HAVEN AWOS A","2302338","2012-02-24 17:00","2012","02","24","17:00","-36.8","","-41.3","","63","","","","35","","22","","15.0","","101.62","","","","-52","",""
"-95.85","68.64","GJOA HAVEN AWOS A","2302338","2012-02-24 18:00","2012","02","24","18:00","-37.6","","-42.3","","61","","","","36","","22","","15.0","","101.62","","","","-53","",""
"-95.85","68.64","GJOA HAVEN AWOS A","2302338","2012-02-24 19:00","2012","02","24","19:00","-37.5","","-42.2","","61","","","","35","","19","","15.0","","101.64","","","","-52","",""
"-95.85","68.64","GJOA HAVEN AWOS A","2302338","2012-02-24 20:00","2012","02","24","20:00","-37.3","","-42.1","","61","","","","35","","17","","15.0","","101.66","","","","-51","",""
"-95.85","68.64","GJOA HAVEN AWOS A","2302338","2012-02-24 21:00","2012","02","24","21:00","-37.2","","-41.8","","62","","","","35","","19","","15.0","","101.69","","","","-52","",""
"-95.85","68.64","GJOA HAVEN AWOS A","2302338","2012-02-24 22:00","2012","02","24","22:00","-37.5","","-42.2","","61","","","","36","","20","","15.0","","101.70","","","","-53","",""
"-95.85","68.64","GJOA HAVEN AWOS A","2302338","2012-02-24 23:00","2012","02","24","23:00","-37.7","","-42.4","","61","","","","36","","15","","15.0","","101.71","","","","-51","",""
"-95.85","68.64","GJOA HAVEN AWOS A","2302338","2012-02-25 00:00","2012","02","25","00:00","-37.8","","-42.3","","63","","","","1","","13","","15.0","","101.74","","","","-50","",""
"-95.85","68.64","GJOA HAVEN AWOS A","2302338","2012-02-25 01:00","2012","02","25","01:00","-37.9","","-42.8","","60","","","","36","","19","","15.0","","101.77","","","","-53","",""
"-95.85","68.64","GJOA HAVEN AWOS A","2302338","2012-02-25 02:00","2012","02","25","02:00","-37.9","","-42.6","","61","","","","36","","15","","12.9","","101.78","","","","-51","",""
"-95.85","68.64","GJOA HAVEN AWOS A","2302338","2012-02-25 03:00","2012","02","25","03:00","-38.0","","-42.9","","60","","","","35","","17","","15.0","","101.83","","","","-52","",""
"-95.85","68.64","GJOA HAVEN AWOS A","2302338","2012-02-25 04:00","2012","02","25","04:00","-37.9","","-42.5","","62","","","","36","","13","","15.0","","101.86","","","","-50","",""
"-95.85","68.64","GJOA HAVEN AWOS A","2302338","2012-02-25 05:00","2012","02","25","05:00","-38.1","","-42.8","","61","","","","2","","9","","15.0","","101.86","","","","-48","",""
"-95.85","68.64","GJOA HAVEN AWOS A","2302338","2012-02-25 06:00","2012","02","25","06:00","-38.6","","-43.4","","60","","","","34","","17","","14.5","","101.86","","","","-53","",""
"-95.85","68.64","GJOA HAVEN AWOS A","2302338","2012-02-25 07:00","2012","02","25","07:00","-37.4","","-42.1","","61","","","","35","","15","","15.0","","101.85","","","","-51","",""
"-95.85","68.64","GJOA HAVEN AWOS A","2302338","2012-02-25 08:00","2012","02","25","08:00","-37.6","","-41.5","","67","","","","34","","13","","15.0","","101.87","","","","-50","",""
"-95.85","68.64","GJOA HAVEN AWOS A","2302338","2012-02-25 09:00","2012","02","25","09:00","-37.3","","-41.7","","63","","","","35","","13","","15.0","","101.91","","","","-49","",""
"-95.85","68.64","GJOA HAVEN AWOS A","2302338","2012-02-25 10:00","2012","02","25","10:00","-37.6","","-41.9","","64","","","","35","","17","","15.0","","101.93","","","","-52","",""
"-95.85","68.64","GJOA HAVEN AWOS A","2302338","2012-02-25 11:00","2012","02","25","11:00","-37.2","","-41.5","","64","","","","34","","15","","15.0","","101.94","","","","-50","",""
"-95.85","68.64","GJOA HAVEN AWOS A","2302338","2012-02-25 12:00","2012","02","25","12:00","-36.8","","-41.2","","64","","","","34","","17","","15.0","","101.97","","","","-51","",""
"-95.85","68.64","GJOA HAVEN AWOS A","2302338","2012-02-25 13:00","2012","02","25","13:00","-36.9","","-41.4","","63","","","","33","","13","","15.0","","101.98","","","","-49","",""
"-95.85","68.64","GJOA HAVEN AWOS A","2302338","2012-02-25 14:00","2012","02","25","14:00","-37.2","","-42.0","","61","","","","34","","13","","15.0","","102.00","","","","-49","",""
"-95.85","68.64","GJOA HAVEN AWOS A","2302338","2012-02-25 15:00","2012","02","25","15:00","-37.6","","-42.3","","61","","","","34","","15","","15.0","","102.05","","","","-51","",""
"-95.85","68.64","GJOA HAVEN AWOS A","2302338","2012-02-25 16:00","2012","02","25","16:00","-38.7","","-43.4","","61","","","","36","","13","","15.0","","102.09","","","","-51","",""
"-95.85","68.64","GJOA HAVEN AWOS A","2302338","2012-02-25 17:00","2012","02","25","17:00","-38.8","","-43.4","","62","","","","34","","17","","15.0","","102.11","","","","-53","",""
"-95.85","68.64","GJOA HAVEN AWOS A","2302338","2012-02-25 18:00","2012","02","25","18:00","-39.8","","-44.0","","64","","","","36","","17","","15.0","","102.13","","","","-54","",""
"-95.85","68.64","GJOA HAVEN AWOS A","2302338","2012-02-25 19:00","2012","02","25","19:00","-40.1","","-44.7","","61","","","","36","","22","","15.0","","102.15","","","","-57","",""
"-95.85","68.64","GJOA HAVEN AWOS A","2302338","2012-02-25 20:00","2012","02","25","20:00","-40.2","","-44.6","","63","","","","1","","22","","15.0","","102.16","","","","-57","",""
"-95.85","68.64","GJOA HAVEN AWOS A","2302338","2012-02-25 21:00","2012","02","25","21:00"
"-95.85","68.64","GJOA HAVEN AWOS A","2302338","2012-02-25 22:00","2012","02","25","22:00","-40.3","","-44.5","","64","","","","2","","17","","15.0","","102.19","","","","-55","",""
"-95.85","68.64","GJOA HAVEN AWOS A","2302338","2012-02-25 23:00","2012","02","25","23:00","-38.5","","-43.2","","61","","","","2","","9","","15.0","","102.21","","","","-49","",""
"-95.85","68.64","GJOA HAVEN AWOS A","2302338","2012-02-26 00:00","2012","02","26","00:00","-38.8","","-43.7","","60","","","","34","","13","","11.3","","102.24","","","","-51","",""
"-95.85","68.64","GJOA HAVEN AWOS A","2302338","2012-02-26 01:00","2012","02","26","01:00","-38.7","","-43.1","","63","","","","34","","20","","15.0","","102.25","","","","-54","",""
"-95.85","68.64","GJOA HAVEN AWOS A","2302338","2012-02-26 02:00","2012","02","26","02:00","-38.7","","-43.6","","60","","","","32","","17","","15.0","","102.26","","","","-53","",""
"-95.85","68.64","GJOA HAVEN AWOS A","2302338","2012-02-26 03:00","2012","02","26","03:00","-39.2","","-44.3","","58","","","","32","","20","","11.3","","102.28","","","","-55","",""
"-95.85","68.64","GJOA HAVEN AWOS A","2302338","2012-02-26 04:00","2012","02","26","04:00","-39.4","","-44.1","","61","","","","30","","9","","11.3","","102.27","","","","-50","",""
"-95.85","68.64","GJOA HAVEN AWOS A","2302338","2012-02-26 05:00","2012","02","26","05:00","-38.5","","-42.5","","66","","","","31","","11","","9.7","","102.25","","","","-50","",""
"-95.85","68.64","GJOA HAVEN AWOS A","2302338","2012-02-26 06:00","2012","02","26","06:00","-39.0","","-43.7","","61","","","","23","","6","","1.8","","102.25","","","","-47","",""
"-95.85","68.64","GJOA HAVEN AWOS A","2302338","2012-02-26 07:00","2012","02","26","07:00","-37.9","","-42.2","","64","","","","31","","11","","2.4","","102.23","","","","-49","",""
"-95.85","68.64","GJOA HAVEN AWOS A","2302338","2012-02-26 08:00","2012","02","26","08:00","-37.6","","-42.4","","61","","","","30","","9","","4.0","","102.22","","","","-48","",""
"-95.85","68.64","GJOA HAVEN AWOS A","2302338","2012-02-26 09:00","2012","02","26","09:00","-36.9","","-41.3","","64","","","","27","","9","","3.7","","102.20","","","","-47","",""
"-95.85","68.64","GJOA HAVEN AWOS A","2302338","2012-02-26 10:00","2012","02","26","10:00","-36.1","","-40.6","","63","","","","27","","9","","2.7","","102.20","","","","-46","",""
"-95.85","68.64","GJOA HAVEN AWOS A","2302338","2012-02-26 11:00","2012","02","26","11:00","-35.8","","-40.6","","61","","","","29","","9","","5.6","","102.19","","","","-45","",""
"-95.85","68.64","GJOA HAVEN AWOS A","2302338","2012-02-26 12:00","2012","02","26","12:00","-34.9","","-39.5","","63","","","","27","","11","","12.9","","102.19","","","","-46","",""
"-95.85","68.64","GJOA HAVEN AWOS A","2302338","2012-02-26 13:00","2012","02","26","13:00","-34.1","","-38.7","","63","","","","28","","15","","4.8","","102.17","","","","-46","",""
"-95.85","68.64","GJOA HAVEN AWOS A","2302338","2012-02-26 14:00","2012","02","26","14:00","-33.4","","-38.4","","61","","","","28","","11","","1.9","","102.15","","","","-44","",""
"-95.85","68.64","GJOA HAVEN AWOS A","2302338","2012-02-26 15:00","2012","02","26","15:00","-34.0","","-39.0","","61","","","","29","","19","","4.8","","102.15","","","","-48","",""
"-95.85","68.64","GJOA HAVEN AWOS A","2302338","2012-02-26 16:00","2012","02","26","16:00","-33.7","","-38.5","","62","","","","29","","20","","3.4","","102.14","","","","-48","",""
"-95.85","68.64","GJOA HAVEN AWOS A","2302338","2012-02-26 17:00","2012","02","26","17:00","-35.5","","-40.2","","62","","","","26","","13","","1.8","","102.13","","","","-47","",""
"-95.85","68.64","GJOA HAVEN AWOS A","2302338","2012-02-26 18:00","2012","02","26","18:00","-35.9","","-40.6","","62","","","","26","","15","","1.6","","102.07","","","","-49","",""
"-95.85","68.64","GJOA HAVEN AWOS A","2302338","2012-02-26 19:00","2012","02","26","19:00","-35.9","","-40.4","","63","","","","26","","19","","9.7","","102.02","","","","-50","",""
"-95.85","68.64","GJOA HAVEN AWOS A","2302338","2012-02-26 20:00","2012","02","26","20:00","-35.6","","-40.3","","62","","","","27","","19","","6.4","","101.99","","","","-50","",""
"-95.85","68.64","GJOA HAVEN AWOS A","2302338","2012-02-26 21:00","2012","02","26","21:00","-35.3","","-40.1","","61","","","","26","","19","","2.4","","101.93","","","","-49","",""
"-95.85","68.64","GJOA HAVEN AWOS A","2302338","2012-02-26 22:00","2012","02","26","22:00","-34.7","","-39.5","","62","","","","27","","20","","4.8","","101.89","","","","-49","",""
"-95.85","68.64","GJOA HAVEN AWOS A","2302338","2012-02-26 23:00","2012","02","26","23:00","-34.5","","-39.4","","61","","","","25","","20","","6.4","","101.86","","","","-49","",""
"-95.85","68.64","GJOA HAVEN AWOS A","2302338","2012-02-27 00:00","2012","02","27","00:00","-34.6","","-39.5","","61","","","","24","","22","","8.0","","101.83","","","","-50","",""
"-95.85","68.64","GJOA HAVEN AWOS A","2302338","2012-02-27 01:00","2012","02","27","01:00","-35.0","","-39.8","","62","","","","24","","22","","12.9","","101.80","","","","-50","",""
"-95.85","68.64","GJOA HAVEN AWOS A","2302338","2012-02-27 02:00","2012","02","27","02:00","-35.9","","-40.6","","62","","","","23","","19","","11.3","","101.75","","","","-50","",""
"-95.85","68.64","GJOA HAVEN AWOS A","2302338","2012-02-27 03:00","2012","02","27","03:00","-36.5","","-41.2","","62","","","","22","","20","","11.3","","101.71","","","","-51","",""
"-95.85","68.64","GJOA HAVEN AWOS A","2302338","2012-02-27 04:00","2012","02","27","04:00","-36.1","","-40.8","","62","","","","22","","24","","11.3","","101.68","","","","-52","",""
"-95.85","68.64","GJOA HAVEN AWOS A","2302338","2012-02-27 05:00","2012","02","27","05:00","-36.8","","-41.6","","61","","","","22","","22","","5.6","","101.61","","","","-52","",""
"-95.85","68.64","GJOA HAVEN AWOS A","2302338","2012-02-27 06:00","2012","02","27","06:00","-36.9","","-41.7","","61","","","","22","","22","","3.2","","101.55","","","","-52","",""
"-95.85","68.64","GJOA HAVEN AWOS A","2302338","2012-02-27 07:00","2012","02","27","07:00","-36.9","","-41.6","","62","","","","22","","24","","3.4","","101.48","","","","-53","",""
"-95.85","68.64","GJOA HAVEN AWOS A","2302338","2012-02-27 08:00","2012","02","27","08:00","-36.4","","-41.1","","62","","","","22","","28","","4.8","","101.42","","","","-53","",""
"-95.85","68.64","GJOA HAVEN AWOS A","2302338","2012-02-27 09:00","2012","02","27","09:00","-35.5","","-40.2","","62","","","","22","","28","","4.8","","101.35","","","","-52","",""
"-95.85","68.64","GJOA HAVEN AWOS A","2302338","2012-02-27 10:00","2012","02","27","10:00","-34.4","","-39.1","","62","","","","23","","26","","4.8","","101.31","","","","-50","",""
"-95.85","68.64","GJOA HAVEN AWOS A","2302338","2012-02-27 11:00","2012","02","27","11:00","-33.5","","-38.2","","63","","","","23","","28","","3.9","","101.28","","","","-50","",""
"-95.85","68.64","GJOA HAVEN AWOS A","2302338","2012-02-27 12:00","2012","02","27","12:00","-31.9","","-36.8","","62","","","","23","","30","","4.0","","101.26","","","","-48","",""
"-95.85","68.64","GJOA HAVEN AWOS A","2302338","2012-02-27 13:00","2012","02","27","13:00","-31.4","","-36.1","","63","","","","23","","28","","4.8","","101.23","","","","-47","",""
"-95.85","68.64","GJOA HAVEN AWOS A","2302338","2012-02-27 14:00","2012","02","27","14:00","-30.7","","-35.5","","63","","","","23","","24","","3.4","","101.22","","","","-45","",""
"-95.85","68.64","GJOA HAVEN AWOS A","2302338","2012-02-27 15:00","2012","02","27","15:00","-30.4","","-35.0","","64","","","","23","","30","","2.4","","101.16","","","","-46","",""
"-95.85","68.64","GJOA HAVEN AWOS A","2302338","2012-02-27 16:00","2012","02","27","16:00","-30.7","","-35.5","","63","","","","23","","24","","4.0","","101.15","","","","-45","",""
"-95.85","68.64","GJOA HAVEN AWOS A","2302338","2012-02-27 17:00","2012","02","27","17:00","-30.7","","-35.5","","63","","","","22","","32","","2.6","","101.10","","","","-47","",""
"-95.85","68.64","GJOA HAVEN AWOS A","2302338","2012-02-27 18:00","2012","02","27","18:00","-30.7","","-35.5","","63","","","","23","","30","","2.4","","101.05","","","","-47","",""
"-95.85","68.64","GJOA HAVEN AWOS A","2302338","2012-02-27 19:00","2012","02","27","19:00","-31.0","","-35.9","","62","","","","23","","30","","3.5","","101.04","","","","-47","",""
"-95.85","68.64","GJOA HAVEN AWOS A","2302338","2012-02-27 20:00","2012","02","27","20:00","-31.3","","-36.2","","62","","","","22","","28","","4.0","","101.00","","","","-47","",""
"-95.85","68.64","GJOA HAVEN AWOS A","2302338","2012-02-27 21:00","2012","02","27","21:00","-31.6","","-36.5","","62","","","","23","","28","","4.8","","100.97","","","","-47","",""
"-95.85","68.64","GJOA HAVEN AWOS A","2302338","2012-02-27 22:00","2012","02","27","22:00","-31.9","","-36.9","","61","","","","22","","26","","5.6","","100.95","","","","-47","",""
"-95.85","68.64","GJOA HAVEN AWOS A","2302338","2012-02-27 23:00","2012","02","27","23:00","-32.6","","-37.5","","62","","","","22","","26","","4.8","","100.93","","","","-48","",""
"-95.85","68.64","GJOA HAVEN AWOS A","2302338","2012-02-28 00:00","2012","02","28","00:00","-32.7","","-37.6","","62","","","","22","","33","","4.0","","100.87","","","","-50","",""
"-95.85","68.64","GJOA HAVEN AWOS A","2302338","2012-02-28 01:00","2012","02","28","01:00","-32.6","","-37.5","","62","","","","22","","26","","5.6","","100.88","","","","-48","",""
"-95.85","68.64","GJOA HAVEN AWOS A","2302338","2012-02-28 02:00","2012","02","28","02:00","-32.3","","-37.1","","62","","","","23","","22","","5.6","","100.87","","","","-47","",""
"-95.85","68.64","GJOA HAVEN AWOS A","2302338","2012-02-28 03:00","2012","02","28","03:00","-32.3","","-37.2","","62","","","","24","","24","","8.0","","100.85","","","","-47","",""
"-95.85","68.64","GJOA HAVEN AWOS A","2302338","2012-02-28 04:00","2012","02","28","04:00","-32.6","","-37.4","","62","","","","23","","19","","8.0","","100.83","","","","-46","",""
"-95.85","68.64","GJOA HAVEN AWOS A","2302338","2012-02-28 05:00","2012","02","28","05:00","-33.4","","-38.1","","63","","","","23","","13","","8.0","","100.81","","","","-45","",""
"-95.85","68.64","GJOA HAVEN AWOS A","2302338","2012-02-28 06:00","2012","02","28","06:00","-34.2","","-38.9","","62","","","","23","","15","","15.0","","100.79","","","","-47","",""
"-95.85","68.64","GJOA HAVEN AWOS A","2302338","2012-02-28 07:00","2012","02","28","07:00","-34.6","","-39.3","","62","","","","22","","13","","15.0","","100.79","","","","-46","",""
"-95.85","68.64","GJOA HAVEN AWOS A","2302338","2012-02-28 08:00","2012","02","28","08:00","-35.3","","-40.0","","62","","","","24","","9","","8.0","","100.80","","","","-45","",""
"-95.85","68.64","GJOA HAVEN AWOS A","2302338","2012-02-28 09:00","2012","02","28","09:00","-35.5","","-39.8","","65","","","","25","","7","","15.0","","100.79","","","","-44","",""
"-95.85","68.64","GJOA HAVEN AWOS A","2302338","2012-02-28 10:00","2012","02","28","10:00","-35.1","","-39.8","","62","","","","29","","11","","15.0","","100.83","","","","-46","",""
"-95.85","68.64","GJOA HAVEN AWOS A","2302338","2012-02-28 11:00","2012","02","28","11:00","-34.9","","-39.7","","62","","","","27","","6","","15.0","","100.86","","","","-42","",""
"-95.85","68.64","GJOA HAVEN AWOS A","2302338","2012-02-28 12:00","2012","02","28","12:00","-34.7","","-39.3","","63","","","","27","","6","","8.0","","100.90","","","","-42","",""
"-95.85","68.64","GJOA HAVEN AWOS A","2302338","2012-02-28 13:00","2012","02","28","13:00","-34.8","","-39.5","","62","","","","27","","15","","15.0","","100.92","","","","-47","",""
"-95.85","68.64","GJOA HAVEN AWOS A","2302338","2012-02-28 14:00","2012","02","28","14:00","-35.1","","-39.9","","61","","","","27","","17","","15.0","","100.95","","","","-48","",""
"-95.85","68.64","GJOA HAVEN AWOS A","2302338","2012-02-28 15:00","2012","02","28","15:00","-35.3","","-39.9","","63","","","","30","","22","","15.0","","100.98","","","","-50","",""
"-95.85","68.64","GJOA HAVEN AWOS A","2302338","2012-02-28 16:00","2012","02","28","16:00","-35.9","","-40.6","","62","","","","28","","15","","15.0","","101.00","","","","-49","",""
"-95.85","68.64","GJOA HAVEN AWOS A","2302338","2012-02-28 17:00","2012","02","28","17:00","-36.6","","-42.1","","57","","","","27","","15","","15.0","","101.02","","","","-50","",""
"-95.85","68.64","GJOA HAVEN AWOS A","2302338","2012-02-28 18:00","2012","02","28","18:00","-37.1","","-41.8","","62","","","","27","","15","","5.6","","101.03","","","","-50","",""
"-95.85","68.64","GJOA HAVEN AWOS A","2302338","2012-02-28 19:00","2012","02","28","19:00","-37.0","","-41.6","","62","","","","25","","17","","8.0","","101.01","","","","-51","",""
"-95.85","68.64","GJOA HAVEN AWOS A","2302338","2012-02-28 20:00","2012","02","28","20:00","-37.3","","-41.9","","62","","","","28","","13","","6.4","","101.04","","","","-49","",""
"-95.85","68.64","GJOA HAVEN AWOS A","2302338","2012-02-28 21:00","2012","02","28","21:00","-38.8","","-43.7","","60","","","","30","","17","","15.0","","101.05","","","","-53","",""
"-95.85","68.64","GJOA HAVEN AWOS A","2302338","2012-02-28 22:00","2012","02","28","22:00","-39.4","","-44.0","","62","","","","31","","20","","15.0","","101.05","","","","-55","",""
"-95.85","68.64","GJOA HAVEN AWOS A","2302338","2012-02-28 23:00","2012","02","28","23:00","-40.1","","-44.7","","61","","","","31","","19","","15.0","","101.09","","","","-55","",""
"-95.85","68.64","GJOA HAVEN AWOS A","2302338","2012-02-29 00:00","2012","02","29","00:00","-40.6","","-44.5","","66","","","","30","","19","","15.0","","101.10","","","","-56","",""
"-95.85","68.64","GJOA HAVEN AWOS A","2302338","2012-02-29 01:00","2012","02","29","01:00","-40.5","","-45.1","","61","","","","29","","13","","9.7","","101.14","","","","-53","",""
"-95.85","68.64","GJOA HAVEN AWOS A","2302338","2012-02-29 02:00","2012","02","29","02:00","-41.0","","-45.1","","65","","","","30","","17","","15.0","","101.17","","","","-56","",""
"-95.85","68.64","GJOA HAVEN AWOS A","2302338","2012-02-29 03:00","2012","02","29","03:00","-40.6","","-44.6","","65","","","","32","","24","","15.0","","101.17","","","","-58","",""
"-95.85","68.64","GJOA HAVEN AWOS A","2302338","2012-02-29 04:00","2012","02","29","04:00","-40.4","","-45.1","","61","","","","30","","19","","15.0","","101.17","","","","-56","",""
"-95.85","68.64","GJOA HAVEN AWOS A","2302338","2012-02-29 05:00","2012","02","29","05:00","-41.3","","-45.1","","67","","","","26","","13","","1.4","","101.18","","","","-54","",""
"-95.85","68.64","GJOA HAVEN AWOS A","2302338","2012-02-29 06:00","2012","02","29","06:00","-41.1","","-45.1","","65","","","","27","","13","","1.4","","101.17","","","","-54","",""
"-95.85","68.64","GJOA HAVEN AWOS A","2302338","2012-02-29 07:00","2012","02","29","07:00","-40.8","","-45.1","","63","","","","27","","15","","3.2","","101.11","","","","-55","",""
"-95.85","68.64","GJOA HAVEN AWOS A","2302338","2012-02-29 08:00","2012","02","29","08:00","-39.3","","-43.8","","62","","","","27","","11","","1.4","","101.10","","","","-51","",""
"-95.85","68.64","GJOA HAVEN AWOS A","2302338","2012-02-29 09:00","2012","02","29","09:00","-39.2","","-43.5","","64","","","","25","","17","","4.8","","101.08","","","","-54","",""
"-95.85","68.64","GJOA HAVEN AWOS A","2302338","2012-02-29 10:00","2012","02","29","10:00","-38.6","","-43.6","","59","","","","24","","15","","8.0","","101.05","","","","-52","",""
"-95.85","68.64","GJOA HAVEN AWOS A","2302338","2012-02-29 11:00","2012","02","29","11:00","-38.2","","-42.9","","61","","","","27","","17","","11.3","","101.01","","","","-52","",""
"-95.85","68.64","GJOA HAVEN AWOS A","2302338","2012-02-29 12:00","2012","02","29","12:00","-37.5","","-42.2","","61","","","","27","","17","","15.0","","101.00","","","","-51","",""
"-95.85","68.64","GJOA HAVEN AWOS A","2302338","2012-02-29 13:00","2012","02","29","13:00","-37.4","","-42.1","","61","","","","28","","15","","15.0","","100.97","","","","-51","",""
"-95.85","68.64","GJOA HAVEN AWOS A","2302338","2012-02-29 14:00","2012","02","29","14:00","-36.9","","-41.3","","64","","","","26","","20","","15.0","","100.95","","","","-52","",""
"-95.85","68.64","GJOA HAVEN AWOS A","2302338","2012-02-29 15:00","2012","02","29","15:00","-36.8","","-41.6","","61","","","","25","","11","","15.0","","100.93","","","","-48","",""
"-95.85","68.64","GJOA HAVEN AWOS A","2302338","2012-02-29 16:00","2012","02","29","16:00","-36.8","","-41.5","","62","","","","27","","15","","5.6","","100.93","","","","-50","",""
"-95.85","68.64","GJOA HAVEN AWOS A","2302338","2012-02-29 17:00","2012","02","29","17:00","-37.8","","-42.7","","60","","","","27","","11","","9.7","","100.89","","","","-49","",""
"-95.85","68.64","GJOA HAVEN AWOS A","2302338","2012-02-29 18:00","2012","02","29","18:00","-38.7","","-43.4","","61","","","","26","","11","","3.2","","100.83","","","","-50","",""
"-95.85","68.64","GJOA HAVEN AWOS A","2302338","2012-02-29 19:00","2012","02","29","19:00","-39.5","","-44.0","","62","","","","27","","9","","1.3","","100.80","","","","-50","",""
"-95.85","68.64","GJOA HAVEN AWOS A","2302338","2012-02-29 20:00","2012","02","29","20:00","-41.0","","-45.1","","65","","","","32","","19","","15.0","","100.76","","","","-57","",""
"-95.85","68.64","GJOA HAVEN AWOS A","2302338","2012-02-29 21:00","2012","02","29","21:00","-40.4","","-44.8","","63","","","","35","","24","","15.0","","100.73","","","","-58","",""
"-95.85","68.64","GJOA HAVEN AWOS A","2302338","2012-02-29 22:00","2012","02","29","22:00","-39.5","","-44.1","","62","","","","34","","24","","14.5","","100.74","","","","-56","",""
"-95.85","68.64","GJOA HAVEN AWOS A","2302338","2012-02-29 23:00","2012","02","29","23:00","-38.2","","-43.0","","61","","","","33","","19","","5.6","","100.66","","","","-53","",""
